{"type": "Feature","bbox": [35.7127,0.558,35.8153,0.7418],"geometry": {"type": "MultiPolygon","coordinates": [[[[35.8139,0.6044,2302.249],[35.8093,0.6175,2154.9194],[35.8022,0.6193,2226.3325],[35.7973,0.6232,2244.3481],[35.8026,0.641,2191.1318],[35.7981,0.6422,2246.8777],[35.7968,0.644,2229.4124],[35.7989,0.6483,2187.4675],[35.7966,0.6513,2211.8584],[35.7952,0.658,1950.3992],[35.7979,0.6691,2037.5399],[35.8047,0.6855,1795.5759],[35.8056,0.6937,1774.7061],[35.803,0.6987,1904.6576],[35.8056,0.7017,2039.6326],[35.8041,0.7049,2007.5874],[35.8142,0.7067,2040.5347],[35.8153,0.7123,1994.7224],[35.8025,0.7113,1954.7864],[35.7874,0.7181,1681.1016],[35.7749,0.732,1343.5275],[35.7618,0.7418,1287.6042],[35.7652,0.715,1762.1825],[35.7642,0.7057,1759.1582],[35.7628,0.7032,1598.5144],[35.7541,0.6988,1362.7983],[35.7465,0.6921,1297.4368],[35.7398,0.684,1390.9657],[35.733,0.6699,1434.972],[35.7314,0.663,1401.5559],[35.7335,0.654,1670.3009],[35.7324,0.6471,1755.0637],[35.7237,0.6232,1534.3627],[35.7252,0.6163,1773.8197],[35.7296,0.616,1548.6305],[35.7312,0.612,1676.8279],[35.7144,0.5867,1423.1124],[35.7146,0.579,1413.5183],[35.7127,0.574,1578.4341],[35.7146,0.5693,1498.8875],[35.7167,0.5672,1608.922],[35.7185,0.5679,1668.5822],[35.7192,0.5655,1686.4768],[35.7225,0.5657,1723.1274],[35.728,0.5615,1738.3083],[35.7339,0.561,1898.5343],[35.7367,0.558,1861.5391],[35.7401,0.56,1792.2546],[35.74,0.5679,1936.2887],[35.7443,0.5719,1965.045],[35.7564,0.5723,2148.78],[35.7681,0.5768,2228.4619],[35.7991,0.5846,2249.2827],[35.799,0.5862,2218.1987],[35.8027,0.587,2287.9487],[35.8066,0.5968,2321.8535],[35.8112,0.5971,2304.0811],[35.8139,0.6044,2302.249]]]]}
,"properties": {"GID_3": "KEN.1.3.3_1","GID_0": "KEN","country": "Kenya","GID_1": "KEN.1_1","province": "Baringo","NL_NAME_1": "NA","GID_2": "KEN.1.3_1","county": "BaringoNorth","NL_NAME_2": "NA","city": "Kabartonjo","VARNAME_3": "NA","NL_NAME_3": "NA","TYPE_3": "Ward","ENGTYPE_3": "Ward","CC_3": "789","HASC_3": "NA","name": "Kabartonjo.city","area_km2": 127.31129,"hist_schema_id": "Elevation0-9000","hist_area_km2": {"1275": 0.0636,"1300": 0.29681,"1325": 0.76322,"1350": 0.91163,"1375": 1.16603,"1400": 1.25084,"1425": 2.14127,"1450": 2.33208,"1475": 3.0953,"1500": 2.7985,"1525": 3.20132,"1550": 2.8621,"1575": 3.60413,"1600": 4.24015,"1625": 3.24372,"1650": 3.09532,"1675": 3.54054,"1700": 3.34973,"1725": 3.32854,"1750": 3.62535,"1775": 3.18013,"1800": 3.09532,"1825": 3.11652,"1850": 2.84092,"1875": 3.20133,"1900": 3.45575,"1925": 4.36739,"1950": 4.43099,"1975": 4.07057,"2000": 3.32854,"2025": 2.65011,"2050": 2.41691,"2075": 3.07414,"2100": 2.90453,"2125": 3.30736,"2150": 3.11655,"2175": 3.92219,"2200": 5.89388,"2225": 5.68187,"2250": 4.72782,"2275": 2.94694,"2300": 2.1837,"2325": 0.48762}}}