{"type": "Feature","bbox": [40.3543,3.5978,41.145,3.9067],"geometry": {"type": "MultiPolygon","coordinates": [[[[40.3543,3.7271,789.4042],[40.3652,3.7223,783.5544],[40.3677,3.723,782.3508],[40.3752,3.7204,769.0602],[40.3794,3.7147,759.557],[40.3925,3.7095,748.4006],[40.3969,3.7014,742.0143],[40.4029,3.7005,747.3427],[40.4072,3.6966,734.6462],[40.4104,3.6904,730.5123],[40.4145,3.6718,721.283],[40.4188,3.664,717.3118],[40.4219,3.6451,702.2502],[40.4295,3.6379,696.5996],[40.4353,3.6429,704.4159],[40.4337,3.6486,705.0544],[40.437,3.6542,707.4591],[40.4456,3.6604,713.0172],[40.4544,3.662,715.3492],[40.4679,3.6698,722.5496],[40.4709,3.6744,725.2958],[40.4805,3.6807,733.1923],[40.4889,3.6905,742.2638],[40.5012,3.6891,754.9882],[40.5049,3.6901,770.8112],[40.5272,3.7031,772.1539],[40.568,3.7207,822.3669],[40.6802,3.7581,765.3353],[40.7472,3.7761,692.8812],[40.782,3.7926,668.29],[40.7875,3.8002,708.2166],[40.7934,3.8033,702.6587],[40.8096,3.7965,675.3937],[40.8165,3.7958,669.1169],[40.8273,3.7916,649.0697],[40.8317,3.792,642.4866],[40.8381,3.789,644.4875],[40.8362,3.7836,639.1476],[40.8362,3.7647,664.9064],[40.8376,3.7523,655.4777],[40.8508,3.7105,618.5168],[40.8513,3.6672,610.8602],[40.8557,3.665,607.1725],[40.862,3.6658,607.928],[40.8695,3.6582,596.2932],[40.889,3.6522,581.0704],[40.9004,3.6449,571.4839],[40.9251,3.6189,557.9515],[40.9418,3.5978,545.0248],[40.9489,3.6077,542.2526],[40.9712,3.6176,537.2693],[40.9828,3.6132,555.8504],[40.9976,3.6105,560.8884],[40.9887,3.6399,531.5712],[41.0417,3.7079,503.284],[41.0557,3.7203,500.2287],[41.0813,3.7321,466.0263],[41.1157,3.7353,438.3383],[41.1271,3.7463,430.7958],[41.1347,3.7597,424.5794],[41.1445,3.7715,416.7914],[41.145,3.7802,415.7884],[41.1418,3.7901,415.5749],[41.1333,3.7982,423.1273],[41.1254,3.8022,424.1688],[41.1234,3.8052,420.4319],[41.1266,3.8225,408.899],[41.1281,3.844,412.2764],[41.1265,3.8412,409.4195],[41.1162,3.8344,416.6581],[41.1043,3.8234,430.7276],[41.0986,3.8133,429.9866],[41.0902,3.8042,443.0796],[41.0879,3.798,444.8526],[41.0879,3.7869,449.214],[41.0821,3.7829,452.5457],[41.0725,3.7809,458.5411],[41.0689,3.7785,463.6666],[41.0603,3.7779,469.7142],[41.0545,3.7799,476.5311],[41.0491,3.7785,480.5481],[41.0431,3.7811,483.7536],[41.0171,3.7837,498.5979],[41.0178,3.7872,500.9095],[41.016,3.7879,500.9095],[41.0181,3.7931,503.6595],[41.0381,3.8203,493.1281],[41.0452,3.8275,488.525],[41.0549,3.8318,480.4845],[41.0389,3.8393,488.92],[41.0303,3.8359,486.8369],[41.0259,3.8359,474.2396],[41.0017,3.8671,497.5123],[40.9957,3.8795,470.788],[40.9745,3.8859,489.9748],[40.9635,3.8867,501.9119],[40.9541,3.8905,509.9003],[40.9111,3.8923,592.9581],[40.8925,3.8985,598.7775],[40.8621,3.8947,620.1],[40.8451,3.9005,630.2519],[40.8017,3.9067,694.5217],[40.7871,3.9003,709.4775],[40.7725,3.8907,725.6212],[40.7563,3.8873,745.3556],[40.7467,3.8831,752.3282],[40.7395,3.8819,755.6714],[40.7011,3.8819,778.2307],[40.6811,3.8639,774.5463],[40.6487,3.8613,793.9504],[40.6299,3.8703,796.0105],[40.6069,3.8729,788.6572],[40.6027,3.8707,783.3365],[40.5925,3.8607,794.2254],[40.5851,3.8587,773.6934],[40.5777,3.8619,767.3977],[40.5115,3.8627,779.4182],[40.5053,3.8613,778.9381],[40.5015,3.8645,781.6768],[40.5013,3.8683,784.2844],[40.4949,3.8699,786.8322],[40.4808,3.8701,792.0288],[40.4701,3.8747,796.9873],[40.4584,3.8834,806.2693],[40.4515,3.8836,818.2252],[40.4495,3.8816,811.3391],[40.4449,3.8833,814.0084],[40.4376,3.8826,824.2528],[40.4301,3.8732,818.214],[40.4224,3.867,831.5916],[40.4233,3.8503,852.666],[40.4219,3.8451,857.7985],[40.4133,3.8341,865.9929],[40.4085,3.8195,869.5934],[40.4015,3.8099,861.871],[40.3927,3.8043,860.5191],[40.3905,3.7999,856.8447],[40.3901,3.7923,847.3081],[40.3707,3.7619,821.4872],[40.3659,3.7425,804.1963],[40.3545,3.7325,797.0386],[40.3543,3.7271,789.4042]]]]}
,"properties": {"GID_3": "KEN.24.4.3_1","GID_0": "KEN","country": "Kenya","GID_1": "KEN.24_1","province": "Mandera","NL_NAME_1": "NA","GID_2": "KEN.24.4_1","county": "ManderaNorth","NL_NAME_2": "NA","city": "Morothile","VARNAME_3": "NA","NL_NAME_3": "NA","TYPE_3": "Ward","ENGTYPE_3": "Ward","CC_3": "203","HASC_3": "NA","name": "Morothile.city","area_km2": 1452.913,"hist_schema_id": "Elevation0-9000","hist_area_km2": {"400": 2.496,"425": 27.862,"450": 23.463,"475": 24.034,"500": 74.723,"525": 119.643,"550": 119.646,"575": 72.504,"600": 65.394,"625": 66.451,"650": 58.938,"675": 51.046,"700": 56.314,"725": 79.904,"750": 119.72,"775": 150.545,"800": 145.301,"825": 127.359,"850": 65.116,"875": 2.454}}}