{"type": "Feature","bbox": [34.5902,-1.1333,34.8243,-0.9474],"geometry": {"type": "MultiPolygon","coordinates": [[[[34.7418,-0.9519,1817.5961],[34.6765,-0.9673,1593.292],[34.6705,-0.9658,1585.8032],[34.6642,-0.9671,1585.2634],[34.6518,-0.9606,1531.5536],[34.6474,-0.9604,1538.7457],[34.6418,-0.963,1519.3416],[34.5902,-1.0125,1500.0757],[34.5929,-1.0378,1467.7566],[34.6006,-1.0522,1506.2448],[34.6179,-1.07,1513.1862],[34.6142,-1.0833,1501.2635],[34.6153,-1.0866,1497.6624],[34.6197,-1.091,1496.3761],[34.6226,-1.102,1483.2539],[34.622,-1.1074,1499.7026],[34.6297,-1.1175,1474.7601],[34.6293,-1.1207,1466.8073],[34.633,-1.1322,1440.387],[34.6317,-1.1333,1449.948],[34.6336,-1.1326,1440.387],[34.6335,-1.1271,1457.6763],[34.6358,-1.1241,1446.4611],[34.6446,-1.1187,1471.7708],[34.6485,-1.1145,1462.3641],[34.7615,-1.0486,1918.2882],[34.773,-1.0623,1940.8306],[34.7901,-1.0763,1700.0082],[34.7971,-1.0796,1654.4684],[34.8029,-1.0789,1641.5343],[34.8102,-1.0862,1617.7537],[34.813,-1.0938,1599.9447],[34.8218,-1.0881,1614.4614],[34.8207,-1.0767,1637.5237],[34.8234,-1.0749,1613.7612],[34.8243,-1.0693,1630.3264],[34.8233,-1.0657,1628.7983],[34.8203,-1.063,1625.593],[34.8214,-1.0585,1628.245],[34.82,-1.0519,1647.2322],[34.7973,-1.041,1719.3684],[34.7895,-1.0423,1750.118],[34.7855,-1.0488,1837.4292],[34.7826,-1.0507,1946.49],[34.7818,-1.0316,1914.7609],[34.7893,-1.0282,1893.2117],[34.7943,-1.0242,1899.5161],[34.7953,-1.0209,1964.6581],[34.785,-1.0103,1869.6416],[34.7758,-0.9912,1836.1743],[34.7708,-0.9866,1846.9208],[34.7686,-0.9852,1897.2388],[34.7607,-0.9855,1832.0219],[34.7531,-0.9887,1797.3882],[34.7589,-0.9755,1827.2847],[34.7556,-0.9722,1842.3462],[34.7523,-0.9599,1855.1146],[34.754,-0.9547,1896.6404],[34.7597,-0.9545,1896.0153],[34.761,-0.9532,1874.1042],[34.7596,-0.9474,1854.5044],[34.7418,-0.9519,1817.5961]]]]}
,"properties": {"GID_3": "KEN.33.2.2_1","GID_0": "KEN","country": "Kenya","GID_1": "KEN.33_1","province": "Narok","NL_NAME_1": "NA","GID_2": "KEN.33.2_1","county": "Kilgoris","NL_NAME_2": "NA","city": "Keyian","VARNAME_3": "NA","NL_NAME_3": "NA","TYPE_3": "Ward","ENGTYPE_3": "Ward","CC_3": "882","HASC_3": "NA","name": "Keyian.city","area_km2": 279.6543,"hist_schema_id": "Elevation0-9000","hist_area_km2": {"1450": 0.7419,"1475": 13.7154,"1500": 29.6781,"1525": 24.2939,"1550": 20.7961,"1575": 17.4254,"1600": 14.076,"1625": 15.5598,"1650": 15.4538,"1675": 9.8786,"1700": 8.9883,"1725": 8.2251,"1750": 8.2675,"1775": 9.6455,"1800": 12.1682,"1825": 14.5213,"1850": 14.3517,"1875": 11.8714,"1900": 9.8787,"1925": 8.6915,"1950": 5.7661,"1975": 3.625,"2000": 1.8867,"2025": 0.1484}}}