{"type":"Feature","properties":{"GID_3":"KEN.31.5.1_1","GID_0":"KEN","country":"Kenya","GID_1":"KEN.31_1","province":"Nakuru","NL_NAME_1":"NA","GID_2":"KEN.31.5_1","county":"Molo","NL_NAME_2":"NA","city":"Elburgon","VARNAME_3":"NA","NL_NAME_3":"NA","TYPE_3":"Ward","ENGTYPE_3":"Ward","CC_3":"827","HASC_3":"NA","name":"Elburgon.city"},
"geometry":{"type": "MultiPolygon","coordinates": [[[[35.7272,-0.3837,2844.0088],[35.7309,-0.3816,2838.9734],[35.7792,-0.3857,2842.2554],[35.773,-0.3928,2889.5972],[35.7785,-0.3992,2897.895],[35.7966,-0.3956,2803.6079],[35.7983,-0.3917,2788.4629],[35.8061,-0.3921,2779.0718],[35.8095,-0.3889,2769.4719],[35.8112,-0.3808,2709.8882],[35.8132,-0.3809,2746.8699],[35.8139,-0.3781,2753.1814],[35.8194,-0.3749,2715.394],[35.8233,-0.3643,2643.4355],[35.8274,-0.3613,2600.4595],[35.8257,-0.3576,2604.626],[35.8292,-0.3534,2560.0925],[35.8296,-0.3407,2528.1548],[35.8343,-0.3323,2467.9111],[35.835,-0.3233,2430.1929],[35.8366,-0.32,2427.7871],[35.8413,-0.317,2363.4966],[35.8449,-0.3103,2350.5513],[35.8522,-0.3072,2305.6812],[35.8561,-0.2991,2240.5933],[35.8554,-0.2969,2231.6025],[35.8572,-0.2956,2224.1895],[35.859,-0.2733,2106.3682],[35.8538,-0.272,2154.4692],[35.8484,-0.2768,2160.166],[35.8481,-0.2729,2136.896],[35.8499,-0.2602,2103.2615],[35.8535,-0.2583,2080.2512],[35.8612,-0.2475,1980.3826],[35.8404,-0.2404,2015.0642],[35.839,-0.2436,2031.2584],[35.8066,-0.2298,2102.8579],[35.8082,-0.2252,2077.5039],[35.8117,-0.222,2059.417],[35.8145,-0.2131,1987.2706],[35.811,-0.2087,2038.1932],[35.8029,-0.2128,2048.5452],[35.7999,-0.2113,2059.5991],[35.7932,-0.2143,2119.1094],[35.7881,-0.221,2162.4087],[35.784,-0.2303,2209.5188],[35.7805,-0.2333,2273.144],[35.7814,-0.2376,2243.7539],[35.7837,-0.2384,2233.4365],[35.7822,-0.2407,2242.1914],[35.7848,-0.2427,2268.8865],[35.7838,-0.2444,2270.6567],[35.7855,-0.2456,2268.0371],[35.7861,-0.2528,2264.1655],[35.789,-0.2581,2317.7354],[35.7882,-0.266,2314.3506],[35.786,-0.2662,2340.1331],[35.7844,-0.2698,2357.0286],[35.7863,-0.2718,2368.8191],[35.7848,-0.2759,2377.8735],[35.7859,-0.2773,2357.2559],[35.7794,-0.2886,2446.894],[35.7817,-0.2908,2431.9172],[35.7439,-0.3485,2871.1904],[35.7055,-0.3167,2740.7119],[35.6947,-0.3306,2806.095],[35.7272,-0.3837,2844.0088]]]]}}