{"type": "Feature","bbox": [34.0786,-1.0847,34.2794,-0.9135],"geometry": {"type": "MultiPolygon","coordinates": [[[[34.2697,-1.033,1229.1759],[34.2705,-1.027,1220.842],[34.2767,-1.0272,1221.1909],[34.2794,-1.0222,1230.8369],[34.2762,-1.0177,1216.0027],[34.2697,-1.0137,1190.2919],[34.2684,-1.0012,1192.7515],[34.2669,-0.9995,1199.2029],[34.2645,-1.0028,1171.6917],[34.2597,-1.0054,1195.7651],[34.2567,-1.0121,1214.7804],[34.248,-1.0197,1212.9086],[34.2404,-1.0209,1217.0498],[34.2296,-1.0188,1205.3629],[34.2266,-1.0217,1178.6547],[34.2198,-1.0224,1215.8104],[34.2154,-1.0206,1234.0771],[34.2099,-1.0224,1232.8428],[34.2044,-1.0218,1218.25],[34.2015,-1.0139,1199.431],[34.1927,-1.0086,1185.8956],[34.1884,-1.0029,1185.5066],[34.1892,-0.9991,1200.3379],[34.1819,-0.9919,1181.702],[34.1847,-0.9796,1171.1096],[34.1833,-0.9754,1172.3186],[34.1755,-0.9687,1140.3606],[34.1738,-0.961,1137.9255],[34.1767,-0.9374,1140.4021],[34.1716,-0.9395,1138.8239],[34.1686,-0.9394,1138.8568],[34.1655,-0.9362,1137.7249],[34.1628,-0.9381,1138.8199],[34.163,-0.932,1137.3514],[34.1605,-0.9336,1137.2444],[34.158,-0.9313,1136.8938],[34.1542,-0.9317,1137.5508],[34.153,-0.9179,1137.1683],[34.1472,-0.9175,1136.1716],[34.1451,-0.9158,1136.5437],[34.1439,-0.9179,1136.6884],[34.1387,-0.9135,1133.0],[34.0786,-0.9135,1133.0],[34.1384,-1.0006,1144.9193],[34.1439,-1.0012,1168.4009],[34.1534,-1.0135,1154.1133],[34.1539,-1.0173,1149.3169],[34.152,-1.0202,1147.9288],[34.1539,-1.0248,1153.824],[34.1561,-1.0265,1158.4431],[34.1567,-1.0296,1158.6324],[34.1612,-1.0331,1174.6915],[34.1608,-1.0372,1167.7075],[34.1674,-1.043,1212.9683],[34.1715,-1.0492,1213.4077],[34.1747,-1.0578,1245.4819],[34.1756,-1.0657,1272.3029],[34.169,-1.0628,1286.957],[34.1722,-1.0674,1260.9801],[34.1719,-1.0734,1214.3082],[34.192,-1.0847,1237.1528],[34.1929,-1.0787,1278.7534],[34.1914,-1.0708,1289.0776],[34.1964,-1.057,1279.1786],[34.1971,-1.0308,1232.1176],[34.2021,-1.0311,1255.3062],[34.212,-1.0354,1253.5154],[34.225,-1.0435,1243.188],[34.2291,-1.0501,1237.812],[34.2295,-1.0548,1241.1885],[34.2408,-1.0578,1267.7305],[34.2461,-1.0479,1200.9878],[34.2521,-1.0419,1218.3989],[34.2656,-1.0377,1259.5066],[34.2697,-1.033,1229.1759]]]]}
,"properties": {"GID_3": "KEN.27.4.1_1","GID_0": "KEN","country": "Kenya","GID_1": "KEN.27_1","province": "Migori","NL_NAME_1": "NA","GID_2": "KEN.27.4_1","county": "Nyatike","NL_NAME_2": "NA","city": "GotKachola","VARNAME_3": "NA","NL_NAME_3": "NA","TYPE_3": "Ward","ENGTYPE_3": "Ward","CC_3": "1287","HASC_3": "NA","name": "Got_Kachola.city","area_km2": 123.654,"hist_schema_id": "Elevation0-9000","hist_area_km2": {"1125": 35.04254,"1150": 20.13923,"1175": 15.32689,"1200": 20.39333,"1225": 17.80696,"1250": 10.51455,"1275": 3.60376,"1300": 0.82674}}}