{"type":"Feature","properties":{"GID_3":"KEN.18.3.4_1","GID_0":"KEN","country":"Kenya","GID_1":"KEN.18_1","province":"Kitui","NL_NAME_1":"NA","GID_2":"KEN.18.3_1","county":"KituiRural","NL_NAME_2":"NA","city":"Mbitini","VARNAME_3":"NA","NL_NAME_3":"NA","TYPE_3":"Ward","ENGTYPE_3":"Ward","CC_3":"351","HASC_3":"NA","name":"Mbitini.city"},
"geometry":{"type": "MultiPolygon","coordinates": [[[[38.0898,-1.5054,986.4548],[38.0847,-1.5005,980.9405],[38.0785,-1.4877,1002.7744],[38.0743,-1.4843,1012.7969],[38.0719,-1.4782,1024.5627],[38.0681,-1.4766,1012.6583],[38.0644,-1.469,1037.2551],[38.0473,-1.4541,1054.7844],[38.0407,-1.4404,1091.9919],[38.0412,-1.4442,1087.9463],[38.037,-1.4517,1046.3854],[38.0373,-1.465,1045.1638],[38.0352,-1.471,1043.8064],[38.035,-1.4794,1033.3569],[38.0305,-1.4929,1012.3644],[38.0305,-1.502,1003.5351],[38.0365,-1.507,992.2788],[38.0391,-1.5123,995.0868],[38.0575,-1.5122,970.8878],[38.0697,-1.518,958.8843],[38.0642,-1.5222,956.0101],[38.0625,-1.5269,949.8173],[38.0534,-1.5287,977.5747],[38.0519,-1.5365,952.0074],[38.0488,-1.5398,944.1539],[38.0537,-1.5473,933.8578],[38.0504,-1.5536,935.8],[38.0501,-1.5575,931.455],[38.0647,-1.5642,959.3734],[38.067,-1.5704,937.0012],[38.0663,-1.5753,929.7709],[38.0721,-1.5815,929.5931],[38.0744,-1.593,913.6472],[38.082,-1.6124,885.485],[38.0929,-1.6081,922.9392],[38.1536,-1.6045,982.8025],[38.1527,-1.6008,919.9547],[38.1554,-1.5936,885.0018],[38.1548,-1.5874,870.4694],[38.1482,-1.5686,816.7054],[38.1412,-1.5729,815.186],[38.1382,-1.5671,822.2167],[38.1315,-1.5647,876.0548],[38.1285,-1.5614,913.8533],[38.1213,-1.5406,952.02],[38.116,-1.5358,946.6307],[38.1105,-1.5237,971.6284],[38.1039,-1.5188,963.3209],[38.0972,-1.5104,979.7452],[38.0898,-1.5054,986.4548]]]]}}