{"type":"Feature","properties":{"GID_3":"KEN.44.6.5_1","GID_0":"KEN","country":"Kenya","GID_1":"KEN.44_1","province":"UasinGishu","NL_NAME_1":"NA","GID_2":"KEN.44.6_1","county":"Turbo","NL_NAME_2":"NA","city":"Ngenyilel","VARNAME_3":"NA","NL_NAME_3":"NA","TYPE_3":"Ward","ENGTYPE_3":"Ward","CC_3":"708","HASC_3":"NA","name":"Ngenyilel.city"},
"geometry":{"type": "MultiPolygon","coordinates": [[[[34.8904,0.6121,1723.5731],[34.8976,0.6055,1733.4739],[34.8521,0.5518,1699.1522],[35.0191,0.5654,1746.0186],[35.0181,0.5701,1737.1602],[35.0162,0.5713,1723.1627],[35.0143,0.5705,1718.8853],[35.011,0.5734,1751.7909],[35.016,0.5804,1728.8934],[35.0158,0.583,1766.9551],[35.0091,0.5906,1718.625],[35.0036,0.5939,1722.6112],[35.0059,0.5981,1733.1388],[35.0048,0.6001,1756.9885],[35.0099,0.6037,1740.7927],[35.0127,0.6124,1744.0205],[35.0123,0.6189,1783.9954],[35.0147,0.6225,1843.9021],[35.0191,0.6208,1851.1041],[35.0198,0.6176,1795.0981],[35.0272,0.6184,1806.3452],[35.0,0.6432,1823.6632],[34.9941,0.6349,1807.6189],[34.9903,0.6352,1830.469],[34.9859,0.6327,1764.7307],[34.9807,0.6322,1747.1523],[34.9769,0.6295,1756.8279],[34.9707,0.6188,1686.8484],[34.9686,0.6188,1686.6567],[34.9658,0.6152,1666.4358],[34.9627,0.6142,1655.1421],[34.9578,0.6156,1654.1254],[34.953,0.613,1673.1471],[34.9435,0.6127,1730.1526],[34.9356,0.6088,1757.9133],[34.9202,0.5966,1775.4585],[34.9081,0.6012,1736.5581],[34.8992,0.6101,1714.754],[34.8904,0.6121,1723.5731]]]]}}