{"type":"Feature","properties":{"GID_3":"KEN.31.6.1_1","GID_0":"KEN","country":"Kenya","GID_1":"KEN.31_1","province":"Nakuru","NL_NAME_1":"NA","GID_2":"KEN.31.6_1","county":"Naivasha","NL_NAME_2":"NA","city":"Biashara","VARNAME_3":"NA","NL_NAME_3":"NA","TYPE_3":"Ward","ENGTYPE_3":"Ward","CC_3":"836","HASC_3":"NA","name":"Biashara.city"},
"geometry":{"type": "MultiPolygon","coordinates": [[[[36.4774,-0.6775,2194.9309],[36.4806,-0.6865,2143.6387],[36.4829,-0.6855,2168.0186],[36.4901,-0.6886,2184.0583],[36.4924,-0.6913,2188.2361],[36.4956,-0.6918,2194.5991],[36.4964,-0.6946,2203.7861],[36.5011,-0.6981,2216.7502],[36.5039,-0.7045,2222.7344],[36.5042,-0.7129,2220.8784],[36.5124,-0.7212,2257.7095],[36.5131,-0.7244,2258.2341],[36.5149,-0.7238,2269.1233],[36.5218,-0.7268,2283.4399],[36.5238,-0.7247,2300.8423],[36.5268,-0.7256,2421.3975],[36.5306,-0.7234,2511.9888],[36.5207,-0.7046,2496.0076],[36.5441,-0.6907,2511.6245],[36.5212,-0.647,2451.5508],[36.5263,-0.6432,2457.2832],[36.5266,-0.6388,2448.7161],[36.5248,-0.6363,2451.2898],[36.5247,-0.6317,2453.2314],[36.5162,-0.6262,2431.1792],[36.5159,-0.6227,2445.1675],[36.5182,-0.6228,2448.6484],[36.5203,-0.6199,2453.543],[36.5194,-0.6187,2451.6079],[36.5163,-0.6197,2447.0627],[36.5123,-0.6149,2427.4692],[36.5119,-0.6045,2434.4299],[36.5061,-0.6169,2441.189],[36.4898,-0.6185,2454.9858],[36.4886,-0.6248,2458.9492],[36.4834,-0.6304,2452.8862],[36.4873,-0.6386,2426.2732],[36.4779,-0.657,2206.6394],[36.4774,-0.6775,2194.9309]]]]}}