{"type": "Feature","bbox": [36.8973,-1.2795,36.9262,-1.2537],"geometry": {"type": "MultiPolygon","coordinates": [[[[36.9134,-1.2686,1598.4211],[36.9262,-1.256,1574.907],[36.9259,-1.2537,1575.7463],[36.9093,-1.2577,1589.5824],[36.8973,-1.2695,1609.1816],[36.902,-1.2795,1611.5863],[36.908,-1.2755,1612.6171],[36.9134,-1.2686,1598.4211]]]]}
,"properties": {"GID_3": "KEN.30.3.4_1","GID_0": "KEN","country": "Kenya","GID_1": "KEN.30_1","province": "Nairobi","NL_NAME_1": "NA","GID_2": "KEN.30.3_1","county": "EmbakasiCentral","NL_NAME_2": "NA","city": "Komarock","VARNAME_3": "NA","NL_NAME_3": "NA","TYPE_3": "Ward","ENGTYPE_3": "Ward","CC_3": "1419","HASC_3": "NA","name": "Komarock.city","area_km2": 3.603496,"hist_schema_id": "Elevation0-9000","hist_area_km2": {"1575": 0.635913,"1600": 2.925189,"1625": 0.042394}}}