{"type": "Feature","bbox": [34.583,-0.0507,34.6508,0.0174],"geometry": {"type": "MultiPolygon","coordinates": [[[[34.6485,0.0006,1567.4575],[34.6403,0.0032,1744.2845],[34.6369,0.0062,1711.2223],[34.6329,0.006,1656.6526],[34.6274,0.009,1656.7881],[34.6117,0.0054,1575.1997],[34.6108,0.0062,1585.2649],[34.6129,0.0068,1661.552],[34.6135,0.0088,1674.9247],[34.6111,0.0101,1608.8812],[34.6083,0.0091,1559.7516],[34.6024,0.0174,1517.3652],[34.589,0.0065,1503.3466],[34.5917,-0.0011,1507.7371],[34.5898,-0.0025,1492.4929],[34.5862,-0.0168,1505.0385],[34.583,-0.0203,1495.9164],[34.5843,-0.0351,1439.2848],[34.5917,-0.0338,1415.8069],[34.6129,-0.037,1426.5696],[34.6202,-0.0424,1417.2803],[34.6329,-0.0459,1376.7786],[34.6378,-0.0505,1369.9032],[34.6409,-0.0507,1366.5242],[34.6415,-0.0487,1355.3318],[34.6441,-0.0479,1343.8818],[34.6454,-0.0424,1360.999],[34.6508,-0.0404,1353.2712],[34.6485,-0.0342,1383.8457],[34.6465,-0.0333,1388.7307],[34.6434,-0.0156,1498.9491],[34.6468,-0.0085,1492.8444],[34.6485,0.0006,1567.4575]]]]}
,"properties": {"GID_3": "KEN.17.3.3_1","GID_0": "KEN","country": "Kenya","GID_1": "KEN.17_1","province": "Kisumu","NL_NAME_1": "NA","GID_2": "KEN.17.3_1","county": "KisumuWest","NL_NAME_2": "NA","city": "NorthWestKisumu","VARNAME_3": "NA","NL_NAME_3": "NA","TYPE_3": "Ward","ENGTYPE_3": "Ward","CC_3": "1195","HASC_3": "NA","name": "North_West_Kisumu.city","area_km2": 36.17096,"hist_schema_id": "Elevation0-9000","hist_area_km2": {"1350": 0.80568,"1375": 4.15563,"1400": 4.36765,"1425": 4.55847,"1450": 3.79519,"1475": 2.39585,"1500": 3.15913,"1525": 4.49487,"1550": 2.73508,"1575": 1.08131,"1600": 0.61486,"1625": 0.59366,"1650": 0.46645,"1675": 0.63607,"1700": 0.63607,"1725": 0.48765,"1750": 0.55126,"1775": 0.42404,"1800": 0.16962,"1825": 0.0424}}}