{"type":"Feature","properties":{"GID_3":"KEN.1.6.2_1","GID_0":"KEN","country":"Kenya","GID_1":"KEN.1_1","province":"Baringo","NL_NAME_1":"NA","GID_2":"KEN.1.6_1","county":"Mogotio","NL_NAME_2":"NA","city":"Kisanana","VARNAME_3":"NA","NL_NAME_3":"NA","TYPE_3":"Ward","ENGTYPE_3":"Ward","CC_3":"804","HASC_3":"NA","name":"Kisanana.city"},
"geometry":{"type": "MultiPolygon","coordinates": [[[[36.1067,0.3244,1417.5292],[36.1113,0.3172,1505.679],[36.1142,0.3161,1437.4343],[36.1195,0.3097,1504.4222],[36.1261,0.3099,1575.8071],[36.1283,0.304,1655.6213],[36.1303,0.303,1652.234],[36.1316,0.3043,1592.4907],[36.1342,0.3025,1646.0101],[36.1339,0.2995,1681.8293],[36.1303,0.3004,1711.3398],[36.1259,0.297,1530.5061],[36.1225,0.2973,1346.1423],[36.1241,0.2944,1426.7605],[36.1266,0.295,1462.5276],[36.1297,0.2933,1673.6349],[36.1282,0.2912,1617.4774],[36.1293,0.29,1748.5503],[36.1264,0.2899,1645.0675],[36.1313,0.283,1674.932],[36.1292,0.2717,1661.4518],[36.1355,0.2675,1664.6266],[36.14,0.2699,1636.533],[36.1362,0.265,1655.7947],[36.1327,0.2632,1613.6814],[36.1289,0.2633,1539.842],[36.1224,0.2672,1111.3712],[36.1133,0.2649,992.5],[36.0882,0.2469,993.4675],[36.0385,0.2059,1302.0341],[36.0377,0.1903,1322.4354],[36.04,0.166,1381.7627],[36.0334,0.1736,1328.1001],[36.0223,0.1754,1349.7501],[36.011,0.1804,1388.8667],[36.0003,0.1943,1379.7904],[35.9912,0.203,1420.8589],[35.9833,0.2082,1414.428],[35.9774,0.2095,1297.7896],[35.9787,0.2024,1302.6553],[35.9747,0.1985,1331.516],[35.9698,0.1973,1339.4229],[35.9653,0.1882,1358.2762],[35.965,0.1801,1361.6476],[35.9691,0.1682,1423.9895],[35.9675,0.1646,1443.537],[35.9683,0.1546,1474.4779],[35.9672,0.1504,1449.1884],[35.9691,0.1457,1441.7013],[35.967,0.1427,1451.6277],[35.9634,0.142,1463.9221],[35.962,0.1387,1479.5933],[35.9591,0.1423,1482.0812],[35.9582,0.1404,1481.8359],[35.9561,0.1405,1471.7156],[35.9589,0.133,1462.5259],[35.9559,0.1234,1469.7177],[35.9579,0.1222,1468.4913],[35.9574,0.1194,1469.356],[35.9602,0.1163,1488.6339],[35.9602,0.1121,1475.8284],[35.9594,0.1073,1483.0105],[35.9544,0.0992,1492.8267],[35.9574,0.0941,1488.5818],[35.9621,0.092,1503.2872],[35.9607,0.0904,1507.7314],[35.9614,0.0879,1505.5181],[35.9664,0.0832,1522.9747],[35.9634,0.0809,1512.9292],[35.9646,0.08,1513.9006],[35.9639,0.077,1518.0344],[35.9666,0.0742,1516.1791],[35.9635,0.0706,1519.5698],[35.9657,0.0621,1535.3933],[36.0,0.0656,1582.931],[36.0069,0.036,1598.1011],[36.0366,0.0261,1650.4897],[36.042,0.0257,1664.6451],[36.0539,0.009,1722.8966],[36.0936,-0.0059,1665.2434],[36.1136,0.0109,1605.6512],[36.1063,0.0664,1536.6001],[36.128,0.0645,1531.5659],[36.1348,0.1137,1552.8859],[36.1402,0.1324,1577.8649],[36.1483,0.1907,1680.6036],[36.1984,0.2049,1581.9346],[36.1999,0.207,1528.1185],[36.1984,0.2101,1561.9236],[36.1994,0.2118,1528.4133],[36.1972,0.2218,1553.9711],[36.1981,0.2234,1558.9198],[36.1849,0.2275,1607.428],[36.1847,0.2298,1577.1887],[36.1824,0.2295,1512.2286],[36.1796,0.2339,1475.7905],[36.2026,0.24,1648.3319],[36.2166,0.2564,2281.373],[36.2105,0.2725,2284.3245],[36.2011,0.2896,2228.9609],[36.1965,0.3056,2219.0066],[36.1862,0.321,2013.5648],[36.1553,0.3118,1388.4725],[36.1527,0.309,1390.3135],[36.1423,0.3264,1377.9031],[36.139,0.3284,1405.1194],[36.1344,0.3278,1393.3223],[36.1259,0.3321,1314.0804],[36.1238,0.3311,1344.5603],[36.1236,0.3328,1339.3374],[36.1198,0.3349,1310.3048],[36.1067,0.3244,1417.5292]]]]}}