{"type": "Feature","bbox": [36.0178,-0.1437,36.289,0.24],"geometry": {"type": "MultiPolygon","coordinates": [[[[36.2115,-0.115,2467.9165],[36.2124,-0.1155,2467.9165],[36.2194,-0.1069,2486.6147],[36.2207,-0.0992,2458.1831],[36.2285,-0.1005,2446.0635],[36.2277,-0.1084,2459.5862],[36.2467,-0.1117,2774.9817],[36.2515,-0.078,2710.5193],[36.2506,-0.0538,2655.4038],[36.2466,-0.0539,2593.9072],[36.2481,-0.0455,2351.1716],[36.2527,-0.0408,2543.0957],[36.2551,-0.0288,2420.4468],[36.2526,-0.0275,2314.5376],[36.2573,-0.0174,2393.5601],[36.2571,-0.0127,2279.6946],[36.2654,0.0252,2395.9729],[36.269,0.0259,2364.873],[36.2624,0.0399,2394.937],[36.2564,0.0623,2131.978],[36.2616,0.0696,2127.8042],[36.2711,0.0938,2029.902],[36.289,0.1175,1965.7007],[36.2857,0.1324,1968.0077],[36.2781,0.1522,2040.145],[36.2603,0.1813,1884.2372],[36.254,0.1876,1856.4751],[36.2361,0.215,1954.3856],[36.2026,0.24,1648.3319],[36.1796,0.2336,1495.8314],[36.1824,0.2295,1512.2286],[36.1847,0.2298,1577.1887],[36.1849,0.2275,1607.428],[36.1981,0.2234,1558.9198],[36.1972,0.2218,1553.9711],[36.1994,0.2118,1528.4133],[36.1984,0.2101,1561.9236],[36.1999,0.207,1528.1185],[36.1974,0.2033,1578.7144],[36.2,0.2014,1541.4286],[36.2004,0.1988,1552.5491],[36.2029,0.1999,1598.1207],[36.2028,0.196,1614.1285],[36.2043,0.1939,1679.8453],[36.206,0.1946,1716.1198],[36.2058,0.1928,1636.489],[36.208,0.1914,1687.2921],[36.2125,0.1916,1693.2527],[36.2143,0.1934,1698.0365],[36.2203,0.19,1695.103],[36.2256,0.1762,1684.4347],[36.2288,0.1747,1685.5365],[36.2323,0.1677,1685.9226],[36.233,0.163,1685.7522],[36.2411,0.1612,1694.9816],[36.2443,0.1463,1710.423],[36.23,0.1295,1744.1383],[36.2273,0.115,1743.417],[36.224,0.1073,1767.7498],[36.2253,0.0999,1770.3173],[36.2223,0.0971,1776.7661],[36.2202,0.0908,1788.7744],[36.2159,0.0851,1803.2131],[36.213,0.0774,1848.7246],[36.2119,0.0669,1853.796],[36.1789,0.0556,1787.3817],[36.175,0.0091,1918.5294],[36.1626,-0.0033,1690.2173],[36.1601,-0.0131,1768.045],[36.1529,-0.0235,1805.7932],[36.1477,-0.0225,1730.2863],[36.1399,-0.0288,1722.8451],[36.1299,-0.0239,1638.7917],[36.1235,-0.0406,1669.1351],[36.1244,-0.0453,1677.6173],[36.1267,-0.0454,1687.5398],[36.129,-0.0504,1718.4984],[36.1222,-0.0474,1690.0653],[36.1166,-0.0604,1698.3687],[36.1179,-0.0664,1750.9739],[36.1035,-0.0928,1770.8877],[36.1016,-0.0888,1757.458],[36.0921,-0.0983,1733.2823],[36.09,-0.0849,1708.3566],[36.0805,-0.0774,1681.475],[36.0739,-0.0748,1670.9244],[36.0715,-0.069,1663.2701],[36.0619,-0.0701,1659.4135],[36.0559,-0.0671,1653.3378],[36.0516,-0.0684,1651.323],[36.0478,-0.0732,1648.9026],[36.048,-0.0828,1647.0945],[36.0456,-0.0746,1648.3894],[36.0378,-0.0747,1642.672],[36.0359,-0.0755,1642.0681],[36.036,-0.0796,1641.5724],[36.0343,-0.0804,1641.5724],[36.0186,-0.0814,1646.2382],[36.0178,-0.0864,1663.361],[36.0203,-0.123,1847.5303],[36.0305,-0.1262,1755.1843],[36.0313,-0.123,1750.491],[36.0894,-0.1418,1841.8506],[36.0891,-0.1323,1810.7168],[36.1057,-0.1268,1807.9034],[36.1106,-0.1272,1829.454],[36.117,-0.1315,1850.2928],[36.1171,-0.1386,1859.1935],[36.1181,-0.1357,1853.5481],[36.1443,-0.1437,2042.4962],[36.1638,-0.1308,2180.8977],[36.1707,-0.1204,2262.0327],[36.1773,-0.1179,2292.8555],[36.1792,-0.1141,2319.8196],[36.1834,-0.1122,2342.7715],[36.1976,-0.1105,2410.3208],[36.2048,-0.1141,2409.7202],[36.2115,-0.115,2467.9165]]]]}
,"properties": {"GID_2": "KEN.31.11_1","GID_0": "KEN","country": "Kenya","GID_1": "KEN.31_1","province": "Nakuru","NL_NAME_1": "NA","county": "Subukia","VARNAME_2": "NA","NL_NAME_2": "NA","TYPE_2": "Constituency","ENGTYPE_2": "Constituency","CC_2": "172","HASC_2": "NA","name": "Subukia.county","area_km2": 409.9441,"hist_schema_id": "Elevation0-9000","hist_area_km2": {"1475": 0.2756,"1500": 0.2544,"1525": 1.2297,"1550": 1.781,"1575": 1.4841,"1600": 0.9329,"1625": 0.9117,"1650": 8.7777,"1675": 9.2865,"1700": 15.5412,"1725": 28.8137,"1750": 22.7711,"1775": 21.8382,"1800": 20.4813,"1825": 17.0253,"1850": 12.064,"1875": 12.1064,"1900": 10.1982,"1925": 10.071,"1950": 11.0463,"1975": 13.6542,"2000": 13.7178,"2025": 11.216,"2050": 10.3679,"2075": 12.8697,"2100": 10.6011,"2125": 9.329,"2150": 9.9862,"2175": 11.8944,"2200": 10.9615,"2225": 11.4704,"2250": 8.3961,"2275": 9.7318,"2300": 7.6964,"2325": 6.8271,"2350": 7.2087,"2375": 7.4632,"2400": 6.5939,"2425": 5.0673,"2450": 4.3464,"2475": 2.6291,"2500": 2.4595,"2525": 1.9294,"2550": 0.5937,"2575": 0.6573,"2600": 0.7633,"2625": 1.0389,"2650": 0.7845,"2675": 0.8481,"2700": 0.9965,"2725": 0.5725,"2750": 0.1272,"2775": 0.212,"2800": 0.0424}}}