{"type":"Feature","properties":{"GID_2":"KEN.33.3_1","GID_0":"KEN","country":"Kenya","GID_1":"KEN.33_1","province":"Narok","NL_NAME_1":"NA","county":"NarokEast","VARNAME_2":"NA","NL_NAME_2":"NA","TYPE_2":"Constituency","ENGTYPE_2":"Constituency","CC_2":"180","HASC_2":"NA","name":"Narok_East.county"},
"geometry":{"type": "MultiPolygon","coordinates": [[[[36.2274,-1.2983,1395.9348],[36.3477,-1.1685,1866.6031],[36.3356,-1.0407,1609.3704],[36.2638,-0.9085,2103.9866],[36.2057,-0.9278,2238.1914],[36.1948,-0.9091,2462.8569],[36.1855,-0.9087,2708.8726],[36.1895,-0.9017,2554.2639],[36.1729,-0.8715,2679.0225],[36.1457,-0.8729,2689.2751],[36.1474,-0.8773,2655.6514],[36.1463,-0.886,2640.2559],[36.1442,-0.893,2668.2178],[36.1412,-0.8968,2662.374],[36.1425,-0.9067,2551.553],[36.1418,-0.9216,2520.9792],[36.1371,-0.9301,2533.3726],[36.1416,-0.9495,2488.9407],[36.1483,-0.9545,2492.4294],[36.1492,-0.957,2478.9109],[36.1449,-0.9711,2439.9453],[36.1416,-0.9625,2509.7798],[36.1241,-0.961,2673.0593],[36.1162,-0.9618,2667.5273],[36.1091,-0.9678,2583.9885],[36.1021,-0.9774,2579.6506],[36.0812,-0.9899,2423.3262],[36.0783,-0.9903,2379.2026],[36.069,-0.9999,2264.5349],[36.0618,-1.0018,2313.8645],[36.0594,-1.0116,2212.1345],[36.0603,-1.0147,2173.6733],[36.056,-1.0195,2243.4985],[36.0538,-1.0194,2242.2156],[36.048,-1.027,2157.9124],[36.042,-1.0388,2094.6377],[36.0424,-1.0414,2079.9172],[36.0398,-1.0433,2082.75],[36.0351,-1.0425,2078.0298],[36.0303,-1.0481,2046.2761],[36.0302,-1.0528,2018.9329],[36.027,-1.0565,2019.4117],[36.027,-1.0602,1992.3427],[36.0246,-1.0626,1991.0591],[36.0228,-1.0693,1987.9241],[36.0218,-1.0885,1942.2983],[36.0236,-1.0964,1909.2646],[36.0217,-1.1005,1913.6809],[36.0196,-1.1011,1926.1305],[36.0171,-1.1059,1902.2402],[36.0113,-1.109,1903.3186],[36.0076,-1.1151,1872.6252],[36.0071,-1.121,1853.9734],[36.0029,-1.1274,1854.5092],[36.0022,-1.1322,1831.2401],[36.0004,-1.1333,1833.6899],[36.0015,-1.1356,1818.5343],[35.9987,-1.1386,1821.6393],[35.9993,-1.1418,1800.272],[35.9979,-1.145,1789.0487],[35.9996,-1.1519,1773.0652],[35.9969,-1.1533,1800.629],[35.9952,-1.1576,1794.3512],[35.9914,-1.1581,1792.9282],[35.991,-1.1602,1787.1],[35.9874,-1.1606,1784.4661],[35.986,-1.164,1769.8513],[35.9821,-1.1658,1755.5239],[35.9839,-1.1712,1715.7162],[35.9862,-1.1727,1716.5027],[35.9848,-1.1758,1703.5374],[35.9869,-1.1782,1707.4119],[35.9817,-1.1852,1734.8698],[35.9836,-1.1866,1710.5537],[35.9805,-1.1912,1680.8489],[35.9813,-1.1935,1658.0361],[35.9776,-1.1948,1702.9163],[35.9802,-1.1977,1658.564],[35.9793,-1.2009,1649.2842],[35.9733,-1.203,1736.6045],[35.976,-1.2096,1645.4768],[35.9733,-1.2155,1660.3933],[35.975,-1.2218,1645.3307],[35.9713,-1.2269,1657.1401],[35.9736,-1.231,1626.625],[35.9759,-1.2318,1666.0286],[35.975,-1.2355,1642.3762],[35.9777,-1.2382,1626.3854],[35.9769,-1.2409,1624.6494],[35.9821,-1.2428,1738.1597],[35.9823,-1.2451,1666.2196],[35.988,-1.2469,1716.7543],[35.9897,-1.2513,1628.1235],[35.9933,-1.2538,1681.5946],[35.9934,-1.2574,1641.0488],[35.9966,-1.2597,1629.2526],[35.9964,-1.2623,1617.926],[35.9987,-1.2629,1721.6543],[35.9982,-1.2669,1623.7018],[35.9999,-1.2712,1638.968],[36.0013,-1.2708,1707.6146],[36.0054,-1.2774,1596.9115],[36.0055,-1.2821,1607.0692],[36.0079,-1.283,1661.3353],[36.0079,-1.2855,1605.7285],[36.0122,-1.2904,1605.9182],[36.012,-1.2951,1565.3568],[36.0105,-1.2953,1575.1683],[36.0098,-1.2984,1583.1074],[36.0071,-1.3022,1594.24],[36.0014,-1.3058,1579.5475],[36.0015,-1.3111,1552.9467],[35.9993,-1.3123,1556.5498],[35.9986,-1.3172,1557.2422],[35.9966,-1.3189,1562.2075],[35.9976,-1.3291,1532.5217],[35.9941,-1.3318,1539.5503],[35.9965,-1.3358,1527.5913],[35.9926,-1.3376,1552.142],[35.9968,-1.3382,1521.0963],[35.9979,-1.3412,1544.7231],[36.0002,-1.3423,1540.1357],[35.9976,-1.3469,1515.5729],[36.0038,-1.3467,1545.3479],[36.0008,-1.3501,1512.8297],[36.0029,-1.3573,1515.4033],[36.0008,-1.3608,1542.1962],[36.0028,-1.3617,1533.6007],[36.0049,-1.3664,1516.1243],[36.0046,-1.373,1505.8352],[36.0075,-1.3736,1513.9061],[36.0093,-1.3687,1545.2886],[36.0152,-1.3702,1560.6686],[36.0168,-1.3796,1523.5757],[36.0147,-1.3819,1530.4454],[36.0141,-1.3897,1480.1288],[36.0219,-1.3919,1552.4022],[36.0229,-1.3964,1471.2955],[36.0215,-1.4015,1533.4612],[36.0227,-1.4059,1484.4998],[36.0172,-1.4069,1537.7336],[36.0182,-1.4089,1497.7992],[36.0246,-1.4102,1474.0055],[36.0271,-1.4126,1534.967],[36.03,-1.4223,1438.1433],[36.0331,-1.4258,1490.9115],[36.036,-1.4261,1448.314],[36.0357,-1.4312,1372.8458],[36.0411,-1.4327,1382.9839],[36.0475,-1.4311,1304.5499],[36.0559,-1.4354,1293.7534],[36.0597,-1.4419,1289.9457],[36.0587,-1.4441,1284.2437],[36.0605,-1.448,1281.4342],[36.063,-1.4485,1284.9178],[36.0612,-1.4455,1285.5914],[36.0634,-1.4451,1289.0164],[36.0674,-1.4523,1284.1106],[36.0666,-1.4551,1280.7286],[36.0622,-1.4569,1282.4583],[36.0653,-1.4582,1280.4614],[36.0656,-1.4604,1280.3408],[36.0669,-1.4599,1280.3408],[36.0655,-1.4626,1277.9221],[36.0664,-1.4641,1276.5908],[36.0685,-1.462,1277.9287],[36.0709,-1.4631,1277.2458],[36.2274,-1.2983,1395.9348]]]]}}