{"type": "Feature","bbox": [37.3351,-1.7848,37.856,-1.5152],"geometry": {"type": "MultiPolygon","coordinates": [[[[37.8035,-1.6411,940.7686],[37.7963,-1.6272,946.2815],[37.7923,-1.6256,944.7782],[37.7921,-1.6207,937.9014],[37.7876,-1.6131,952.0509],[37.7844,-1.6115,944.6344],[37.783,-1.6047,936.759],[37.7758,-1.594,950.8466],[37.7763,-1.5908,943.6462],[37.7727,-1.5872,945.416],[37.7727,-1.5835,945.2378],[37.769,-1.5833,945.1185],[37.764,-1.5801,944.1129],[37.7538,-1.5662,950.3127],[37.7502,-1.5685,986.5454],[37.7453,-1.5688,998.9583],[37.7362,-1.5749,1039.8663],[37.7351,-1.5788,1031.9165],[37.7322,-1.581,1052.963],[37.7363,-1.5845,1043.4724],[37.735,-1.5925,1032.6333],[37.7281,-1.5969,1079.4827],[37.729,-1.6003,1070.4805],[37.7279,-1.6033,1068.652],[37.719,-1.6085,1102.6342],[37.7113,-1.6046,1105.548],[37.7011,-1.584,1207.2583],[37.696,-1.5871,1264.7301],[37.6936,-1.5835,1226.2654],[37.6939,-1.5867,1251.9468],[37.6923,-1.5859,1235.4594],[37.6898,-1.5879,1251.9248],[37.6858,-1.5843,1271.2053],[37.6841,-1.5863,1377.8552],[37.6846,-1.5885,1327.8002],[37.6905,-1.5995,1244.7784],[37.6871,-1.6073,1325.0214],[37.6883,-1.617,1175.198],[37.687,-1.6193,1169.808],[37.6833,-1.6192,1142.0502],[37.6812,-1.6264,1122.7673],[37.6748,-1.6296,1097.3499],[37.6684,-1.6416,1073.4395],[37.6606,-1.6449,1053.5625],[37.6563,-1.637,1053.698],[37.6557,-1.6304,1084.861],[37.6492,-1.6285,1071.2261],[37.65,-1.6219,1076.6067],[37.6466,-1.62,1063.4028],[37.6445,-1.6146,1077.9683],[37.6424,-1.603,1096.8087],[37.6436,-1.5999,1083.6707],[37.6415,-1.5954,1099.5389],[37.6433,-1.593,1091.7759],[37.6396,-1.5901,1096.6981],[37.6417,-1.5868,1101.6854],[37.6404,-1.5861,1109.4126],[37.6326,-1.5897,1115.0443],[37.628,-1.5865,1111.321],[37.6232,-1.5806,1118.0535],[37.6195,-1.5733,1110.5161],[37.6194,-1.568,1118.661],[37.6164,-1.5648,1123.6415],[37.6137,-1.5639,1130.8059],[37.6082,-1.5661,1133.3502],[37.6067,-1.5609,1138.5121],[37.5993,-1.5612,1150.6875],[37.6007,-1.5578,1139.9583],[37.5971,-1.5511,1166.6239],[37.5906,-1.5575,1151.4922],[37.5821,-1.5608,1179.1287],[37.5787,-1.565,1169.3237],[37.574,-1.5651,1163.0613],[37.5731,-1.564,1182.2849],[37.5761,-1.5578,1184.8551],[37.5686,-1.5575,1187.4022],[37.5623,-1.56,1168.7081],[37.5602,-1.5578,1174.4985],[37.5567,-1.5577,1188.1713],[37.5568,-1.5545,1191.0017],[37.5627,-1.5533,1173.6791],[37.5633,-1.5517,1172.7312],[37.5508,-1.5481,1176.2158],[37.5499,-1.5451,1189.7126],[37.5552,-1.5409,1182.2263],[37.5505,-1.5369,1184.14],[37.5451,-1.537,1182.0337],[37.5443,-1.5408,1186.624],[37.535,-1.5401,1186.6608],[37.5258,-1.5367,1195.8801],[37.5221,-1.5382,1188.1604],[37.5202,-1.5362,1192.5811],[37.5212,-1.5325,1194.9027],[37.5178,-1.5321,1190.0946],[37.518,-1.5279,1204.0764],[37.5162,-1.5262,1203.3719],[37.5122,-1.5247,1198.9497],[37.5081,-1.5277,1210.8667],[37.5053,-1.5275,1197.7502],[37.5008,-1.524,1205.059],[37.4979,-1.5242,1204.2676],[37.4866,-1.5152,1205.4202],[37.4824,-1.5174,1216.8076],[37.4756,-1.5165,1221.3776],[37.4745,-1.5208,1212.1472],[37.4724,-1.5183,1216.8126],[37.4663,-1.5172,1226.3007],[37.4594,-1.5187,1231.6987],[37.4587,-1.5209,1222.7456],[37.4553,-1.5212,1223.6177],[37.4519,-1.5236,1238.1377],[37.4484,-1.5291,1247.0579],[37.4413,-1.5309,1229.3297],[37.4388,-1.5278,1262.7097],[37.4377,-1.531,1226.2997],[37.435,-1.5318,1232.4823],[37.4331,-1.5302,1259.3923],[37.4313,-1.5315,1238.5554],[37.429,-1.5301,1253.1846],[37.427,-1.5314,1244.017],[37.4215,-1.53,1262.6399],[37.3991,-1.5202,1342.1467],[37.394,-1.5212,1309.6278],[37.384,-1.5195,1290.4786],[37.3829,-1.5181,1290.4786],[37.3796,-1.5189,1307.444],[37.3722,-1.5258,1314.7866],[37.3712,-1.5288,1333.4343],[37.3647,-1.5323,1365.271],[37.3651,-1.5352,1366.3225],[37.3635,-1.5355,1366.3225],[37.3605,-1.5328,1366.6226],[37.3585,-1.5412,1370.47],[37.3551,-1.5414,1375.7273],[37.3541,-1.5471,1392.5656],[37.3515,-1.5472,1408.7114],[37.35,-1.5499,1410.9797],[37.3405,-1.5543,1450.8699],[37.3351,-1.5599,1453.2634],[37.3424,-1.5723,1434.4573],[37.364,-1.5898,1408.8228],[37.3666,-1.5986,1405.3362],[37.3706,-1.6028,1398.1511],[37.3769,-1.6234,1421.267],[37.3831,-1.6312,1446.7737],[37.382,-1.6349,1464.5942],[37.3859,-1.6417,1440.4333],[37.386,-1.646,1461.8164],[37.3889,-1.6459,1427.736],[37.3935,-1.6528,1417.426],[37.395,-1.6591,1395.6179],[37.4005,-1.6623,1409.2529],[37.4017,-1.6709,1372.1323],[37.4061,-1.675,1366.1011],[37.4049,-1.6778,1363.58],[37.4069,-1.6794,1363.319],[37.4078,-1.684,1351.6719],[37.4175,-1.6894,1356.9441],[37.4199,-1.6931,1325.7983],[37.4207,-1.6985,1326.7396],[37.4235,-1.7002,1335.1604],[37.4245,-1.703,1325.6521],[37.4288,-1.7051,1321.6564],[37.4346,-1.7141,1305.6859],[37.4331,-1.7182,1306.4932],[37.4354,-1.7184,1313.379],[37.4348,-1.7214,1302.1141],[37.4393,-1.7265,1287.8899],[37.4413,-1.725,1311.0312],[37.4434,-1.7265,1290.163],[37.4428,-1.7282,1294.693],[37.4462,-1.7271,1332.549],[37.4455,-1.7295,1292.6982],[37.4478,-1.7297,1282.567],[37.4474,-1.732,1279.0642],[37.4495,-1.7333,1275.8469],[37.455,-1.7359,1299.4919],[37.4609,-1.7364,1280.1232],[37.4734,-1.7345,1276.8654],[37.4736,-1.7323,1297.8823],[37.4754,-1.7345,1280.8962],[37.4772,-1.7333,1269.965],[37.4828,-1.7339,1259.0154],[37.4844,-1.7301,1269.7258],[37.4872,-1.7343,1281.8594],[37.4891,-1.7344,1291.1672],[37.4908,-1.733,1291.1672],[37.4902,-1.7294,1260.11],[37.4919,-1.7258,1272.463],[37.494,-1.7262,1263.0247],[37.494,-1.7241,1267.5894],[37.5028,-1.7215,1267.4537],[37.5087,-1.722,1385.7687],[37.5578,-1.715,1434.1826],[37.5533,-1.724,1371.8782],[37.5534,-1.7268,1392.6252],[37.5617,-1.7267,1418.6624],[37.565,-1.7237,1477.4695],[37.5673,-1.7057,1529.52],[37.5696,-1.705,1480.1479],[37.5708,-1.6985,1499.0603],[37.5746,-1.6978,1378.8193],[37.5785,-1.7009,1238.0592],[37.5797,-1.6987,1233.9458],[37.5967,-1.7106,1526.8268],[37.6128,-1.7174,1190.1125],[37.6275,-1.7156,1136.2368],[37.6321,-1.7227,1127.1957],[37.6303,-1.7245,1108.697],[37.628,-1.7236,1123.5511],[37.6278,-1.732,1141.8862],[37.6245,-1.7346,1152.5988],[37.615,-1.7337,1200.7313],[37.5874,-1.7416,1154.0056],[37.5884,-1.7508,1146.745],[37.5914,-1.7556,1141.9883],[37.5841,-1.7654,1152.9934],[37.584,-1.7768,1138.4417],[37.5863,-1.7778,1136.4333],[37.5883,-1.7768,1132.8481],[37.5875,-1.7731,1153.5353],[37.5904,-1.7754,1136.9714],[37.5948,-1.7714,1128.635],[37.5937,-1.7677,1142.7401],[37.5966,-1.7658,1130.1365],[37.6007,-1.7703,1128.8811],[37.6119,-1.7724,1128.3727],[37.6104,-1.7765,1140.2644],[37.6135,-1.7792,1122.141],[37.6149,-1.7747,1121.3276],[37.6191,-1.7739,1113.8704],[37.6221,-1.772,1107.7946],[37.6231,-1.769,1122.3975],[37.6289,-1.7661,1108.5074],[37.6273,-1.7604,1098.6638],[37.6295,-1.757,1096.0016],[37.6383,-1.7599,1078.2468],[37.6536,-1.756,1077.6635],[37.6534,-1.7489,1074.7906],[37.6557,-1.7476,1074.7791],[37.6568,-1.7487,1078.1416],[37.6561,-1.7544,1057.735],[37.6581,-1.7579,1062.4524],[37.6605,-1.7545,1074.7002],[37.665,-1.7565,1053.5615],[37.6677,-1.7558,1063.2849],[37.669,-1.7586,1047.6064],[37.6683,-1.7629,1049.6614],[37.6711,-1.7668,1041.749],[37.6725,-1.7661,1039.9409],[37.6724,-1.7635,1049.6383],[37.6762,-1.7606,1055.9392],[37.6892,-1.7588,1024.7673],[37.6977,-1.7529,1021.0964],[37.6994,-1.7557,1009.2557],[37.704,-1.7543,1015.2081],[37.7147,-1.7589,991.8485],[37.7155,-1.7663,992.688],[37.7219,-1.7749,987.8363],[37.7285,-1.7728,994.073],[37.7348,-1.7738,978.321],[37.7386,-1.7717,969.2894],[37.7386,-1.7691,987.8645],[37.745,-1.7675,983.8625],[37.7466,-1.7675,986.1639],[37.7497,-1.7718,962.9451],[37.7599,-1.7749,954.0204],[37.7655,-1.7738,953.8185],[37.7706,-1.7702,912.3726],[37.7736,-1.7741,902.9728],[37.7786,-1.7763,895.7004],[37.7839,-1.774,890.5806],[37.7858,-1.7709,903.4445],[37.7952,-1.773,886.2849],[37.8005,-1.7702,881.2731],[37.8017,-1.7748,881.6389],[37.8089,-1.7762,889.9922],[37.8066,-1.7793,875.7102],[37.8075,-1.7806,873.2456],[37.8152,-1.7786,887.8582],[37.8155,-1.7835,861.7471],[37.835,-1.7848,854.0416],[37.8406,-1.776,843.6451],[37.8391,-1.7718,848.343],[37.8409,-1.7668,881.0428],[37.8461,-1.7665,870.0374],[37.8505,-1.7693,872.6813],[37.853,-1.7663,878.5319],[37.8519,-1.7645,911.0016],[37.8545,-1.7639,894.1656],[37.854,-1.7572,907.8496],[37.856,-1.7538,901.0578],[37.854,-1.7507,907.7653],[37.8532,-1.7398,912.0431],[37.8492,-1.7273,928.0037],[37.845,-1.7232,908.7523],[37.8454,-1.7125,933.3033],[37.8424,-1.71,925.6916],[37.8348,-1.7091,924.5861],[37.8381,-1.7,928.4652],[37.8364,-1.6939,929.9478],[37.8376,-1.6896,933.0737],[37.8324,-1.6886,920.2469],[37.8305,-1.6844,922.2544],[37.831,-1.6808,938.511],[37.8251,-1.6824,938.1403],[37.8199,-1.6801,925.725],[37.8203,-1.6747,921.7249],[37.8226,-1.6703,922.1221],[37.8211,-1.6648,942.8792],[37.8137,-1.6613,929.0177],[37.8104,-1.6585,922.749],[37.8085,-1.6541,941.7612],[37.8046,-1.6528,932.3105],[37.806,-1.6487,946.7079],[37.8012,-1.6474,937.5267],[37.8037,-1.6437,936.89],[37.8035,-1.6411,940.7686]]]]}
,"properties": {"GID_2": "KEN.23.6_1","GID_0": "KEN","country": "Kenya","GID_1": "KEN.23_1","province": "Makueni","NL_NAME_1": "NA","county": "Mbooni","VARNAME_2": "NA","NL_NAME_2": "NA","TYPE_2": "Constituency","ENGTYPE_2": "Constituency","CC_2": "83","HASC_2": "NA","name": "Mbooni.county","area_km2": 984.8564,"hist_schema_id": "Elevation0-9000","hist_area_km2": {"850": 0.3815,"875": 4.1536,"900": 9.8967,"925": 19.2852,"950": 31.3443,"975": 38.105,"1000": 39.7156,"1025": 40.7328,"1050": 49.443,"1075": 54.5718,"1100": 49.2951,"1125": 39.483,"1150": 39.695,"1175": 33.5073,"1200": 42.7059,"1225": 54.2777,"1250": 54.3623,"1275": 48.8515,"1300": 39.4627,"1325": 30.0104,"1350": 27.1917,"1375": 29.4594,"1400": 28.4844,"1425": 20.8121,"1450": 13.6274,"1475": 11.7411,"1500": 8.5833,"1525": 8.0323,"1550": 8.774,"1575": 9.0072,"1600": 7.9263,"1625": 8.8588,"1650": 8.0111,"1675": 8.4773,"1700": 7.6932,"1725": 7.2905,"1750": 6.909,"1775": 7.7568,"1800": 8.3714,"1825": 8.4774,"1850": 7.0786,"1875": 5.9977,"1900": 4.2387,"1925": 2.2677,"1950": 0.3815,"1975": 0.106,"2000": 0.0212}}}