{"type": "Feature","bbox": [40.0289,3.7133,40.3177,3.9679],"geometry": {"type": "MultiPolygon","coordinates": [[[[40.2717,3.9653,971.8804],[40.2653,3.9679,974.6614],[40.2621,3.9663,974.7983],[40.2433,3.9523,942.9623],[40.2347,3.9435,884.5474],[40.2277,3.9329,863.2059],[40.2111,3.9257,859.821],[40.2031,3.9171,840.2684],[40.1947,3.9151,865.7941],[40.1871,3.9111,845.9326],[40.1825,3.9111,841.9756],[40.1751,3.9153,847.9717],[40.1723,3.9143,853.0676],[40.1693,3.9243,892.4658],[40.1687,3.9341,880.6622],[40.1741,3.9651,915.8018],[40.1709,3.9625,908.4672],[40.1537,3.9565,884.1526],[40.1461,3.9463,850.751],[40.1389,3.9397,838.2482],[40.0791,3.9111,767.0953],[40.0745,3.9061,761.7012],[40.0689,3.8959,753.8472],[40.0611,3.8885,746.2904],[40.0563,3.8809,742.0481],[40.0547,3.8691,731.9956],[40.0289,3.8673,726.22],[40.0335,3.8637,724.0714],[40.0335,3.8597,723.8767],[40.0379,3.8549,726.7017],[40.0485,3.8525,725.451],[40.0535,3.8461,719.6667],[40.0651,3.8435,715.64],[40.0671,3.8409,715.4036],[40.0759,3.8359,709.9525],[40.0881,3.8367,707.5058],[40.0951,3.8331,704.7589],[40.0981,3.8291,705.0013],[40.1007,3.8169,699.701],[40.1091,3.8065,696.7336],[40.1065,3.7925,692.439],[40.1003,3.7803,692.2907],[40.1003,3.7661,687.0379],[40.0981,3.7605,685.51],[40.1001,3.7509,692.4679],[40.1069,3.7419,678.9698],[40.1198,3.7502,695.5237],[40.1289,3.7516,694.9061],[40.1353,3.7509,695.1052],[40.1399,3.7489,694.8271],[40.1647,3.7289,694.4717],[40.1806,3.7241,701.8624],[40.1866,3.7198,701.3657],[40.1913,3.7133,698.8009],[40.2007,3.7249,708.0696],[40.2211,3.7367,723.7061],[40.2279,3.7508,737.071],[40.2287,3.7595,738.6187],[40.2379,3.7693,747.9045],[40.2436,3.7618,750.7718],[40.2451,3.7554,765.8996],[40.2357,3.7461,755.8987],[40.2331,3.7387,743.7421],[40.2339,3.7353,740.0901],[40.2417,3.7261,742.1738],[40.2569,3.7529,777.1857],[40.2577,3.7583,759.5797],[40.2651,3.7609,763.2727],[40.2773,3.7691,775.8757],[40.2805,3.7753,778.2893],[40.2839,3.7881,791.0788],[40.3033,3.8251,858.6727],[40.3071,3.8299,854.7437],[40.3079,3.8375,868.3505],[40.3177,3.8533,891.684],[40.3055,3.8785,914.0914],[40.3011,3.8917,916.2866],[40.2951,3.9035,922.4448],[40.2919,3.9067,929.515],[40.2903,3.9153,936.3566],[40.2855,3.9233,937.5154],[40.2875,3.9353,950.4484],[40.2802,3.9609,966.6716],[40.2717,3.9653,971.8804]]]]}
,"properties": {"GID_3": "KEN.24.1.2_1","GID_0": "KEN","country": "Kenya","GID_1": "KEN.24_1","province": "Mandera","NL_NAME_1": "NA","GID_2": "KEN.24.1_1","county": "Banissa","NL_NAME_2": "NA","city": "Derkhale","VARNAME_3": "NA","NL_NAME_3": "NA","TYPE_3": "Ward","ENGTYPE_3": "Ward","CC_3": "197","HASC_3": "NA","name": "Derkhale.city","area_km2": 514.4136,"hist_schema_id": "Elevation0-9000","hist_area_km2": {"675": 2.2215,"700": 51.4732,"725": 86.2085,"750": 73.0902,"775": 65.0924,"800": 54.8529,"825": 51.6792,"850": 42.2437,"875": 36.7223,"900": 25.2989,"925": 13.7069,"950": 6.261,"975": 5.5629}}}