{"type": "Feature","bbox": [38.0781,-1.9574,38.266,-1.6769],"geometry": {"type": "MultiPolygon","coordinates": [[[[38.2051,-1.6769,736.1865],[38.1965,-1.6813,692.8243],[38.1921,-1.6864,709.0306],[38.1914,-1.6905,683.6476],[38.1889,-1.6897,684.0123],[38.1898,-1.6936,678.976],[38.1875,-1.6925,698.159],[38.1871,-1.6962,691.9528],[38.1824,-1.6968,696.561],[38.1817,-1.6993,703.9568],[38.1794,-1.6998,713.603],[38.1799,-1.7019,708.1252],[38.1738,-1.7054,723.8354],[38.1741,-1.7083,714.1464],[38.1717,-1.7086,740.2969],[38.1691,-1.7172,745.8524],[38.1677,-1.7179,756.3167],[38.1675,-1.7243,752.3428],[38.1604,-1.7342,807.2245],[38.1547,-1.7551,872.3339],[38.1615,-1.7717,908.46],[38.165,-1.7741,1004.0444],[38.1665,-1.779,982.9135],[38.1645,-1.7857,912.2925],[38.1744,-1.7922,882.5756],[38.1765,-1.8078,869.6116],[38.1817,-1.8125,879.7564],[38.1874,-1.8147,886.7213],[38.0937,-1.8734,786.1501],[38.0867,-1.874,780.1324],[38.0781,-1.881,767.0266],[38.0787,-1.883,764.816],[38.0843,-1.8868,783.3751],[38.0844,-1.8901,763.7015],[38.0879,-1.8922,782.7553],[38.0902,-1.8965,759.2885],[38.0901,-1.8998,756.6279],[38.0938,-1.9008,771.942],[38.095,-1.9027,773.6194],[38.0913,-1.9101,764.6913],[38.0941,-1.9138,751.9993],[38.0909,-1.9167,736.2673],[38.0908,-1.9227,725.6826],[38.0979,-1.9315,720.4734],[38.1023,-1.9323,740.0663],[38.0945,-1.9397,713.2359],[38.0964,-1.942,717.134],[38.0997,-1.9409,721.2526],[38.1034,-1.942,728.353],[38.1031,-1.9446,711.0798],[38.1,-1.9473,734.8206],[38.0995,-1.9537,713.3883],[38.103,-1.9574,708.1528],[38.1091,-1.9516,707.939],[38.1121,-1.9548,699.6621],[38.1133,-1.9518,703.2803],[38.1198,-1.9472,719.3284],[38.123,-1.9428,756.8016],[38.1307,-1.9401,756.9606],[38.1372,-1.9301,802.0726],[38.1383,-1.9245,816.6422],[38.1466,-1.9187,816.8947],[38.1664,-1.9074,825.1084],[38.1718,-1.9073,833.1251],[38.2004,-1.8901,853.3884],[38.2163,-1.8913,858.8893],[38.2277,-1.8896,853.1073],[38.2356,-1.8987,843.7867],[38.253,-1.9034,832.635],[38.2561,-1.9012,826.072],[38.2574,-1.9024,822.6033],[38.2563,-1.8962,828.4747],[38.266,-1.8891,879.21],[38.263,-1.882,812.37],[38.2631,-1.869,803.6173],[38.2564,-1.8426,812.8735],[38.2498,-1.8389,810.6694],[38.2493,-1.8344,794.8595],[38.2461,-1.8294,788.0087],[38.2477,-1.8168,762.2273],[38.2451,-1.8066,751.0032],[38.2411,-1.7998,748.8351],[38.2427,-1.7959,730.4651],[38.2418,-1.7937,736.9329],[38.246,-1.7899,727.1897],[38.2456,-1.7844,719.5759],[38.2471,-1.7839,715.1677],[38.2476,-1.7794,712.4418],[38.2549,-1.7664,691.496],[38.2552,-1.758,684.7787],[38.2537,-1.753,682.5248],[38.2414,-1.7361,653.4151],[38.2051,-1.6769,736.1865]]]]}
,"properties": {"GID_3": "KEN.18.4.6_1","GID_0": "KEN","country": "Kenya","GID_1": "KEN.18_1","province": "Kitui","NL_NAME_1": "NA","GID_2": "KEN.18.4_1","county": "KituiSouth","NL_NAME_2": "NA","city": "Mutomo","VARNAME_3": "NA","NL_NAME_3": "NA","TYPE_3": "Ward","ENGTYPE_3": "Ward","CC_3": "366","HASC_3": "NA","name": "Mutomo.city","area_km2": 280.9135,"hist_schema_id": "Elevation0-9000","hist_area_km2": {"650": 1.3775,"675": 14.093,"700": 22.9089,"725": 21.0437,"750": 12.6939,"775": 17.4616,"800": 30.5151,"825": 46.366,"850": 52.9355,"875": 37.8263,"900": 16.8471,"925": 3.3694,"950": 1.4834,"975": 0.9324,"1000": 0.3603,"1025": 0.2331,"1050": 0.2967,"1075": 0.0848,"1100": 0.0212,"1125": 0.0424,"1150": 0.0212}}}