{"type":"Feature","properties":{"GID_3":"KEN.4.7.1_1","GID_0":"KEN","country":"Kenya","GID_1":"KEN.4_1","province":"Busia","NL_NAME_1":"NA","GID_2":"KEN.4.7_1","county":"TesoSouth","NL_NAME_2":"NA","city":"AmukuraCentral","VARNAME_3":"NA","NL_NAME_3":"NA","TYPE_3":"Ward","ENGTYPE_3":"Ward","CC_3":"1132","HASC_3":"NA","name":"Amukura_Central.city"},
"geometry":{"type": "MultiPolygon","coordinates": [[[[34.28,0.5103,1211.3456],[34.2812,0.5135,1222.7819],[34.2894,0.5204,1218.4928],[34.294,0.5271,1213.6455],[34.2955,0.5306,1222.5854],[34.2948,0.5345,1222.5498],[34.2916,0.5382,1222.286],[34.2845,0.54,1238.8446],[34.2743,0.5467,1256.3092],[34.2669,0.5455,1270.2219],[34.2636,0.5485,1281.0432],[34.2609,0.5486,1283.78],[34.2646,0.5564,1294.0693],[34.2661,0.5637,1306.5271],[34.2733,0.5688,1280.345],[34.2699,0.5715,1283.6589],[34.2664,0.5704,1318.457],[34.2579,0.5712,1321.5536],[34.2541,0.5833,1221.1239],[34.2446,0.5894,1182.4752],[34.2414,0.5856,1192.4473],[34.2388,0.5736,1355.9657],[34.2308,0.5647,1377.5876],[34.2302,0.5529,1347.7662],[34.2195,0.5458,1350.1406],[34.226,0.5376,1300.0812],[34.2234,0.5261,1237.6499],[34.2078,0.5258,1215.1597],[34.2008,0.5219,1189.3013],[34.2052,0.5171,1168.3959],[34.2061,0.4997,1195.7217],[34.2229,0.4927,1227.865],[34.2367,0.5066,1240.0507],[34.2403,0.5085,1235.71],[34.2536,0.5106,1230.9166],[34.28,0.5103,1211.3456]]]]}}