{"type": "Feature","bbox": [34.4151,-0.4103,35.343,0.0301],"geometry": {"type": "MultiPolygon","coordinates": [[[[35.01,-0.386,1521.734],[35.0084,-0.3727,1410.1467],[35.0068,-0.3701,1405.4943],[35.0059,-0.3547,1339.6919],[35.0046,-0.353,1333.605],[35.0059,-0.3485,1317.9727],[35.004,-0.3447,1326.9846],[35.0059,-0.3432,1304.0864],[35.0064,-0.3379,1290.7056],[35.0048,-0.3322,1310.6652],[35.0083,-0.3306,1275.2588],[35.0067,-0.33,1283.861],[35.0073,-0.3265,1274.6318],[35.0245,-0.3175,1282.0319],[35.0469,-0.2966,1262.2354],[35.0503,-0.2914,1269.1411],[35.0522,-0.2709,1279.1982],[35.0552,-0.2629,1280.3342],[35.0573,-0.2313,1315.6887],[35.0634,-0.2115,1303.2893],[35.0719,-0.2032,1280.4451],[35.1033,-0.1957,1290.7024],[35.1285,-0.1493,1221.1837],[35.1302,-0.1515,1228.9143],[35.1315,-0.151,1237.042],[35.1305,-0.1488,1235.3053],[35.134,-0.1497,1243.6484],[35.1382,-0.1572,1241.5328],[35.1401,-0.1567,1242.804],[35.1397,-0.1554,1246.1641],[35.1466,-0.1562,1257.6582],[35.1537,-0.1582,1250.7937],[35.156,-0.1603,1251.4294],[35.1618,-0.1588,1257.665],[35.164,-0.1562,1265.9852],[35.1657,-0.1574,1263.9385],[35.1675,-0.156,1267.1633],[35.1662,-0.1585,1261.6647],[35.1671,-0.1597,1262.7417],[35.1703,-0.1569,1266.3263],[35.1734,-0.1568,1274.5671],[35.184,-0.1597,1276.3519],[35.1865,-0.1568,1274.3193],[35.1846,-0.1549,1290.1493],[35.186,-0.1535,1300.053],[35.1919,-0.1572,1285.5592],[35.1979,-0.1566,1291.5035],[35.2014,-0.1607,1295.222],[35.2041,-0.1599,1285.8376],[35.2037,-0.1629,1280.5342],[35.2109,-0.1659,1299.5502],[35.2102,-0.1677,1295.3634],[35.2123,-0.1668,1302.1459],[35.2154,-0.169,1302.704],[35.2156,-0.1745,1292.7897],[35.218,-0.1754,1306.4468],[35.219,-0.1804,1307.4832],[35.2176,-0.1815,1301.1093],[35.2202,-0.1869,1310.2993],[35.218,-0.1884,1304.5728],[35.2211,-0.1892,1310.4279],[35.2218,-0.188,1325.0214],[35.2266,-0.191,1334.8521],[35.2314,-0.1888,1367.2661],[35.236,-0.1911,1357.9395],[35.2368,-0.1955,1329.262],[35.2408,-0.1941,1338.5392],[35.2443,-0.1987,1350.9968],[35.2461,-0.1966,1357.9919],[35.2491,-0.2025,1341.9182],[35.2473,-0.2047,1336.5215],[35.2493,-0.2056,1346.7684],[35.2487,-0.2078,1338.6078],[35.2508,-0.2067,1348.1921],[35.2506,-0.2086,1344.5337],[35.2532,-0.2102,1352.7415],[35.2541,-0.213,1352.103],[35.2561,-0.2132,1358.4044],[35.2573,-0.2162,1371.3],[35.2626,-0.2171,1442.1724],[35.2635,-0.2187,1404.5061],[35.2613,-0.2202,1380.9626],[35.2608,-0.2239,1361.6385],[35.2634,-0.2285,1376.1301],[35.2648,-0.2271,1373.7871],[35.2659,-0.2292,1388.6372],[35.2688,-0.2294,1431.2354],[35.2696,-0.2316,1418.4968],[35.2779,-0.2322,1445.032],[35.2861,-0.2303,1540.3828],[35.2928,-0.2307,1573.2739],[35.2982,-0.2333,1521.5258],[35.2997,-0.2321,1577.8954],[35.3014,-0.235,1571.483],[35.3063,-0.2342,1657.0732],[35.3131,-0.243,1593.2319],[35.3159,-0.2434,1626.5581],[35.3421,-0.2338,1757.626],[35.343,-0.2317,1741.342],[35.3377,-0.2078,1566.5935],[35.331,-0.1864,1752.3484],[35.3307,-0.1707,1679.6111],[35.2961,-0.1701,1543.9971],[35.2787,-0.1402,1521.7637],[35.2772,-0.1399,1521.7637],[35.2712,-0.1473,1510.0759],[35.2536,-0.1143,1580.5956],[35.2349,-0.1139,1441.0768],[35.2263,-0.1029,1451.176],[35.2268,-0.0609,1491.4071],[35.2209,-0.0298,1386.7579],[35.2165,-0.0306,1367.8241],[35.2149,-0.0265,1367.8079],[35.2128,-0.0265,1360.0714],[35.2124,-0.025,1368.9346],[35.2102,-0.0258,1365.1704],[35.2065,-0.0218,1363.0691],[35.2026,-0.0229,1361.4355],[35.1997,-0.0201,1364.4255],[35.1952,-0.0209,1355.9847],[35.194,-0.0194,1349.1266],[35.192,-0.0198,1342.6816],[35.1917,-0.022,1343.8613],[35.188,-0.0227,1339.8883],[35.1828,-0.0231,1333.9644],[35.1811,-0.021,1328.4323],[35.1812,-0.023,1328.0887],[35.1794,-0.0239,1321.1553],[35.1774,-0.0212,1347.6064],[35.1667,-0.0248,1333.6407],[35.1666,-0.026,1333.6407],[35.1615,-0.0241,1339.0614],[35.1587,-0.0309,1290.8293],[35.1551,-0.0302,1282.4047],[35.1502,-0.0326,1267.5333],[35.1511,-0.0307,1275.8654],[35.1474,-0.0272,1301.6023],[35.146,-0.0278,1300.3608],[35.1019,0.0018,1315.9126],[35.1005,-0.0013,1313.8645],[35.1013,-0.0055,1293.9812],[35.1029,-0.006,1294.2955],[35.1013,-0.0093,1285.5726],[35.1036,-0.0169,1262.4581],[35.1011,-0.0215,1257.8386],[35.0993,-0.0212,1260.0796],[35.0989,-0.023,1251.6331],[35.0958,-0.0239,1259.2981],[35.0926,-0.0385,1232.7302],[35.0897,-0.0389,1232.1136],[35.0867,-0.0434,1224.7357],[35.0836,-0.043,1224.4891],[35.0826,-0.0456,1220.9972],[35.0743,-0.0488,1221.843],[35.0656,-0.0598,1206.8789],[35.0662,-0.0626,1209.166],[35.0618,-0.0525,1229.0107],[35.0594,-0.0528,1227.9127],[35.0604,-0.0498,1232.9114],[35.0595,-0.0478,1245.1191],[35.0071,-0.0477,1220.3665],[35.0076,-0.0228,1516.2773],[34.9885,-0.0131,1443.4762],[34.9884,-0.0176,1371.8208],[34.9783,-0.0181,1469.3583],[34.9641,-0.0263,1378.9625],[34.9568,-0.0199,1591.2772],[34.9524,-0.0204,1674.795],[34.9544,-0.0243,1449.5389],[34.934,-0.0297,1447.209],[34.9233,-0.0302,1494.455],[34.9195,-0.0269,1384.0001],[34.922,-0.0196,1760.4192],[34.909,-0.0222,1741.3561],[34.8912,-0.0188,1597.6218],[34.8276,-0.0218,1494.788],[34.8081,-0.0156,1242.745],[34.8062,-0.011,1213.5887],[34.8102,-0.0082,1260.6019],[34.81,-0.0059,1233.3191],[34.808,-0.005,1239.007],[34.8101,0.0,1395.635],[34.8314,0.0301,1584.4266],[34.819,0.0275,1656.2643],[34.8165,0.0224,1639.8867],[34.8095,0.016,1522.13],[34.804,0.0151,1506.9498],[34.7862,-0.0011,1435.8143],[34.7808,-0.0125,1299.8237],[34.7755,-0.01,1335.9723],[34.7708,-0.0117,1265.4781],[34.7643,-0.0105,1366.3932],[34.7615,-0.0169,1320.4141],[34.758,-0.0194,1431.601],[34.7522,-0.0287,1492.6423],[34.7466,-0.0169,1495.4797],[34.7413,-0.0177,1544.8623],[34.7397,-0.0193,1543.614],[34.7317,-0.0061,1487.0735],[34.7261,0.0001,1514.88],[34.7155,-0.0037,1490.2322],[34.7095,-0.0148,1439.1161],[34.6959,-0.0136,1381.5892],[34.6886,-0.0197,1375.9125],[34.6875,-0.0195,1383.8339],[34.6924,-0.0125,1389.9967],[34.6936,-0.0083,1410.6375],[34.6887,-0.0046,1414.8926],[34.6717,-0.0096,1455.8672],[34.6403,0.0032,1744.2845],[34.6369,0.0062,1711.2223],[34.6329,0.006,1656.6526],[34.6274,0.009,1656.7881],[34.6117,0.0054,1575.1997],[34.6108,0.0062,1585.2649],[34.6129,0.0068,1661.552],[34.6135,0.0088,1674.9247],[34.6111,0.0101,1608.8812],[34.6083,0.0091,1559.7516],[34.6024,0.0174,1517.3652],[34.589,0.0065,1503.3466],[34.5917,-0.0011,1507.7371],[34.5898,-0.0025,1492.4929],[34.5862,-0.0168,1505.0385],[34.583,-0.0203,1495.9164],[34.5831,-0.0274,1460.08],[34.5765,-0.0318,1481.2241],[34.5706,-0.0321,1477.2432],[34.5651,-0.0362,1458.6235],[34.564,-0.0348,1460.009],[34.5608,-0.0298,1511.5537],[34.5617,-0.0268,1519.3313],[34.5606,-0.0253,1518.1758],[34.5639,-0.0224,1522.2135],[34.564,-0.0192,1503.9432],[34.5611,-0.0165,1493.7297],[34.5643,-0.014,1463.4623],[34.5633,-0.0134,1463.4623],[34.5555,-0.013,1461.2399],[34.5513,-0.017,1456.1553],[34.5477,-0.0179,1407.2084],[34.5421,-0.0137,1403.7296],[34.5383,-0.0136,1352.9438],[34.533,-0.01,1342.5981],[34.5298,-0.0155,1360.5476],[34.5266,-0.0151,1367.2859],[34.5072,-0.0222,1356.9646],[34.4854,-0.0266,1355.9642],[34.472,-0.0355,1312.6591],[34.4617,-0.0385,1327.4204],[34.4573,-0.0424,1350.5168],[34.4547,-0.0422,1354.4183],[34.4396,-0.0541,1345.7484],[34.4312,-0.0571,1328.7782],[34.4319,-0.0586,1339.478],[34.4251,-0.0627,1316.3547],[34.416,-0.074,1326.2239],[34.4164,-0.0846,1318.1733],[34.4151,-0.089,1311.151],[34.426,-0.1162,1206.0948],[34.4318,-0.141,1177.7903],[34.483,-0.2947,1133.0],[34.5304,-0.2666,1133.0],[34.705,-0.2528,1133.0],[34.7552,-0.2856,1133.0],[34.7558,-0.2905,1133.0],[34.7583,-0.2921,1133.0],[34.7574,-0.3009,1136.7864],[34.7606,-0.3079,1135.1116],[34.7629,-0.306,1135.7472],[34.7654,-0.3076,1135.3975],[34.7683,-0.3045,1135.6924],[34.7688,-0.3066,1136.0217],[34.7731,-0.3087,1136.9526],[34.7756,-0.312,1138.6055],[34.7795,-0.3117,1137.4895],[34.7816,-0.3175,1137.2415],[34.7832,-0.315,1136.8956],[34.7837,-0.3165,1137.129],[34.7856,-0.3166,1136.9857],[34.7843,-0.3177,1137.129],[34.7871,-0.3192,1137.5626],[34.7879,-0.3238,1137.8206],[34.7904,-0.3254,1138.1427],[34.7881,-0.3269,1137.9565],[34.7852,-0.3259,1137.9135],[34.7826,-0.3281,1138.2146],[34.7858,-0.3322,1138.5549],[34.7857,-0.3366,1138.73],[34.7885,-0.3374,1138.8849],[34.7923,-0.3355,1138.7085],[34.7935,-0.3381,1140.3303],[34.7905,-0.3422,1140.0486],[34.7963,-0.3443,1139.7559],[34.7993,-0.3488,1145.0184],[34.8076,-0.3489,1146.7162],[34.8096,-0.3451,1143.6797],[34.811,-0.3457,1143.8944],[34.8106,-0.3503,1149.4928],[34.8177,-0.3586,1359.7292],[34.8203,-0.3648,1232.0569],[34.8229,-0.3657,1381.3743],[34.8213,-0.3731,1353.928],[34.8249,-0.3755,1263.955],[34.8252,-0.3779,1327.2103],[34.8246,-0.3798,1337.8884],[34.822,-0.3804,1355.8662],[34.8248,-0.3824,1285.4584],[34.8333,-0.3822,1363.6516],[34.8389,-0.387,1420.1901],[34.8593,-0.3864,1408.7621],[34.8584,-0.3888,1411.3696],[34.8623,-0.3914,1422.3292],[34.8645,-0.3912,1434.7838],[34.8669,-0.3882,1466.6464],[34.8779,-0.392,1431.9651],[34.8793,-0.3896,1446.5063],[34.8848,-0.39,1453.8922],[34.887,-0.3913,1464.9161],[34.8885,-0.3955,1429.4878],[34.8944,-0.3878,1458.6814],[34.8975,-0.3886,1451.2247],[34.9007,-0.3855,1427.228],[34.9151,-0.3797,1448.645],[34.9162,-0.3843,1422.6384],[34.9145,-0.3861,1416.0111],[34.9154,-0.3892,1410.4128],[34.9132,-0.3905,1425.1896],[34.9141,-0.3974,1414.0504],[34.9299,-0.3968,1447.6034],[34.9296,-0.4059,1421.7067],[34.9359,-0.405,1482.0859],[34.9386,-0.4073,1478.0548],[34.9453,-0.4076,1495.6222],[34.9507,-0.4103,1461.8848],[34.9574,-0.4088,1501.3044],[34.9595,-0.4102,1495.726],[34.9646,-0.4083,1466.6718],[34.9638,-0.406,1496.7494],[34.9668,-0.406,1481.0715],[34.9682,-0.4077,1471.6949],[34.9752,-0.4039,1522.3809],[34.9813,-0.4085,1501.4194],[34.9837,-0.4071,1520.7988],[34.9868,-0.4083,1484.7853],[34.9881,-0.4034,1530.5],[34.9979,-0.3993,1532.4521],[35.003,-0.3993,1505.7142],[35.0046,-0.3945,1540.8073],[35.0072,-0.3932,1514.7974],[35.007,-0.3894,1558.8523],[35.01,-0.386,1521.734]]]]}
,"properties": {"GID_1": "KEN.17_1","GID_0": "KEN","country": "Kenya","province": "Kisumu","VARNAME_1": "NA","NL_NAME_1": "NA","TYPE_1": "County","ENGTYPE_1": "County","CC_1": "42","HASC_1": "KE.KU","ISO_1": "KE-17","name": "Kisumu.province","area_km2": 2677.04,"hist_schema_id": "Elevation0-9000","hist_area_km2": {"1125": 676.006,"1150": 496.829,"1175": 286.292,"1200": 207.866,"1225": 165.334,"1250": 123.566,"1275": 99.862,"1300": 84.745,"1325": 69.161,"1350": 62.483,"1375": 66.935,"1400": 55.338,"1425": 50.8,"1450": 44.736,"1475": 42.383,"1500": 32.015,"1525": 25.4,"1550": 18.806,"1575": 30.912,"1600": 10.283,"1625": 9.604,"1650": 8.672,"1675": 3.223,"1700": 2.035,"1725": 1.336,"1750": 1.272,"1775": 0.827,"1800": 0.233,"1825": 0.064,"1850": 0.021}}}