{"type": "Feature","bbox": [37.6772,-0.1826,37.8677,-0.0601],"geometry": {"type": "MultiPolygon","coordinates": [[[[37.6772,-0.0638,1447.3134],[37.6827,-0.0714,1396.7639],[37.6803,-0.0734,1416.4467],[37.6825,-0.0785,1408.946],[37.6865,-0.0808,1397.4771],[37.7023,-0.0804,1322.3586],[37.7073,-0.0822,1303.7251],[37.7143,-0.0937,1267.9769],[37.7179,-0.1132,1126.4794],[37.7283,-0.1139,1113.5297],[37.7401,-0.1076,1139.5786],[37.7451,-0.1109,1093.7078],[37.7527,-0.1101,1080.1084],[37.7583,-0.1188,1024.4905],[37.7637,-0.1201,1016.9454],[37.7671,-0.1276,992.2703],[37.7799,-0.1395,948.8704],[37.7823,-0.1451,939.2836],[37.7823,-0.1503,915.7953],[37.7849,-0.154,906.2846],[37.7957,-0.1613,903.0427],[37.8023,-0.1756,875.0027],[37.8035,-0.1826,868.2631],[37.8369,-0.157,856.371],[37.8677,-0.1299,750.1563],[37.8653,-0.1298,759.4667],[37.8651,-0.1259,759.7792],[37.8587,-0.1252,760.4045],[37.8565,-0.1215,768.1559],[37.857,-0.1184,773.615],[37.8521,-0.1129,791.7115],[37.8543,-0.1094,788.6443],[37.8523,-0.1056,806.7472],[37.8469,-0.1053,803.8193],[37.843,-0.1006,815.8282],[37.8371,-0.1014,825.1937],[37.8365,-0.0975,847.4465],[37.8325,-0.0987,846.7894],[37.8321,-0.1002,852.2706],[37.8264,-0.1004,872.042],[37.8256,-0.1019,869.8999],[37.8209,-0.0979,887.9686],[37.8032,-0.0958,952.1168],[37.7969,-0.0979,968.7328],[37.7897,-0.0955,990.7418],[37.7823,-0.0972,1003.455],[37.7795,-0.0999,1000.3985],[37.7676,-0.1047,1064.0341],[37.7565,-0.1033,1103.0741],[37.7489,-0.0963,1173.4816],[37.7357,-0.0935,1200.5338],[37.7277,-0.0855,1247.576],[37.7179,-0.0816,1261.6443],[37.7125,-0.0755,1292.0759],[37.7009,-0.0723,1340.6167],[37.6884,-0.0613,1397.2275],[37.6811,-0.0601,1425.2258],[37.6772,-0.0638,1447.3134]]]]}
,"properties": {"GID_3": "KEN.26.7.5_1","GID_0": "KEN","country": "Kenya","GID_1": "KEN.26_1","province": "Meru","NL_NAME_1": "NA","GID_2": "KEN.26.7_1","county": "SouthImenti","NL_NAME_2": "NA","city": "Mitunguu","VARNAME_3": "NA","NL_NAME_3": "NA","TYPE_3": "Ward","ENGTYPE_3": "Ward","CC_3": "290","HASC_3": "NA","name": "Mitunguu.city","area_km2": 82.64601,"hist_schema_id": "Elevation0-9000","hist_area_km2": {"750": 1.20852,"775": 3.09551,"800": 5.13092,"825": 4.72808,"850": 4.74928,"875": 6.08501,"900": 8.54446,"925": 7.12392,"950": 7.73879,"975": 7.37835,"1000": 5.57617,"1025": 2.33224,"1050": 1.22973,"1075": 1.35694,"1100": 1.54776,"1125": 1.31453,"1150": 1.0177,"1175": 1.0177,"1200": 1.37814,"1225": 1.56896,"1250": 1.59016,"1275": 1.69617,"1300": 0.9753,"1325": 0.42404,"1350": 0.86929,"1375": 1.35694,"1400": 1.14492,"1425": 0.44525,"1450": 0.0212}}}