{"type": "Feature","bbox": [37.2757,-1.4498,37.3433,-1.3728],"geometry": {"type": "MultiPolygon","coordinates": [[[[37.3129,-1.3728,1418.512],[37.3104,-1.3748,1417.4001],[37.3073,-1.3829,1422.5375],[37.3054,-1.3818,1406.9658],[37.3045,-1.3839,1394.9568],[37.3027,-1.3824,1428.0554],[37.3008,-1.3832,1404.814],[37.2995,-1.3804,1435.7949],[37.2936,-1.3784,1433.4794],[37.2884,-1.3851,1446.2416],[37.2863,-1.3854,1456.1121],[37.2855,-1.3899,1450.0366],[37.2831,-1.3908,1481.1857],[37.2828,-1.3954,1499.1528],[37.2936,-1.4039,1633.5924],[37.2952,-1.4088,1803.1635],[37.3082,-1.4156,1630.426],[37.2966,-1.4193,1829.3347],[37.2932,-1.4241,1898.1301],[37.2905,-1.4233,1923.8326],[37.2901,-1.4259,1930.2922],[37.2864,-1.4244,1924.9735],[37.2834,-1.4311,1920.9139],[37.2803,-1.4305,1835.7266],[37.2779,-1.4346,1935.8434],[37.2757,-1.4352,2001.3719],[37.2767,-1.4376,2016.7825],[37.2814,-1.4408,1983.3691],[37.2804,-1.447,2067.8135],[37.2842,-1.4477,1981.02],[37.2879,-1.4456,1845.5402],[37.2932,-1.4474,1811.8015],[37.2952,-1.4498,1749.5037],[37.2985,-1.4484,1746.9087],[37.303,-1.4432,1725.7019],[37.3048,-1.4384,1679.5521],[37.3108,-1.4358,1705.3428],[37.3129,-1.4367,1656.6486],[37.3158,-1.4333,1665.7323],[37.3191,-1.4327,1648.8181],[37.3218,-1.4277,1592.1836],[37.3244,-1.4274,1469.2325],[37.3274,-1.4224,1419.8678],[37.3312,-1.4218,1364.6802],[37.3362,-1.4168,1354.95],[37.339,-1.4162,1361.8638],[37.3423,-1.4181,1338.488],[37.3409,-1.4128,1342.4751],[37.3433,-1.4094,1379.6941],[37.3421,-1.4084,1362.3721],[37.3398,-1.4108,1344.8268],[37.34,-1.4075,1372.4829],[37.3369,-1.407,1346.6322],[37.3351,-1.4032,1353.674],[37.3331,-1.4031,1349.964],[37.3341,-1.3943,1371.1575],[37.3241,-1.3847,1395.1406],[37.3222,-1.3857,1382.2609],[37.3219,-1.3878,1377.7687],[37.3195,-1.3863,1404.0027],[37.3209,-1.3839,1400.8373],[37.3183,-1.382,1372.2908],[37.3194,-1.3792,1390.0544],[37.3154,-1.3794,1381.0931],[37.3138,-1.3774,1401.0721],[37.3161,-1.3773,1380.3424],[37.3161,-1.376,1394.5896],[37.3129,-1.3728,1418.512]]]]}
,"properties": {"GID_3": "KEN.22.2.1_1","GID_0": "KEN","country": "Kenya","GID_1": "KEN.22_1","province": "Machakos","NL_NAME_1": "NA","GID_2": "KEN.22.2_1","county": "Kathiani","NL_NAME_2": "NA","city": "KathianiCentral","VARNAME_3": "NA","NL_NAME_3": "NA","TYPE_3": "Ward","ENGTYPE_3": "Ward","CC_3": "391","HASC_3": "NA","name": "Kathiani_Central.city","area_km2": 31.0942,"hist_schema_id": "Elevation0-9000","hist_area_km2": {"1325": 0.0212,"1350": 1.27175,"1375": 3.15819,"1400": 3.90005,"1425": 3.137,"1450": 2.69188,"1475": 1.61089,"1500": 1.08099,"1525": 0.74185,"1550": 0.63587,"1575": 0.33913,"1600": 0.4875,"1625": 0.40272,"1650": 0.42391,"1675": 0.78424,"1700": 1.05978,"1725": 1.12337,"1750": 1.35652,"1775": 1.33532,"1800": 1.01739,"1825": 0.9538,"1850": 0.55109,"1875": 0.44511,"1900": 0.69945,"1925": 0.42391,"1950": 0.59348,"1975": 0.4663,"2000": 0.10598,"2025": 0.14837,"2050": 0.10598,"2075": 0.0212}}}