{"type": "Feature","bbox": [35.5659,0.1945,35.7231,0.3937],"geometry": {"type": "MultiPolygon","coordinates": [[[[35.6601,0.3918,1185.4502],[35.6568,0.3877,1239.5186],[35.6514,0.3852,1239.7531],[35.6483,0.3755,1250.4089],[35.6431,0.374,1275.2413],[35.6426,0.3703,1287.2305],[35.6391,0.367,1295.0211],[35.6303,0.3635,1352.2263],[35.6355,0.3569,1339.0374],[35.6383,0.3569,1330.2695],[35.6382,0.3515,1354.7075],[35.629,0.3513,1413.8228],[35.6279,0.3487,1468.8173],[35.6155,0.3515,1831.6907],[35.6134,0.3533,1878.033],[35.6089,0.3532,1984.0183],[35.604,0.3557,2087.1387],[35.589,0.3543,2709.333],[35.5896,0.3515,2710.478],[35.5864,0.3492,2710.1748],[35.583,0.339,2729.8638],[35.5821,0.328,2712.9746],[35.5659,0.3022,2702.4104],[35.5667,0.2938,2671.0796],[35.5685,0.2912,2474.322],[35.567,0.2886,2676.1611],[35.5746,0.2808,2155.502],[35.5727,0.2794,2317.0845],[35.5746,0.2781,2306.5444],[35.579,0.2797,2048.9893],[35.5769,0.275,2428.2578],[35.5771,0.2658,2443.2695],[35.5823,0.2669,2505.1833],[35.5936,0.2621,2739.2163],[35.5931,0.2532,2632.2578],[35.598,0.2542,2267.4482],[35.6121,0.2661,1900.2686],[35.6177,0.266,1891.7002],[35.6188,0.2675,1870.4287],[35.629,0.2698,1739.9783],[35.6329,0.2683,1707.0664],[35.6306,0.2646,1607.6588],[35.632,0.2641,1585.8435],[35.6352,0.2476,1536.267],[35.6257,0.2397,1700.0881],[35.6193,0.2369,1815.4651],[35.6136,0.2288,1823.4154],[35.6122,0.2289,1857.4609],[35.6053,0.2172,2000.5865],[35.5983,0.2147,2154.7671],[35.5915,0.2043,2400.583],[35.5996,0.2074,2049.3193],[35.6045,0.2037,2083.834],[35.6046,0.2002,2251.6191],[35.6137,0.2028,2328.4795],[35.6242,0.2131,2238.5232],[35.631,0.2127,2269.5342],[35.6943,0.1972,2420.8677],[35.6948,0.1945,2295.3315],[35.7013,0.1994,2200.5601],[35.7015,0.2021,2271.6614],[35.7058,0.2063,2280.9307],[35.7056,0.2078,2267.936],[35.7128,0.2111,1989.4353],[35.7164,0.211,1847.8799],[35.7177,0.2153,1870.4873],[35.7224,0.2173,1705.2604],[35.7227,0.2252,1615.884],[35.7204,0.2315,1607.2906],[35.7208,0.2401,1562.9561],[35.7183,0.2461,1553.1178],[35.7169,0.2464,1530.1177],[35.7148,0.2559,1543.359],[35.7131,0.2562,1506.4172],[35.7091,0.2613,1482.647],[35.7106,0.2625,1497.0601],[35.7081,0.2644,1527.954],[35.7098,0.2643,1487.3306],[35.7091,0.2671,1516.29],[35.711,0.2701,1497.9148],[35.7093,0.2729,1487.5205],[35.7136,0.2758,1441.9124],[35.7113,0.2776,1457.701],[35.7145,0.2813,1430.5364],[35.7127,0.2859,1430.2311],[35.7145,0.287,1422.4236],[35.7152,0.2911,1405.6251],[35.7136,0.301,1380.6562],[35.7151,0.3021,1377.6299],[35.714,0.3039,1370.8879],[35.7156,0.304,1384.1169],[35.7155,0.3072,1398.2161],[35.7126,0.3106,1362.7709],[35.7144,0.3152,1351.9303],[35.7129,0.3145,1359.3076],[35.7117,0.3165,1360.5336],[35.7135,0.3177,1353.0577],[35.7122,0.321,1376.8026],[35.7149,0.3253,1372.5746],[35.7179,0.327,1334.8632],[35.7165,0.328,1332.7933],[35.7167,0.3352,1331.2729],[35.7192,0.3356,1318.6359],[35.7198,0.3422,1299.2606],[35.7231,0.3439,1316.5869],[35.7186,0.3496,1344.0415],[35.7227,0.3556,1326.5706],[35.7204,0.3573,1328.9854],[35.7201,0.3617,1326.6057],[35.718,0.3607,1309.712],[35.7144,0.3631,1271.1927],[35.7129,0.3616,1268.9243],[35.71,0.3624,1266.1649],[35.7067,0.3704,1270.7567],[35.7042,0.3677,1263.306],[35.7003,0.37,1254.5811],[35.6985,0.3748,1256.7102],[35.6964,0.3739,1250.9966],[35.6982,0.3706,1252.1649],[35.6969,0.3697,1245.3358],[35.684,0.3782,1230.1499],[35.6836,0.3766,1227.5726],[35.6816,0.3773,1228.8868],[35.6805,0.3756,1227.9941],[35.6797,0.379,1219.9731],[35.6759,0.3821,1216.2772],[35.6738,0.3802,1208.7502],[35.6726,0.3842,1215.2651],[35.6699,0.3843,1194.011],[35.6674,0.3871,1214.0488],[35.6662,0.3901,1224.1254],[35.6675,0.3924,1224.9199],[35.6644,0.3915,1224.3442],[35.6636,0.3937,1209.988],[35.6601,0.3918,1185.4502]]]]}
,"properties": {"GID_3": "KEN.5.2.6_1","GID_0": "KEN","country": "Kenya","GID_1": "KEN.5_1","province": "Elgeyo-Marakwet","NL_NAME_1": "NA","GID_2": "KEN.5.2_1","county": "KeiyoSouth","NL_NAME_2": "NA","city": "SoySouth","VARNAME_3": "NA","NL_NAME_3": "NA","TYPE_3": "Ward","ENGTYPE_3": "Ward","CC_3": "748","HASC_3": "NA","name": "Soy_South.city","area_km2": 249.1438,"hist_schema_id": "Elevation0-9000","hist_area_km2": {"1175": 0.106,"1200": 1.6961,"1225": 6.933,"1250": 11.8518,"1275": 13.3147,"1300": 13.8448,"1325": 11.9366,"1350": 10.3253,"1375": 9.8589,"1400": 7.9719,"1425": 6.721,"1450": 5.4065,"1475": 5.4913,"1500": 5.4065,"1525": 6.5726,"1550": 6.615,"1575": 6.3818,"1600": 5.5125,"1625": 6.297,"1650": 6.2334,"1675": 5.0037,"1700": 4.304,"1725": 4.3888,"1750": 4.5796,"1775": 4.8977,"1800": 5.3005,"1825": 4.8341,"1850": 4.622,"1875": 3.986,"1900": 4.6008,"1925": 4.4736,"1950": 4.0072,"1975": 4.6432,"2000": 3.8164,"2025": 3.3923,"2050": 2.7987,"2075": 2.311,"2100": 2.3322,"2125": 1.8234,"2150": 1.7598,"2175": 2.099,"2200": 1.7386,"2225": 1.4205,"2250": 1.7174,"2275": 1.7598,"2300": 1.9082,"2325": 1.1237,"2350": 1.2721,"2375": 0.9753,"2400": 0.9541,"2425": 0.6997,"2450": 0.7209,"2475": 0.7209,"2500": 0.6361,"2525": 0.4664,"2550": 0.3392,"2575": 0.53,"2600": 0.4664,"2625": 0.4664,"2650": 0.3392,"2675": 0.5088,"2700": 0.8693,"2725": 0.8057,"2750": 0.2544}}}