{"type":"Feature","properties":{"GID_3":"KEN.45.5.4_1","GID_0":"KEN","country":"Kenya","GID_1":"KEN.45_1","province":"Vihiga","NL_NAME_1":"NA","GID_2":"KEN.45.5_1","county":"Vihiga","NL_NAME_2":"NA","city":"SouthMaragoli","VARNAME_3":"NA","NL_NAME_3":"NA","TYPE_3":"Ward","ENGTYPE_3":"Ward","CC_3":"1052","HASC_3":"NA","name":"South_Maragoli.city"},
"geometry":{"type": "MultiPolygon","coordinates": [[[[34.7261,0.0001,1514.88],[34.7138,0.0155,1452.6843],[34.7169,0.0274,1594.3291],[34.7121,0.0291,1611.0702],[34.7093,0.0353,1662.4137],[34.6985,0.0346,1624.0387],[34.6941,0.0369,1600.9236],[34.6834,0.0301,1589.3173],[34.6832,0.0217,1600.5953],[34.6792,0.0186,1631.5703],[34.6803,0.0167,1643.4932],[34.6793,0.0146,1626.7849],[34.6757,0.0163,1611.5712],[34.6751,0.0103,1634.7572],[34.6689,0.0116,1632.9567],[34.6663,0.0079,1637.718],[34.6654,0.0159,1623.0408],[34.6669,0.0193,1636.8861],[34.6636,0.0191,1600.8999],[34.6574,0.0124,1567.3466],[34.6506,0.0082,1582.5894],[34.649,0.0014,1567.4575],[34.6511,-0.0009,1488.7909],[34.6717,-0.0096,1455.8672],[34.6887,-0.0046,1414.8926],[34.6936,-0.0083,1410.6375],[34.6924,-0.0125,1389.9967],[34.6875,-0.0195,1383.8339],[34.6886,-0.0197,1375.9125],[34.6959,-0.0136,1381.5892],[34.7095,-0.0148,1439.1161],[34.7155,-0.0037,1490.2322],[34.7261,0.0001,1514.88]]]]}}