{"type":"Feature","properties":{"GID_3":"KEN.30.8.5_1","GID_0":"KEN","country":"Kenya","GID_1":"KEN.30_1","province":"Nairobi","NL_NAME_1":"NA","GID_2":"KEN.30.8_1","county":"Kamukunji","NL_NAME_2":"NA","city":"Pumwani","VARNAME_3":"NA","NL_NAME_3":"NA","TYPE_3":"Ward","ENGTYPE_3":"Ward","CC_3":"1434","HASC_3":"NA","name":"Pumwani.city"},
"geometry":{"type": "MultiPolygon","coordinates": [[[[36.8458,-1.2778,1651.2251],[36.8438,-1.2779,1652.5634],[36.8437,-1.2805,1652.7681],[36.8379,-1.2825,1657.4281],[36.8394,-1.2843,1647.4397],[36.8315,-1.2834,1657.4829],[36.8399,-1.2866,1640.416],[36.8402,-1.2898,1650.6536],[36.8506,-1.2919,1642.1846],[36.8515,-1.2874,1641.0175],[36.8471,-1.2863,1639.9539],[36.8458,-1.2778,1651.2251]]]]}}