{"type": "Feature","bbox": [34.6854,-0.9582,34.8308,-0.8456],"geometry": {"type": "MultiPolygon","coordinates": [[[[34.7348,-0.9536,1848.78],[34.8308,-0.9295,1895.8751],[34.8305,-0.9259,1937.7932],[34.8216,-0.9235,1953.0105],[34.8192,-0.9211,1925.9108],[34.8167,-0.8908,1815.6997],[34.8128,-0.8812,1794.5577],[34.8029,-0.8821,1740.6528],[34.7939,-0.88,1717.4156],[34.7924,-0.8767,1750.5979],[34.7867,-0.8727,1754.5513],[34.7853,-0.8735,1736.8177],[34.782,-0.8694,1744.2719],[34.7769,-0.868,1732.0818],[34.7759,-0.8637,1726.1086],[34.7694,-0.857,1714.3667],[34.7613,-0.8541,1669.8951],[34.7611,-0.8516,1675.4385],[34.7488,-0.85,1695.0789],[34.748,-0.8456,1682.6432],[34.7446,-0.8469,1684.498],[34.7398,-0.8458,1682.8342],[34.7328,-0.858,1702.4115],[34.7269,-0.8629,1747.5168],[34.7244,-0.8705,1767.5844],[34.7277,-0.8755,1761.0514],[34.7272,-0.8815,1723.1542],[34.7238,-0.8908,1726.6292],[34.7202,-0.8923,1732.1721],[34.7117,-0.8894,1742.4069],[34.6951,-0.8923,1676.9912],[34.6946,-0.8907,1702.2571],[34.687,-0.8898,1716.5266],[34.686,-0.8933,1650.5345],[34.6854,-0.9045,1717.9146],[34.6898,-0.9182,1795.3204],[34.6955,-0.9225,1833.7585],[34.6982,-0.9329,1771.7516],[34.7016,-0.9351,1890.41],[34.7073,-0.9347,1969.9709],[34.7109,-0.9409,1968.1091],[34.7114,-0.9508,1963.6362],[34.7157,-0.9582,1899.9497],[34.7348,-0.9536,1848.78]]]]}
,"properties": {"GID_2": "KEN.16.2_1","GID_0": "KEN","country": "Kenya","GID_1": "KEN.16_1","province": "Kisii","NL_NAME_1": "NA","county": "BomachogeBorabu","VARNAME_2": "NA","NL_NAME_2": "NA","TYPE_2": "Constituency","ENGTYPE_2": "Constituency","CC_2": "263","HASC_2": "NA","name": "Bomachoge_Borabu.county","area_km2": 114.85916,"hist_schema_id": "Elevation0-9000","hist_area_km2": {"1600": 0.2544,"1625": 0.63599,"1650": 1.12358,"1675": 3.68875,"1700": 8.56469,"1725": 10.76943,"1750": 14.47933,"1775": 22.04752,"1800": 22.02627,"1825": 12.23209,"1850": 6.74143,"1875": 4.0703,"1900": 3.09512,"1925": 2.18355,"1950": 1.27196,"1975": 0.84797,"2000": 0.76318,"2025": 0.0636}}}