{"type":"Feature","properties":{"GID_3":"KEN.30.14.3_1","GID_0":"KEN","country":"Kenya","GID_1":"KEN.30_1","province":"Nairobi","NL_NAME_1":"NA","GID_2":"KEN.30.14_1","county":"Roysambu","NL_NAME_2":"NA","city":"KahawaWest","VARNAME_3":"NA","NL_NAME_3":"NA","TYPE_3":"Ward","ENGTYPE_3":"Ward","CC_3":"1392","HASC_3":"NA","name":"Kahawa_West.city"},
"geometry":{"type": "MultiPolygon","coordinates": [[[[36.8877,-1.1712,1581.2645],[36.8935,-1.1794,1570.9781],[36.9088,-1.1841,1554.1909],[36.9104,-1.183,1554.1909],[36.9141,-1.1882,1552.5017],[36.9136,-1.1924,1543.163],[36.9164,-1.1966,1535.2808],[36.92,-1.1969,1540.1262],[36.9418,-1.1731,1523.4541],[36.9331,-1.1672,1540.463],[36.9268,-1.1664,1529.3621],[36.924,-1.1632,1547.6116],[36.9207,-1.1623,1536.4048],[36.9196,-1.16,1551.7817],[36.9029,-1.1579,1567.5942],[36.8978,-1.1584,1567.3969],[36.8934,-1.167,1572.3799],[36.8877,-1.1712,1581.2645]]]]}}