{"type": "Feature","bbox": [36.8816,-1.292,36.8948,-1.2711],"geometry": {"type": "MultiPolygon","coordinates": [[[[36.8865,-1.292,1628.2313],[36.8907,-1.2817,1623.7823],[36.8948,-1.2711,1609.9757],[36.8816,-1.2746,1615.9371],[36.8865,-1.292,1628.2313]]]]}
,"properties": {"GID_3": "KEN.30.7.3_1","GID_0": "KEN","country": "Kenya","GID_1": "KEN.30_1","province": "Nairobi","NL_NAME_1": "NA","GID_2": "KEN.30.7_1","county": "EmbakasiWest","NL_NAME_2": "NA","city": "UmojaI","VARNAME_3": "NA","NL_NAME_3": "NA","TYPE_3": "Ward","ENGTYPE_3": "Ward","CC_3": "1426","HASC_3": "NA","name": "Umoja_I.city","area_km2": 1.547375,"hist_schema_id": "Elevation0-9000","hist_area_km2": {"1600": 0.127182,"1625": 1.420194}}}