{"type": "Feature","bbox": [36.8633,-1.2557,36.8772,-1.2441],"geometry": {"type": "MultiPolygon","coordinates": [[[[36.873,-1.2505,1617.392],[36.876,-1.2496,1599.7034],[36.8772,-1.2465,1611.9529],[36.8745,-1.2444,1612.259],[36.8687,-1.2441,1619.7332],[36.8682,-1.2486,1621.8607],[36.8658,-1.2496,1623.6482],[36.8671,-1.2535,1613.9829],[36.8633,-1.2557,1630.0675],[36.8689,-1.2536,1608.7595],[36.873,-1.2505,1617.392]]]]}
,"properties": {"GID_3": "KEN.30.15.4_1","GID_0": "KEN","country": "Kenya","GID_1": "KEN.30_1","province": "Nairobi","NL_NAME_1": "NA","GID_2": "KEN.30.15_1","county": "Ruaraka","NL_NAME_2": "NA","city": "MathareNorth","VARNAME_3": "NA","NL_NAME_3": "NA","TYPE_3": "Ward","ENGTYPE_3": "Ward","CC_3": "1403","HASC_3": "NA","name": "Mathare_North.city","area_km2": 0.7842954,"hist_schema_id": "Elevation0-9000","hist_area_km2": {"1600": 0.0211972,"1625": 0.7630982}}}