{"type":"Feature","properties":{"GID_3":"KEN.26.1.3_1","GID_0":"KEN","country":"Kenya","GID_1":"KEN.26_1","province":"Meru","NL_NAME_1":"NA","GID_2":"KEN.26.1_1","county":"Buuri","NL_NAME_2":"NA","city":"Kiirua/Naari","VARNAME_3":"NA","NL_NAME_3":"NA","TYPE_3":"Ward","ENGTYPE_3":"Ward","CC_3":"283","HASC_3":"NA","name":"Kiirua_Naari.city"},
"geometry":{"type": "MultiPolygon","coordinates": [[[[37.5649,0.0677,2104.8008],[37.5725,0.0619,2059.8452],[37.5694,0.0587,2060.1296],[37.5782,0.0477,2036.105],[37.5802,0.0493,2011.2488],[37.5855,0.0493,1975.7061],[37.5941,0.0551,1923.4305],[37.6009,0.0543,1916.2622],[37.6091,0.0567,1872.7788],[37.5999,0.0687,1898.9518],[37.6103,0.071,1852.6245],[37.6095,0.0783,1840.9751],[37.6043,0.0775,1857.4952],[37.6029,0.0843,1849.6708],[37.6027,0.0905,1841.8068],[37.6103,0.0935,1817.2507],[37.6057,0.1019,1815.1792],[37.6085,0.1125,1789.4142],[37.6012,0.1265,1851.3622],[37.595,0.1262,1864.6449],[37.5969,0.122,1859.6073],[37.5953,0.1189,1890.7018],[37.5961,0.1161,1831.464],[37.5935,0.1147,1895.1476],[37.5881,0.1149,1916.9635],[37.5859,0.1217,1912.8646],[37.5824,0.1482,1893.9034],[37.5822,0.1549,1856.2515],[37.5844,0.1583,1845.176],[37.5831,0.1615,1912.4211],[37.5863,0.1659,1773.4111],[37.5981,0.1693,1785.3445],[37.5893,0.2278,1459.0229],[37.5787,0.2267,1493.6183],[37.5616,0.2285,1525.0679],[37.5509,0.2272,1548.3519],[37.5426,0.2242,1562.8762],[37.5377,0.2162,1606.5419],[37.5375,0.2095,1620.6335],[37.5341,0.2059,1653.7719],[37.5314,0.1942,1705.8202],[37.5312,0.1905,1726.3788],[37.5333,0.1882,1735.0892],[37.5332,0.1812,1767.8193],[37.5387,0.1706,1816.2866],[37.5381,0.1656,1850.8551],[37.5403,0.1617,1875.032],[37.5376,0.1535,1907.6602],[37.5385,0.1523,1908.2249],[37.5445,0.1541,1947.6858],[37.547,0.1517,1926.4146],[37.5553,0.1343,2008.967],[37.5469,0.0995,2243.2207],[37.5467,0.094,2393.7625],[37.5564,0.0836,2180.752],[37.5575,0.0805,2163.4834],[37.5555,0.0757,2177.1765],[37.5573,0.0727,2154.0652],[37.5649,0.0677,2104.8008]]]]}}