{"type": "Feature","bbox": [36.851,-1.3707,36.9134,-1.3257],"geometry": {"type": "MultiPolygon","coordinates": [[[[36.9075,-1.3601,1635.3135],[36.8814,-1.3338,1638.3834],[36.8871,-1.3292,1634.1577],[36.8833,-1.3264,1635.4709],[36.8593,-1.3285,1646.4485],[36.8518,-1.3257,1649.6213],[36.851,-1.3269,1651.7004],[36.8822,-1.3473,1637.3113],[36.8924,-1.3586,1636.7662],[36.8949,-1.3565,1637.002],[36.9076,-1.3705,1633.3274],[36.9134,-1.3707,1630.4226],[36.9056,-1.3618,1635.9758],[36.9075,-1.3601,1635.3135]]]]}
,"properties": {"GID_3": "KEN.30.6.1_1","GID_0": "KEN","country": "Kenya","GID_1": "KEN.30_1","province": "Nairobi","NL_NAME_1": "NA","GID_2": "KEN.30.6_1","county": "EmbakasiSouth","NL_NAME_2": "NA","city": "ImaraDaima","VARNAME_3": "NA","NL_NAME_3": "NA","TYPE_3": "Ward","ENGTYPE_3": "Ward","CC_3": "1406","HASC_3": "NA","name": "Imara_Daima.city","area_km2": 7.779072,"hist_schema_id": "Elevation0-9000","hist_area_km2": {"1625": 3.497394,"1650": 4.281678}}}