{"type": "Feature","bbox": [35.2339,0.8959,35.362,1.0427],"geometry": {"type": "MultiPolygon","coordinates": [[[[35.3259,1.0373,2260.9561],[35.3117,1.0427,2217.4773],[35.31,1.0206,2218.1802],[35.304,1.0271,2216.803],[35.2997,1.0227,2181.9873],[35.2971,1.0225,2219.4272],[35.2965,1.0192,2183.6208],[35.2944,1.0177,2146.8406],[35.2902,1.0179,2099.8025],[35.29,1.0156,2104.9565],[35.2845,1.014,2149.7898],[35.2811,1.0093,2117.3105],[35.2746,1.0064,1944.6964],[35.289,0.9776,2111.6367],[35.2798,0.9731,1996.9197],[35.2538,0.9833,1894.8737],[35.249,0.988,1896.499],[35.2456,0.9838,1894.2063],[35.2403,0.9836,1902.6713],[35.2372,0.9771,1886.2577],[35.2363,0.9694,1867.2507],[35.2339,0.9682,1873.3065],[35.2384,0.956,1865.084],[35.2366,0.9499,1861.1267],[35.2384,0.9378,1842.0892],[35.2443,0.9386,1856.473],[35.2465,0.9438,1870.0702],[35.2525,0.9463,1876.5084],[35.2584,0.943,1863.2712],[35.2604,0.9435,1867.8027],[35.2613,0.9412,1872.7844],[35.2704,0.941,1881.4691],[35.2725,0.9347,1867.8494],[35.2779,0.9291,1876.9697],[35.2784,0.9266,1868.8745],[35.2849,0.9256,1884.0121],[35.2936,0.9195,1886.1511],[35.2922,0.9182,1880.3723],[35.2941,0.9158,1884.8125],[35.2941,0.9127,1873.9592],[35.2957,0.9128,1887.2185],[35.2957,0.9087,1876.6863],[35.2987,0.9038,1883.1453],[35.303,0.903,1891.7661],[35.303,0.8984,1885.6375],[35.3054,0.8959,1893.2849],[35.3297,0.9389,2185.4685],[35.3341,0.934,2084.8896],[35.3489,0.9263,1988.8624],[35.3593,0.95,2078.8076],[35.3438,0.953,2071.2703],[35.3403,0.9684,2086.8772],[35.3463,0.9718,2076.8667],[35.3373,0.9734,2104.356],[35.3396,0.9787,2138.5371],[35.3523,0.9848,2106.8477],[35.3423,1.0097,2287.4888],[35.3618,1.0139,2400.8792],[35.362,1.0247,2344.1821],[35.3259,1.0373,2260.9561]]]]}
,"properties": {"GID_3": "KEN.42.1.1_1","GID_0": "KEN","country": "Kenya","GID_1": "KEN.42_1","province": "TransNzoia","NL_NAME_1": "NA","GID_2": "KEN.42.1_1","county": "Cherangany","NL_NAME_2": "NA","city": "Chepsiro/Kiptoror","VARNAME_3": "NA","NL_NAME_3": "NA","TYPE_3": "Ward","ENGTYPE_3": "Ward","CC_3": "699","HASC_3": "NA","name": "Chepsiro_Kiptoror.city","area_km2": 113.66986,"hist_schema_id": "Elevation0-9000","hist_area_km2": {"1850": 1.08117,"1875": 7.84373,"1900": 11.55362,"1925": 9.2217,"1950": 5.85101,"1975": 4.64264,"2000": 3.56148,"2025": 2.8619,"2050": 3.15869,"2075": 4.07025,"2100": 4.40942,"2125": 5.19378,"2150": 4.53661,"2175": 6.14773,"2200": 8.01324,"2225": 9.70915,"2250": 9.68794,"2275": 6.74128,"2300": 3.66741,"2325": 1.10234,"2350": 0.38158,"2375": 0.19079,"2400": 0.0424}}}