{"type": "Feature","bbox": [34.8364,-0.7847,34.918,-0.7327],"geometry": {"type": "MultiPolygon","coordinates": [[[[34.8793,-0.7847,1938.4487],[34.8831,-0.7771,1903.9458],[34.8908,-0.7747,1883.8528],[34.8929,-0.7685,1893.4834],[34.8987,-0.7699,1913.3008],[34.9039,-0.7649,1963.9467],[34.9156,-0.7613,2012.9197],[34.9156,-0.7569,2083.3542],[34.918,-0.7535,2062.9309],[34.9119,-0.7534,1989.3539],[34.9074,-0.7553,1982.8994],[34.9037,-0.7471,1968.5542],[34.8989,-0.7427,1975.3137],[34.8884,-0.7405,1943.9727],[34.8856,-0.7368,1999.3706],[34.8802,-0.735,2014.7646],[34.8784,-0.7327,1943.2114],[34.8739,-0.7373,2002.6482],[34.8709,-0.7378,2030.9456],[34.8692,-0.7364,2018.5082],[34.8698,-0.7447,1923.309],[34.8675,-0.7469,1914.1658],[34.8578,-0.7504,1881.3466],[34.851,-0.7487,1834.7205],[34.8456,-0.7502,1851.2102],[34.8424,-0.7476,1869.8522],[34.8364,-0.7502,1806.7092],[34.8509,-0.7626,1861.8607],[34.8617,-0.7692,1850.4041],[34.8711,-0.7803,1818.0199],[34.8793,-0.7847,1938.4487]]]]}
,"properties": {"GID_3": "KEN.16.7.1_1","GID_0": "KEN","country": "Kenya","GID_1": "KEN.16_1","province": "Kisii","NL_NAME_1": "NA","GID_2": "KEN.16.7_1","county": "NyaribariChache","NL_NAME_2": "NA","city": "Birongo","VARNAME_3": "NA","NL_NAME_3": "NA","TYPE_3": "Ward","ENGTYPE_3": "Ward","CC_3": "1335","HASC_3": "NA","name": "Birongo.city","area_km2": 22.87518,"hist_schema_id": "Elevation0-9000","hist_area_km2": {"1800": 0.1484,"1825": 0.86921,"1850": 1.78083,"1875": 3.51925,"1900": 3.60406,"1925": 3.87966,"1950": 3.15885,"1975": 2.45924,"2000": 2.16244,"2025": 0.99642,"2050": 0.212,"2075": 0.0848}}}