{"type":"Feature","properties":{"GID_3":"KEN.2.1.3_1","GID_0":"KEN","country":"Kenya","GID_1":"KEN.2_1","province":"Bomet","NL_NAME_1":"NA","GID_2":"KEN.2.1_1","county":"BometCentral","NL_NAME_2":"NA","city":"Ndaraweta","VARNAME_3":"NA","NL_NAME_3":"NA","TYPE_3":"Ward","ENGTYPE_3":"Ward","CC_3":"982","HASC_3":"NA","name":"Ndaraweta.city"},
"geometry":{"type": "MultiPolygon","coordinates": [[[[35.3452,-0.6955,2054.5959],[35.3524,-0.6961,2017.3499],[35.3625,-0.6943,2062.4717],[35.3662,-0.7072,2087.5044],[35.3719,-0.7044,2056.718],[35.375,-0.6989,2029.5157],[35.3797,-0.6992,2080.7129],[35.3805,-0.6968,2079.1887],[35.3821,-0.698,2056.9468],[35.3855,-0.6973,2051.5342],[35.3867,-0.6953,2096.5508],[35.3891,-0.6973,2054.2393],[35.3932,-0.6972,2074.6626],[35.3933,-0.7022,2024.3776],[35.4008,-0.7026,2104.8008],[35.4017,-0.7062,2089.9111],[35.4043,-0.7081,2052.3726],[35.4072,-0.7073,2068.1245],[35.4085,-0.7095,2082.9819],[35.4138,-0.7094,2140.9756],[35.4161,-0.7143,2053.606],[35.4142,-0.7165,2055.9683],[35.4045,-0.7143,2017.0355],[35.391,-0.7161,2136.3149],[35.3879,-0.7181,2070.2917],[35.3877,-0.722,2060.0229],[35.3919,-0.725,2023.8972],[35.3911,-0.7312,2017.6077],[35.3933,-0.7353,2034.0454],[35.3925,-0.7363,2047.8018],[35.3973,-0.7379,2136.1641],[35.3974,-0.7395,2125.6367],[35.4019,-0.7359,2147.0166],[35.402,-0.7373,2142.332],[35.4099,-0.7407,2120.4912],[35.414,-0.7366,2060.9819],[35.4152,-0.7298,2125.9287],[35.4216,-0.7294,2129.4795],[35.4252,-0.726,2189.4197],[35.425,-0.7287,2120.8872],[35.4273,-0.7262,2181.9404],[35.4311,-0.726,2158.9214],[35.4341,-0.7225,2146.4741],[35.4342,-0.7211,2186.5847],[35.426,-0.7148,2102.8538],[35.3969,-0.6386,2114.4746],[35.3952,-0.6456,2120.0898],[35.3918,-0.6492,2144.3765],[35.384,-0.6528,2151.0518],[35.3812,-0.6499,2082.9221],[35.3777,-0.6502,2035.2632],[35.3744,-0.6457,2042.309],[35.3755,-0.6446,2042.309],[35.3736,-0.6436,2056.582],[35.3692,-0.6461,2028.9697],[35.3637,-0.6439,2081.2383],[35.3626,-0.6456,2061.9172],[35.3595,-0.6443,2060.4314],[35.3544,-0.6451,2005.5093],[35.3528,-0.643,1989.1368],[35.3428,-0.6453,1996.1665],[35.3412,-0.6475,1964.7024],[35.3392,-0.6457,1963.4294],[35.3392,-0.643,1975.1785],[35.3372,-0.6445,2008.1078],[35.3355,-0.6431,2028.4136],[35.3334,-0.6463,1984.7281],[35.3297,-0.6449,2017.3743],[35.3288,-0.6476,2007.0753],[35.3235,-0.65,2026.6022],[35.3168,-0.6495,2020.0981],[35.3187,-0.6504,1984.0513],[35.3173,-0.6513,1970.4147],[35.318,-0.6534,1951.0372],[35.3241,-0.6564,1965.0347],[35.326,-0.6608,2015.2817],[35.3322,-0.6675,2004.369],[35.3333,-0.6739,1984.0759],[35.3435,-0.6848,2062.2747],[35.3422,-0.6894,2051.6707],[35.3452,-0.6955,2054.5959]]]]}}