{"type":"Feature","properties":{"GID_3":"KEN.30.13.3_1","GID_0":"KEN","country":"Kenya","GID_1":"KEN.30_1","province":"Nairobi","NL_NAME_1":"NA","GID_2":"KEN.30.13_1","county":"Mathare","NL_NAME_2":"NA","city":"Kiamaiko","VARNAME_3":"NA","NL_NAME_3":"NA","TYPE_3":"Ward","ENGTYPE_3":"Ward","CC_3":"1450","HASC_3":"NA","name":"Kiamaiko.city"},
"geometry":{"type": "MultiPolygon","coordinates": [[[[36.8772,-1.2465,1611.9529],[36.876,-1.2496,1599.7034],[36.873,-1.2505,1617.392],[36.8748,-1.2545,1605.5568],[36.8735,-1.2554,1609.6277],[36.8735,-1.2596,1619.7764],[36.8783,-1.2599,1613.8184],[36.8772,-1.2465,1611.9529]]]]}}