{"type":"Feature","properties":{"GID_3":"KEN.16.8.3_1","GID_0":"KEN","country":"Kenya","GID_1":"KEN.16_1","province":"Kisii","NL_NAME_1":"NA","GID_2":"KEN.16.8_1","county":"NyaribariMasaba","NL_NAME_2":"NA","city":"Kiamokama","VARNAME_3":"NA","NL_NAME_3":"NA","TYPE_3":"Ward","ENGTYPE_3":"Ward","CC_3":"1330","HASC_3":"NA","name":"Kiamokama.city"},
"geometry":{"type": "MultiPolygon","coordinates": [[[[34.868,-0.8026,1954.2404],[34.8721,-0.8085,1919.2682],[34.8784,-0.8129,1952.8827],[34.885,-0.8261,2031.1812],[34.8874,-0.8275,2016.457],[34.8952,-0.8274,1957.9623],[34.8986,-0.8295,1955.1235],[34.8981,-0.8336,1950.5406],[34.8944,-0.8359,1972.4722],[34.9062,-0.8502,2009.8795],[34.9131,-0.8468,2065.5156],[34.922,-0.8373,2060.0947],[34.9332,-0.8351,2057.2217],[34.9355,-0.8375,2015.5056],[34.9378,-0.833,2002.921],[34.9391,-0.8194,2021.3076],[34.9377,-0.8099,2061.5911],[34.931,-0.8097,2145.6841],[34.9293,-0.808,2148.7021],[34.9149,-0.8076,2012.907],[34.9091,-0.8057,1985.4531],[34.8965,-0.7947,1969.5227],[34.8793,-0.7847,1938.4487],[34.8709,-0.8006,1906.733],[34.868,-0.8026,1954.2404]]]]}}