{"type": "Feature","bbox": [34.3759,-0.6587,34.6607,-0.3605],"geometry": {"type": "MultiPolygon","coordinates": [[[[34.5653,-0.6587,1350.2203],[34.5801,-0.6548,1359.7871],[34.5818,-0.6537,1362.3098],[34.5823,-0.6479,1360.6562],[34.5892,-0.6452,1368.2554],[34.5987,-0.6453,1385.5642],[34.6059,-0.6473,1377.1038],[34.6083,-0.6453,1377.3042],[34.6199,-0.6498,1390.8406],[34.6267,-0.6506,1395.3641],[34.6303,-0.6548,1401.2656],[34.6366,-0.657,1434.4404],[34.6425,-0.6291,1477.3605],[34.6504,-0.6191,1543.038],[34.6503,-0.6117,1518.9755],[34.6566,-0.6041,1495.3525],[34.6584,-0.5988,1490.4332],[34.6598,-0.5999,1482.1298],[34.6607,-0.5987,1473.7844],[34.653,-0.5861,1448.0824],[34.6456,-0.5803,1454.6219],[34.6491,-0.5764,1403.9993],[34.6507,-0.5695,1430.9402],[34.647,-0.5688,1449.8994],[34.6452,-0.5668,1429.5305],[34.6414,-0.5534,1402.2605],[34.6351,-0.5482,1398.6382],[34.6342,-0.5396,1345.9657],[34.6377,-0.5322,1358.3945],[34.6337,-0.5274,1327.6903],[34.6354,-0.5226,1287.7218],[34.6287,-0.5132,1264.3502],[34.6354,-0.501,1230.2207],[34.633,-0.4952,1247.142],[34.6384,-0.4883,1213.9404],[34.6389,-0.484,1254.3324],[34.6364,-0.4811,1262.0837],[34.631,-0.481,1243.3182],[34.6303,-0.4787,1230.8279],[34.6253,-0.4782,1218.4716],[34.6252,-0.4748,1236.6929],[34.6232,-0.4754,1237.5076],[34.6202,-0.4719,1230.2231],[34.62,-0.4734,1234.0144],[34.6151,-0.4744,1225.5366],[34.6103,-0.4726,1207.5458],[34.6082,-0.4744,1198.2655],[34.6081,-0.472,1197.9972],[34.6061,-0.4718,1197.9972],[34.6055,-0.469,1193.3379],[34.6014,-0.4671,1179.5063],[34.6009,-0.4644,1172.2397],[34.5939,-0.4625,1166.1589],[34.594,-0.4592,1163.2673],[34.591,-0.4556,1164.8286],[34.5912,-0.4522,1173.4189],[34.5852,-0.4579,1168.0255],[34.5788,-0.4549,1158.6504],[34.5737,-0.4547,1156.4221],[34.5674,-0.4603,1152.8748],[34.5648,-0.4596,1150.9791],[34.5605,-0.4616,1150.3718],[34.5547,-0.4601,1147.5676],[34.55,-0.4627,1145.1062],[34.5462,-0.4569,1147.2139],[34.5405,-0.4581,1142.2676],[34.5344,-0.4512,1145.6317],[34.5332,-0.4542,1140.5977],[34.5161,-0.4562,1136.7031],[34.5101,-0.4594,1135.6421],[34.4828,-0.4573,1133.0],[34.3865,-0.3605,1133.0],[34.3759,-0.3694,1133.0],[34.4828,-0.4744,1133.0],[34.4945,-0.4803,1133.0],[34.5013,-0.4871,1133.0],[34.5034,-0.4933,1155.637],[34.5031,-0.5035,1151.5702],[34.5092,-0.5088,1193.3616],[34.5128,-0.5158,1232.9015],[34.5117,-0.5192,1180.2338],[34.5128,-0.522,1190.4517],[34.5156,-0.5265,1222.8606],[34.5183,-0.5277,1238.0632],[34.5154,-0.5367,1244.9358],[34.5211,-0.5524,1272.6681],[34.5211,-0.5589,1299.1136],[34.5301,-0.5699,1332.2898],[34.5391,-0.5737,1331.4255],[34.5381,-0.5787,1360.5543],[34.5433,-0.5844,1360.2961],[34.5461,-0.591,1326.2623],[34.5445,-0.5937,1314.5983],[34.5452,-0.5988,1324.0049],[34.5399,-0.603,1323.1738],[34.5417,-0.6047,1314.7917],[34.5417,-0.6079,1312.2317],[34.5435,-0.6086,1312.7827],[34.5469,-0.6059,1310.7051],[34.5491,-0.6086,1323.3647],[34.552,-0.609,1317.6204],[34.5524,-0.6135,1331.8062],[34.5577,-0.6221,1384.6965],[34.5549,-0.6304,1418.0881],[34.558,-0.6354,1422.3855],[34.5583,-0.6401,1400.7551],[34.5642,-0.6392,1376.3977],[34.5681,-0.6432,1360.7737],[34.5662,-0.6475,1365.489],[34.5653,-0.6587,1350.2203]]]]}
,"properties": {"GID_2": "KEN.8.7_1","GID_0": "KEN","country": "Kenya","GID_1": "KEN.8_1","province": "HomaBay","NL_NAME_1": "NA","county": "Rangwe","VARNAME_2": "NA","NL_NAME_2": "NA","TYPE_2": "Constituency","ENGTYPE_2": "Constituency","CC_2": "248","HASC_2": "NA","name": "Rangwe.county","area_km2": 292.4926,"hist_schema_id": "Elevation0-9000","hist_area_km2": {"1125": 33.9226,"1150": 23.4064,"1175": 17.8304,"1200": 20.1413,"1225": 18.0212,"1250": 18.9752,"1275": 23.491,"1300": 24.6994,"1325": 20.8619,"1350": 18.5085,"1375": 23.3211,"1400": 19.0173,"1425": 11.491,"1450": 7.8232,"1475": 6.9327,"1500": 3.477,"1525": 0.4876,"1550": 0.0848}}}