{"type":"Feature","properties":{"GID_3":"KEN.31.7.3_1","GID_0":"KEN","country":"Kenya","GID_1":"KEN.31_1","province":"Nakuru","NL_NAME_1":"NA","GID_2":"KEN.31.7_1","county":"NakuruTownEast","NL_NAME_2":"NA","city":"Kivumbini","VARNAME_3":"NA","NL_NAME_3":"NA","TYPE_3":"Ward","ENGTYPE_3":"Ward","CC_3":"877","HASC_3":"NA","name":"Kivumbini.city"},
"geometry":{"type": "MultiPolygon","coordinates": [[[[36.0804,-0.2986,1801.9185],[36.0836,-0.3073,1807.335],[36.0713,-0.3132,1793.3586],[36.0729,-0.3171,1786.3652],[36.0779,-0.3131,1778.3091],[36.0845,-0.3149,1770.5115],[36.0879,-0.3068,1774.6648],[36.094,-0.3042,1770.3796],[36.0937,-0.3018,1772.6465],[36.0997,-0.2913,1795.5706],[36.0872,-0.2909,1810.2778],[36.0872,-0.2963,1792.0795],[36.0795,-0.2964,1804.3354],[36.0804,-0.2986,1801.9185]]]]}}