{"type": "Feature","bbox": [35.169,-0.8987,35.2902,-0.7805],"geometry": {"type": "MultiPolygon","coordinates": [[[[35.2185,-0.8054,1816.0803],[35.2131,-0.8039,1799.1814],[35.2108,-0.7959,1807.8615],[35.2068,-0.7927,1793.0989],[35.2072,-0.7897,1796.5522],[35.2044,-0.7863,1806.2019],[35.2015,-0.7861,1807.3069],[35.1992,-0.7838,1801.4053],[35.1979,-0.7849,1794.9126],[35.1956,-0.7834,1797.0876],[35.1967,-0.7851,1794.9126],[35.195,-0.7849,1797.1754],[35.1946,-0.7879,1798.8623],[35.1933,-0.7856,1798.9761],[35.1905,-0.7852,1802.1117],[35.1908,-0.7871,1800.6759],[35.1881,-0.7872,1804.5109],[35.185,-0.7897,1795.8254],[35.1832,-0.7881,1798.511],[35.1819,-0.7911,1785.1262],[35.1791,-0.7912,1780.396],[35.1783,-0.7878,1785.1902],[35.1755,-0.7868,1783.7896],[35.1755,-0.7848,1794.3773],[35.1728,-0.7846,1790.0602],[35.1724,-0.7886,1779.8474],[35.1699,-0.7916,1783.0774],[35.1744,-0.7959,1785.2405],[35.169,-0.8141,1823.3014],[35.1751,-0.816,1816.3436],[35.1738,-0.8234,1835.3525],[35.1755,-0.822,1835.3242],[35.1834,-0.8224,1836.1843],[35.1923,-0.8314,1861.6758],[35.1956,-0.8305,1854.1355],[35.2059,-0.8214,1820.264],[35.2066,-0.8248,1820.6449],[35.2046,-0.8294,1824.0366],[35.2062,-0.8349,1830.7325],[35.2032,-0.8358,1835.4211],[35.2049,-0.8405,1849.8618],[35.2078,-0.8409,1852.9675],[35.2102,-0.8459,1858.136],[35.2097,-0.8483,1848.6675],[35.2048,-0.851,1851.3597],[35.1994,-0.8597,1830.5013],[35.1989,-0.8637,1826.2091],[35.2086,-0.8843,1838.1232],[35.2141,-0.8878,1850.7238],[35.2218,-0.8892,1861.6949],[35.2263,-0.8889,1860.3805],[35.2341,-0.884,1864.1353],[35.2404,-0.8866,1850.8037],[35.2429,-0.8824,1852.2391],[35.2432,-0.8859,1844.429],[35.2506,-0.8913,1837.4966],[35.2541,-0.897,1827.7604],[35.2578,-0.8987,1817.3662],[35.2621,-0.8978,1810.5009],[35.2627,-0.895,1814.3384],[35.2574,-0.8936,1827.1417],[35.2575,-0.8901,1835.7498],[35.2585,-0.8891,1833.6124],[35.2631,-0.8904,1830.9595],[35.2641,-0.8872,1839.8129],[35.2704,-0.8838,1829.4863],[35.2738,-0.8851,1824.3687],[35.2748,-0.8805,1841.1338],[35.2721,-0.8775,1832.2661],[35.2706,-0.8785,1829.7771],[35.2693,-0.8741,1846.8674],[35.2718,-0.8696,1838.9882],[35.2755,-0.8682,1852.7917],[35.2706,-0.8618,1859.1241],[35.277,-0.8572,1852.9729],[35.277,-0.8527,1855.4634],[35.2794,-0.8491,1861.9857],[35.2777,-0.8464,1869.7087],[35.2829,-0.8404,1873.0317],[35.2828,-0.8372,1886.2001],[35.287,-0.8369,1876.1671],[35.286,-0.8312,1895.4373],[35.2894,-0.8289,1882.192],[35.2884,-0.826,1892.692],[35.2902,-0.8247,1885.1748],[35.2424,-0.7805,1906.6356],[35.2406,-0.7863,1984.302],[35.2409,-0.7923,1951.5801],[35.2354,-0.796,1868.0479],[35.2343,-0.7987,1851.3771],[35.2411,-0.8119,1836.7336],[35.2294,-0.812,1826.54],[35.2196,-0.8081,1818.729],[35.2185,-0.8054,1816.0803]]]]}
,"properties": {"GID_3": "KEN.2.3.2_1","GID_0": "KEN","country": "Kenya","GID_1": "KEN.2_1","province": "Bomet","NL_NAME_1": "NA","GID_2": "KEN.2.3_1","county": "Chepalungu","NL_NAME_2": "NA","city": "Kong'Asis","VARNAME_3": "NA","NL_NAME_3": "NA","TYPE_3": "Ward","ENGTYPE_3": "Ward","CC_3": "971","HASC_3": "NA","name": "Kong'Asis.city","area_km2": 96.12054,"hist_schema_id": "Elevation0-9000","hist_area_km2": {"1775": 1.52641,"1800": 10.30326,"1825": 16.30277,"1850": 23.61665,"1875": 27.15705,"1900": 13.22878,"1925": 2.88321,"1950": 0.5088,"1975": 0.1484,"2000": 0.2332,"2025": 0.1696,"2050": 0.0424}}}