{"type": "Feature","bbox": [34.8521,0.0127,35.5907,0.9502],"geometry": {"type": "MultiPolygon","coordinates": [[[[35.5741,0.069,2689.5549],[35.5752,0.1193,2588.3716],[35.5907,0.1532,2554.3577],[35.5878,0.1762,2612.4351],[35.5854,0.1767,2571.3721],[35.5786,0.1834,2571.4961],[35.5752,0.1892,2541.1533],[35.5675,0.1913,2557.0999],[35.5679,0.203,2581.5566],[35.5551,0.1949,2506.606],[35.5127,0.1932,2487.29],[35.5197,0.2021,2560.1958],[35.5197,0.2074,2535.6914],[35.5272,0.2167,2546.1902],[35.5261,0.2183,2518.4272],[35.5307,0.2249,2528.895],[35.5347,0.2273,2540.3384],[35.537,0.2267,2551.3765],[35.5401,0.2302,2534.564],[35.5345,0.2339,2467.6702],[35.5293,0.2326,2519.53],[35.5281,0.235,2508.4961],[35.5124,0.2331,2542.2986],[35.5049,0.2296,2524.3735],[35.4957,0.2367,2536.2905],[35.4855,0.255,2468.5933],[35.4946,0.2624,2502.9199],[35.491,0.2681,2504.7375],[35.4947,0.279,2487.032],[35.4973,0.2787,2502.2756],[35.4997,0.2829,2503.4897],[35.5004,0.2926,2497.7986],[35.4987,0.2959,2500.5854],[35.5042,0.2988,2499.3215],[35.4986,0.3091,2494.207],[35.4976,0.3146,2464.3911],[35.4949,0.3178,2475.1257],[35.4959,0.3195,2461.7524],[35.5095,0.3194,2506.3774],[35.5137,0.3273,2502.9546],[35.5124,0.3296,2497.6848],[35.507,0.3305,2468.96],[35.5025,0.3409,2479.9634],[35.4945,0.3497,2471.0349],[35.4878,0.3555,2445.8533],[35.4827,0.3558,2429.928],[35.4808,0.3643,2431.4888],[35.4732,0.3688,2405.2886],[35.4684,0.3746,2390.7793],[35.4705,0.3831,2399.5916],[35.4788,0.3874,2415.345],[35.4819,0.3838,2425.5303],[35.4881,0.3853,2452.2896],[35.4849,0.391,2440.4585],[35.4793,0.3936,2424.9634],[35.4796,0.3975,2444.8574],[35.4872,0.4093,2430.4441],[35.4812,0.4093,2438.7063],[35.4806,0.4254,2415.0576],[35.4762,0.4304,2416.7227],[35.4729,0.4537,2424.7561],[35.4713,0.4553,2412.4233],[35.4701,0.4546,2412.8237],[35.4675,0.4598,2404.582],[35.4613,0.4601,2391.126],[35.4635,0.5113,2369.1191],[35.4754,0.5598,2381.6663],[35.4813,0.5949,2371.575],[35.4609,0.6282,2254.6104],[35.4319,0.6696,2201.9292],[35.413,0.7015,2146.9883],[35.4118,0.7071,2154.0972],[35.4092,0.7084,2144.7886],[35.505,0.7078,2270.6772],[35.5053,0.7163,2291.0632],[35.4985,0.7202,2272.3237],[35.4934,0.7325,2270.8494],[35.4976,0.7525,2271.8784],[35.4914,0.7529,2251.2158],[35.4909,0.7554,2252.9043],[35.4946,0.7577,2261.0769],[35.4984,0.7539,2266.8499],[35.5007,0.7647,2279.0574],[35.5035,0.7658,2286.5295],[35.5042,0.7684,2297.3779],[35.5074,0.771,2349.1802],[35.5054,0.7793,2365.1692],[35.502,0.7788,2335.7239],[35.4993,0.8254,2371.7646],[35.4965,0.8246,2370.8335],[35.4931,0.8284,2355.3188],[35.4812,0.8274,2345.6152],[35.4901,0.8467,2291.3813],[35.49,0.8533,2310.5996],[35.4932,0.8592,2301.2188],[35.4911,0.8606,2276.9788],[35.4917,0.8668,2301.6052],[35.4898,0.8697,2312.8647],[35.4913,0.871,2360.8577],[35.4878,0.8736,2320.5601],[35.487,0.8799,2323.9417],[35.4885,0.882,2332.3511],[35.4562,0.8823,2225.7993],[35.4584,0.8883,2227.2686],[35.4632,0.8934,2223.2341],[35.4653,0.9032,2334.0269],[35.4689,0.906,2282.739],[35.4151,0.9135,2340.7485],[35.4146,0.9199,2355.8887],[35.4206,0.9435,2619.7312],[35.3854,0.9502,2124.5508],[35.3811,0.9437,2080.2998],[35.3772,0.9419,2073.2075],[35.3593,0.95,2078.8076],[35.3489,0.9263,1988.8624],[35.3341,0.934,2084.8896],[35.3297,0.9389,2185.4685],[35.3054,0.8959,1893.2849],[35.303,0.8984,1885.6375],[35.303,0.903,1891.7661],[35.2987,0.9038,1883.1453],[35.2957,0.9087,1876.6863],[35.2957,0.9128,1887.2185],[35.2941,0.9127,1873.9592],[35.2941,0.9158,1884.8125],[35.2922,0.9182,1880.3723],[35.2936,0.9195,1886.1511],[35.2849,0.9256,1884.0121],[35.2784,0.9266,1868.8745],[35.2779,0.9291,1876.9697],[35.2725,0.9347,1867.8494],[35.2704,0.941,1881.4691],[35.2613,0.9412,1872.7844],[35.2604,0.9435,1867.8027],[35.2584,0.943,1863.2712],[35.2527,0.9463,1876.5084],[35.2465,0.9438,1870.0702],[35.2443,0.9386,1856.473],[35.2355,0.9358,1850.4918],[35.234,0.9322,1852.5496],[35.2291,0.9275,1870.0481],[35.2224,0.9251,1858.9102],[35.219,0.925,1847.5444],[35.2158,0.9271,1850.2737],[35.2106,0.9266,1857.4885],[35.2075,0.9285,1858.1676],[35.1984,0.928,1849.1744],[35.1964,0.9305,1860.7048],[35.1904,0.9314,1854.6472],[35.1876,0.9297,1853.2292],[35.1832,0.9297,1852.0598],[35.1813,0.9272,1846.3826],[35.1791,0.9282,1848.7754],[35.1726,0.9253,1835.6348],[35.1665,0.9283,1843.9238],[35.1633,0.9261,1843.782],[35.1571,0.9254,1849.6063],[35.1551,0.9234,1833.7043],[35.1526,0.9248,1838.5118],[35.144,0.9235,1823.6477],[35.1406,0.9264,1816.5334],[35.1342,0.9244,1809.8278],[35.128,0.9254,1828.3337],[35.1273,0.9187,1807.7312],[35.1237,0.9181,1832.3481],[35.1233,0.9167,1822.5187],[35.1204,0.9173,1828.7698],[35.1209,0.9149,1816.3772],[35.1163,0.9125,1811.895],[35.1174,0.9045,1791.7998],[35.1148,0.903,1794.3401],[35.1133,0.8976,1790.1311],[35.1155,0.8958,1788.0115],[35.1153,0.893,1787.4],[35.1178,0.8915,1786.8262],[35.116,0.8885,1787.9858],[35.1138,0.8883,1800.4935],[35.1161,0.8563,1847.6678],[35.125,0.8235,1816.9794],[35.1257,0.8334,1847.4778],[35.1313,0.8352,1840.8671],[35.1448,0.832,1849.4247],[35.1439,0.7449,1920.0537],[35.1555,0.7453,1920.3545],[35.1553,0.6802,1946.2622],[35.1513,0.6728,1938.5596],[35.1547,0.6664,1930.7006],[35.1465,0.6643,1919.667],[35.1414,0.6661,1931.7144],[35.1341,0.6603,1907.6718],[35.125,0.6594,1916.1802],[35.1195,0.654,1908.0259],[35.1174,0.6542,1903.6425],[35.116,0.6463,1865.8694],[35.113,0.6464,1898.3226],[35.1067,0.651,1854.5767],[35.1033,0.6517,1878.6586],[35.0963,0.6417,1849.7374],[35.0918,0.6399,1846.082],[35.0863,0.6343,1880.4277],[35.0834,0.6358,1893.5436],[35.0697,0.6339,1825.0785],[35.0685,0.6367,1822.1327],[35.0629,0.6382,1844.741],[35.0613,0.6381,1844.741],[35.0611,0.6364,1825.9904],[35.0538,0.6369,1844.3782],[35.0527,0.6408,1885.5253],[35.0393,0.6453,1856.5319],[35.041,0.6371,1809.895],[35.0352,0.6331,1798.1676],[35.0351,0.629,1782.9468],[35.0313,0.6214,1794.4297],[35.0272,0.6184,1806.3452],[35.0,0.6432,1823.6632],[34.9941,0.6349,1807.6189],[34.9903,0.6352,1830.469],[34.9859,0.6327,1764.7307],[34.9807,0.6322,1747.1523],[34.9769,0.6295,1756.8279],[34.9707,0.6188,1686.8484],[34.9686,0.6188,1686.6567],[34.9658,0.6152,1666.4358],[34.9627,0.6142,1655.1421],[34.9578,0.6156,1654.1254],[34.953,0.613,1673.1471],[34.9435,0.6127,1730.1526],[34.9356,0.6088,1757.9133],[34.9202,0.5966,1775.4585],[34.9081,0.6012,1736.5581],[34.8992,0.6101,1714.754],[34.8908,0.6123,1723.5731],[34.8976,0.6055,1733.4739],[34.8521,0.5518,1699.1522],[35.0454,0.5672,1990.8585],[35.0996,0.5446,2051.8599],[35.1046,0.5616,1884.3174],[35.1093,0.5541,1870.8159],[35.1221,0.5496,1892.8402],[35.1264,0.5504,1904.2725],[35.1296,0.5473,1869.0967],[35.1332,0.5478,1873.7969],[35.1359,0.5436,1876.5667],[35.1408,0.5411,1890.8683],[35.1421,0.5426,1901.2623],[35.1437,0.5418,1888.4958],[35.1449,0.5438,1937.1653],[35.1484,0.5429,1885.1313],[35.149,0.5442,1887.4775],[35.1501,0.5426,1887.5015],[35.1567,0.5436,1939.2109],[35.1634,0.5485,1942.7911],[35.1633,0.5506,1947.4526],[35.1667,0.5517,1938.157],[35.1598,0.5094,1917.9088],[35.158,0.5094,1904.1926],[35.1582,0.5058,1905.8087],[35.1515,0.4895,1967.0398],[35.1418,0.4777,1970.766],[35.1502,0.4611,1973.588],[35.1708,0.4297,1943.1182],[35.1771,0.4247,2005.8978],[35.1967,0.3809,2053.9907],[35.2264,0.3305,2129.6816],[35.2615,0.279,2127.2478],[35.26,0.2772,2126.8789],[35.2898,0.2333,2123.3301],[35.2988,0.2259,2134.418],[35.3068,0.224,2151.5],[35.3122,0.2189,2167.7598],[35.3218,0.2292,2152.4338],[35.3243,0.2283,2172.3206],[35.3315,0.2224,2184.6152],[35.3342,0.2165,2191.0083],[35.3422,0.2067,2231.4092],[35.3571,0.2155,2276.2671],[35.3579,0.2107,2279.4255],[35.3661,0.2002,2348.3677],[35.3656,0.1913,2382.3188],[35.362,0.1953,2354.4482],[35.3531,0.1954,2347.9126],[35.3471,0.1987,2285.8005],[35.3461,0.1976,2296.4858],[35.3407,0.1988,2270.6145],[35.3423,0.1756,2172.0344],[35.3359,0.1637,2216.8914],[35.3358,0.1479,2273.488],[35.3339,0.1472,2251.998],[35.3564,0.1353,2507.8613],[35.37,0.1321,2461.8103],[35.3758,0.1217,2491.0662],[35.3784,0.1196,2491.5513],[35.3801,0.1218,2494.5308],[35.3845,0.1212,2492.187],[35.387,0.1188,2503.6267],[35.3719,0.0769,2216.7092],[35.3688,0.0761,2237.0278],[35.3642,0.0781,2242.0222],[35.362,0.0765,2232.8411],[35.3594,0.0691,2204.7397],[35.3499,0.0697,2311.8699],[35.3474,0.0654,2359.2607],[35.3692,0.0472,2225.6343],[35.3902,0.0407,2190.8875],[35.4041,0.033,2387.686],[35.4255,0.0313,2484.4009],[35.4664,0.0319,2665.8374],[35.4713,0.0242,2693.9888],[35.4579,0.0182,2667.3477],[35.4578,0.0146,2640.3906],[35.4803,0.02,2754.9631],[35.4942,0.0193,2709.7329],[35.498,0.0165,2805.0298],[35.4983,0.0144,2814.8271],[35.5139,0.0127,2857.9922],[35.5166,0.0196,2824.4004],[35.5229,0.0197,2831.2285],[35.5866,0.0378,2718.0825],[35.5741,0.069,2689.5549]]]]}
,"properties": {"GID_1": "KEN.44_1","GID_0": "KEN","country": "Kenya","province": "UasinGishu","VARNAME_1": "NA","NL_NAME_1": "NA","TYPE_1": "County","ENGTYPE_1": "County","CC_1": "27","HASC_1": "KE.UG","ISO_1": "KE-44","name": "Uasin_Gishu.province","area_km2": 3444.502,"hist_schema_id": "Elevation0-9000","hist_area_km2": {"1575": 0.254,"1600": 4.261,"1625": 5.131,"1650": 4.155,"1675": 6.848,"1700": 9.625,"1725": 13.632,"1750": 17.83,"1775": 20.586,"1800": 25.738,"1825": 38.712,"1850": 52.81,"1875": 61.057,"1900": 61.693,"1925": 95.232,"1950": 161.272,"1975": 195.936,"2000": 164.982,"2025": 148.637,"2050": 145.139,"2075": 124.087,"2100": 153.961,"2125": 202.788,"2150": 198.994,"2175": 185.088,"2200": 173.895,"2225": 143.3,"2250": 126.424,"2275": 112.092,"2300": 89.852,"2325": 69.307,"2350": 58.834,"2375": 54.743,"2400": 48.192,"2425": 51.393,"2450": 58.412,"2475": 54.214,"2500": 35.619,"2525": 32.036,"2550": 32.715,"2575": 30.595,"2600": 32.015,"2625": 25.761,"2650": 24.234,"2675": 23.365,"2700": 19.379,"2725": 18.573,"2750": 15.138,"2775": 9.817,"2800": 4.516,"2825": 1.315,"2850": 0.212,"2875": 0.106}}}