{"type":"Feature","properties":{"GID_3":"KEN.44.5.3_1","GID_0":"KEN","country":"Kenya","GID_1":"KEN.44_1","province":"UasinGishu","NL_NAME_1":"NA","GID_2":"KEN.44.5_1","county":"Soy","NL_NAME_2":"NA","city":"Kuinet/Kapsuswa","VARNAME_3":"NA","NL_NAME_3":"NA","TYPE_3":"Ward","ENGTYPE_3":"Ward","CC_3":"707","HASC_3":"NA","name":"Kuinet_Kapsuswa.city"},
"geometry":{"type": "MultiPolygon","coordinates": [[[[35.315,0.5933,2122.8701],[35.3134,0.6052,2120.696],[35.3204,0.6242,2111.6416],[35.3205,0.6286,2114.2161],[35.3253,0.6366,2116.3647],[35.3321,0.6431,2103.343],[35.3323,0.6482,2103.4685],[35.3301,0.6509,2102.1362],[35.3287,0.6596,2096.1436],[35.3312,0.6658,2094.6328],[35.3262,0.6743,2096.4192],[35.3221,0.6731,2088.564],[35.3175,0.6749,2088.0696],[35.3138,0.6728,2079.4922],[35.313,0.6708,2076.7368],[35.3104,0.6706,2076.9185],[35.2937,0.677,2044.0376],[35.2928,0.6811,2049.2607],[35.2906,0.6818,2050.2488],[35.2829,0.6781,2047.4983],[35.2826,0.6752,2041.9807],[35.2782,0.6711,2039.5304],[35.2829,0.6296,2050.2163],[35.2646,0.6292,2038.001],[35.2671,0.5964,2056.9114],[35.2628,0.5949,2059.2021],[35.2626,0.5871,2083.4512],[35.2513,0.5574,2057.0034],[35.2549,0.5527,2093.7998],[35.2584,0.5524,2118.8936],[35.2616,0.5367,2099.7949],[35.2611,0.5282,2075.6208],[35.2766,0.5242,2099.8455],[35.2785,0.5332,2139.77],[35.2849,0.5428,2149.7202],[35.2901,0.5604,2148.2412],[35.28,0.573,2140.3762],[35.2976,0.5806,2143.5312],[35.2938,0.5904,2129.5847],[35.315,0.5933,2122.8701]]]]}}