{"type": "Feature","bbox": [37.4545,-0.5942,37.5681,-0.4717],"geometry": {"type": "MultiPolygon","coordinates": [[[[37.4754,-0.4743,1555.3029],[37.4584,-0.4717,1571.6919],[37.4573,-0.475,1570.2606],[37.4554,-0.4757,1576.7556],[37.4552,-0.4786,1555.985],[37.4582,-0.4845,1535.0024],[37.4571,-0.4894,1525.0892],[37.4578,-0.4912,1517.2506],[37.4605,-0.492,1510.6553],[37.46,-0.4965,1508.9984],[37.4624,-0.5057,1479.9191],[37.4665,-0.5075,1487.3256],[37.4634,-0.5133,1455.7505],[37.457,-0.5171,1464.8958],[37.4565,-0.5215,1401.4701],[37.4587,-0.5234,1384.4124],[37.4549,-0.5298,1370.989],[37.4545,-0.5346,1345.4161],[37.4592,-0.536,1352.9321],[37.4648,-0.543,1308.0165],[37.4609,-0.5495,1316.0718],[37.4619,-0.5545,1302.9489],[37.472,-0.5555,1302.4955],[37.4768,-0.5664,1229.3582],[37.4757,-0.569,1256.8438],[37.4788,-0.5756,1226.8075],[37.485,-0.5809,1212.4585],[37.4828,-0.5884,1218.618],[37.4796,-0.589,1226.6982],[37.478,-0.5942,1209.1122],[37.5109,-0.566,1247.0081],[37.5151,-0.5651,1226.8461],[37.5209,-0.5679,1207.7349],[37.5408,-0.5567,1260.6581],[37.5431,-0.5502,1279.1805],[37.5417,-0.5412,1313.7981],[37.5464,-0.5402,1326.6166],[37.5507,-0.5343,1378.3203],[37.557,-0.5345,1318.6562],[37.561,-0.5329,1330.8892],[37.5643,-0.5281,1295.0343],[37.5648,-0.5229,1284.0959],[37.5681,-0.5199,1268.5857],[37.563,-0.5196,1294.2914],[37.5552,-0.5239,1484.3752],[37.5505,-0.5223,1403.7518],[37.538,-0.5292,1404.5475],[37.5304,-0.5312,1297.6807],[37.5297,-0.5297,1321.4011],[37.5213,-0.53,1322.9562],[37.5202,-0.5202,1396.2485],[37.5169,-0.5171,1401.3833],[37.5126,-0.5213,1299.6697],[37.5139,-0.5284,1289.4426],[37.5128,-0.5392,1261.9659],[37.5075,-0.5356,1265.7648],[37.5015,-0.5241,1331.5342],[37.4951,-0.5219,1366.6149],[37.4907,-0.5162,1400.2667],[37.4881,-0.5108,1424.1743],[37.4899,-0.5078,1425.3347],[37.4895,-0.5043,1454.1453],[37.4882,-0.5063,1441.3872],[37.481,-0.5029,1467.5205],[37.4841,-0.4957,1463.6984],[37.4828,-0.4928,1490.4984],[37.4841,-0.4917,1493.5222],[37.4835,-0.4877,1508.3956],[37.481,-0.4871,1502.7346],[37.4787,-0.4829,1537.9437],[37.4755,-0.4811,1536.1426],[37.477,-0.4767,1546.5908],[37.4754,-0.4743,1555.3029]]]]}
,"properties": {"GID_3": "KEN.6.1.5_1","GID_0": "KEN","country": "Kenya","GID_1": "KEN.6_1","province": "Embu","NL_NAME_1": "NA","GID_2": "KEN.6.1_1","county": "Manyatta","NL_NAME_2": "NA","city": "MbetiNorth","VARNAME_3": "NA","NL_NAME_3": "NA","TYPE_3": "Ward","ENGTYPE_3": "Ward","CC_3": "314","HASC_3": "NA","name": "Mbeti_North.city","area_km2": 61.52612,"hist_schema_id": "Elevation0-9000","hist_area_km2": {"1175": 0.0424,"1200": 0.55123,"1225": 2.48054,"1250": 8.58649,"1275": 10.04938,"1300": 8.67131,"1325": 5.15191,"1350": 4.49467,"1375": 4.02825,"1400": 3.73143,"1425": 2.77738,"1450": 1.6113,"1475": 1.5901,"1500": 2.77738,"1525": 2.03534,"1550": 1.88693,"1575": 1.06007}}}