{"type":"Feature","properties":{"GID_2":"KEN.16.6_1","GID_0":"KEN","country":"Kenya","GID_1":"KEN.16_1","province":"Kisii","NL_NAME_1":"NA","county":"KitutuChacheSouth","VARNAME_2":"NA","NL_NAME_2":"NA","TYPE_2":"Constituency","ENGTYPE_2":"Constituency","CC_2":"269","HASC_2":"NA","name":"Kitutu_Chache_South.county"},
"geometry":{"type": "MultiPolygon","coordinates": [[[[34.7567,-0.6736,1677.9448],[34.7602,-0.6737,1670.2272],[34.7626,-0.6712,1622.2662],[34.7596,-0.6676,1604.55],[34.7654,-0.6568,1704.9178],[34.7736,-0.6598,1684.9818],[34.7779,-0.6702,1666.3352],[34.7828,-0.6683,1681.3921],[34.7892,-0.6684,1692.8979],[34.7918,-0.6609,1694.4343],[34.7984,-0.6592,1655.5889],[34.804,-0.6604,1745.511],[34.805,-0.658,1769.8726],[34.8112,-0.661,1858.7375],[34.8119,-0.6583,1848.2332],[34.8098,-0.6577,1914.4136],[34.8092,-0.6551,1924.1787],[34.8104,-0.6393,1773.0266],[34.8178,-0.6231,1822.3779],[34.8059,-0.6155,1685.0625],[34.806,-0.614,1662.2223],[34.8024,-0.6131,1625.3793],[34.7953,-0.6039,1560.7516],[34.801,-0.6013,1590.5093],[34.7929,-0.5992,1594.9187],[34.7892,-0.6025,1613.8834],[34.7807,-0.596,1689.49],[34.7777,-0.5892,1688.2527],[34.7709,-0.5923,1691.5931],[34.7682,-0.5866,1622.7096],[34.7619,-0.591,1555.9075],[34.7577,-0.5918,1525.5538],[34.7527,-0.5875,1537.4697],[34.7456,-0.5851,1499.8258],[34.7446,-0.5795,1472.3118],[34.7468,-0.5634,1575.3802],[34.7507,-0.5574,1560.2834],[34.7517,-0.5521,1546.1968],[34.7481,-0.5536,1533.7126],[34.7384,-0.5539,1490.9475],[34.7295,-0.5511,1521.3829],[34.7234,-0.5553,1484.7073],[34.7125,-0.5529,1446.2871],[34.7098,-0.5636,1441.7195],[34.7015,-0.5707,1464.2351],[34.6963,-0.5851,1455.4467],[34.6888,-0.5916,1453.9919],[34.6948,-0.5949,1483.5688],[34.7057,-0.6094,1490.599],[34.7172,-0.6195,1533.8784],[34.7221,-0.6294,1522.6196],[34.735,-0.6433,1603.6951],[34.7396,-0.6541,1590.4357],[34.7453,-0.6586,1571.0361],[34.7496,-0.6679,1596.3171],[34.7567,-0.6736,1677.9448]]]]}}