{"type": "Feature","bbox": [39.6567,-3.7713,39.8153,-3.6703],"geometry": {"type": "MultiPolygon","coordinates": [[[[39.6695,-3.6784,122.4424],[39.6673,-3.6822,108.1355],[39.6651,-3.695,106.5371],[39.6653,-3.6984,108.838],[39.6689,-3.7052,111.0283],[39.6607,-3.7105,148.6239],[39.6579,-3.7154,127.0698],[39.6567,-3.7244,150.8576],[39.6583,-3.7273,151.1924],[39.6577,-3.7356,164.8812],[39.6615,-3.7471,152.5599],[39.6619,-3.7544,163.4404],[39.6677,-3.7635,164.3323],[39.6763,-3.7608,259.1743],[39.6825,-3.7617,208.8473],[39.6925,-3.7661,209.5375],[39.7115,-3.7713,145.5444],[39.7173,-3.7676,142.252],[39.7333,-3.7635,93.8179],[39.739,-3.7545,111.5871],[39.7513,-3.7471,71.0527],[39.7557,-3.7426,45.433],[39.7657,-3.7394,39.5009],[39.7695,-3.7397,60.0779],[39.7729,-3.7445,59.6938],[39.7801,-3.747,65.9696],[39.7817,-3.7558,105.3341],[39.7967,-3.7583,50.3468],[39.7997,-3.7473,87.9897],[39.8055,-3.7413,39.6516],[39.8057,-3.7327,47.1991],[39.8153,-3.7108,16.5735],[39.8147,-3.7086,14.1365],[39.8047,-3.7038,11.1064],[39.7979,-3.7099,12.7541],[39.7879,-3.7132,16.6156],[39.7843,-3.7117,23.8744],[39.7815,-3.7126,24.0115],[39.7747,-3.6931,62.0045],[39.7781,-3.6845,57.9511],[39.7755,-3.6711,73.5114],[39.7725,-3.6703,61.9948],[39.7639,-3.6779,67.572],[39.7237,-3.6785,196.5499],[39.6789,-3.6764,105.0546],[39.6735,-3.6788,98.0452],[39.6695,-3.6784,122.4424]]]]}
,"properties": {"GID_3": "KEN.14.4.1_1","GID_0": "KEN","country": "Kenya","GID_1": "KEN.14_1","province": "Kilifi","NL_NAME_1": "NA","GID_2": "KEN.14.4_1","county": "KilifiSouth","NL_NAME_2": "NA","city": "Chasimba","VARNAME_3": "NA","NL_NAME_3": "NA","TYPE_3": "Ward","ENGTYPE_3": "Ward","CC_3": "61","HASC_3": "NA","name": "Chasimba.city","area_km2": 131.4305,"hist_schema_id": "Elevation0-9000","hist_area_km2": {"0": 0.2962,"25": 5.8818,"50": 15.5296,"75": 20.4595,"100": 14.0697,"125": 7.1936,"150": 10.4518,"175": 15.2757,"200": 17.2645,"225": 13.6254,"250": 5.6067,"275": 3.1313,"300": 1.7772,"325": 0.8251,"350": 0.0423}}}