{"type": "Feature","bbox": [34.1096,0.0657,34.2221,0.1748],"geometry": {"type": "MultiPolygon","coordinates": [[[[34.2201,0.1632,1165.7211],[34.2196,0.1647,1164.2952],[34.2171,0.1638,1175.0132],[34.2149,0.1664,1177.1732],[34.2111,0.1635,1175.8949],[34.2074,0.1635,1178.7988],[34.1974,0.169,1175.3789],[34.1939,0.1742,1167.9767],[34.1919,0.1748,1175.7955],[34.1879,0.173,1179.941],[34.1816,0.1728,1187.4385],[34.1789,0.1709,1183.92],[34.1772,0.1657,1167.0488],[34.1735,0.1615,1166.4562],[34.1685,0.1623,1164.1378],[34.1606,0.1605,1176.3123],[34.1448,0.1465,1148.3748],[34.1429,0.1484,1155.681],[34.1445,0.1515,1159.1311],[34.1427,0.1523,1163.1577],[34.134,0.1488,1163.1926],[34.1327,0.1504,1166.6555],[34.129,0.1498,1169.7032],[34.1231,0.1461,1161.25],[34.1177,0.1455,1148.3142],[34.1208,0.1418,1150.0352],[34.1169,0.1363,1148.8809],[34.1204,0.1354,1148.8947],[34.1208,0.1337,1148.7968],[34.116,0.1303,1148.4033],[34.1152,0.1277,1149.9578],[34.1108,0.1306,1145.9895],[34.1096,0.1285,1145.3168],[34.1223,0.1172,1147.3296],[34.1276,0.1087,1186.3372],[34.1269,0.1047,1183.8575],[34.1298,0.1006,1165.761],[34.127,0.0968,1162.1094],[34.1293,0.0916,1173.9265],[34.1252,0.0877,1151.1191],[34.1237,0.0793,1148.3407],[34.1249,0.0772,1150.1655],[34.1402,0.0721,1165.6868],[34.1414,0.0672,1163.9193],[34.1479,0.0657,1144.7915],[34.1787,0.0699,1144.5],[34.1938,0.0785,1164.9155],[34.2071,0.0826,1196.6903],[34.2083,0.085,1209.481],[34.2039,0.0919,1241.9122],[34.2133,0.0972,1228.8103],[34.218,0.1021,1219.3104],[34.218,0.106,1225.2693],[34.2153,0.108,1227.0693],[34.2159,0.1128,1237.1533],[34.2221,0.119,1265.6418],[34.2205,0.1262,1266.8945],[34.2157,0.1307,1245.9292],[34.2165,0.135,1231.6592],[34.214,0.1454,1201.5797],[34.2187,0.1512,1200.1259],[34.2201,0.1632,1165.7211]]]]}
,"properties": {"GID_3": "KEN.38.1.6_1","GID_0": "KEN","country": "Kenya","GID_1": "KEN.38_1","province": "Siaya","NL_NAME_1": "NA","GID_2": "KEN.38.1_1","county": "AlegoUsonga","NL_NAME_2": "NA","city": "WestAlego","VARNAME_3": "NA","NL_NAME_3": "NA","TYPE_3": "Ward","ENGTYPE_3": "Ward","CC_3": "1164","HASC_3": "NA","name": "West_Alego.city","area_km2": 100.39222,"hist_schema_id": "Elevation0-9000","hist_area_km2": {"1150": 23.13155,"1175": 21.6686,"1200": 22.49549,"1225": 24.84894,"1250": 7.59037,"1275": 0.65727}}}