{"type": "Feature","bbox": [34.1034,0.4534,34.3485,0.6306],"geometry": {"type": "MultiPolygon","coordinates": [[[[34.1498,0.4771,1165.8173],[34.1561,0.4746,1180.635],[34.164,0.4749,1180.2554],[34.1692,0.4702,1187.8817],[34.1755,0.4683,1210.2241],[34.1851,0.4678,1221.5701],[34.1937,0.4745,1216.6544],[34.1983,0.4727,1218.4614],[34.2046,0.4751,1221.7],[34.2131,0.486,1217.7312],[34.2168,0.4946,1217.8154],[34.2236,0.4929,1230.8784],[34.238,0.5075,1237.0854],[34.2536,0.5106,1230.9166],[34.28,0.5103,1211.3456],[34.28,0.5,1197.5869],[34.2759,0.4928,1208.2751],[34.2767,0.4903,1198.9937],[34.2822,0.4877,1202.1426],[34.2875,0.4898,1204.9977],[34.2902,0.4928,1208.6248],[34.2939,0.4941,1207.5797],[34.298,0.5011,1216.0239],[34.3059,0.5082,1208.0009],[34.3093,0.5159,1223.7617],[34.3289,0.5275,1230.6898],[34.3393,0.5382,1225.1171],[34.3451,0.5487,1231.324],[34.3485,0.5512,1234.8827],[34.3423,0.5665,1265.2052],[34.3458,0.5816,1264.3689],[34.3414,0.5808,1249.3666],[34.3328,0.5875,1210.7227],[34.3234,0.5893,1190.2452],[34.3053,0.5989,1163.1301],[34.3,0.6025,1159.3928],[34.2938,0.6124,1154.2075],[34.2929,0.6108,1152.038],[34.2948,0.5987,1160.0901],[34.2933,0.587,1178.8417],[34.2461,0.6011,1144.4058],[34.2461,0.6099,1130.4143],[34.2486,0.6158,1128.821],[34.2436,0.6215,1133.5784],[34.2409,0.6207,1132.2228],[34.2356,0.6262,1125.4613],[34.2344,0.6244,1127.6686],[34.2328,0.6248,1125.3525],[34.2297,0.6283,1122.3413],[34.2269,0.6292,1124.7058],[34.2236,0.6278,1119.2246],[34.221,0.6306,1125.3738],[34.2169,0.6296,1122.5234],[34.2155,0.6247,1117.9771],[34.2148,0.6262,1121.1683],[34.2113,0.6253,1118.5469],[34.2071,0.6287,1116.5845],[34.2055,0.6281,1115.3029],[34.2046,0.6246,1115.1184],[34.2014,0.6254,1115.0511],[34.1996,0.6287,1116.9531],[34.1983,0.6265,1114.3698],[34.1971,0.6276,1115.3785],[34.1948,0.6229,1113.5085],[34.1963,0.6213,1113.7948],[34.1939,0.6205,1112.545],[34.1914,0.6229,1112.2946],[34.1915,0.6186,1112.4834],[34.1895,0.6187,1113.3539],[34.1908,0.6157,1112.0917],[34.1889,0.6164,1111.8345],[34.1888,0.614,1111.4254],[34.1868,0.6148,1112.1056],[34.1837,0.6122,1118.4226],[34.1866,0.6096,1110.6033],[34.1857,0.6068,1110.8418],[34.1846,0.6077,1110.765],[34.1825,0.6066,1109.5236],[34.1823,0.608,1110.6218],[34.1775,0.6093,1114.4819],[34.1756,0.6067,1110.1791],[34.1745,0.6081,1114.5732],[34.1732,0.6037,1108.6886],[34.1718,0.6053,1110.5742],[34.1716,0.6041,1110.5742],[34.17,0.6046,1110.5742],[34.1706,0.6024,1107.0817],[34.1657,0.6027,1112.4637],[34.165,0.5998,1105.6176],[34.1638,0.6003,1105.6176],[34.1627,0.5982,1104.7234],[34.1617,0.5995,1106.5973],[34.1593,0.5968,1105.5566],[34.1601,0.5957,1105.2483],[34.153,0.5912,1103.2485],[34.1529,0.5874,1102.2627],[34.1485,0.5883,1102.2184],[34.1465,0.585,1100.4882],[34.1444,0.5861,1100.3503],[34.1439,0.5836,1099.9852],[34.1425,0.5843,1099.8431],[34.142,0.5831,1099.5784],[34.1376,0.5857,1099.4215],[34.1274,0.5586,1155.7844],[34.1261,0.5393,1192.915],[34.116,0.5231,1125.4352],[34.1204,0.5217,1129.0817],[34.123,0.5173,1133.6519],[34.1178,0.5113,1139.0237],[34.1189,0.4966,1144.8036],[34.1175,0.493,1153.6736],[34.1195,0.4834,1158.1047],[34.1034,0.4703,1225.282],[34.121,0.4639,1193.3567],[34.1401,0.4534,1205.0718],[34.1453,0.458,1179.5157],[34.1457,0.4656,1174.0656],[34.1498,0.4771,1165.8173]]]]}
,"properties": {"GID_2": "KEN.4.7_1","GID_0": "KEN","country": "Kenya","GID_1": "KEN.4_1","province": "Busia","NL_NAME_1": "NA","county": "TesoSouth","VARNAME_2": "NA","NL_NAME_2": "NA","TYPE_2": "Constituency","ENGTYPE_2": "Constituency","CC_2": "226","HASC_2": "NA","name": "Teso_South.county","area_km2": 299.9764,"hist_schema_id": "Elevation0-9000","hist_area_km2": {"1100": 13.4839,"1125": 39.4977,"1150": 45.4555,"1175": 47.7029,"1200": 37.0599,"1225": 45.074,"1250": 37.1022,"1275": 10.007,"1300": 6.8268,"1325": 5.9151,"1350": 5.3427,"1375": 3.795,"1400": 1.7809,"1425": 0.7208,"1450": 0.212}}}