{"type": "Feature","bbox": [34.1594,0.265,34.4225,0.4299],"geometry": {"type": "MultiPolygon","coordinates": [[[[34.2454,0.3125,1270.7438],[34.2476,0.3163,1268.6858],[34.2513,0.3176,1258.0415],[34.2562,0.3168,1260.6705],[34.2657,0.3119,1283.8],[34.2765,0.3149,1301.3699],[34.2888,0.3118,1286.7902],[34.2947,0.3135,1273.2672],[34.2948,0.3123,1273.2672],[34.3139,0.3119,1293.0853],[34.3344,0.314,1270.8259],[34.3676,0.3069,1251.9927],[34.3794,0.3164,1270.6769],[34.3829,0.3217,1267.4305],[34.3856,0.3391,1269.9937],[34.3858,0.3565,1298.0581],[34.4,0.3659,1281.9211],[34.4153,0.3703,1291.1162],[34.4225,0.3759,1285.9565],[34.4129,0.3833,1276.4164],[34.4078,0.3895,1267.2798],[34.3922,0.3996,1264.145],[34.3847,0.4013,1247.6248],[34.3779,0.4092,1257.922],[34.3685,0.409,1250.4543],[34.3661,0.4077,1245.0913],[34.3598,0.4098,1225.6517],[34.3535,0.4191,1230.2676],[34.3464,0.4262,1221.2296],[34.3378,0.4299,1210.8333],[34.3359,0.428,1203.4961],[34.3221,0.4242,1203.8467],[34.3162,0.419,1205.1255],[34.3049,0.4156,1206.9426],[34.3029,0.4132,1220.6984],[34.3025,0.4074,1220.464],[34.2894,0.4089,1230.4746],[34.2822,0.4045,1202.8992],[34.2705,0.402,1220.489],[34.2505,0.3916,1236.0225],[34.2471,0.3912,1236.8451],[34.2443,0.386,1237.7294],[34.2396,0.3839,1228.0486],[34.2354,0.3789,1216.4886],[34.2175,0.3809,1209.6635],[34.2107,0.3837,1202.3787],[34.2016,0.3831,1191.5216],[34.2002,0.3783,1176.8008],[34.194,0.3696,1205.5897],[34.1971,0.3639,1186.8914],[34.2009,0.3486,1193.5532],[34.1982,0.3428,1216.5875],[34.1986,0.3399,1217.754],[34.1942,0.3342,1232.4557],[34.1898,0.3207,1271.467],[34.1843,0.3137,1285.9744],[34.1771,0.3086,1362.9799],[34.1701,0.3061,1355.9225],[34.1594,0.3051,1363.2471],[34.1737,0.3003,1344.395],[34.1777,0.2935,1295.5983],[34.1824,0.2907,1273.2627],[34.1855,0.2806,1257.4523],[34.1914,0.2764,1267.7194],[34.2008,0.2732,1244.442],[34.2027,0.2702,1238.7806],[34.2032,0.265,1224.9481],[34.205,0.2678,1224.877],[34.2041,0.2745,1241.4216],[34.2059,0.2797,1234.1963],[34.205,0.2902,1253.5139],[34.2361,0.2963,1257.7065],[34.2454,0.3125,1270.7438]]]]}
,"properties": {"GID_2": "KEN.4.2_1","GID_0": "KEN","country": "Kenya","GID_1": "KEN.4_1","province": "Busia","NL_NAME_1": "NA","county": "Butula","VARNAME_2": "NA","NL_NAME_2": "NA","TYPE_2": "Constituency","ENGTYPE_2": "Constituency","CC_2": "229","HASC_2": "NA","name": "Butula.county","area_km2": 244.2659,"hist_schema_id": "Elevation0-9000","hist_area_km2": {"1175": 1.5477,"1200": 19.1028,"1225": 57.7959,"1250": 70.6868,"1275": 64.5384,"1300": 28.5165,"1325": 1.0389,"1350": 0.212,"1375": 0.4452,"1400": 0.212,"1425": 0.1272,"1475": 0.0424}}}