{"type":"Feature","properties":{"GID_3":"KEN.29.4.3_1","GID_0":"KEN","country":"Kenya","GID_1":"KEN.29_1","province":"Murang'a","NL_NAME_1":"NA","GID_2":"KEN.29.4_1","county":"Kigumo","NL_NAME_2":"NA","city":"Kigumo","VARNAME_3":"NA","NL_NAME_3":"NA","TYPE_3":"Ward","ENGTYPE_3":"Ward","CC_3":"530","HASC_3":"NA","name":"Kigumo.city"},
"geometry":{"type": "MultiPolygon","coordinates": [[[[37.0179,-0.8381,1675.2341],[37.0282,-0.8136,1634.7517],[37.0213,-0.8099,1625.1898],[37.0103,-0.808,1667.8068],[37.0156,-0.7904,1649.8242],[37.0096,-0.781,1619.7505],[37.0048,-0.7826,1621.7233],[36.9981,-0.7817,1660.653],[36.9959,-0.7837,1659.6851],[36.9946,-0.7829,1676.7634],[36.9891,-0.7892,1643.2747],[36.9816,-0.7861,1740.2124],[36.9784,-0.7862,1757.9596],[36.9773,-0.7883,1718.8007],[36.974,-0.7859,1767.6936],[36.9738,-0.7835,1735.8687],[36.967,-0.7851,1746.7211],[36.9612,-0.7828,1760.3054],[36.9605,-0.7794,1827.985],[36.9576,-0.7802,1818.1365],[36.957,-0.7788,1848.1277],[36.9502,-0.777,1849.449],[36.9436,-0.7938,1817.6108],[36.945,-0.7997,1831.8965],[36.9548,-0.8033,1786.1687],[36.9745,-0.8217,1747.3748],[36.9803,-0.8209,1749.1936],[36.9932,-0.8294,1712.1118],[37.0035,-0.8297,1674.5754],[37.0113,-0.8369,1686.0259],[37.0179,-0.8381,1675.2341]]]]}}