{"type": "Feature","bbox": [36.7119,-1.2104,36.7874,-1.1665],"geometry": {"type": "MultiPolygon","coordinates": [[[[36.7477,-1.2104,1823.1904],[36.7499,-1.2067,1788.8506],[36.7475,-1.2046,1812.9653],[36.7513,-1.2,1817.231],[36.7678,-1.2043,1789.5381],[36.7734,-1.2039,1782.1056],[36.7783,-1.2063,1769.7102],[36.781,-1.2051,1767.074],[36.7835,-1.2083,1752.6304],[36.7874,-1.2048,1749.2017],[36.7842,-1.2034,1743.9445],[36.7852,-1.1999,1748.1195],[36.7828,-1.1961,1770.7939],[36.7776,-1.1944,1780.7694],[36.7744,-1.1958,1784.2228],[36.7656,-1.1939,1789.3862],[36.7624,-1.1909,1812.041],[36.7482,-1.1858,1874.4409],[36.7479,-1.1841,1886.9109],[36.7412,-1.1811,1896.7689],[36.7335,-1.1745,1924.792],[36.7273,-1.1665,1894.1709],[36.7119,-1.1805,1961.5181],[36.7167,-1.186,1937.968],[36.7256,-1.1867,1879.4236],[36.7266,-1.1906,1885.2738],[36.7249,-1.1947,1894.7079],[36.7339,-1.2029,1836.7832],[36.7477,-1.2104,1823.1904]]]]}
,"properties": {"GID_3": "KEN.13.6.5_1","GID_0": "KEN","country": "Kenya","GID_1": "KEN.13_1","province": "Kiambu","NL_NAME_1": "NA","GID_2": "KEN.13.6_1","county": "Kiambaa","NL_NAME_2": "NA","city": "Ndenderu","VARNAME_3": "NA","NL_NAME_3": "NA","TYPE_3": "Ward","ENGTYPE_3": "Ward","CC_3": "588","HASC_3": "NA","name": "Ndenderu.city","area_km2": 14.64756,"hist_schema_id": "Elevation0-9000","hist_area_km2": {"1750": 1.08108,"1775": 1.58982,"1800": 2.18335,"1825": 2.6709,"1850": 2.6497,"1875": 2.31055,"1900": 1.42025,"1925": 0.46635,"1950": 0.27557}}}