{"type":"Feature","properties":{"GID_2":"KEN.29.6_1","GID_0":"KEN","country":"Kenya","GID_1":"KEN.29_1","province":"Murang'a","NL_NAME_1":"NA","county":"Maragwa","VARNAME_2":"NA","NL_NAME_2":"NA","TYPE_2":"Constituency","ENGTYPE_2":"Constituency","CC_2":"108","HASC_2":"NA","name":"Maragwa.county"},
"geometry":{"type": "MultiPolygon","coordinates": [[[[37.2163,-0.9662,1425.2395],[37.2184,-0.9616,1430.0316],[37.23,-0.9701,1417.6403],[37.2293,-0.9756,1411.0187],[37.2296,-0.9781,1410.2756],[37.231,-0.9782,1408.4943],[37.2423,-0.9696,1418.0913],[37.245,-0.9625,1419.7802],[37.2507,-0.9616,1427.1797],[37.2553,-0.9633,1434.7998],[37.2613,-0.9567,1457.6458],[37.2676,-0.9539,1483.6667],[37.273,-0.954,1532.9609],[37.2778,-0.9568,1554.6538],[37.2922,-0.9521,1477.6589],[37.2867,-0.9389,1324.4321],[37.3192,-0.9153,1142.4924],[37.3009,-0.9028,1233.7336],[37.2822,-0.8928,1314.1099],[37.2562,-0.864,1360.9425],[37.2527,-0.8572,1302.3558],[37.2484,-0.8613,1365.0034],[37.2416,-0.8615,1330.6448],[37.2407,-0.8578,1294.0094],[37.2252,-0.8521,1317.6552],[37.2332,-0.8371,1224.0021],[37.2584,-0.8374,1145.1991],[37.2626,-0.7915,1123.557],[37.2674,-0.7852,1070.3904],[37.2652,-0.7838,1058.7773],[37.2648,-0.7806,1118.3148],[37.2622,-0.782,1105.1057],[37.2548,-0.78,1126.4662],[37.2539,-0.778,1126.3358],[37.2474,-0.7776,1130.2422],[37.2438,-0.7744,1141.6099],[37.2382,-0.7753,1131.5288],[37.2391,-0.7733,1132.7814],[37.2362,-0.773,1132.1289],[37.2331,-0.7696,1139.007],[37.2285,-0.7721,1133.9105],[37.2243,-0.7674,1144.683],[37.2214,-0.7679,1136.4469],[37.2218,-0.7639,1154.2137],[37.2197,-0.7603,1148.8751],[37.2167,-0.76,1141.3584],[37.2166,-0.7622,1138.1344],[37.2144,-0.7601,1142.1837],[37.2123,-0.7604,1144.9962],[37.2076,-0.7638,1149.5879],[37.2011,-0.7585,1178.3782],[37.1949,-0.7596,1142.7358],[37.1924,-0.7449,1182.2473],[37.1888,-0.7435,1191.3624],[37.1784,-0.7457,1253.5132],[37.1722,-0.743,1262.6545],[37.1681,-0.7439,1303.9702],[37.162,-0.7423,1240.9026],[37.1587,-0.7437,1257.5286],[37.1543,-0.7413,1243.2419],[37.1476,-0.7483,1227.4653],[37.148,-0.753,1260.7738],[37.1462,-0.7552,1270.2501],[37.1441,-0.7571,1283.8213],[37.1385,-0.7578,1321.6992],[37.1328,-0.762,1359.3395],[37.1242,-0.7606,1330.3855],[37.1112,-0.7663,1401.0801],[37.1034,-0.7614,1393.7606],[37.0926,-0.7608,1408.7471],[37.0919,-0.7675,1376.9856],[37.0938,-0.7686,1370.5797],[37.0934,-0.7708,1373.0991],[37.0871,-0.7705,1393.2095],[37.0827,-0.7671,1383.1647],[37.0813,-0.7686,1400.4822],[37.085,-0.7793,1398.9877],[37.0798,-0.777,1401.312],[37.0624,-0.774,1498.3877],[37.0608,-0.7759,1487.9116],[37.0545,-0.7768,1530.1578],[37.0429,-0.7674,1543.1274],[37.0255,-0.7732,1601.7753],[37.0208,-0.7724,1656.9846],[37.0157,-0.777,1472.8495],[37.0102,-0.7775,1537.9883],[37.0097,-0.7812,1619.7505],[37.0156,-0.7904,1649.8242],[37.0144,-0.7974,1656.675],[37.0347,-0.8037,1564.1836],[37.0426,-0.8106,1595.5874],[37.0459,-0.8106,1573.9924],[37.0508,-0.8147,1566.2738],[37.055,-0.8133,1513.2474],[37.0558,-0.8146,1552.7529],[37.0628,-0.8152,1497.9578],[37.0585,-0.8205,1491.3923],[37.0727,-0.8192,1480.0391],[37.0935,-0.8247,1467.1525],[37.1029,-0.8235,1402.6741],[37.1117,-0.8163,1390.6371],[37.1247,-0.8204,1383.4478],[37.1368,-0.8205,1367.7517],[37.1379,-0.8383,1367.1597],[37.1407,-0.8486,1349.0997],[37.1397,-0.8593,1369.6492],[37.1407,-0.8683,1369.9614],[37.1251,-0.8814,1416.4115],[37.1369,-0.8763,1385.8911],[37.1463,-0.8751,1396.4028],[37.1547,-0.8764,1396.0299],[37.1695,-0.8709,1359.1212],[37.1693,-0.8726,1362.823],[37.1638,-0.8757,1382.7002],[37.1482,-0.88,1366.7545],[37.1401,-0.8857,1389.9431],[37.1325,-0.8874,1376.6924],[37.1188,-0.894,1423.8088],[37.1223,-0.9069,1391.1289],[37.1262,-0.9123,1452.1616],[37.1217,-0.9307,1534.4287],[37.1232,-0.9333,1527.5269],[37.1199,-0.9385,1531.9636],[37.1081,-0.9464,1512.7683],[37.1002,-0.9565,1488.6741],[37.1039,-0.9548,1505.0415],[37.1076,-0.9617,1492.3977],[37.1217,-0.9749,1490.6425],[37.1276,-0.9834,1494.8058],[37.1281,-0.989,1463.03],[37.1353,-0.9987,1485.3556],[37.1361,-1.0024,1481.0391],[37.1468,-0.9832,1460.7524],[37.1512,-0.989,1458.402],[37.1585,-0.9948,1478.321],[37.1769,-0.9955,1464.5398],[37.1849,-1.0014,1465.9102],[37.1859,-1.0045,1469.0963],[37.1915,-1.0062,1471.4958],[37.1961,-1.0069,1467.8323],[37.1998,-1.0045,1466.0187],[37.2037,-1.0048,1463.2114],[37.2154,-0.9958,1429.0251],[37.2201,-0.9938,1444.2495],[37.2283,-0.9934,1431.6024],[37.2124,-0.9744,1428.2529],[37.2163,-0.9662,1425.2395]]]]}}