{"type": "Feature","bbox": [36.6636,-1.22,36.7554,-1.1675],"geometry": {"type": "MultiPolygon","coordinates": [[[[36.7525,-1.22,1777.2932],[36.7554,-1.2146,1801.3149],[36.7525,-1.2144,1808.6248],[36.7339,-1.2029,1836.7832],[36.7249,-1.1947,1894.7079],[36.7266,-1.1906,1885.2738],[36.7256,-1.1867,1879.4236],[36.7167,-1.186,1937.968],[36.7119,-1.1805,1961.5181],[36.7057,-1.186,1959.0468],[36.6981,-1.1857,2005.4081],[36.6935,-1.1833,2023.3723],[36.6895,-1.1779,2021.8184],[36.6917,-1.1748,2043.4801],[36.6852,-1.1718,2042.6714],[36.6834,-1.1675,2065.918],[36.6798,-1.1701,2074.739],[36.6838,-1.1736,2022.7],[36.6821,-1.176,2045.3511],[36.6735,-1.1745,2093.8523],[36.6636,-1.1752,2104.4619],[36.6647,-1.1774,2104.1826],[36.6688,-1.1785,2100.2139],[36.667,-1.1835,2097.2437],[36.6705,-1.1872,2061.0315],[36.6757,-1.1896,2002.6481],[36.6782,-1.1893,2012.0295],[36.6858,-1.1966,1960.1541],[36.6909,-1.1941,1977.9514],[36.7019,-1.2006,1951.8364],[36.7048,-1.2054,1936.1237],[36.7113,-1.2092,1897.6619],[36.73,-1.2133,1851.5071],[36.7394,-1.2192,1833.8837],[36.7525,-1.22,1777.2932]]]]}
,"properties": {"GID_3": "KEN.13.5.4_1","GID_0": "KEN","country": "Kenya","GID_1": "KEN.13_1","province": "Kiambu","NL_NAME_1": "NA","GID_2": "KEN.13.5_1","county": "Kabete","NL_NAME_2": "NA","city": "Nyadhuna","VARNAME_3": "NA","NL_NAME_3": "NA","TYPE_3": "Ward","ENGTYPE_3": "Ward","CC_3": "593","HASC_3": "NA","name": "Nyadhuna.city","area_km2": 17.82718,"hist_schema_id": "Elevation0-9000","hist_area_km2": {"1775": 0.16958,"1800": 0.72071,"1825": 1.50502,"1850": 1.18706,"1875": 2.01377,"1900": 2.48012,"1925": 1.7806,"1950": 1.08108,"1975": 1.84419,"2000": 1.46264,"2025": 1.63222,"2050": 0.72072,"2075": 0.86911,"2100": 0.36036}}}