{"type": "Feature","bbox": [37.1506,-2.4027,37.7244,-2.0153],"geometry": {"type": "MultiPolygon","coordinates": [[[[37.1878,-2.1852,1273.1282],[37.1919,-2.1874,1270.5505],[37.1956,-2.1942,1262.8706],[37.1984,-2.1932,1264.6888],[37.1988,-2.1977,1264.0779],[37.2022,-2.1983,1259.3826],[37.2076,-2.2039,1263.0502],[37.207,-2.2058,1258.4888],[37.2392,-2.2018,1262.5223],[37.2453,-2.2082,1255.8433],[37.2573,-2.2075,1259.4369],[37.2639,-2.205,1266.1011],[37.2744,-2.2062,1287.5651],[37.2851,-2.2144,1273.6062],[37.3024,-2.2205,1276.7557],[37.3065,-2.2246,1287.3608],[37.3134,-2.228,1277.6787],[37.3168,-2.2275,1276.2543],[37.3396,-2.2378,1271.2759],[37.3503,-2.2602,1278.2753],[37.3596,-2.2749,1281.3782],[37.3629,-2.2929,1260.235],[37.3776,-2.3353,1206.5317],[37.3846,-2.3391,1189.6455],[37.3926,-2.341,1181.8315],[37.4052,-2.3497,1164.7961],[37.4344,-2.3813,1120.8785],[37.4511,-2.395,1107.2922],[37.5031,-2.3977,1071.3442],[37.5087,-2.3985,1070.8058],[37.5137,-2.4027,1067.947],[37.5192,-2.4024,1066.6389],[37.5227,-2.3987,1065.069],[37.5258,-2.399,1064.2902],[37.5292,-2.3957,1062.91],[37.5298,-2.3911,1063.2826],[37.5332,-2.3883,1058.5051],[37.5364,-2.3808,1061.4033],[37.5415,-2.3782,1057.3943],[37.5527,-2.3794,1066.7244],[37.5653,-2.3843,1118.4065],[37.5709,-2.3844,1104.9309],[37.5839,-2.3814,1115.3491],[37.602,-2.3738,1203.6403],[37.6187,-2.3692,1071.1357],[37.6469,-2.37,1135.631],[37.5962,-2.312,1020.0941],[37.5983,-2.3095,1019.8196],[37.5999,-2.3112,1019.937],[37.6015,-2.3092,1019.4216],[37.6042,-2.3114,1016.1079],[37.6075,-2.3079,1013.92],[37.6066,-2.3034,1014.6783],[37.6099,-2.3022,1014.0133],[37.6124,-2.2976,1012.3843],[37.6184,-2.2978,1010.8885],[37.6218,-2.3044,1007.8296],[37.6259,-2.3012,1007.552],[37.6309,-2.3014,1005.9974],[37.6323,-2.2988,1004.283],[37.6318,-2.294,1004.3495],[37.637,-2.2977,1006.8696],[37.6425,-2.2971,1020.5216],[37.6461,-2.2993,996.3548],[37.6483,-2.2915,993.9225],[37.6552,-2.2875,990.9653],[37.658,-2.2865,992.6777],[37.6602,-2.2889,991.7802],[37.6645,-2.29,989.0035],[37.6699,-2.288,988.3711],[37.6701,-2.2851,985.4449],[37.6679,-2.2839,988.0841],[37.667,-2.2809,991.7997],[37.6722,-2.2793,980.3585],[37.6733,-2.2675,981.7036],[37.6785,-2.2643,972.6035],[37.6761,-2.2595,979.5912],[37.6783,-2.2535,967.842],[37.6787,-2.2432,963.6059],[37.6756,-2.2392,961.7102],[37.6763,-2.2325,959.8391],[37.6749,-2.228,960.496],[37.6793,-2.2278,957.8442],[37.6802,-2.2256,957.8276],[37.6837,-2.2241,952.3147],[37.688,-2.2155,938.9019],[37.6947,-2.2099,930.6047],[37.7059,-2.1947,921.4207],[37.7152,-2.1904,922.134],[37.7242,-2.1915,910.8604],[37.7244,-2.1905,912.3566],[37.7231,-2.1877,921.0107],[37.7076,-2.1816,911.8579],[37.7058,-2.1725,919.5668],[37.6991,-2.1643,930.7721],[37.6924,-2.1647,949.0304],[37.665,-2.1554,970.2318],[37.6213,-2.161,996.5046],[37.5925,-2.1528,1015.636],[37.5731,-2.1376,1044.7644],[37.5646,-2.1268,1054.6804],[37.5505,-2.1271,1060.0198],[37.5452,-2.1252,1063.7983],[37.5431,-2.122,1078.8368],[37.5438,-2.1151,1082.7675],[37.5412,-2.1123,1082.4027],[37.5372,-2.1111,1100.2532],[37.5343,-2.1062,1102.5841],[37.4786,-2.0839,1154.4049],[37.4759,-2.0908,1153.2087],[37.4624,-2.0854,1157.5547],[37.4651,-2.0788,1157.9932],[37.4518,-2.0728,1167.6077],[37.3818,-2.0223,1222.6321],[37.3646,-2.0221,1242.5293],[37.3645,-2.0153,1226.6719],[37.3539,-2.0206,1234.8477],[37.3467,-2.021,1240.2273],[37.3384,-2.0258,1243.7797],[37.3348,-2.0324,1245.3041],[37.3302,-2.0339,1249.1417],[37.3238,-2.039,1254.6182],[37.3216,-2.0375,1255.5222],[37.3173,-2.0382,1258.7158],[37.3162,-2.0405,1257.9011],[37.3147,-2.0402,1258.481],[37.3044,-2.0478,1265.6313],[37.2949,-2.0453,1290.0864],[37.2846,-2.0465,1286.2803],[37.2646,-2.0627,1312.8531],[37.257,-2.0659,1314.3597],[37.2319,-2.0699,1345.2429],[37.1991,-2.0712,1391.5396],[37.2002,-2.0748,1390.8551],[37.2058,-2.08,1413.7806],[37.2146,-2.0845,1387.7174],[37.2206,-2.0911,1448.6443],[37.221,-2.0966,1481.9781],[37.2068,-2.1213,1376.5504],[37.1888,-2.141,1350.3142],[37.151,-2.1732,1285.0],[37.1506,-2.175,1287.8022],[37.1506,-2.1777,1288.4856],[37.1542,-2.1827,1288.1644],[37.1604,-2.1814,1282.2595],[37.1643,-2.1866,1280.1531],[37.1695,-2.1849,1278.6885],[37.1743,-2.1869,1275.2642],[37.181,-2.1837,1271.9467],[37.1878,-2.1852,1273.1282]]]]}
,"properties": {"GID_3": "KEN.10.2.3_1","GID_0": "KEN","country": "Kenya","GID_1": "KEN.10_1","province": "Kajiado","NL_NAME_1": "NA","GID_2": "KEN.10.2_1","county": "KajiadoEast","NL_NAME_2": "NA","city": "Kenyawa-Poka","VARNAME_3": "NA","NL_NAME_3": "NA","TYPE_3": "Ward","ENGTYPE_3": "Ward","CC_3": "924","HASC_3": "NA","name": "Kenyawa-Poka.city","area_km2": 1373.349,"hist_schema_id": "Elevation0-9000","hist_area_km2": {"900": 0.064,"925": 6.441,"950": 16.335,"975": 32.034,"1000": 40.402,"1025": 51.376,"1050": 64.615,"1075": 95.756,"1100": 83.682,"1125": 128.6,"1150": 165.233,"1175": 123.601,"1200": 85.826,"1225": 76.102,"1250": 78.857,"1275": 74.473,"1300": 51.168,"1325": 39.303,"1350": 33.244,"1375": 24.875,"1400": 22.438,"1425": 16.336,"1450": 15.764,"1475": 14.683,"1500": 10.594,"1525": 6.653,"1550": 4.767,"1575": 2.945,"1600": 2.437,"1625": 1.949,"1650": 1.144,"1675": 0.657,"1700": 0.403,"1725": 0.17,"1750": 0.212,"1775": 0.085,"1800": 0.085,"1825": 0.042}}}