{"type": "Feature","bbox": [34.6435,-0.4064,34.7009,-0.2557],"geometry": {"type": "MultiPolygon","coordinates": [[[[34.6875,-0.4064,1240.8569],[34.6913,-0.3975,1324.0613],[34.6943,-0.4026,1261.0353],[34.6963,-0.4019,1272.1328],[34.6998,-0.3962,1314.2151],[34.7009,-0.3887,1324.4691],[34.6979,-0.3803,1265.806],[34.6931,-0.3753,1226.696],[34.6902,-0.3748,1203.3059],[34.6892,-0.3692,1179.7151],[34.6839,-0.3662,1184.7551],[34.6769,-0.3584,1162.0874],[34.6728,-0.3583,1165.1016],[34.669,-0.3509,1133.0],[34.6687,-0.2557,1133.0],[34.644,-0.2576,1133.0],[34.6435,-0.3523,1136.8828],[34.6455,-0.3564,1138.207],[34.649,-0.3575,1138.5814],[34.6626,-0.3767,1201.3098],[34.6773,-0.3831,1239.4023],[34.6787,-0.386,1267.1445],[34.6818,-0.3874,1294.054],[34.6871,-0.3952,1294.3574],[34.6862,-0.4036,1250.6077],[34.6875,-0.4064,1240.8569]]]]}
,"properties": {"GID_3": "KEN.8.3.3_1","GID_0": "KEN","country": "Kenya","GID_1": "KEN.8_1","province": "HomaBay","NL_NAME_1": "NA","GID_2": "KEN.8.3_1","county": "Karachuonyo","NL_NAME_2": "NA","city": "KenduBayTown","VARNAME_3": "NA","NL_NAME_3": "NA","TYPE_3": "Ward","ENGTYPE_3": "Ward","CC_3": "1236","HASC_3": "NA","name": "Kendu_Bay_Town.city","area_km2": 44.82072,"hist_schema_id": "Elevation0-9000","hist_area_km2": {"1125": 30.76396,"1150": 3.05306,"1175": 1.99297,"1200": 3.18026,"1225": 1.48412,"1250": 1.14489,"1275": 1.03888,"1300": 0.97528,"1325": 1.1873}}}