{"type": "Feature","bbox": [34.8348,-0.7381,34.9261,-0.6607],"geometry": {"type": "MultiPolygon","coordinates": [[[[34.8863,-0.7381,1970.3845],[34.9065,-0.7028,1838.5507],[34.9139,-0.7095,1871.8308],[34.9159,-0.7074,1876.197],[34.9227,-0.7129,1891.5105],[34.9254,-0.7105,1868.2615],[34.9261,-0.7028,1871.2574],[34.9182,-0.6943,1844.3474],[34.9139,-0.693,1843.5621],[34.9112,-0.6939,1850.7898],[34.9086,-0.6919,1875.3544],[34.9065,-0.6776,1936.2002],[34.9027,-0.6775,1894.6826],[34.8995,-0.6738,1896.2781],[34.8936,-0.6806,1912.3999],[34.8913,-0.6756,1978.1907],[34.8876,-0.673,1944.4257],[34.8856,-0.6762,1887.6899],[34.8773,-0.679,1932.0347],[34.8723,-0.6748,2040.4],[34.8721,-0.6686,2059.3743],[34.8671,-0.6623,1956.0967],[34.86,-0.6607,1958.2262],[34.8573,-0.6698,1912.0851],[34.8628,-0.6819,1898.6873],[34.862,-0.6986,1835.5438],[34.8583,-0.7003,1837.3864],[34.8543,-0.6992,1926.9575],[34.8501,-0.7007,1871.3809],[34.8477,-0.6983,1839.5295],[34.8458,-0.6989,1829.9594],[34.8451,-0.6969,1852.1688],[34.8421,-0.6989,1829.2229],[34.8404,-0.6963,1826.1113],[34.8403,-0.7009,1804.2787],[34.8387,-0.7023,1796.046],[34.8386,-0.7006,1791.5076],[34.8354,-0.7007,1788.0906],[34.8348,-0.7027,1783.6758],[34.8403,-0.709,1775.1169],[34.8451,-0.7114,1861.7572],[34.8526,-0.7184,1915.9185],[34.8695,-0.7294,1902.4277],[34.8784,-0.7327,1943.2114],[34.8863,-0.7381,1970.3845]]]]}
,"properties": {"GID_3": "KEN.34.2.1_1","GID_0": "KEN","country": "Kenya","GID_1": "KEN.34_1","province": "Nyamira","NL_NAME_1": "NA","GID_2": "KEN.34.2_1","county": "KitutuMasaba","NL_NAME_2": "NA","city": "Gachuba","VARNAME_3": "NA","NL_NAME_3": "NA","TYPE_3": "Ward","ENGTYPE_3": "Ward","CC_3": "1347","HASC_3": "NA","name": "Gachuba.city","area_km2": 37.7371,"hist_schema_id": "Elevation0-9000","hist_area_km2": {"1775": 0.40281,"1800": 1.42044,"1825": 2.98929,"1850": 5.95737,"1875": 6.59339,"1900": 5.53336,"1925": 5.36376,"1950": 3.07409,"1975": 2.14126,"2000": 1.86565,"2025": 1.20844,"2050": 1.08123,"2075": 0.106}}}