{"type":"Feature","properties":{"GID_3":"KEN.5.2.3_1","GID_0":"KEN","country":"Kenya","GID_1":"KEN.5_1","province":"Elgeyo-Marakwet","NL_NAME_1":"NA","GID_2":"KEN.5.2_1","county":"KeiyoSouth","NL_NAME_2":"NA","city":"Kaptarakwa","VARNAME_3":"NA","NL_NAME_3":"NA","TYPE_3":"Ward","ENGTYPE_3":"Ward","CC_3":"745","HASC_3":"NA","name":"Kaptarakwa.city"},
"geometry":{"type": "MultiPolygon","coordinates": [[[[35.4723,0.5468,2398.0874],[35.4635,0.5113,2369.1191],[35.4613,0.4601,2391.126],[35.4675,0.4598,2404.582],[35.4701,0.4546,2412.8237],[35.4713,0.4553,2412.4233],[35.4729,0.4537,2424.7561],[35.4762,0.4304,2416.7227],[35.4806,0.4254,2415.0576],[35.4809,0.4139,2422.3203],[35.5188,0.4097,2500.4253],[35.5359,0.4054,2535.6707],[35.5385,0.404,2565.2126],[35.5397,0.3982,2549.2166],[35.5412,0.399,2559.4397],[35.5422,0.3965,2574.9375],[35.5456,0.3974,2591.3733],[35.546,0.3955,2607.9028],[35.5479,0.3966,2612.9297],[35.5495,0.3948,2599.8286],[35.5489,0.3932,2573.2439],[35.5555,0.3935,2603.0449],[35.5567,0.3945,2618.9856],[35.5541,0.3968,2607.9956],[35.5591,0.3956,2624.0732],[35.5598,0.3979,2624.8301],[35.5672,0.3925,2640.6687],[35.5718,0.3943,2703.8813],[35.5812,0.3907,2726.3948],[35.5821,0.3923,2739.6265],[35.5876,0.3917,2611.9685],[35.5871,0.3964,2423.384],[35.5821,0.4084,2715.0898],[35.5837,0.4184,2565.8911],[35.5828,0.4238,2346.9038],[35.5695,0.4369,2584.9673],[35.5692,0.4447,2668.5225],[35.5709,0.4508,2579.6912],[35.5696,0.4607,2152.4729],[35.5633,0.4634,2478.3794],[35.5618,0.468,2402.8696],[35.5628,0.4712,2262.6733],[35.5592,0.4766,2186.2969],[35.5558,0.4781,2343.5842],[35.5538,0.4813,2233.6187],[35.5494,0.4827,2348.4834],[35.5431,0.4932,2224.2517],[35.5401,0.4937,2438.6147],[35.5337,0.5086,2504.5791],[35.5329,0.5126,2227.1416],[35.5341,0.5141,2190.2891],[35.5271,0.518,2432.9375],[35.5215,0.527,2499.9407],[35.5194,0.5345,2090.7319],[35.5146,0.5336,2060.1812],[35.5071,0.54,2256.5928],[35.5096,0.5312,2409.5618],[35.488,0.5268,2472.0706],[35.4723,0.5468,2398.0874]]]]}}