{"type": "Feature","bbox": [37.2329,-0.7852,37.3406,-0.6108],"geometry": {"type": "MultiPolygon","coordinates": [[[[37.2674,-0.7813,1110.4568],[37.2669,-0.7775,1120.2347],[37.2764,-0.7537,1130.4733],[37.2894,-0.7545,1144.5076],[37.2976,-0.7531,1158.4768],[37.3052,-0.749,1160.4033],[37.3153,-0.7483,1158.6555],[37.3185,-0.7582,1164.5701],[37.3281,-0.7655,1151.2506],[37.3406,-0.7487,1133.0264],[37.3296,-0.7306,1141.144],[37.3266,-0.7125,1150.0532],[37.312,-0.6982,1158.3931],[37.3116,-0.6887,1163.5737],[37.3089,-0.6792,1169.6678],[37.3093,-0.6725,1174.2688],[37.2942,-0.6568,1189.7463],[37.2947,-0.655,1190.1998],[37.2891,-0.6476,1201.8562],[37.2814,-0.6409,1216.0526],[37.2786,-0.634,1219.0017],[37.2791,-0.6299,1223.0099],[37.2732,-0.6225,1235.6001],[37.2729,-0.6191,1236.6318],[37.2618,-0.6108,1251.0559],[37.2527,-0.6259,1237.4624],[37.2415,-0.6364,1223.4386],[37.2345,-0.6404,1211.9697],[37.2329,-0.646,1208.74],[37.2423,-0.6636,1167.0836],[37.2386,-0.6789,1146.0481],[37.2408,-0.6877,1144.7098],[37.2443,-0.6907,1162.9471],[37.2415,-0.693,1145.8542],[37.2445,-0.6975,1156.6794],[37.2421,-0.7005,1134.5479],[37.2437,-0.7059,1124.0389],[37.2466,-0.7071,1137.5421],[37.2487,-0.7056,1146.7787],[37.248,-0.7098,1124.5388],[37.2512,-0.7151,1134.7507],[37.2564,-0.7197,1117.4529],[37.2536,-0.7211,1119.6359],[37.2511,-0.7185,1120.799],[37.2506,-0.723,1117.0785],[37.2571,-0.7241,1124.6898],[37.2576,-0.7329,1115.656],[37.2657,-0.7416,1115.0164],[37.2629,-0.7456,1115.4578],[37.2702,-0.752,1116.7574],[37.2694,-0.754,1114.1439],[37.2635,-0.7526,1118.8315],[37.2603,-0.7493,1141.0801],[37.2596,-0.7514,1124.8262],[37.2567,-0.7518,1124.9758],[37.2554,-0.7559,1120.5146],[37.2592,-0.7611,1116.8712],[37.26,-0.7662,1130.7401],[37.2619,-0.7671,1114.674],[37.2622,-0.7797,1101.5632],[37.2648,-0.7806,1118.3148],[37.2652,-0.7838,1058.7773],[37.2674,-0.7852,1070.3904],[37.2674,-0.7813,1110.4568]]]]}
,"properties": {"GID_3": "KEN.15.3.4_1","GID_0": "KEN","country": "Kenya","GID_1": "KEN.15_1","province": "Kirinyaga","NL_NAME_1": "NA","GID_2": "KEN.15.3_1","county": "Mwea","NL_NAME_2": "NA","city": "Mutithi","VARNAME_3": "NA","NL_NAME_3": "NA","TYPE_3": "Ward","ENGTYPE_3": "Ward","CC_3": "496","HASC_3": "NA","name": "Mutithi.city","area_km2": 108.50484,"hist_schema_id": "Elevation0-9000","hist_area_km2": {"1050": 0.0212,"1075": 0.106,"1100": 0.38161,"1125": 15.37031,"1150": 48.95207,"1175": 18.93225,"1200": 11.87245,"1225": 10.32483,"1250": 2.54412}}}