{"type":"Feature","properties":{"GID_3":"KEN.17.6.1_1","GID_0":"KEN","country":"Kenya","GID_1":"KEN.17_1","province":"Kisumu","NL_NAME_1":"NA","GID_2":"KEN.17.6_1","county":"Nyando","NL_NAME_2":"NA","city":"Ahero","VARNAME_3":"NA","NL_NAME_3":"NA","TYPE_3":"Ward","ENGTYPE_3":"Ward","CC_3":"1208","HASC_3":"NA","name":"Ahero.city"},
"geometry":{"type": "MultiPolygon","coordinates": [[[[34.9764,-0.1356,1165.1364],[34.9644,-0.1411,1162.2377],[34.963,-0.1544,1164.2377],[34.9554,-0.1381,1160.7258],[34.9504,-0.1384,1160.2196],[34.9473,-0.1364,1159.9487],[34.9438,-0.1378,1159.5327],[34.9398,-0.1417,1158.1661],[34.939,-0.1453,1157.4434],[34.9376,-0.1436,1157.7689],[34.9343,-0.1447,1156.7053],[34.9325,-0.146,1156.6576],[34.9328,-0.148,1155.9702],[34.9291,-0.1466,1155.5431],[34.9304,-0.1491,1155.5681],[34.9283,-0.1489,1155.2379],[34.9277,-0.1515,1154.9891],[34.9259,-0.151,1154.2019],[34.9253,-0.1538,1153.8872],[34.9225,-0.1546,1152.9526],[34.9215,-0.1578,1152.9142],[34.9192,-0.1583,1152.4854],[34.9201,-0.1644,1152.9182],[34.9105,-0.1646,1150.056],[34.905,-0.1762,1149.8313],[34.8948,-0.1747,1148.0613],[34.9044,-0.1781,1147.1023],[34.892,-0.2056,1142.426],[34.8897,-0.215,1140.4507],[34.88,-0.2279,1139.0122],[34.8775,-0.2344,1138.7677],[34.8786,-0.2382,1138.3276],[34.8747,-0.2384,1138.9125],[34.8747,-0.2398,1138.234],[34.8719,-0.2405,1137.7993],[34.8719,-0.2475,1137.6466],[34.8752,-0.2486,1137.3064],[34.8763,-0.2507,1137.0165],[34.8763,-0.265,1137.1173],[34.8737,-0.2662,1135.906],[34.876,-0.2714,1136.3489],[34.8779,-0.2695,1135.96],[34.8807,-0.2697,1136.0375],[34.8836,-0.2625,1136.6978],[34.9048,-0.2493,1137.8815],[34.9142,-0.2406,1139.019],[34.917,-0.2323,1141.287],[34.9123,-0.2272,1141.8524],[34.9113,-0.2169,1143.5333],[34.9157,-0.2139,1144.7384],[34.9197,-0.215,1143.7854],[34.9246,-0.2131,1145.0702],[34.9241,-0.2098,1145.9329],[34.9207,-0.2067,1144.5464],[34.921,-0.202,1145.2382],[34.9707,-0.1926,1148.7231],[34.9851,-0.1861,1155.5304],[34.9808,-0.1683,1161.0857],[34.9843,-0.1667,1163.1866],[34.9944,-0.1665,1161.0728],[34.9968,-0.1695,1160.7839],[34.9982,-0.1677,1163.6862],[35.0042,-0.1699,1171.024],[35.0037,-0.1683,1170.9739],[35.0088,-0.1587,1180.8225],[35.0146,-0.1564,1184.238],[35.0096,-0.1464,1178.7278],[34.9972,-0.1379,1170.8594],[34.9883,-0.1385,1167.3777],[34.9866,-0.1358,1163.5535],[34.9811,-0.1337,1163.5791],[34.9817,-0.1322,1167.0991],[34.9789,-0.1302,1166.8911],[34.9797,-0.1339,1165.8572],[34.9766,-0.1339,1165.5077],[34.9793,-0.1357,1165.0068],[34.9764,-0.1356,1165.1364]]]]}}