{"type": "Feature","bbox": [34.3578,-0.6634,34.5681,-0.3694],"geometry": {"type": "MultiPolygon","coordinates": [[[[34.4773,-0.6565,1351.3785],[34.494,-0.6629,1340.0398],[34.5008,-0.6634,1330.375],[34.5002,-0.6572,1333.0432],[34.5373,-0.6574,1339.2968],[34.5345,-0.6457,1358.4734],[34.5309,-0.6415,1361.5657],[34.5307,-0.6378,1399.7809],[34.5522,-0.6531,1369.1104],[34.5574,-0.6616,1348.484],[34.5609,-0.6591,1355.7856],[34.5653,-0.6593,1350.2203],[34.5662,-0.6475,1365.489],[34.5681,-0.6432,1360.7737],[34.5642,-0.6392,1376.3977],[34.5583,-0.6401,1400.7551],[34.558,-0.6354,1422.3855],[34.5549,-0.6304,1418.0881],[34.5577,-0.6221,1384.6965],[34.5524,-0.6135,1331.8062],[34.552,-0.609,1317.6204],[34.5491,-0.6086,1323.3647],[34.5469,-0.6059,1310.7051],[34.5435,-0.6086,1312.7827],[34.5417,-0.6079,1312.2317],[34.5417,-0.6047,1314.7917],[34.5399,-0.603,1323.1738],[34.5452,-0.5988,1324.0049],[34.5445,-0.5937,1314.5983],[34.5461,-0.591,1326.2623],[34.5433,-0.5844,1360.2961],[34.5381,-0.5787,1360.5543],[34.5391,-0.5737,1331.4255],[34.5301,-0.5699,1332.2898],[34.5211,-0.5589,1299.1136],[34.5211,-0.5524,1272.6681],[34.5154,-0.5367,1244.9358],[34.5183,-0.5277,1238.0632],[34.5156,-0.5265,1222.8606],[34.5128,-0.522,1190.4517],[34.5117,-0.5192,1180.2338],[34.5128,-0.5158,1232.9015],[34.5092,-0.5088,1193.3616],[34.5031,-0.5035,1151.5702],[34.5034,-0.4933,1155.637],[34.5011,-0.4868,1133.0],[34.4945,-0.4803,1133.0],[34.4828,-0.4744,1133.0],[34.3759,-0.3694,1133.0],[34.3578,-0.3846,1133.0],[34.4482,-0.4919,1133.0],[34.4459,-0.4959,1133.0],[34.418,-0.5229,1133.0],[34.4102,-0.5387,1140.0857],[34.4024,-0.5491,1150.5112],[34.405,-0.5533,1151.5829],[34.4128,-0.5584,1171.3152],[34.4163,-0.5643,1183.6752],[34.419,-0.5653,1195.0693],[34.4261,-0.5841,1277.3008],[34.427,-0.5909,1324.2527],[34.4336,-0.5885,1312.7815],[34.433,-0.6,1325.0217],[34.439,-0.6095,1325.3671],[34.4387,-0.6183,1325.3683],[34.4412,-0.6274,1355.469],[34.4674,-0.6467,1362.8484],[34.471,-0.6531,1357.7633],[34.4734,-0.6522,1354.8716],[34.4773,-0.6565,1351.3785]]]]}
,"properties": {"GID_2": "KEN.8.1_1","GID_0": "KEN","country": "Kenya","GID_1": "KEN.8_1","province": "HomaBay","NL_NAME_1": "NA","county": "HomaBayTown","VARNAME_2": "NA","NL_NAME_2": "NA","TYPE_2": "Constituency","ENGTYPE_2": "Constituency","CC_2": "249","HASC_2": "NA","name": "Homa_Bay_Town.county","area_km2": 269.2767,"hist_schema_id": "Elevation0-9000","hist_area_km2": {"1125": 84.1488,"1150": 14.4169,"1175": 12.6784,"1200": 16.3886,"1225": 17.2578,"1250": 17.2577,"1275": 15.6464,"1300": 16.452,"1325": 23.4907,"1350": 35.2147,"1375": 13.2294,"1400": 2.3957,"1425": 0.6996}}}