{"type": "Feature","bbox": [36.82,-1.3278,36.8494,-1.3091],"geometry": {"type": "MultiPolygon","coordinates": [[[[36.84,-1.3185,1651.5917],[36.8316,-1.3134,1659.4006],[36.8288,-1.3091,1653.7692],[36.8268,-1.3109,1655.7202],[36.8205,-1.3099,1660.0604],[36.82,-1.3133,1667.1345],[36.825,-1.3143,1658.051],[36.8251,-1.3278,1664.5062],[36.8494,-1.3242,1649.6863],[36.84,-1.3185,1651.5917]]]]}
,"properties": {"GID_3": "KEN.30.11.4_1","GID_0": "KEN","country": "Kenya","GID_1": "KEN.30_1","province": "Nairobi","NL_NAME_1": "NA","GID_2": "KEN.30.11_1","county": "Langata","NL_NAME_2": "NA","city": "SouthC","VARNAME_3": "NA","NL_NAME_3": "NA","TYPE_3": "Ward","ENGTYPE_3": "Ward","CC_3": "1384","HASC_3": "NA","name": "South_C.city","area_km2": 3.115898,"hist_schema_id": "Elevation0-9000","hist_area_km2": {"1650": 2.925129,"1675": 0.190769}}}