{"type":"Feature","properties":{"GID_3":"KEN.26.1.4_1","GID_0":"KEN","country":"Kenya","GID_1":"KEN.26_1","province":"Meru","NL_NAME_1":"NA","GID_2":"KEN.26.1_1","county":"Buuri","NL_NAME_2":"NA","city":"Kisima","VARNAME_3":"NA","NL_NAME_3":"NA","TYPE_3":"Ward","ENGTYPE_3":"Ward","CC_3":"282","HASC_3":"NA","name":"Kisima.city"},
"geometry":{"type": "MultiPolygon","coordinates": [[[[37.3096,-0.1472,4622.269],[37.4619,0.0757,2585.1655],[37.4669,0.0663,2609.0686],[37.4729,0.0673,2573.8628],[37.4763,0.0833,2502.6294],[37.4903,0.0917,2442.9604],[37.4947,0.0989,2323.4609],[37.4959,0.1043,2269.6597],[37.4935,0.1061,2261.0171],[37.4949,0.1097,2241.7495],[37.4925,0.1169,2199.498],[37.4933,0.1223,2123.6912],[37.4907,0.1279,2069.5146],[37.4905,0.1449,1948.8589],[37.4967,0.1521,1891.5259],[37.4997,0.1618,1847.343],[37.4973,0.1643,1832.4631],[37.4957,0.1743,1788.046],[37.4925,0.1799,1773.334],[37.4899,0.1983,1721.8263],[37.4909,0.2061,1696.4982],[37.4933,0.2137,1673.6077],[37.4979,0.2201,1647.1013],[37.5129,0.2275,1603.0686],[37.5146,0.2307,1582.0621],[37.5137,0.2331,1575.7616],[37.5281,0.2467,1475.5865],[37.5297,0.2495,1467.3325],[37.5299,0.256,1449.3584],[37.5353,0.2613,1402.4318],[37.5362,0.2643,1393.601],[37.4657,0.2837,1525.7478],[37.4301,0.2981,1449.2837],[37.4009,0.2963,1426.2998],[37.3999,0.2849,1452.1748],[37.3795,0.2705,1494.0547],[37.3743,0.2719,1523.4565],[37.3723,0.2653,1581.6163],[37.3651,0.2611,1656.5767],[37.3611,0.2563,1669.4788],[37.3623,0.2547,1615.632],[37.3666,0.2542,1611.4561],[37.366,0.2509,1635.528],[37.3629,0.2484,1628.5789],[37.3637,0.2407,1673.8585],[37.3577,0.2387,1715.6803],[37.3551,0.2209,1746.5576],[37.3511,0.2119,1773.2751],[37.3485,0.2109,1781.8527],[37.3479,0.1955,1842.5129],[37.3441,0.1939,1860.3142],[37.3367,0.1939,1906.3374],[37.3409,0.1855,1946.0295],[37.3395,0.1835,2023.3119],[37.3325,0.1809,2049.5742],[37.3197,0.1831,2096.9824],[37.3081,0.1779,2148.3254],[37.2827,0.1522,2222.1921],[37.2809,0.1299,2268.96],[37.2643,0.1139,2255.0305],[37.2525,0.0967,2238.1265],[37.2615,0.0737,2326.0278],[37.2815,0.0747,2396.5852],[37.2803,0.0407,2586.0415],[37.2972,0.0357,2633.2429],[37.3051,0.0181,2819.4758],[37.3101,0.0107,2938.7559],[37.3127,-0.007,3238.543],[37.3082,-0.1459,4524.6895],[37.3096,-0.1472,4622.269]]]]}}