{"type": "Feature","bbox": [34.6287,-0.5987,34.7249,-0.4722],"geometry": {"type": "MultiPolygon","coordinates": [[[[34.6372,-0.4819,1268.549],[34.6389,-0.484,1254.3324],[34.6386,-0.488,1213.9404],[34.633,-0.4953,1247.142],[34.6354,-0.501,1230.2207],[34.6287,-0.5132,1264.3502],[34.6354,-0.5226,1287.7218],[34.6337,-0.5274,1327.6903],[34.6377,-0.5322,1358.3945],[34.6342,-0.5396,1345.9657],[34.6353,-0.5489,1398.6382],[34.6414,-0.5534,1402.2605],[34.6452,-0.5668,1429.5305],[34.647,-0.5688,1449.8994],[34.6507,-0.5695,1430.9402],[34.6491,-0.5764,1403.9993],[34.6456,-0.5803,1454.6219],[34.653,-0.5861,1448.0824],[34.6607,-0.5987,1473.7844],[34.6851,-0.5968,1497.5668],[34.6897,-0.5902,1446.6948],[34.6963,-0.5851,1455.4467],[34.7015,-0.5707,1464.2351],[34.7098,-0.5636,1441.7195],[34.7113,-0.5537,1458.7847],[34.7146,-0.5529,1463.8586],[34.7182,-0.5551,1490.1045],[34.7234,-0.5553,1484.7073],[34.7249,-0.554,1504.7546],[34.7229,-0.543,1456.8093],[34.7162,-0.5431,1449.5825],[34.7088,-0.5308,1366.395],[34.7046,-0.5294,1365.3113],[34.7018,-0.5246,1367.1171],[34.6997,-0.5237,1369.5144],[34.6893,-0.5076,1296.2114],[34.682,-0.5065,1278.3159],[34.6803,-0.4972,1290.9148],[34.676,-0.4903,1302.8821],[34.6615,-0.4846,1273.8345],[34.6597,-0.4808,1267.8003],[34.6602,-0.4755,1288.2697],[34.6501,-0.4722,1287.6401],[34.6372,-0.4819,1268.549]]]]}
,"properties": {"GID_3": "KEN.8.4.5_1","GID_0": "KEN","country": "Kenya","GID_1": "KEN.8_1","province": "HomaBay","NL_NAME_1": "NA","GID_2": "KEN.8.4_1","county": "Kasipul","NL_NAME_2": "NA","city": "WestKasipul","VARNAME_3": "NA","NL_NAME_3": "NA","TYPE_3": "Ward","ENGTYPE_3": "Ward","CC_3": "1221","HASC_3": "NA","name": "West_Kasipul.city","area_km2": 83.95701,"hist_schema_id": "Elevation0-9000","hist_area_km2": {"1200": 0.0212,"1225": 1.63251,"1250": 5.95759,"1275": 11.32154,"1300": 9.77382,"1325": 8.67132,"1350": 9.58297,"1375": 10.13419,"1400": 8.28967,"1425": 6.31795,"1450": 6.52995,"1475": 3.7102,"1500": 1.59009,"1525": 0.36042,"1550": 0.0636}}}