{"type":"Feature","properties":{"GID_3":"KEN.13.10.4_1","GID_0":"KEN","country":"Kenya","GID_1":"KEN.13_1","province":"Kiambu","NL_NAME_1":"NA","GID_2":"KEN.13.10_1","county":"Limuru","NL_NAME_2":"NA","city":"Ndeiya","VARNAME_3":"NA","NL_NAME_3":"NA","TYPE_3":"Ward","ENGTYPE_3":"Ward","CC_3":"603","HASC_3":"NA","name":"Ndeiya.city"},
"geometry":{"type": "MultiPolygon","coordinates": [[[[36.5136,-1.236,1443.8049],[36.5735,-1.2211,2061.5806],[36.5907,-1.2211,2087.7886],[36.6127,-1.2163,2099.105],[36.6161,-1.2105,2086.1929],[36.6158,-1.2041,2066.3345],[36.6107,-1.203,2091.041],[36.6088,-1.1987,2099.7734],[36.6126,-1.1859,2121.8706],[36.6078,-1.1803,2143.8452],[36.6071,-1.1765,2150.1934],[36.6092,-1.1685,2139.2612],[36.6214,-1.1524,2132.5229],[36.6186,-1.1386,2156.2656],[36.6111,-1.1386,2212.7517],[36.6146,-1.1313,2195.9504],[36.6191,-1.1281,2212.8135],[36.6139,-1.1108,2231.5298],[36.608,-1.1126,2213.3242],[36.6007,-1.1011,2253.0815],[36.5988,-1.0882,2229.4846],[36.5925,-1.0697,1963.132],[36.5911,-1.0581,1823.8597],[36.5699,-1.0965,1830.6394],[36.5672,-1.0944,1799.8569],[36.5445,-1.1207,1706.9431],[36.5349,-1.1612,1548.8884],[36.5136,-1.236,1443.8049]]]]}}