{"type":"Feature","properties":{"GID_3":"KEN.29.4.5_1","GID_0":"KEN","country":"Kenya","GID_1":"KEN.29_1","province":"Murang'a","NL_NAME_1":"NA","GID_2":"KEN.29.4_1","county":"Kigumo","NL_NAME_2":"NA","city":"Muthithi","VARNAME_3":"NA","NL_NAME_3":"NA","TYPE_3":"Ward","ENGTYPE_3":"Ward","CC_3":"529","HASC_3":"NA","name":"Muthithi.city"},
"geometry":{"type": "MultiPolygon","coordinates": [[[[37.1399,-0.8578,1376.8386],[37.1407,-0.8486,1349.0997],[37.1379,-0.8383,1367.1597],[37.1368,-0.8205,1367.7517],[37.1247,-0.8204,1383.4478],[37.1117,-0.8163,1390.6371],[37.1029,-0.8235,1402.6741],[37.0935,-0.8247,1467.1525],[37.0727,-0.8192,1480.0391],[37.0591,-0.8207,1489.8667],[37.0628,-0.8152,1497.9578],[37.0558,-0.8146,1552.7529],[37.055,-0.8133,1513.2474],[37.0508,-0.8147,1566.2738],[37.0459,-0.8106,1573.9924],[37.0426,-0.8106,1595.5874],[37.0347,-0.8037,1564.1836],[37.0144,-0.7974,1656.675],[37.0103,-0.808,1667.8068],[37.0213,-0.8099,1625.1898],[37.0282,-0.8136,1634.7517],[37.0199,-0.8332,1653.9939],[37.0211,-0.8343,1653.9939],[37.0423,-0.8313,1533.093],[37.0475,-0.8324,1507.1453],[37.0515,-0.8304,1565.7097],[37.0595,-0.8323,1526.6221],[37.0617,-0.8312,1522.4578],[37.0671,-0.834,1535.6831],[37.0695,-0.8372,1532.7637],[37.0742,-0.8366,1516.6897],[37.0756,-0.8381,1496.3156],[37.075,-0.8357,1498.5864],[37.0791,-0.835,1462.4363],[37.0822,-0.84,1468.9603],[37.0899,-0.839,1505.6157],[37.0919,-0.8421,1487.5107],[37.0922,-0.8481,1427.8738],[37.0989,-0.8487,1502.3918],[37.0999,-0.8528,1461.9507],[37.1037,-0.8554,1482.4902],[37.1115,-0.8544,1465.4507],[37.117,-0.8574,1447.0891],[37.1259,-0.856,1398.479],[37.1357,-0.8585,1396.0175],[37.1399,-0.8578,1376.8386]]]]}}