{"type": "Feature","bbox": [35.2264,0.2812,35.3464,0.3988],"geometry": {"type": "MultiPolygon","coordinates": [[[[35.241,0.3084,2154.3726],[35.26,0.2812,2148.3643],[35.2691,0.2938,2183.3237],[35.2736,0.2911,2182.5649],[35.2806,0.2927,2191.8799],[35.2792,0.3037,2188.207],[35.2901,0.3139,2181.6343],[35.3004,0.3139,2204.9722],[35.3146,0.3558,2159.0723],[35.3162,0.3539,2161.8596],[35.3187,0.355,2164.188],[35.3184,0.3526,2157.0728],[35.3209,0.3496,2162.6077],[35.3257,0.345,2170.0679],[35.3281,0.3446,2172.0913],[35.3343,0.3498,2181.4141],[35.3374,0.349,2179.9905],[35.339,0.3522,2181.5542],[35.341,0.3527,2181.3025],[35.3417,0.3618,2180.342],[35.3464,0.3768,2187.1316],[35.3327,0.3847,2157.4341],[35.3423,0.3974,2181.4551],[35.3372,0.3966,2176.2388],[35.3316,0.3933,2166.3911],[35.328,0.3936,2162.9622],[35.3239,0.3962,2164.2256],[35.3211,0.3954,2160.8872],[35.3197,0.397,2162.6177],[35.3143,0.3965,2156.3308],[35.3125,0.3988,2163.0222],[35.2942,0.3743,2144.6855],[35.2935,0.3758,2147.5015],[35.2898,0.3747,2141.2876],[35.286,0.3794,2138.9084],[35.2835,0.3792,2135.3962],[35.2816,0.3814,2132.54],[35.2789,0.3793,2126.5195],[35.2782,0.3807,2128.2397],[35.267,0.3788,2115.7339],[35.2634,0.3802,2111.9033],[35.2518,0.3512,2138.3022],[35.2264,0.3305,2129.6816],[35.241,0.3084,2154.3726]]]]}
,"properties": {"GID_3": "KEN.44.2.3_1","GID_0": "KEN","country": "Kenya","GID_1": "KEN.44_1","province": "UasinGishu","NL_NAME_1": "NA","GID_2": "KEN.44.2_1","county": "Kapseret","NL_NAME_2": "NA","city": "Megun","VARNAME_3": "NA","NL_NAME_3": "NA","TYPE_3": "Ward","ENGTYPE_3": "Ward","CC_3": "725","HASC_3": "NA","name": "Megun.city","area_km2": 80.4185,"hist_schema_id": "Elevation0-9000","hist_area_km2": {"2100": 2.92584,"2125": 8.60792,"2150": 31.35748,"2175": 32.48121,"2200": 5.04605}}}