{"type": "Feature","bbox": [37.3128,-0.3182,37.8445,-0.1503],"geometry": {"type": "MultiPolygon","coordinates": [[[[37.7747,-0.276,977.6238],[37.7857,-0.2732,914.2225],[37.7967,-0.284,896.9886],[37.8007,-0.2844,853.5132],[37.8091,-0.2936,827.4529],[37.813,-0.3049,813.6414],[37.8283,-0.2867,791.113],[37.8445,-0.2639,769.2458],[37.8445,-0.2615,765.4301],[37.8411,-0.2548,785.6496],[37.8357,-0.2498,781.0581],[37.8341,-0.2442,790.1653],[37.8271,-0.2383,793.1672],[37.826,-0.2348,804.9141],[37.8185,-0.2274,812.3223],[37.8163,-0.2196,823.5854],[37.8135,-0.2179,824.9066],[37.8103,-0.2092,842.921],[37.8067,-0.205,839.0615],[37.8087,-0.2049,845.3241],[37.8052,-0.1999,858.0902],[37.8068,-0.1984,857.4276],[37.7976,-0.198,852.3276],[37.7968,-0.1966,853.5585],[37.7985,-0.1944,860.2954],[37.7972,-0.1889,872.0619],[37.7987,-0.1865,877.7032],[37.7981,-0.1845,879.1897],[37.7958,-0.1841,871.9257],[37.7968,-0.1706,891.2391],[37.7927,-0.1693,900.9121],[37.7907,-0.1628,918.2136],[37.7875,-0.162,911.0045],[37.7847,-0.1581,911.163],[37.7777,-0.1542,911.4883],[37.7729,-0.1543,935.6826],[37.7692,-0.1506,927.8572],[37.7648,-0.1532,950.9082],[37.7582,-0.1661,940.0854],[37.7554,-0.1684,965.1232],[37.7526,-0.1782,984.1673],[37.7465,-0.184,1008.5903],[37.7441,-0.1832,1002.9937],[37.7373,-0.1872,1068.4071],[37.7389,-0.1914,1026.9081],[37.7315,-0.1988,1099.4125],[37.7199,-0.2025,1152.5718],[37.6891,-0.2035,1228.5322],[37.6839,-0.2072,1235.7209],[37.6703,-0.207,1298.3668],[37.6661,-0.2053,1318.5513],[37.6623,-0.2075,1402.3442],[37.6567,-0.2083,1385.6571],[37.6523,-0.2127,1395.9994],[37.6441,-0.213,1472.658],[37.6415,-0.2122,1501.9319],[37.6381,-0.2071,1534.0875],[37.6225,-0.2034,1590.981],[37.6127,-0.194,1671.8275],[37.6005,-0.1932,1722.1675],[37.5927,-0.1894,1766.1058],[37.5875,-0.1827,1849.3784],[37.5799,-0.1801,1885.4978],[37.3981,-0.1616,3582.9561],[37.3128,-0.1503,4636.188],[37.3155,-0.1528,4739.4697],[37.5357,-0.2447,2106.4868],[37.6059,-0.2703,1656.6903],[37.6101,-0.2692,1626.9457],[37.6129,-0.2661,1603.3809],[37.6153,-0.2595,1583.0586],[37.6279,-0.2609,1511.7106],[37.6343,-0.2573,1514.126],[37.6421,-0.2587,1484.2249],[37.6573,-0.265,1421.1235],[37.6635,-0.2637,1412.4341],[37.6749,-0.2643,1351.2426],[37.6847,-0.2617,1327.6075],[37.6925,-0.2658,1290.4723],[37.6983,-0.2716,1149.6971],[37.7241,-0.27,1135.4344],[37.7381,-0.2727,1078.1667],[37.7475,-0.2704,1059.0522],[37.7505,-0.2743,1065.1641],[37.7669,-0.2727,995.0126],[37.7747,-0.276,977.6238]]],
[[[37.4985,-0.2376,2293.7341],[37.3181,-0.1543,4872.9702],[37.6201,-0.3077,1482.4958],[37.6249,-0.3056,1458.3884],[37.6281,-0.3064,1460.4722],[37.6355,-0.3123,1428.7439],[37.6407,-0.3085,1424.4368],[37.6509,-0.3072,1396.7791],[37.6545,-0.3049,1373.7816],[37.6609,-0.3054,1341.2524],[37.6614,-0.3014,1345.0702],[37.667,-0.2992,1325.1158],[37.6805,-0.3056,1302.1201],[37.6881,-0.3055,1271.3477],[37.6965,-0.3091,1211.317],[37.6981,-0.3069,1211.3496],[37.7035,-0.3048,1154.0869],[37.7083,-0.3051,1172.228],[37.7145,-0.3105,1137.4841],[37.7185,-0.3182,1122.215],[37.7215,-0.3178,1131.9189],[37.7239,-0.3133,1131.3593],[37.7229,-0.3079,1154.3081],[37.7277,-0.3079,1134.2021],[37.7299,-0.3052,1084.3743],[37.7303,-0.3009,1084.7347],[37.7349,-0.2962,1099.8521],[37.7482,-0.2974,1081.9529],[37.7555,-0.2941,1065.6565],[37.7681,-0.2934,1000.5361],[37.7827,-0.2948,915.8903],[37.7803,-0.2937,919.6022],[37.7757,-0.2873,953.8079],[37.7701,-0.2849,990.6946],[37.7455,-0.2896,1082.994],[37.7308,-0.2902,1097.5546],[37.7175,-0.2973,1142.4387],[37.7115,-0.2962,1183.5654],[37.7051,-0.2894,1187.2428],[37.6887,-0.2831,1242.6394],[37.6625,-0.2851,1257.9977],[37.6519,-0.2822,1358.4878],[37.6447,-0.2845,1416.2466],[37.6125,-0.2831,1509.7627],[37.6039,-0.2763,1523.937],[37.5967,-0.2733,1658.8544],[37.5881,-0.2725,1773.9185],[37.4985,-0.2376,2293.7341]]]]}
,"properties": {"GID_2": "KEN.41.3_1","GID_0": "KEN","country": "Kenya","GID_1": "KEN.41_1","province": "Tharaka-Nithi","NL_NAME_1": "NA","county": "Maara","VARNAME_2": "NA","NL_NAME_2": "NA","TYPE_2": "Constituency","ENGTYPE_2": "Constituency","CC_2": "60","HASC_2": "NA","name": "Maara.county","area_km2": 440.6631,"hist_schema_id": "Elevation0-9000","hist_area_km2": {"775": 2.0142,"800": 5.1733,"825": 7.3359,"850": 12.1276,"875": 12.2972,"900": 10.0286,"925": 9.6893,"950": 8.0992,"975": 7.2723,"1000": 6.085,"1025": 6.721,"1050": 6.1486,"1075": 7.8023,"1100": 8.2264,"1125": 7.7387,"1150": 8.2476,"1175": 8.82,"1200": 11.2159,"1225": 8.396,"1250": 7.7811,"1275": 6.6998,"1300": 6.6786,"1325": 7.9508,"1350": 8.3536,"1375": 7.5479,"1400": 6.2758,"1425": 4.7492,"1450": 4.622,"1475": 4.4312,"1500": 4.3252,"1525": 4.5796,"1550": 5.7457,"1575": 4.9825,"1600": 3.9224,"1625": 4.516,"1650": 4.622,"1675": 4.304,"1700": 4.2192,"1725": 4.41,"1750": 4.3888,"1775": 4.3676,"1800": 4.1768,"1825": 4.4736,"1850": 4.5584,"1875": 4.516,"1900": 4.8341,"1925": 4.0496,"1950": 3.6468,"1975": 4.2404,"2000": 3.9012,"2025": 4.0072,"2050": 4.4312,"2075": 4.3252,"2100": 3.8164,"2125": 3.6256,"2150": 3.3499,"2175": 2.8623,"2200": 2.0354,"2225": 2.8199,"2250": 2.7987,"2275": 2.9471,"2300": 2.7987,"2325": 3.1803,"2350": 2.9683,"2375": 2.7987,"2400": 3.2227,"2425": 4.1344,"2450": 3.4559,"2475": 3.2439,"2500": 3.3287,"2525": 3.2439,"2550": 2.9895,"2575": 2.3958,"2600": 2.8623,"2625": 2.2262,"2650": 2.6503,"2675": 2.4382,"2700": 2.4382,"2725": 2.205,"2750": 1.8234,"2775": 2.0778,"2800": 1.3781,"2825": 1.1661,"2850": 1.5902,"2875": 1.4629,"2900": 1.781,"2925": 1.7174,"2950": 1.9506,"2975": 1.569,"3000": 1.0601,"3025": 0.9541,"3050": 0.6361,"3075": 0.6149,"3100": 0.5513,"3125": 0.6785,"3150": 0.424,"3175": 0.4452,"3200": 0.3604,"3225": 0.3604,"3250": 0.6149,"3275": 0.1908,"3300": 0.3392,"3325": 0.212,"3350": 0.3392,"3375": 0.3604,"3400": 0.3392,"3425": 0.1484,"3450": 0.2968,"3475": 0.2544,"3500": 0.2968,"3525": 0.7209,"3550": 1.1661,"3575": 0.9965,"3600": 0.7421,"3625": 0.3392,"3650": 0.4876,"3675": 0.3816,"3700": 0.5301,"3725": 0.4664,"3750": 0.3604,"3775": 0.3392,"3800": 0.2968,"3825": 0.2332,"3850": 0.1484,"3875": 0.212,"3900": 0.212,"3925": 0.2332,"3950": 0.318,"3975": 0.1484,"4000": 0.1272,"4025": 0.1696,"4050": 0.0848,"4075": 0.106,"4100": 0.1272,"4125": 0.1696,"4150": 0.0848,"4175": 0.1696,"4200": 0.0848,"4225": 0.1696,"4250": 0.0636,"4275": 0.1908,"4300": 0.1272,"4325": 0.1484,"4350": 0.1696,"4375": 0.1272,"4400": 0.212,"4425": 0.4028,"4450": 0.3604,"4475": 0.3392,"4500": 0.3604,"4525": 0.318,"4550": 0.2332,"4575": 0.212,"4600": 0.106,"4625": 0.1696,"4650": 0.1696,"4675": 0.0848,"4700": 0.106,"4725": 0.0424,"4750": 0.0424,"4775": 0.0424,"4800": 0.0212,"4825": 0.0424,"4850": 0.0424}}}