{"type":"Feature","properties":{"GID_3":"KEN.12.5.3_1","GID_0":"KEN","country":"Kenya","GID_1":"KEN.12_1","province":"Kericho","NL_NAME_1":"NA","GID_2":"KEN.12.5_1","county":"KipkelionWest","NL_NAME_2":"NA","city":"Kipkelion","VARNAME_3":"NA","NL_NAME_3":"NA","TYPE_3":"Ward","ENGTYPE_3":"Ward","CC_3":"942","HASC_3":"NA","name":"Kipkelion.city"},
"geometry":{"type": "MultiPolygon","coordinates": [[[[35.469,-0.207,1992.3442],[35.4746,-0.2049,1986.4084],[35.4747,-0.1943,1992.4548],[35.4852,-0.1901,1966.5189],[35.4843,-0.1876,1983.9973],[35.4858,-0.1851,1996.8478],[35.4944,-0.1847,1999.0886],[35.5017,-0.1798,2020.8185],[35.5048,-0.1813,2005.1449],[35.5075,-0.1789,2014.7115],[35.5094,-0.1827,2006.838],[35.5127,-0.1841,2019.4851],[35.5172,-0.174,2102.874],[35.5179,-0.1606,2240.8174],[35.5139,-0.1373,2400.6274],[35.5169,-0.1398,2375.0789],[35.525,-0.14,2364.1418],[35.5288,-0.138,2372.2473],[35.5306,-0.1299,2377.0938],[35.522,-0.1191,2400.7065],[35.5118,-0.1194,2432.3687],[35.5099,-0.0979,2479.0854],[35.5001,-0.0802,2531.4734],[35.4929,-0.0696,2307.7937],[35.4905,-0.0688,2315.2524],[35.4866,-0.0691,2304.5386],[35.485,-0.0773,2293.0405],[35.481,-0.0814,2300.6904],[35.4772,-0.0902,2347.5222],[35.4746,-0.0911,2318.48],[35.4741,-0.0947,2337.3567],[35.4694,-0.0904,2454.8523],[35.4704,-0.1135,2208.229],[35.4658,-0.1199,2133.0654],[35.4675,-0.1302,2102.1096],[35.4646,-0.1322,2126.5264],[35.4655,-0.1335,2131.7632],[35.4643,-0.135,2139.1501],[35.4656,-0.1368,2116.9729],[35.4644,-0.1383,2091.3555],[35.4661,-0.151,2063.0586],[35.455,-0.1625,2052.2036],[35.4545,-0.1661,2040.9102],[35.4519,-0.1682,2033.3892],[35.4475,-0.1682,2032.8784],[35.4414,-0.1727,2052.6926],[35.4409,-0.1755,2040.6321],[35.4392,-0.1747,2060.5623],[35.4331,-0.1771,2018.1361],[35.4316,-0.1806,2024.0562],[35.4261,-0.1838,2040.6626],[35.4229,-0.1812,1951.6584],[35.417,-0.1819,1980.8606],[35.4138,-0.1861,2015.5264],[35.4128,-0.192,1903.5021],[35.4089,-0.1944,1965.7178],[35.4075,-0.1935,2009.9457],[35.4059,-0.195,1921.6622],[35.4007,-0.1951,1932.7498],[35.3981,-0.1993,1907.0297],[35.3922,-0.199,1849.2849],[35.3909,-0.2002,1772.3807],[35.389,-0.1988,1712.7383],[35.3852,-0.2019,1741.7966],[35.3808,-0.2024,1655.4973],[35.3795,-0.2045,1670.4559],[35.3747,-0.2011,1614.6985],[35.3752,-0.1992,1627.5413],[35.3692,-0.2012,1621.2771],[35.366,-0.1998,1611.101],[35.3634,-0.2015,1591.2993],[35.3766,-0.2066,1634.4172],[35.3803,-0.2202,1875.5643],[35.3832,-0.2251,1905.9343],[35.3869,-0.2242,1926.7887],[35.3889,-0.2217,1933.15],[35.3964,-0.2294,1850.8204],[35.3999,-0.2284,1887.2633],[35.4009,-0.2304,1935.9816],[35.4064,-0.2265,1924.7749],[35.4055,-0.224,1939.0815],[35.4108,-0.2226,1911.1591],[35.4119,-0.2204,1925.7151],[35.4129,-0.2214,1926.7281],[35.4227,-0.2177,1884.0747],[35.4245,-0.2112,1914.5989],[35.4299,-0.2086,1946.2365],[35.4358,-0.2067,1961.072],[35.4368,-0.2079,1961.072],[35.4381,-0.2068,1953.5002],[35.4449,-0.2074,1906.2662],[35.4467,-0.204,1924.7496],[35.4488,-0.2042,1948.79],[35.4503,-0.207,1991.4178],[35.4592,-0.2009,2082.4683],[35.4623,-0.2095,1935.5367],[35.469,-0.207,1992.3442]]]]}}