{"type": "Feature","bbox": [34.6255,-1.283,34.8486,-1.0486],"geometry": {"type": "MultiPolygon","coordinates": [[[[34.6868,-1.2058,1484.8301],[34.6892,-1.2083,1460.8265],[34.6955,-1.2041,1499.073],[34.7,-1.2072,1483.8198],[34.7066,-1.2067,1454.1278],[34.7091,-1.2104,1471.8875],[34.7209,-1.2153,1509.8125],[34.7202,-1.2179,1503.0059],[34.732,-1.22,1510.8397],[34.736,-1.219,1500.364],[34.742,-1.2236,1510.6897],[34.7428,-1.2258,1508.2014],[34.7505,-1.23,1500.0946],[34.7538,-1.2293,1511.5366],[34.7598,-1.2323,1525.7161],[34.7612,-1.2367,1508.0565],[34.7681,-1.2391,1516.0007],[34.7719,-1.2468,1544.3811],[34.7734,-1.2446,1557.4368],[34.7773,-1.2465,1563.5518],[34.7838,-1.2547,1563.4988],[34.7862,-1.2547,1581.7642],[34.7884,-1.2603,1583.7004],[34.7876,-1.2618,1570.0571],[34.7902,-1.2624,1589.6543],[34.7908,-1.2658,1571.9083],[34.7996,-1.2737,1612.0636],[34.8036,-1.2726,1631.9641],[34.8074,-1.2785,1626.6962],[34.8071,-1.281,1624.835],[34.8094,-1.283,1624.8052],[34.8111,-1.2812,1639.9922],[34.8157,-1.2804,1657.9929],[34.8162,-1.2821,1674.7941],[34.8221,-1.2797,1692.8192],[34.8289,-1.2706,1682.3447],[34.8266,-1.2696,1686.7025],[34.8267,-1.265,1700.5624],[34.8299,-1.2643,1718.8533],[34.8317,-1.2671,1727.0835],[34.8351,-1.2655,1753.0129],[34.8372,-1.2662,1761.4896],[34.8387,-1.264,1777.9664],[34.8416,-1.2643,1782.5122],[34.8419,-1.2656,1773.3153],[34.8486,-1.2655,1789.8005],[34.847,-1.2289,1794.3009],[34.8446,-1.2227,1783.1875],[34.8407,-1.2216,1749.9939],[34.8382,-1.2185,1687.7765],[34.8429,-1.2136,1774.8174],[34.8429,-1.2112,1773.1794],[34.8306,-1.2058,1693.1494],[34.8247,-1.2056,1650.9622],[34.8313,-1.2014,1670.512],[34.8391,-1.1995,1654.8188],[34.8435,-1.1933,1628.1348],[34.8405,-1.1836,1598.6223],[34.8414,-1.1731,1573.3248],[34.8387,-1.1685,1563.0317],[34.8317,-1.1614,1599.818],[34.829,-1.1605,1572.2968],[34.8261,-1.156,1595.7432],[34.8243,-1.1583,1587.6034],[34.8183,-1.1547,1561.9227],[34.8147,-1.1482,1558.4905],[34.8122,-1.1476,1551.354],[34.8055,-1.1402,1561.3315],[34.8002,-1.1404,1542.6428],[34.7965,-1.1368,1554.2935],[34.7929,-1.1405,1539.27],[34.7915,-1.1381,1541.5344],[34.7927,-1.1324,1570.1212],[34.7944,-1.1293,1565.9082],[34.7972,-1.1283,1566.7841],[34.8001,-1.1204,1582.3208],[34.8079,-1.1128,1583.442],[34.8071,-1.1108,1604.5277],[34.8132,-1.0998,1587.626],[34.8119,-1.0969,1594.5372],[34.8132,-1.0961,1596.1742],[34.8125,-1.0901,1622.3809],[34.8029,-1.0789,1641.5343],[34.7967,-1.0795,1654.8168],[34.787,-1.074,1756.1757],[34.773,-1.0623,1940.8306],[34.7615,-1.0486,1918.2882],[34.6485,-1.1145,1462.3641],[34.6336,-1.1268,1457.6763],[34.6336,-1.1326,1440.387],[34.6317,-1.1333,1449.948],[34.6255,-1.1476,1435.5864],[34.6282,-1.1534,1410.7092],[34.6311,-1.1547,1414.0073],[34.6316,-1.1574,1416.3455],[34.6378,-1.1571,1442.6433],[34.6401,-1.1586,1440.262],[34.6434,-1.1619,1425.3667],[34.6429,-1.1643,1422.1068],[34.6463,-1.1642,1437.8022],[34.6492,-1.1686,1436.6986],[34.6546,-1.1717,1464.9825],[34.6531,-1.1738,1442.5973],[34.6529,-1.1814,1425.2561],[34.661,-1.1836,1443.9463],[34.6634,-1.1878,1446.7307],[34.6712,-1.1931,1448.9486],[34.6724,-1.2056,1436.4657],[34.6799,-1.2079,1463.7059],[34.6868,-1.2058,1484.8301]]]]}
,"properties": {"GID_3": "KEN.33.2.5_1","GID_0": "KEN","country": "Kenya","GID_1": "KEN.33_1","province": "Narok","NL_NAME_1": "NA","GID_2": "KEN.33.2_1","county": "Kilgoris","NL_NAME_2": "NA","city": "Lolgorian","VARNAME_3": "NA","NL_NAME_3": "NA","TYPE_3": "Ward","ENGTYPE_3": "Ward","CC_3": "886","HASC_3": "NA","name": "Lolgorian.city","area_km2": 341.7092,"hist_schema_id": "Elevation0-9000","hist_area_km2": {"1400": 0.0212,"1425": 3.6884,"1450": 12.5279,"1475": 18.8661,"1500": 22.724,"1525": 33.1957,"1550": 36.6721,"1575": 28.8077,"1600": 28.3414,"1625": 29.3165,"1650": 27.981,"1675": 20.9434,"1700": 14.245,"1725": 11.9981,"1750": 10.4294,"1775": 9.8358,"1800": 5.3207,"1825": 4.4516,"1850": 3.8157,"1875": 3.2222,"1900": 3.2434,"1925": 3.1374,"1950": 2.883,"1975": 2.4802,"2000": 2.5014,"2025": 1.0599}}}