{"type":"Feature","properties":{"GID_2":"KEN.7.1_1","GID_0":"KEN","country":"Kenya","GID_1":"KEN.7_1","province":"Garissa","NL_NAME_1":"NA","county":"Balambala","VARNAME_2":"NA","NL_NAME_2":"NA","TYPE_2":"Constituency","ENGTYPE_2":"Constituency","CC_2":"28","HASC_2":"NA","name":"Balambala.county"},
"geometry":{"type": "MultiPolygon","coordinates": [[[[39.4282,0.0155,281.2026],[39.4221,0.017,283.4568],[39.4216,0.0232,282.248],[39.4255,0.0391,279.1767],[39.4229,0.0567,281.0639],[39.4255,0.0827,273.4553],[39.4339,0.1089,270.8953],[39.4293,0.1518,273.848],[39.4326,0.1717,265.8206],[39.4302,0.1824,266.3489],[39.4305,0.1994,260.3987],[39.4146,0.2133,259.7111],[39.4073,0.2251,257.7811],[39.4021,0.2299,253.1602],[39.3985,0.2391,249.409],[39.3871,0.2573,251.3329],[39.3755,0.2661,255.5702],[39.37,0.276,261.001],[39.368899999999996,0.3035,252.6842],[39.3653,0.3171,259.1528],[39.3567,0.3305,265.564],[39.3488,0.3731,238.8189],[39.3465,0.3719,239.5699],[39.3329,0.3731,241.9482],[39.3273,0.3719,243.2644],[39.3011,0.3807,249.4218],[39.2763,0.3765,254.7319],[39.2682,0.3788,256.955],[39.2595,0.3777,257.8391],[39.2521,0.3797,259.4254],[39.2457,0.3855,262.1215],[39.2205,0.3815,267.0691],[39.2121,0.3641,271.075],[39.2037,0.3539,274.4378],[39.2029,0.3467,275.9232],[39.1969,0.3391,278.2595],[39.1965,0.3351,279.0817],[39.1943,0.3327,280.5579],[39.1915,0.3151,284.5852],[39.1929,0.3081,285.7859],[39.1916,0.2984,288.1999],[39.1823,0.2821,292.4546],[39.1747,0.2739,295.0493],[39.1663,0.2695,297.1498],[39.1599,0.2611,299.6815],[39.1555,0.2579,301.2573],[39.1439,0.2531,304.397],[39.1397,0.2529,304.7696],[39.1347,0.2483,307.0503],[39.1211,0.2467,309.575],[39.1191,0.2479,310.3036],[39.1101,0.2461,312.5202],[39.1075,0.2461,312.8696],[39.1095,0.2471,312.7828],[39.1047,0.2501,313.4114],[39.0983,0.2583,316.2163],[39.0913,0.2601,319.0102],[39.0849,0.2697,321.4131],[39.0769,0.2727,323.5781],[39.0661,0.2893,329.1833],[39.0557,0.2977,332.922],[39.0497,0.2983,334.4777],[39.0435,0.2945,336.3105],[39.0335,0.2969,342.1856],[39.0191,0.2905,343.3778],[39.0123,0.2907,345.7032],[39.0033,0.2875,348.0396],[39.0011,0.2881,348.5645],[38.9979,0.2931,351.0037],[38.9895,0.2945,352.9573],[38.9805,0.3053,355.7629],[38.9769,0.3127,358.6107],[38.9661,0.3197,363.2184],[38.9533,0.3227,365.5072],[38.9491,0.3221,367.3737],[38.9447,0.3157,368.1038],[38.9357,0.3137,370.5295],[38.9155,0.3159,377.7212],[38.8971,0.3239,384.0315],[38.8855,0.3403,389.7948],[38.8725,0.3425,394.2743],[38.8696,0.3445,396.2381],[38.8487,0.3401,401.1946],[38.8433,0.3405,404.1533],[38.8395,0.3433,405.3086],[38.8366,0.3431,406.9783],[38.8269,0.3543,415.48],[38.8207,0.3521,412.9764],[38.8057,0.3545,421.8031],[38.7971,0.3501,423.8978],[38.7937,0.3467,424.4103],[38.7909,0.3465,428.4594],[38.7767,0.3527,436.5532],[38.7631,0.3531,440.1186],[38.7477,0.3619,450.6579],[38.7301,0.3611,457.7516],[38.7233,0.3661,461.4197],[38.7121,0.3657,476.6095],[38.7131,0.3559,477.9789],[38.7573,0.1841,453.5194],[38.7573,0.1743,445.4322],[38.7557,0.17,440.0434],[38.7351,0.1495,461.2346],[38.7341,0.1469,453.6774],[38.7321,0.1249,458.589],[38.7301,0.1185,449.252],[38.7319,0.0979,432.3105],[38.7287,0.0855,418.6893],[38.7305,0.0493,392.4741],[38.7401,0.0139,357.2498],[38.7379,0.0039,332.2375],[38.7429,-0.0022,324.231],[38.7423,-0.0129,308.9535],[38.7485,-0.0203,299.5032],[38.7493,-0.0281,298.768],[38.7625,-0.026,347.0384],[38.7755,-0.0262,350.6789],[38.8331,-0.0488,301.3471],[38.8579,-0.0473,276.8096],[38.8659,-0.0506,263.6724],[38.8837,-0.0513,282.3167],[38.9003,-0.0431,281.8512],[38.9109,-0.0401,260.1842],[38.9369,-0.0438,243.3576],[38.9485,-0.0285,240.2689],[38.9661,-0.0147,227.1682],[38.9643,-0.013,227.6408],[38.9669,-0.0137,226.9377],[39.014,-0.0025,237.3911],[39.0357,-0.0018,239.0174],[39.0505,-0.0051,231.5596],[39.0543,-0.0032,236.3994],[39.0553,-0.0047,235.1555],[39.0717,-0.0029,239.2424],[39.0807,-0.0044,240.5643],[39.0905,-0.0082,233.2355],[39.1013,-0.0174,230.7256],[39.1033,-0.0148,233.8312],[39.1013,-0.0178,230.7256],[39.1067,-0.0263,225.6784],[39.1391,-0.0665,201.257],[39.1479,-0.0743,193.3326],[39.1587,-0.0796,190.2411],[39.1725,-0.0823,196.716],[39.1857,-0.0882,201.109],[39.1969,-0.0906,201.4925],[39.2313,-0.0854,217.6625],[39.2613,-0.0931,218.8658],[39.2939,-0.0913,215.9376],[39.3121,-0.0877,224.0229],[39.3295,-0.0906,225.3203],[39.3621,-0.1144,205.0626],[39.3869,-0.1252,201.4705],[39.4075,-0.1442,193.1822],[39.4361,-0.1457,200.1433],[39.4477,-0.1496,198.7493],[39.4685,-0.1664,190.1673],[39.4815,-0.1744,205.5999],[39.5099,-0.2024,192.2437],[39.5295,-0.2162,187.835],[39.5447,-0.244,176.8148],[39.5517,-0.2485,179.3316],[39.5645,-0.2527,183.8911],[39.5775,-0.2632,182.1612],[39.5867,-0.2733,179.665],[39.5999,-0.2969,171.827],[39.6177,-0.3103,177.8925],[39.6263,-0.3192,180.1777],[39.6263,-0.3793,147.4551],[39.6843,-0.3739,217.5144],[39.7071,-0.3803,225.0064],[39.8135,-0.2632,222.6629],[39.7819,-0.2037,223.3769],[39.7295,-0.1572,231.3734],[39.6973,-0.1133,233.0471],[39.6159,-0.0098,239.1439],[39.5805,0.0023,242.5561],[39.4681,0.0093,268.9556],[39.4282,0.0155,281.2026]]]]}}