{"type":"Feature","properties":{"GID_3":"KEN.11.8.2_1","GID_0":"KEN","country":"Kenya","GID_1":"KEN.11_1","province":"Kakamega","NL_NAME_1":"NA","GID_2":"KEN.11.8_1","county":"MumiasEast","NL_NAME_2":"NA","city":"Lusheya/Lubinu","VARNAME_3":"NA","NL_NAME_3":"NA","TYPE_3":"Ward","ENGTYPE_3":"Ward","CC_3":"1024","HASC_3":"NA","name":"Lusheya_Lubinu.city"},
"geometry":{"type": "MultiPolygon","coordinates": [[[[34.5445,0.2758,1335.9421],[34.5505,0.2817,1353.4783],[34.5529,0.2787,1318.8383],[34.5606,0.2844,1324.244],[34.5664,0.2844,1334.2421],[34.5676,0.2876,1344.9546],[34.5707,0.2878,1334.4883],[34.58,0.2956,1346.4805],[34.5906,0.2999,1324.2013],[34.5748,0.3145,1372.1388],[34.5748,0.3245,1369.877],[34.5682,0.3281,1381.4408],[34.5471,0.3325,1337.3573],[34.5335,0.3337,1345.1305],[34.5175,0.3294,1330.4556],[34.5079,0.3288,1316.1917],[34.5015,0.3333,1309.6466],[34.4981,0.3279,1331.3772],[34.4899,0.3201,1314.4127],[34.4895,0.3171,1306.2318],[34.4852,0.311,1294.7062],[34.4833,0.3106,1294.2163],[34.4867,0.3046,1258.6311],[34.4853,0.303,1259.8368],[34.4873,0.2988,1270.5465],[34.4861,0.2969,1270.7119],[34.4882,0.2978,1270.2117],[34.4934,0.2942,1290.7686],[34.4934,0.2925,1289.5116],[34.4969,0.2926,1296.5699],[34.4975,0.2911,1301.2795],[34.5032,0.2907,1302.9443],[34.5051,0.2927,1299.8966],[34.5072,0.2915,1303.7673],[34.5103,0.2865,1294.2239],[34.5126,0.286,1294.8862],[34.5113,0.2829,1278.6927],[34.5132,0.2771,1279.6782],[34.516,0.279,1324.457],[34.5172,0.2779,1313.6372],[34.5225,0.2802,1329.7478],[34.5248,0.2786,1305.9924],[34.5258,0.2837,1322.7896],[34.5271,0.2839,1318.1669],[34.5294,0.278,1314.5081],[34.5277,0.2769,1292.2537],[34.5332,0.2768,1318.1328],[34.5378,0.2789,1331.4797],[34.5384,0.2765,1315.228],[34.5415,0.2762,1326.2029],[34.5414,0.2779,1336.2933],[34.5435,0.275,1330.4921],[34.5445,0.2758,1335.9421]]]]}}