{"type":"Feature","properties":{"GID_3":"KEN.24.3.5_1","GID_0":"KEN","country":"Kenya","GID_1":"KEN.24_1","province":"Mandera","NL_NAME_1":"NA","GID_2":"KEN.24.3_1","county":"ManderaEast","NL_NAME_2":"NA","city":"Neboi","VARNAME_3":"NA","NL_NAME_3":"NA","TYPE_3":"Ward","ENGTYPE_3":"Ward","CC_3":"214","HASC_3":"NA","name":"Neboi.city"},
"geometry":{"type": "MultiPolygon","coordinates": [[[[41.7118,3.9705,231.9195],[41.7166,3.9437,281.4206],[41.7434,3.9467,255.4492],[41.7428,3.9521,246.4067],[41.7446,3.9579,258.4737],[41.7382,3.957,250.9838],[41.721,3.9689,238.3474],[41.7118,3.9705,231.9195]]]]}}