{"type":"Feature","properties":{"GID_3":"KEN.18.4.1_1","GID_0":"KEN","country":"Kenya","GID_1":"KEN.18_1","province":"Kitui","NL_NAME_1":"NA","GID_2":"KEN.18.4_1","county":"KituiSouth","NL_NAME_2":"NA","city":"Athi","VARNAME_3":"NA","NL_NAME_3":"NA","TYPE_3":"Ward","ENGTYPE_3":"Ward","CC_3":"370","HASC_3":"NA","name":"Athi.city"},
"geometry":{"type": "MultiPolygon","coordinates": [[[[37.9024,-1.8785,813.8817],[37.9071,-1.8928,809.9781],[37.9058,-1.9023,815.8283],[37.908,-1.9036,807.5277],[37.9154,-1.9018,826.1964],[37.9187,-1.9029,815.8311],[37.9182,-1.9093,809.8035],[37.9133,-1.9127,823.8264],[37.9131,-1.9167,801.0761],[37.9104,-1.9211,814.8213],[37.9124,-1.9264,799.3599],[37.91,-1.9297,802.9504],[37.9095,-1.9337,801.6562],[37.9147,-1.9399,799.0107],[37.9168,-1.9481,801.1859],[37.9139,-1.9547,800.1373],[37.9161,-1.9575,796.0242],[37.9254,-1.9861,798.5166],[37.9302,-1.9906,797.0283],[37.9287,-1.9959,795.4285],[37.9375,-2.0016,795.452],[37.9362,-2.008,787.5604],[37.9412,-2.011,792.8159],[37.939,-2.0195,791.4362],[37.9433,-2.0212,791.6813],[37.9439,-2.0231,796.8647],[37.9424,-2.0294,791.236],[37.939,-2.0329,795.53],[37.9442,-2.0374,792.9257],[37.9477,-2.0359,800.1659],[37.9511,-2.0369,785.3242],[37.9554,-2.0486,781.6373],[37.9545,-2.0572,777.2399],[37.9593,-2.0644,780.6352],[37.9604,-2.0787,768.3439],[37.9579,-2.0943,771.8843],[37.9598,-2.1015,765.7383],[37.9566,-2.1082,755.2216],[37.9573,-2.1127,752.6802],[37.9537,-2.1326,758.233],[37.9586,-2.1379,762.6807],[37.9588,-2.1402,744.0231],[37.9631,-2.1426,752.0393],[37.9652,-2.1556,737.3712],[37.9646,-2.1646,730.553],[37.9666,-2.167,739.655],[37.9698,-2.1669,748.2832],[37.9742,-2.1633,739.3317],[37.9828,-2.1611,741.6937],[37.9907,-2.1568,741.0348],[38.0093,-2.1518,734.4108],[38.0205,-2.1467,731.5274],[38.0223,-2.148,722.6371],[38.0245,-2.1567,712.0],[38.0277,-2.1619,715.3188],[38.037,-2.1666,717.1936],[38.0443,-2.1663,711.6251],[38.0485,-2.1686,710.4064],[38.0507,-2.1732,709.5918],[38.0482,-2.1801,720.8582],[38.0546,-2.1864,706.2612],[38.0558,-2.1957,706.1844],[38.0602,-2.2069,703.1228],[38.0635,-2.2109,709.9856],[38.0704,-2.2139,705.4755],[38.0693,-2.2159,701.8779],[38.064,-2.2184,715.396],[38.0633,-2.2217,707.7552],[38.069,-2.2248,699.1192],[38.0725,-2.2511,700.5446],[38.0764,-2.255,698.4433],[38.0753,-2.2609,701.0015],[38.0764,-2.2621,696.296],[38.0805,-2.2605,702.5634],[38.0833,-2.2616,690.4169],[38.0874,-2.272,692.2228],[38.0909,-2.2734,695.6544],[38.0975,-2.273,691.173],[38.1014,-2.2815,688.5123],[38.1116,-2.2862,690.7584],[38.1092,-2.3002,683.9636],[38.1155,-2.3029,682.8701],[38.1171,-2.3138,674.3448],[38.1274,-2.322,663.7628],[38.1372,-2.3205,676.3495],[38.1474,-2.3211,676.4009],[38.1523,-2.3278,678.1176],[38.1737,-2.3381,641.8611],[38.1836,-2.3378,644.8474],[38.1882,-2.3397,637.2761],[38.1963,-2.3489,622.7074],[38.1978,-2.3532,624.6249],[38.2111,-2.3553,620.5559],[38.2226,-2.3993,613.1623],[38.2321,-2.402,615.8167],[38.236,-2.4093,615.7839],[38.2446,-2.4123,594.4224],[38.2471,-2.4167,590.6899],[38.2526,-2.4207,598.5236],[38.2598,-2.4199,594.1022],[38.2641,-2.4221,588.9083],[38.2703,-2.4221,581.8352],[38.2744,-2.4245,572.4818],[38.2803,-2.448,566.0115],[38.2827,-2.4522,564.4579],[38.2884,-2.4831,560.6791],[38.2969,-2.4874,555.1001],[38.2986,-2.4935,552.76],[38.3021,-2.4981,553.9507],[38.3121,-2.5021,556.7145],[38.3122,-2.5119,553.2894],[38.3171,-2.5158,550.5046],[38.3173,-2.5239,549.0533],[38.3215,-2.5294,548.9695],[38.3194,-2.5358,549.9163],[38.3231,-2.5411,549.1135],[38.3224,-2.5476,548.0362],[38.3322,-2.5506,547.1251],[38.3381,-2.5552,543.3188],[38.3375,-2.5581,548.7038],[38.3319,-2.5613,539.8386],[38.3315,-2.5629,539.8386],[38.3349,-2.5689,539.9546],[38.3388,-2.5852,541.5972],[38.3474,-2.5892,538.712],[38.3493,-2.5995,528.502],[38.353,-2.6054,518.4303],[38.3622,-2.6309,513.5896],[38.362,-2.6368,514.7556],[38.3678,-2.6423,524.7609],[38.3669,-2.6499,507.8328],[38.3823,-2.6634,505.0927],[38.3815,-2.6696,500.0322],[38.3859,-2.6773,488.7007],[38.392,-2.6981,482.5325],[38.3965,-2.7058,489.3545],[38.4045,-2.7275,479.2477],[38.4096,-2.7349,481.534],[38.4136,-2.75,471.5969],[38.4196,-2.758,478.7851],[38.4257,-2.7719,477.6382],[38.4267,-2.7778,470.071],[38.4321,-2.7875,470.3795],[38.431399999999996,-2.7914,472.3572],[38.4232,-2.7958,474.2898],[38.422,-2.8049,468.4246],[38.4181,-2.8118,469.1368],[38.4194,-2.8144,468.5635],[38.4252,-2.8168,471.327],[38.4267,-2.8195,466.595],[38.4267,-2.8276,465.6391],[38.431399999999996,-2.8416,466.5102],[38.428,-2.8499,460.4189],[38.4318,-2.8549,461.2721],[38.4385,-2.856,461.3141],[38.4396,-2.858,456.1055],[38.4381,-2.8637,454.9376],[38.4457,-2.8688,457.2961],[38.443,-2.8771,457.6103],[38.4438,-2.8795,456.1557],[38.451,-2.8788,459.109],[38.4543,-2.8811,463.0068],[38.455,-2.8842,450.0188],[38.4512,-2.8887,460.1903],[38.4508,-2.8936,454.3335],[38.4613,-2.8968,458.9307],[38.4609,-2.9028,447.3011],[38.4666,-2.9092,451.8966],[38.4743,-2.9262,442.6891],[38.4759,-2.9363,441.5795],[38.4874,-2.9364,445.8408],[38.4882,-2.9434,439.6953],[38.4934,-2.9502,438.4915],[38.4917,-2.9536,439.7167],[38.4924,-2.9558,435.9021],[38.4981,-2.9558,437.0815],[38.5048,-2.9657,420.0454],[38.5098,-2.9651,422.7371],[38.5177,-2.9745,408.9344],[38.5257,-2.974,412.8033],[38.5304,-2.9759,416.5619],[38.5381,-2.9734,412.3687],[38.5439,-2.9796,394.8941],[38.5507,-2.9805,406.4836],[38.5595,-2.986,407.915],[38.5835,-2.9872,394.0489],[38.594,-2.9991,391.4878],[38.6019,-2.9986,385.5702],[38.6082,-2.9946,387.4621],[38.6092,-2.9967,370.9499],[38.6061,-3.0039,381.5929],[38.6083,-3.0064,361.916],[38.6133,-3.007,380.5924],[38.6176,-3.0099,362.194],[38.6251,-3.0099,360.8867],[38.6295,-3.0119,359.5702],[38.6358,-3.0108,362.6299],[38.6427,-3.0127,365.1873],[38.6513,-3.0204,351.9821],[38.6538,-3.025,353.6581],[38.6613,-3.0288,351.704],[38.6652,-3.0393,348.2458],[38.6816,-3.035,351.2504],[38.6943,-3.0356,340.0911],[38.7073,-3.0315,320.4915],[38.7231,-3.0364,314.0402],[38.7333,-3.0422,310.0265],[38.7442,-3.0432,311.2943],[38.7544,-3.0462,307.2826],[38.7585,-3.0467,296.4014],[38.7688,-3.0431,298.9069],[38.774,-3.0434,293.2976],[38.7786,-3.0478,293.9763],[38.7891,-3.0476,302.049],[38.7988,-3.0518,285.2277],[38.8089,-3.0527,286.3667],[38.8099,-3.0566,281.0025],[38.8075,-3.0598,277.4907],[38.8021,-3.0577,286.1707],[38.7981,-3.0602,288.2133],[38.7989,-3.0663,269.9129],[38.8043,-3.0683,277.0445],[38.8195,-3.0672,270.9017],[38.8259,-3.0608,281.3194],[38.8362,-3.0592,269.9228],[38.8415,-3.0534,266.3549],[38.8449,-3.0548,260.6871],[38.8477,-3.0609,267.3569],[38.8623,-3.0575,261.0004],[38.8933,-3.0377,260.7443],[38.8988,-3.0381,256.5393],[38.9029,-3.0422,237.7596],[38.9115,-3.0429,244.4325],[38.9175,-3.0427,229.7489],[38.9255,-3.0397,227.7087],[38.9316,-3.0402,226.4984],[38.9371,-3.0343,229.3637],[38.9529,-3.0385,225.2087],[38.9767,-3.0393,217.8118],[38.9863,-3.033,213.5188],[38.9893,-3.0272,214.7808],[38.9919,-3.0257,215.9826],[39.0139,-3.0253,209.4052],[39.0256,-3.0206,211.9991],[39.0367,-3.025,207.4483],[39.0453,-3.021,204.4247],[39.0445,-3.0281,203.6537],[39.0458,-3.0313,196.5003],[39.0535,-3.033,202.1681],[39.062,-3.0409,200.1744],[39.0761,-3.041,201.7604],[38.6235,-2.4126,379.5774],[38.6257,-2.4112,379.0305],[38.6219,-2.412,379.6507],[38.6197,-2.4101,379.8641],[38.617,-2.4105,381.4004],[38.6167,-2.4061,382.2748],[38.614,-2.4063,384.028],[38.612,-2.4031,383.7465],[38.6059,-2.4052,389.1624],[38.605,-2.4029,388.4928],[38.5993,-2.4038,391.0052],[38.5966,-2.4013,391.9706],[38.5852,-2.4067,393.7977],[38.5853,-2.4045,397.1003],[38.5808,-2.3999,396.0369],[38.5733,-2.3961,397.6148],[38.5702,-2.3966,397.8395],[38.5693,-2.3944,402.8901],[38.5655,-2.3943,405.3726],[38.5622,-2.3897,405.5691],[38.5595,-2.3896,401.4348],[38.5576,-2.3904,402.2581],[38.5557,-2.3949,404.0968],[38.5523,-2.394,404.4086],[38.5429,-2.3971,407.3732],[38.541,-2.3957,409.6874],[38.535,-2.4016,412.3168],[38.531,-2.4015,413.596],[38.5264,-2.4065,410.9063],[38.5287,-2.4093,410.9785],[38.5256,-2.4106,414.8026],[38.5217,-2.4062,417.7403],[38.5182,-2.4106,415.5514],[38.5122,-2.412,415.847],[38.5117,-2.4101,418.1669],[38.5154,-2.4081,418.6738],[38.5151,-2.4068,417.1505],[38.5077,-2.4051,424.1074],[38.5058,-2.4091,417.4895],[38.5015,-2.4067,421.3611],[38.5001,-2.4032,423.2722],[38.4966,-2.4054,423.0723],[38.4988,-2.4098,422.2608],[38.4945,-2.414,428.0028],[38.4797,-2.4179,429.6566],[38.4777,-2.4171,428.3847],[38.4772,-2.4135,428.2927],[38.4748,-2.4149,428.9603],[38.4697,-2.4133,434.4241],[38.4699,-2.416,430.8504],[38.4731,-2.4165,427.003],[38.4735,-2.4184,431.5703],[38.4695,-2.4214,433.6967],[38.4681,-2.4252,436.2476],[38.4637,-2.425,436.4419],[38.4593,-2.4273,434.7906],[38.4567,-2.4251,437.6375],[38.45,-2.4284,437.5247],[38.4456,-2.4274,441.4224],[38.4428,-2.4296,439.5237],[38.4354,-2.4257,438.9996],[38.4317,-2.4207,450.4825],[38.4253,-2.4206,451.3379],[38.4217,-2.4194,455.1993],[38.4203,-2.4171,458.0566],[38.4162,-2.422,449.9276],[38.413,-2.4185,450.4776],[38.4112,-2.413,457.7394],[38.4083,-2.4125,463.8051],[38.4045,-2.4139,463.6598],[38.4023,-2.4169,462.2188],[38.4059,-2.4217,453.1581],[38.3998,-2.4217,462.0044],[38.3937,-2.424,464.5539],[38.3943,-2.4264,457.4763],[38.3978,-2.427,459.6136],[38.3954,-2.4314,460.9525],[38.3894,-2.4313,463.0679],[38.3879,-2.4338,463.9531],[38.3848,-2.4346,466.8336],[38.3813,-2.4387,468.0251],[38.382,-2.4432,466.4405],[38.379,-2.4419,470.2939],[38.3756,-2.4426,472.2599],[38.375,-2.4501,467.3619],[38.372,-2.4506,468.7938],[38.3705,-2.4428,477.0393],[38.3676,-2.4443,473.452],[38.3636,-2.4428,482.7913],[38.3611,-2.446,474.0426],[38.3597,-2.4413,499.25],[38.357,-2.4409,477.4677],[38.354,-2.4371,476.4863],[38.3539,-2.4326,488.5025],[38.3517,-2.4323,480.4767],[38.3511,-2.4289,484.4694],[38.345,-2.4278,484.9045],[38.3468,-2.4226,488.0561],[38.3405,-2.4204,481.8845],[38.3391,-2.4127,494.2777],[38.3347,-2.4025,484.3758],[38.3299,-2.4012,486.873],[38.3319,-2.3977,489.811],[38.33,-2.3902,488.6604],[38.3246,-2.3866,489.6581],[38.3229,-2.3777,496.1463],[38.3191,-2.3762,490.5615],[38.3195,-2.3698,492.0694],[38.3145,-2.3657,495.5573],[38.3202,-2.3568,499.2721],[38.3174,-2.3486,503.9885],[38.3136,-2.3492,503.3484],[38.3121,-2.3479,500.5004],[38.3136,-2.346,501.7344],[38.3198,-2.3461,508.6287],[38.3243,-2.3435,500.665],[38.3204,-2.335,501.3199],[38.3233,-2.3301,505.4292],[38.3328,-2.3238,504.6432],[38.3334,-2.3181,505.929],[38.3295,-2.3188,509.9256],[38.3296,-2.3116,509.8106],[38.3231,-2.3147,511.5013],[38.3198,-2.3123,517.0104],[38.3197,-2.3092,517.5953],[38.323,-2.3088,513.0857],[38.3245,-2.3044,516.528],[38.3204,-2.3053,513.3094],[38.3187,-2.3028,520.0157],[38.3159,-2.3039,517.8285],[38.3111,-2.3024,515.8421],[38.3099,-2.2993,521.5096],[38.3134,-2.2996,519.3481],[38.3141,-2.2984,518.5729],[38.3105,-2.2924,526.7277],[38.3059,-2.2926,521.8033],[38.3054,-2.2877,524.4791],[38.302,-2.2905,523.968],[38.2979,-2.2907,532.9866],[38.2933,-2.2954,527.0076],[38.2902,-2.2954,529.6512],[38.2902,-2.2882,553.8927],[38.2853,-2.2852,559.4447],[38.2869,-2.2806,547.4296],[38.2833,-2.2764,530.6624],[38.2844,-2.2716,531.488],[38.2787,-2.263,533.8195],[38.2782,-2.2582,538.8483],[38.2736,-2.2545,538.5868],[38.2754,-2.2499,535.3359],[38.2701,-2.243,543.3892],[38.2709,-2.2384,538.938],[38.2689,-2.234,550.9219],[38.2731,-2.2325,546.011],[38.2741,-2.2275,546.4366],[38.2669,-2.226,546.1067],[38.2599,-2.2064,553.8467],[38.2551,-2.2026,551.5131],[38.2521,-2.197,566.0873],[38.2466,-2.195,567.4061],[38.2442,-2.1868,585.5527],[38.2399,-2.1859,576.7506],[38.2374,-2.1793,606.7938],[38.2331,-2.1813,600.4359],[38.2287,-2.1782,607.1176],[38.2286,-2.1703,626.4692],[38.2209,-2.173,615.7183],[38.2153,-2.1605,615.3188],[38.2125,-2.1577,621.4543],[38.2122,-2.1523,631.5458],[38.2098,-2.1536,629.7372],[38.2094,-2.1557,624.3774],[38.1987,-2.1601,628.5854],[38.197,-2.1565,628.1624],[38.1978,-2.1529,625.78],[38.1949,-2.1531,623.1855],[38.1946,-2.1507,638.5366],[38.1998,-2.1494,632.7784],[38.2053,-2.1502,631.8792],[38.2062,-2.1467,627.1817],[38.2034,-2.1433,627.2839],[38.2031,-2.1383,649.6874],[38.1977,-2.137,645.4164],[38.1921,-2.138,636.3666],[38.1946,-2.1319,643.4903],[38.1909,-2.1321,639.7858],[38.1887,-2.1297,641.8033],[38.1938,-2.1283,636.5786],[38.1928,-2.1252,647.8904],[38.1896,-2.1243,641.7004],[38.1886,-2.1205,642.1091],[38.1861,-2.1204,639.426],[38.1846,-2.1178,644.0947],[38.1803,-2.1173,650.4827],[38.1811,-2.1137,650.0125],[38.1792,-2.111,650.4861],[38.1764,-2.1122,643.1884],[38.1744,-2.1111,649.1567],[38.1768,-2.1085,647.7401],[38.1731,-2.1045,649.0472],[38.1739,-2.1002,660.9619],[38.1822,-2.0944,654.5101],[38.1805,-2.0921,661.4058],[38.1756,-2.0957,650.9493],[38.1738,-2.0952,657.6376],[38.1754,-2.0908,662.5807],[38.1722,-2.0906,656.973],[38.1724,-2.0879,653.3252],[38.1703,-2.0863,662.3146],[38.1736,-2.0838,654.4634],[38.1732,-2.0783,669.7748],[38.1685,-2.0798,655.3054],[38.1684,-2.0765,666.1787],[38.1639,-2.0753,668.0315],[38.1714,-2.0656,670.5295],[38.1661,-2.0659,660.0057],[38.1661,-2.0604,669.3795],[38.161,-2.066,665.4377],[38.1591,-2.0649,667.8979],[38.1615,-2.061,676.8749],[38.1549,-2.0611,673.2537],[38.1571,-2.0591,666.0962],[38.1564,-2.0568,671.5579],[38.1609,-2.0554,670.5591],[38.1613,-2.0518,671.6648],[38.1578,-2.0498,670.6956],[38.1612,-2.0471,670.5148],[38.1569,-2.0457,671.415],[38.1571,-2.0403,681.7241],[38.1543,-2.04,677.0726],[38.1517,-2.0431,676.0603],[38.1488,-2.0406,674.3785],[38.1505,-2.0381,678.4373],[38.1439,-2.0376,675.3817],[38.1424,-2.0331,679.0402],[38.1448,-2.0282,679.7952],[38.1401,-2.027,680.9712],[38.1418,-2.0235,680.8495],[38.1394,-2.0195,694.3409],[38.1352,-2.0207,684.4681],[38.1284,-2.0143,692.7156],[38.1254,-2.0143,693.2452],[38.1216,-2.0174,689.5551],[38.1195,-2.0145,689.0675],[38.1244,-2.0069,688.0273],[38.1203,-2.0049,690.4681],[38.1212,-1.9995,690.5735],[38.1256,-1.9972,694.5403],[38.1211,-1.9947,691.4193],[38.1218,-1.991,693.4215],[38.1186,-1.9865,697.7311],[38.1184,-1.9817,697.2973],[38.1159,-1.9807,696.9767],[38.1146,-1.9712,698.9913],[38.1166,-1.9671,698.9447],[38.1153,-1.9616,705.4218],[38.112,-1.9576,700.3071],[38.1115,-1.9532,702.4073],[38.109,-1.9517,707.939],[38.1038,-1.9576,708.1528],[38.0996,-1.9547,715.462],[38.1,-1.9474,734.8206],[38.1031,-1.9446,711.0798],[38.1034,-1.942,728.353],[38.0997,-1.9409,721.2526],[38.0964,-1.942,717.134],[38.0945,-1.9397,713.2359],[38.1024,-1.9324,740.0663],[38.0979,-1.9315,720.4734],[38.0909,-1.9229,725.6826],[38.0909,-1.9167,736.2673],[38.0941,-1.9138,751.9993],[38.0913,-1.91,764.6913],[38.0951,-1.903,758.1091],[38.0938,-1.9008,771.942],[38.09,-1.8997,756.6279],[38.0899,-1.8956,768.1954],[38.0873,-1.8914,767.2157],[38.0842,-1.8898,763.7015],[38.0843,-1.8868,783.3751],[38.0783,-1.8824,768.2126],[38.0725,-1.8872,804.0292],[38.0556,-1.8877,824.9263],[38.053,-1.8909,814.6753],[38.0504,-1.8886,813.8603],[38.0444,-1.8955,823.3224],[38.0325,-1.8902,839.0489],[38.0226,-1.8916,850.4167],[38.0135,-1.888,864.161],[38.0055,-1.8893,871.4252],[38.0035,-1.8928,873.2812],[37.9969,-1.8954,899.8265],[37.9894,-1.8961,905.212],[37.9767,-1.8943,912.8669],[37.9624,-1.889,958.6736],[37.9555,-1.8781,964.6968],[37.9566,-1.872,960.0531],[37.9406,-1.8725,977.8067],[37.9335,-1.8757,895.7332],[37.9283,-1.8741,880.8945],[37.9231,-1.8778,868.2146],[37.9151,-1.8756,860.712],[37.9073,-1.8779,832.2888],[37.9042,-1.8762,816.3729],[37.9044,-1.8778,817.2015],[37.9024,-1.8785,813.8817]]]]}}