{"type": "Feature","bbox": [36.7528,-1.2899,36.8114,-1.2563],"geometry": {"type": "MultiPolygon","coordinates": [[[[36.8114,-1.2721,1693.4509],[36.7987,-1.2591,1720.391],[36.7789,-1.2563,1758.6594],[36.7528,-1.2616,1820.6636],[36.7593,-1.265,1811.3787],[36.7616,-1.2678,1800.225],[36.7683,-1.2671,1786.1406],[36.7763,-1.2635,1743.8615],[36.7798,-1.264,1736.4484],[36.7818,-1.2627,1738.9844],[36.7842,-1.2639,1738.8201],[36.7798,-1.2705,1743.8801],[36.7762,-1.286,1769.8516],[36.7736,-1.2862,1774.2812],[36.7737,-1.2899,1780.0953],[36.7762,-1.2899,1773.3091],[36.7872,-1.2804,1756.1604],[36.7931,-1.2803,1744.8374],[36.7954,-1.2784,1736.2583],[36.7964,-1.2744,1717.5814],[36.8015,-1.2714,1703.2346],[36.8033,-1.2737,1694.6782],[36.8101,-1.2737,1680.2584],[36.8114,-1.2721,1693.4509]]]]}
,"properties": {"GID_3": "KEN.30.1.2_1","GID_0": "KEN","country": "Kenya","GID_1": "KEN.30_1","province": "Nairobi","NL_NAME_1": "NA","GID_2": "KEN.30.1_1","county": "DagorettiNorth","NL_NAME_2": "NA","city": "Kileleshwa","VARNAME_3": "NA","NL_NAME_3": "NA","TYPE_3": "Ward","ENGTYPE_3": "Ward","CC_3": "1374","HASC_3": "NA","name": "Kileleshwa.city","area_km2": 9.00873,"hist_schema_id": "Elevation0-9000","hist_area_km2": {"1675": 0.042394,"1700": 1.504988,"1725": 2.713218,"1750": 2.39526,"1775": 1.165834,"1800": 0.932671,"1825": 0.254365}}}