{"type":"Feature","properties":{"GID_2":"KEN.2.3_1","GID_0":"KEN","country":"Kenya","GID_1":"KEN.2_1","province":"Bomet","NL_NAME_1":"NA","county":"Chepalungu","VARNAME_2":"NA","NL_NAME_2":"NA","TYPE_2":"Constituency","ENGTYPE_2":"Constituency","CC_2":"195","HASC_2":"NA","name":"Chepalungu.county"},
"geometry":{"type": "MultiPolygon","coordinates": [[[[35.2618,-1.0157,1711.8524],[35.2647,-1.0148,1704.2778],[35.265,-1.0164,1701.7433],[35.2711,-1.0178,1709.7573],[35.2698,-1.0145,1705.7223],[35.2718,-1.0158,1708.183],[35.28,-1.0113,1708.9073],[35.282,-1.0076,1718.592],[35.2812,-1.0066,1718.592],[35.2845,-1.0087,1717.1592],[35.2864,-1.0058,1721.5592],[35.2889,-1.0069,1718.5531],[35.29,-1.0036,1721.5544],[35.2958,-1.0023,1721.4564],[35.2997,-0.9973,1736.3684],[35.3028,-0.9996,1727.5298],[35.3069,-0.9971,1723.7618],[35.3078,-0.9947,1735.1696],[35.3127,-0.9953,1719.6241],[35.3134,-0.9942,1724.9784],[35.311,-0.9917,1754.8191],[35.3112,-0.9899,1760.8573],[35.3125,-0.9909,1740.0054],[35.3156,-0.9898,1729.319],[35.3141,-0.9872,1754.5907],[35.3152,-0.985,1748.2045],[35.3177,-0.9851,1739.4878],[35.3196,-0.9834,1727.8148],[35.3191,-0.9819,1730.4725],[35.3219,-0.9832,1726.4772],[35.3239,-0.9804,1738.1084],[35.3275,-0.9809,1740.0233],[35.3298,-0.9779,1744.202],[35.3325,-0.9792,1725.8646],[35.3318,-0.9767,1736.767],[35.329,-0.9755,1747.5828],[35.3334,-0.9702,1756.2711],[35.3391,-0.9739,1744.9542],[35.3404,-0.9726,1751.7783],[35.3387,-0.9703,1755.0997],[35.3461,-0.9658,1754.7024],[35.3488,-0.9679,1751.8168],[35.3469,-0.9701,1748.1733],[35.3506,-0.9735,1742.9321],[35.3494,-0.9672,1746.6394],[35.3525,-0.9656,1752.8674],[35.3508,-0.9652,1749.8818],[35.3515,-0.9629,1755.1519],[35.35,-0.9624,1752.3982],[35.3512,-0.9606,1755.6218],[35.3478,-0.9567,1778.3538],[35.35,-0.9565,1761.9575],[35.3499,-0.954,1775.0345],[35.3482,-0.9521,1767.8865],[35.3472,-0.9397,1783.4989],[35.3449,-0.9345,1820.1366],[35.3469,-0.933,1809.351],[35.3496,-0.9257,1816.4867],[35.3478,-0.9236,1808.8458],[35.3475,-0.917,1818.9363],[35.3442,-0.9149,1824.1741],[35.3465,-0.9101,1830.2766],[35.3454,-0.9062,1838.6595],[35.3486,-0.9017,1846.4829],[35.348,-0.8998,1852.4501],[35.3529,-0.8847,1854.7797],[35.3492,-0.871,1915.1107],[35.3538,-0.8661,2055.2358],[35.3605,-0.8538,2157.0525],[35.3631,-0.8377,1971.5121],[35.3623,-0.8322,1968.2521],[35.3546,-0.821,1988.3413],[35.3521,-0.8071,2001.5488],[35.3623,-0.7962,1973.817],[35.3712,-0.7814,2064.8892],[35.3677,-0.7792,2012.0488],[35.3502,-0.7784,1920.2939],[35.351,-0.7809,1917.7467],[35.3489,-0.7807,1922.8297],[35.3471,-0.7831,1916.4739],[35.343,-0.7843,1948.1506],[35.3433,-0.7892,1909.9299],[35.3407,-0.7869,1938.3829],[35.3406,-0.7907,1928.1277],[35.3393,-0.791,1928.1277],[35.3383,-0.7891,1942.5413],[35.3333,-0.7932,1904.7168],[35.3337,-0.7898,1918.8635],[35.3319,-0.7881,1910.4551],[35.3277,-0.7764,1947.4874],[35.3304,-0.7715,1940.8108],[35.3102,-0.7509,1955.3464],[35.2858,-0.7733,1938.7185],[35.2481,-0.7858,1952.8035],[35.2424,-0.7805,1906.6356],[35.2406,-0.7863,1984.302],[35.2409,-0.7923,1951.5801],[35.2354,-0.796,1868.0479],[35.2343,-0.7987,1851.3771],[35.2411,-0.8119,1836.7336],[35.2294,-0.812,1826.54],[35.2196,-0.8081,1818.729],[35.2184,-0.8053,1816.0803],[35.2136,-0.8043,1801.7499],[35.2108,-0.7959,1807.8615],[35.2068,-0.7927,1793.0989],[35.2072,-0.7897,1796.5522],[35.2044,-0.7863,1806.2019],[35.2015,-0.7861,1807.3069],[35.1992,-0.7838,1801.4053],[35.1979,-0.7849,1794.9126],[35.1956,-0.7834,1797.0876],[35.1967,-0.7851,1794.9126],[35.195,-0.7849,1797.1754],[35.1946,-0.7879,1798.8623],[35.1933,-0.7856,1798.9761],[35.1905,-0.7852,1802.1117],[35.1908,-0.7871,1800.6759],[35.1881,-0.7872,1804.5109],[35.185,-0.7897,1795.8254],[35.1832,-0.7881,1798.511],[35.1819,-0.7911,1785.1262],[35.1791,-0.7912,1780.396],[35.1783,-0.7878,1785.1902],[35.1755,-0.7868,1783.7896],[35.1755,-0.7848,1794.3773],[35.1728,-0.7846,1790.0602],[35.1724,-0.7886,1779.8474],[35.1699,-0.7916,1783.0774],[35.1744,-0.7959,1785.2405],[35.169,-0.8147,1828.5562],[35.1733,-0.8148,1823.4728],[35.1753,-0.8169,1818.8635],[35.1736,-0.8236,1835.3525],[35.1691,-0.8246,1828.5081],[35.1701,-0.8282,1817.3177],[35.1686,-0.8322,1805.6245],[35.1671,-0.8335,1808.3726],[35.1563,-0.8296,1796.0242],[35.1423,-0.8313,1811.7332],[35.137,-0.8348,1817.799],[35.1464,-0.8564,1821.002],[35.1392,-0.8753,1800.7761],[35.1394,-0.8782,1798.3812],[35.136,-0.8837,1797.5184],[35.1365,-0.8872,1798.1724],[35.13,-0.8968,1798.1174],[35.138,-0.9072,1800.1743],[35.1368,-0.9146,1789.5011],[35.1294,-0.9237,1787.0248],[35.1164,-0.9286,1778.6221],[35.2386,-1.0297,1699.839],[35.2411,-1.031,1696.2178],[35.2432,-1.029,1695.8875],[35.2446,-1.0312,1698.4797],[35.2465,-1.0301,1699.0145],[35.2492,-1.0279,1700.925],[35.2479,-1.0272,1698.113],[35.2487,-1.0249,1700.3459],[35.2515,-1.0249,1703.5568],[35.2509,-1.0223,1708.3176],[35.2545,-1.0241,1710.7189],[35.2579,-1.0228,1712.5938],[35.2602,-1.0162,1734.4193],[35.2618,-1.0157,1711.8524]]]]}}