{"type": "Feature","bbox": [40.3595,0.0025,40.999,0.4621],"geometry": {"type": "MultiPolygon","coordinates": [[[[40.9931,0.0087,87.8367],[40.9886,0.014,90.1305],[40.9893,0.0932,92.7255],[40.991,0.1066,90.9128],[40.9893,0.1193,92.0892],[40.9899,0.2347,89.0637],[40.9941,0.2362,88.3404],[40.9923,0.2875,82.9407],[40.999,0.4058,78.6233],[40.9887,0.4485,77.1182],[40.9887,0.4621,75.7305],[40.9784,0.4545,76.8988],[40.9618,0.449,77.9381],[40.9465,0.4384,78.755],[40.9343,0.434,79.5552],[40.9201,0.4261,80.7332],[40.886,0.3933,84.961],[40.8581,0.3759,85.9044],[40.8421,0.3703,87.8647],[40.8172,0.3654,90.3994],[40.7713,0.3532,92.5266],[40.7501,0.3417,92.609],[40.7367,0.3262,93.2791],[40.7171,0.3206,95.0849],[40.7114,0.3141,95.4968],[40.7037,0.2931,97.5285],[40.6955,0.2785,100.2497],[40.6845,0.2715,99.8049],[40.6833,0.2597,102.0889],[40.6813,0.2571,103.2995],[40.6465,0.2313,105.7683],[40.6293,0.2327,106.3139],[40.6191,0.2313,106.5314],[40.6115,0.2321,106.8817],[40.6065,0.2265,108.6856],[40.5953,0.2253,108.1385],[40.5855,0.2153,109.9436],[40.5779,0.2177,110.4245],[40.5713,0.2153,107.4212],[40.5629,0.2163,109.006],[40.5407,0.2269,108.2801],[40.5349,0.227,109.2676],[40.5241,0.2218,110.4664],[40.5205,0.2137,110.5113],[40.5129,0.2077,111.9927],[40.5077,0.1941,115.1498],[40.5029,0.1931,113.3133],[40.4983,0.1967,115.8072],[40.4951,0.197,115.8475],[40.4839,0.1887,112.1293],[40.4753,0.1863,113.4107],[40.4527,0.1855,114.5701],[40.4257,0.1899,116.1524],[40.4186,0.1887,116.0271],[40.4055,0.1835,116.8164],[40.4023,0.1837,117.1409],[40.3965,0.1851,118.0308],[40.3785,0.1957,120.0736],[40.3595,0.1984,120.924],[40.4,0.1281,119.8283],[40.3985,0.1252,119.6309],[40.4431,0.1327,121.283],[40.45,0.1308,121.5018],[40.4532,0.1268,119.8524],[40.509,0.1266,126.1641],[40.5937,0.1342,122.063],[40.6239,0.1402,113.6738],[40.6398,0.1454,119.5223],[40.6528,0.1577,117.7734],[40.6938,0.1595,112.5526],[40.735,0.1639,107.3157],[40.8733,0.1644,95.8427],[40.8763,0.1573,97.0112],[40.8816,0.1521,93.9151],[40.8982,0.1421,98.4784],[40.9084,0.1381,100.1471],[40.9261,0.1232,97.8656],[40.929,0.1091,100.2839],[40.9315,0.1041,98.3879],[40.938,0.096,97.2677],[40.942,0.0854,97.7573],[40.9514,0.0697,98.7715],[40.9622,0.058,97.6735],[40.9681,0.0449,96.9895],[40.9754,0.0346,93.3268],[40.9834,0.0131,91.7528],[40.9931,0.0025,91.2876],[40.9931,0.0087,87.8367]]]]}
,"properties": {"GID_3": "KEN.7.2.6_1","GID_0": "KEN","country": "Kenya","GID_1": "KEN.7_1","province": "Garissa","NL_NAME_1": "NA","GID_2": "KEN.7.2_1","county": "Daadab","NL_NAME_2": "NA","city": "Liboi","VARNAME_3": "NA","NL_NAME_3": "NA","TYPE_3": "Ward","ENGTYPE_3": "Ward","CC_3": "150","HASC_3": "NA","name": "Liboi.city","area_km2": 1200.2876,"hist_schema_id": "Elevation0-9000","hist_area_km2": {"75": 247.9551,"100": 721.8655,"125": 230.467}}}