{"type":"Feature","properties":{"GID_3":"KEN.23.3.3_1","GID_0":"KEN","country":"Kenya","GID_1":"KEN.23_1","province":"Makueni","NL_NAME_1":"NA","GID_2":"KEN.23.3_1","county":"KibweziWest","NL_NAME_2":"NA","city":"KikumbulyuSouth","VARNAME_3":"NA","NL_NAME_3":"NA","TYPE_3":"Ward","ENGTYPE_3":"Ward","CC_3":"434","HASC_3":"NA","name":"Kikumbulyu_South.city"},
"geometry":{"type": "MultiPolygon","coordinates": [[[[38.1197,-2.3155,670.7877],[38.1152,-2.318,684.5784],[38.0929,-2.34,742.8887],[38.0691,-2.3462,772.5707],[38.0636,-2.3457,775.4009],[38.0573,-2.3502,779.1885],[38.0543,-2.3492,788.3044],[38.0357,-2.3527,806.764],[38.0113,-2.3423,843.2317],[38.0085,-2.3367,829.8885],[38.0064,-2.3364,822.0779],[37.9888,-2.3519,858.8509],[37.9847,-2.3579,883.2092],[37.9417,-2.3244,950.1891],[37.9312,-2.3248,954.9334],[37.9252,-2.3299,987.2307],[37.9233,-2.3338,994.9587],[37.9134,-2.3415,1198.901],[37.9093,-2.3513,1095.3828],[37.9075,-2.3605,1039.8589],[37.9099,-2.3759,1035.3992],[37.913,-2.3838,965.921],[37.9132,-2.3916,965.7866],[37.915,-2.3945,975.9793],[37.929,-2.4051,940.214],[37.9569,-2.4108,919.5574],[37.9601,-2.4149,923.3028],[37.9649,-2.43,934.0983],[37.9721,-2.4249,916.8079],[37.9723,-2.4204,908.7772],[37.9688,-2.4175,899.5118],[37.9741,-2.4105,886.6743],[37.9741,-2.4063,884.8752],[37.9835,-2.3936,863.3383],[37.9918,-2.3891,841.5262],[37.9958,-2.3908,841.8351],[38.0042,-2.385,829.9329],[38.006,-2.3804,820.601],[38.0083,-2.3796,814.6105],[38.0112,-2.3756,812.1133],[38.0107,-2.3724,815.046],[38.0133,-2.3686,813.9161],[38.0145,-2.3629,809.7736],[38.0181,-2.365,806.1376],[38.0205,-2.3632,811.1072],[38.0209,-2.365,803.7682],[38.0252,-2.3678,801.0447],[38.0285,-2.3674,796.7375],[38.0343,-2.3705,783.1752],[38.0382,-2.3696,780.9943],[38.0406,-2.3714,773.2665],[38.043,-2.3687,777.1729],[38.0479,-2.3703,769.3015],[38.0494,-2.3695,767.1866],[38.0484,-2.3675,768.7031],[38.0546,-2.3676,771.9344],[38.0598,-2.372,759.4475],[38.0599,-2.3754,752.6372],[38.0625,-2.3743,752.4329],[38.0669,-2.3765,745.0062],[38.0685,-2.3754,746.4197],[38.0718,-2.3789,743.3929],[38.0745,-2.3762,755.5679],[38.0808,-2.3808,734.9416],[38.0845,-2.3801,728.1398],[38.0872,-2.3745,734.716],[38.0908,-2.3752,726.0507],[38.0936,-2.3704,727.3519],[38.0995,-2.3692,715.7926],[38.0994,-2.3659,725.5458],[38.1045,-2.3615,714.6281],[38.1083,-2.3624,713.6974],[38.1117,-2.3555,706.7741],[38.122,-2.3586,696.7567],[38.1242,-2.3509,686.8116],[38.1223,-2.3508,689.9097],[38.1225,-2.3447,685.2991],[38.1213,-2.3434,684.5051],[38.1224,-2.3413,687.8492],[38.1256,-2.3404,678.1599],[38.1258,-2.334,669.8965],[38.1236,-2.3329,677.4386],[38.125,-2.3275,673.598],[38.1364,-2.3206,671.7692],[38.127,-2.3219,663.7628],[38.1197,-2.3155,670.7877]]]]}}