{"type": "Feature","bbox": [36.8117,-1.293,36.8403,-1.2725],"geometry": {"type": "MultiPolygon","coordinates": [[[[36.8197,-1.2906,1665.9048],[36.8212,-1.293,1663.2302],[36.8337,-1.2867,1656.467],[36.8377,-1.2895,1653.717],[36.8402,-1.2898,1650.6536],[36.8403,-1.2874,1640.416],[36.8315,-1.2834,1657.4829],[36.8346,-1.2832,1649.0863],[36.8318,-1.2795,1658.1306],[36.8216,-1.2771,1667.0155],[36.8117,-1.2725,1693.4509],[36.8197,-1.2906,1665.9048]]]]}
,"properties": {"GID_3": "KEN.30.16.2_1","GID_0": "KEN","country": "Kenya","GID_1": "KEN.30_1","province": "Nairobi","NL_NAME_1": "NA","GID_2": "KEN.30.16_1","county": "Starehe","NL_NAME_2": "NA","city": "NairobiCentral","VARNAME_3": "NA","NL_NAME_3": "NA","TYPE_3": "Ward","ENGTYPE_3": "Ward","CC_3": "1439","HASC_3": "NA","name": "Nairobi_Central.city","area_km2": 2.946367,"hist_schema_id": "Elevation0-9000","hist_area_km2": {"1650": 0.869073,"1675": 2.034901,"1700": 0.042394}}}