{"type":"Feature","properties":{"GID_2":"KEN.31.4_1","GID_0":"KEN","country":"Kenya","GID_1":"KEN.31_1","province":"Nakuru","NL_NAME_1":"NA","county":"KuresoiSouth","VARNAME_2":"NA","NL_NAME_2":"NA","TYPE_2":"Constituency","ENGTYPE_2":"Constituency","CC_2":"170","HASC_2":"NA","name":"Kuresoi_South.county"},
"geometry":{"type": "MultiPolygon","coordinates": [[[[35.7092,-0.5527,2548.4617],[35.7111,-0.5471,2571.2598],[35.717,-0.5464,2585.1799],[35.7237,-0.542,2616.584],[35.734,-0.5273,2624.4971],[35.7416,-0.5234,2635.1819],[35.7461,-0.5139,2669.5947],[35.7448,-0.499,2671.1533],[35.7485,-0.4889,2685.3918],[35.7496,-0.4794,2707.6992],[35.7406,-0.4749,2724.8684],[35.7247,-0.4705,2720.0449],[35.7212,-0.467,2681.427],[35.7256,-0.4428,2733.6301],[35.7231,-0.4354,2747.0989],[35.723,-0.4281,2778.5342],[35.7254,-0.4243,2809.6919],[35.7289,-0.4227,2814.5669],[35.7334,-0.4253,2794.4585],[35.7373,-0.4242,2845.6865],[35.7397,-0.4174,2868.2759],[35.7322,-0.398,2837.1345],[35.7353,-0.3969,2850.0471],[35.7385,-0.3927,2862.5664],[35.7334,-0.3938,2842.4814],[35.7309,-0.3816,2838.9734],[35.7215,-0.3871,2838.0312],[35.7156,-0.3929,2821.187],[35.7067,-0.3975,2770.9399],[35.7044,-0.4032,2736.9373],[35.6997,-0.4064,2726.051],[35.6919,-0.4086,2707.9629],[35.6825,-0.4018,2737.563],[35.6727,-0.403,2715.8323],[35.6519,-0.4115,2638.6436],[35.6457,-0.4183,2564.8813],[35.6422,-0.4172,2585.3853],[35.6388,-0.4194,2584.7886],[35.6329,-0.4064,2599.5256],[35.6127,-0.3952,2595.0427],[35.6024,-0.3971,2560.8596],[35.594,-0.3961,2602.4658],[35.5895,-0.3999,2558.2634],[35.5799,-0.4029,2510.2717],[35.5802,-0.4062,2511.3774],[35.5759,-0.4074,2494.7373],[35.5706,-0.3989,2536.7007],[35.5687,-0.3847,2552.2947],[35.5657,-0.3836,2517.6646],[35.558,-0.3892,2489.8481],[35.5545,-0.3987,2531.813],[35.548,-0.399,2474.2119],[35.5437,-0.4078,2489.8752],[35.5341,-0.4168,2461.2876],[35.5396,-0.4231,2437.2837],[35.5378,-0.4226,2443.0229],[35.5365,-0.4259,2448.3984],[35.5308,-0.4314,2411.5356],[35.5213,-0.4339,2433.7703],[35.5132,-0.4429,2455.7532],[35.5116,-0.4495,2413.4929],[35.5073,-0.4504,2453.1501],[35.5872,-0.5831,2349.2422],[35.5984,-0.6491,2355.7717],[35.6106,-0.6664,2323.884],[35.6288,-0.6777,2362.3096],[35.6422,-0.6951,2428.4849],[35.646,-0.6953,2335.5986],[35.6476,-0.6898,2409.6797],[35.6502,-0.6887,2343.5552],[35.6531,-0.6787,2438.4248],[35.664,-0.6731,2350.6362],[35.6637,-0.669,2463.8521],[35.6662,-0.6637,2399.8779],[35.6655,-0.6612,2445.0837],[35.6677,-0.6602,2429.5676],[35.6718,-0.6525,2438.9685],[35.6769,-0.6527,2421.2607],[35.6778,-0.6476,2483.9214],[35.6812,-0.6453,2390.2437],[35.6813,-0.64,2444.6648],[35.6856,-0.6326,2400.7954],[35.6865,-0.621,2437.2961],[35.6845,-0.6165,2482.6152],[35.689,-0.6102,2484.6121],[35.6886,-0.6066,2508.709],[35.6925,-0.5997,2481.4006],[35.6927,-0.5951,2506.9917],[35.6951,-0.5911,2530.2197],[35.7037,-0.585,2515.6421],[35.7054,-0.5805,2546.8916],[35.708,-0.5796,2522.2551],[35.7117,-0.571,2515.2246],[35.7133,-0.5649,2545.2603],[35.7118,-0.5638,2525.2339],[35.7125,-0.5532,2533.8943],[35.7112,-0.5525,2552.3096],[35.7106,-0.5543,2539.0947],[35.7092,-0.5527,2548.4617]]]]}}