{"type": "Feature","bbox": [34.7395,-0.1033,35.4382,0.5672],"geometry": {"type": "MultiPolygon","coordinates": [[[[35.4369,0.0233,2352.2126],[35.4382,0.024,2475.0195],[35.4349,0.0312,2548.1387],[35.4041,0.033,2387.686],[35.3902,0.0407,2190.8875],[35.3692,0.0472,2225.6343],[35.3474,0.0654,2359.2607],[35.3499,0.0697,2311.8699],[35.3594,0.0691,2204.7397],[35.362,0.0765,2232.8411],[35.3642,0.0781,2242.0222],[35.3688,0.0761,2237.0278],[35.3719,0.0769,2216.7092],[35.387,0.1188,2503.6267],[35.3845,0.1212,2492.187],[35.3801,0.1218,2494.5308],[35.3784,0.1196,2491.5513],[35.3758,0.1217,2491.0662],[35.37,0.1321,2461.8103],[35.3564,0.1353,2507.8613],[35.3339,0.1472,2251.998],[35.3358,0.1479,2273.488],[35.3359,0.1637,2216.8914],[35.3423,0.1756,2172.0344],[35.3407,0.1988,2270.6145],[35.3461,0.1976,2296.4858],[35.3471,0.1987,2285.8005],[35.3531,0.1954,2347.9126],[35.362,0.1953,2354.4482],[35.3656,0.1913,2382.3188],[35.3661,0.2002,2348.3677],[35.3579,0.2107,2279.4255],[35.3571,0.2155,2276.2671],[35.3422,0.2067,2231.4092],[35.3342,0.2165,2191.0083],[35.3315,0.2224,2184.6152],[35.3243,0.2283,2172.3206],[35.3218,0.2292,2152.4338],[35.3122,0.2189,2167.7598],[35.3068,0.224,2151.5],[35.2988,0.2259,2134.418],[35.2898,0.2333,2123.3301],[35.26,0.2772,2126.8789],[35.2615,0.279,2127.2478],[35.2264,0.3305,2129.6816],[35.1967,0.3809,2053.9907],[35.1771,0.4247,2005.8978],[35.1708,0.4297,1943.1182],[35.1502,0.4611,1973.588],[35.1418,0.4777,1970.766],[35.1515,0.4895,1967.0398],[35.1582,0.5058,1905.8087],[35.158,0.5094,1904.1926],[35.1598,0.5094,1917.9088],[35.1667,0.5517,1938.157],[35.1633,0.5506,1947.4526],[35.1634,0.5485,1942.7911],[35.1567,0.5436,1939.2109],[35.1501,0.5426,1887.5015],[35.149,0.5442,1887.4775],[35.1484,0.5429,1885.1313],[35.1449,0.5438,1937.1653],[35.1437,0.5418,1888.4958],[35.1421,0.5426,1901.2623],[35.1408,0.5411,1890.8683],[35.1359,0.5436,1876.5667],[35.1332,0.5478,1873.7969],[35.1296,0.5473,1869.0967],[35.1264,0.5504,1904.2725],[35.1221,0.5496,1892.8402],[35.1093,0.5541,1870.8159],[35.1046,0.5616,1884.3174],[35.0996,0.5446,2051.8599],[35.0454,0.5672,1990.8585],[34.8521,0.5518,1699.1522],[34.8707,0.5381,1689.1979],[34.8759,0.5326,1713.9316],[34.8883,0.526,1902.0785],[34.907,0.5097,1926.1656],[34.9084,0.4959,1734.1519],[34.9241,0.4813,1839.1554],[34.9457,0.4428,2043.0891],[34.9566,0.42,1999.1484],[34.9553,0.3759,1757.7709],[34.9487,0.3583,1758.9662],[34.9371,0.3648,1747.6464],[34.9373,0.362,1826.6249],[34.9421,0.3281,1795.394],[34.9773,0.253,1990.1921],[34.9785,0.2459,2071.3569],[34.9565,0.2458,1664.1973],[34.9432,0.2131,1645.4448],[34.929,0.2136,1597.5612],[34.9203,0.1861,1597.4744],[34.916,0.1774,1614.1638],[34.9206,0.1739,1677.9053],[34.9141,0.1603,1729.0431],[34.9011,0.1578,1665.2361],[34.8829,0.1481,1701.7479],[34.882,0.1425,1700.8528],[34.8725,0.1376,1696.2975],[34.8645,0.1283,1719.7988],[34.8596,0.1256,1701.7942],[34.8568,0.1132,1676.9406],[34.8592,0.1091,1691.762],[34.8572,0.0995,1689.5823],[34.8599,0.0884,1709.3538],[34.8581,0.0854,1709.2854],[34.8551,0.0841,1720.9628],[34.8532,0.078,1749.9369],[34.8486,0.0745,1724.6744],[34.8468,0.0688,1724.3934],[34.8495,0.0651,1672.1678],[34.8396,0.0511,1724.9938],[34.838,0.0394,1694.3148],[34.836,0.0365,1620.4929],[34.8287,0.0349,1681.6356],[34.8206,0.0392,1562.8123],[34.8093,0.0334,1459.952],[34.8085,0.0317,1453.7831],[34.8102,0.0286,1534.2274],[34.8089,0.0276,1478.073],[34.8043,0.0264,1444.7808],[34.7985,0.03,1501.7831],[34.7984,0.028,1478.5657],[34.7897,0.0239,1495.2428],[34.7899,0.022,1486.4395],[34.7861,0.0176,1428.8425],[34.7839,0.0188,1416.5486],[34.7835,0.0171,1413.2867],[34.7811,0.0167,1403.9561],[34.7786,0.0111,1411.9121],[34.7747,0.0104,1413.0039],[34.77,0.0058,1398.3424],[34.7667,0.0062,1429.3799],[34.7628,0.0034,1412.8961],[34.7597,0.0084,1437.4319],[34.7598,0.0145,1452.5782],[34.7543,0.0151,1438.6525],[34.7513,0.0119,1480.8982],[34.7475,0.0112,1523.6163],[34.7474,0.0092,1527.1095],[34.7411,0.0093,1524.5854],[34.7395,0.0037,1525.7161],[34.7444,-0.0052,1514.6313],[34.7449,-0.0123,1522.8035],[34.7482,-0.0114,1510.5006],[34.7497,-0.0146,1497.9679],[34.7495,-0.016,1497.9679],[34.7466,-0.0169,1495.4797],[34.751,-0.0279,1515.5992],[34.7522,-0.0287,1492.6423],[34.758,-0.0194,1431.601],[34.7615,-0.0169,1320.4141],[34.7643,-0.0105,1366.3932],[34.7708,-0.0117,1265.4781],[34.7755,-0.01,1335.9723],[34.7808,-0.0125,1299.8237],[34.7862,-0.0011,1435.8143],[34.804,0.0151,1506.9498],[34.8095,0.016,1522.13],[34.8165,0.0224,1639.8867],[34.819,0.0275,1656.2643],[34.8314,0.0301,1584.4266],[34.8101,0.0,1395.635],[34.808,-0.005,1239.007],[34.81,-0.0059,1233.3191],[34.8102,-0.0082,1260.6019],[34.8062,-0.011,1213.5887],[34.8081,-0.0156,1242.745],[34.8276,-0.0218,1494.788],[34.8912,-0.0188,1597.6218],[34.909,-0.0222,1741.3561],[34.922,-0.0196,1760.4192],[34.9195,-0.0269,1384.0001],[34.9233,-0.0302,1494.455],[34.934,-0.0297,1447.209],[34.9544,-0.0243,1449.5389],[34.9524,-0.0204,1674.795],[34.9568,-0.0199,1591.2772],[34.9641,-0.0263,1378.9625],[34.9783,-0.0181,1469.3583],[34.9884,-0.0176,1371.8208],[34.9885,-0.0131,1443.4762],[35.0076,-0.0228,1516.2773],[35.0071,-0.0477,1220.3665],[35.0595,-0.0478,1245.1191],[35.0604,-0.0498,1232.9114],[35.0594,-0.0528,1227.9127],[35.0618,-0.0525,1229.0107],[35.0662,-0.0626,1209.166],[35.0656,-0.0598,1206.8789],[35.0743,-0.0488,1221.843],[35.0826,-0.0456,1220.9972],[35.0836,-0.043,1224.4891],[35.0867,-0.0434,1224.7357],[35.0897,-0.0389,1232.1136],[35.0926,-0.0385,1232.7302],[35.0958,-0.0239,1259.2981],[35.0989,-0.023,1251.6331],[35.0993,-0.0212,1260.0796],[35.1011,-0.0215,1257.8386],[35.1036,-0.0169,1262.4581],[35.1013,-0.0093,1285.5726],[35.1029,-0.006,1294.2955],[35.1013,-0.0055,1293.9812],[35.1005,-0.0013,1313.8645],[35.1024,0.0019,1318.194],[35.146,-0.0278,1300.3608],[35.1474,-0.0272,1301.6023],[35.1511,-0.0307,1275.8654],[35.1502,-0.0326,1267.5333],[35.1551,-0.0302,1282.4047],[35.1587,-0.0309,1290.8293],[35.1615,-0.0241,1339.0614],[35.1666,-0.026,1333.6407],[35.1667,-0.0248,1333.6407],[35.1774,-0.0212,1347.6064],[35.1794,-0.0239,1321.1553],[35.1812,-0.023,1328.0887],[35.1811,-0.021,1328.4323],[35.1828,-0.0231,1333.9644],[35.188,-0.0227,1339.8883],[35.1917,-0.022,1343.8613],[35.192,-0.0198,1342.6816],[35.194,-0.0194,1349.1266],[35.1952,-0.0209,1355.9847],[35.1997,-0.0201,1364.4255],[35.2026,-0.0229,1361.4355],[35.2065,-0.0218,1363.0691],[35.2102,-0.0258,1365.1704],[35.2124,-0.025,1368.9346],[35.2128,-0.0265,1360.0714],[35.2149,-0.0265,1367.8079],[35.2165,-0.0306,1367.8241],[35.2211,-0.0299,1386.7579],[35.2268,-0.0609,1491.4071],[35.2265,-0.0997,1464.3448],[35.2788,-0.0927,1759.5433],[35.3077,-0.0795,1958.5861],[35.3266,-0.0948,2267.9336],[35.3395,-0.1017,2360.9058],[35.3719,-0.1033,2263.7354],[35.3898,-0.0912,2182.5437],[35.401,-0.081,2293.3911],[35.4241,-0.072,2103.6501],[35.4044,-0.0172,2185.4004],[35.4136,0.0093,1979.1914],[35.4369,0.0233,2352.2126]]]]}
,"properties": {"GID_1": "KEN.32_1","GID_0": "KEN","country": "Kenya","province": "Nandi","VARNAME_1": "NA","NL_NAME_1": "NA","TYPE_1": "County","ENGTYPE_1": "County","CC_1": "29","HASC_1": "KE.ND","ISO_1": "KE-32","name": "Nandi.province","area_km2": 2842.996,"hist_schema_id": "Elevation0-9000","hist_area_km2": {"1200": 0.085,"1225": 3.371,"1250": 7.463,"1275": 7.972,"1300": 7.718,"1325": 8.65,"1350": 10.071,"1375": 14.418,"1400": 18.764,"1425": 19.464,"1450": 19.485,"1475": 20.1,"1500": 21.202,"1525": 20.227,"1550": 20.163,"1575": 18.382,"1600": 20.927,"1625": 25.591,"1650": 29.386,"1675": 36.362,"1700": 44.843,"1725": 50.949,"1750": 56.673,"1775": 65.748,"1800": 78.32,"1825": 95.769,"1850": 109.317,"1875": 129.289,"1900": 159.459,"1925": 196.923,"1950": 267.187,"1975": 266.402,"2000": 210.069,"2025": 164.59,"2050": 140.908,"2075": 115.805,"2100": 90.638,"2125": 58.454,"2150": 32.715,"2175": 24.425,"2200": 17.471,"2225": 15.393,"2250": 12.34,"2275": 11.407,"2300": 9.138,"2325": 8.756,"2350": 9.096,"2375": 8.036,"2400": 9.499,"2425": 9.075,"2450": 8.396,"2475": 8.82,"2500": 8.693,"2525": 5.979,"2550": 5.046,"2575": 4.389,"2600": 2.883,"2625": 0.191,"2650": 0.106}}}