{"type":"Feature","properties":{"GID_3":"KEN.3.7.3_1","GID_0":"KEN","country":"Kenya","GID_1":"KEN.3_1","province":"Bungoma","NL_NAME_1":"NA","GID_2":"KEN.3.7_1","county":"Mt.Elgon","NL_NAME_2":"NA","city":"Chesikaki","VARNAME_3":"NA","NL_NAME_3":"NA","TYPE_3":"Ward","ENGTYPE_3":"Ward","CC_3":"1077","HASC_3":"NA","name":"Chesikaki.city"},
"geometry":{"type": "MultiPolygon","coordinates": [[[[34.4705,0.7916,1522.2871],[34.4737,0.7945,1536.5406],[34.4874,0.7939,1611.6769],[34.4906,0.7908,1582.3643],[34.4932,0.7823,1583.9969],[34.5004,0.7795,1593.7327],[34.5073,0.7792,1610.6722],[34.5078,0.7719,1540.9005],[34.515,0.7748,1595.4873],[34.5218,0.7806,1572.9618],[34.5213,0.7924,1611.0479],[34.5246,0.8001,1631.6151],[34.5282,0.8016,1661.3192],[34.5361,0.8014,1760.6666],[34.5394,0.8078,1814.2262],[34.5415,0.809,1956.2906],[34.5402,0.8111,1808.1947],[34.5426,0.8181,2015.3455],[34.5391,0.8194,2023.1243],[34.539,0.8238,2076.0085],[34.5261,0.8205,1867.7871],[34.5308,0.8349,2154.5896],[34.5206,0.8368,2031.7694],[34.5256,0.8481,2093.4233],[34.5225,0.8541,2134.3584],[34.5171,0.8577,2142.4685],[34.5112,0.8652,2128.595],[34.5127,0.8933,2203.4297],[34.5098,0.8984,2289.6978],[34.5186,0.9188,2368.3877],[34.5194,0.9256,2502.1409],[34.5251,0.9351,2454.6394],[34.5257,0.9413,2601.7903],[34.5337,0.9552,2672.8313],[34.5371,0.9713,2768.4336],[34.5365,0.9776,2991.7859],[34.5401,0.9862,2934.1313],[34.5366,0.9968,2995.3091],[34.5369,1.0212,3185.4875],[34.533,1.027,3199.864],[34.5315,1.0372,3289.3901],[34.5239,1.0505,3425.6953],[34.5217,1.0621,3632.677],[34.5286,1.0846,3874.8237],[34.5355,1.0923,4015.2234],[34.5408,1.1056,4164.7754],[34.5293,1.1068,4014.5989],[34.5188,1.081,3824.6497],[34.5145,1.0761,3702.2268],[34.5132,1.0716,3656.6531],[34.5137,1.0636,3554.5889],[34.5104,1.057,3577.9807],[34.5116,1.0493,3377.7852],[34.5096,1.0406,3312.6475],[34.5116,1.0306,3143.3899],[34.5115,1.0154,2961.1362],[34.5144,1.0111,2976.2537],[34.5149,1.0041,2908.9651],[34.5105,0.9983,2896.1055],[34.5105,0.9961,2866.4197],[34.504,0.9899,2857.5015],[34.5046,0.9787,2692.9177],[34.4994,0.9724,2778.6499],[34.4962,0.9649,2726.5271],[34.4975,0.9616,2625.4946],[34.493,0.9561,2720.5376],[34.4907,0.95,2662.1812],[34.4895,0.9416,2541.8979],[34.4907,0.9357,2469.2922],[34.489,0.9317,2467.8569],[34.495,0.9353,2596.897],[34.4953,0.9334,2572.833],[34.4898,0.9209,2458.5713],[34.4859,0.9179,2387.0513],[34.4826,0.9078,2389.5083],[34.4831,0.8913,2327.4141],[34.4865,0.8788,2275.4639],[34.4842,0.8712,2325.1882],[34.4879,0.8651,2268.4741],[34.4886,0.8595,2180.7139],[34.4865,0.8561,2235.0012],[34.4872,0.8531,2177.822],[34.4855,0.8514,2193.5146],[34.4841,0.8423,2103.5156],[34.4746,0.8448,2030.0516],[34.4768,0.8395,1973.0739],[34.4727,0.8294,1800.5245],[34.4731,0.8258,1749.5123],[34.4693,0.8217,1701.4818],[34.4659,0.8144,1637.149],[34.47,0.8076,1597.4003],[34.4708,0.8025,1567.3051],[34.4688,0.7955,1549.0266],[34.4705,0.7916,1522.2871]]]]}}