{"type": "Feature","bbox": [36.6735,-1.1043,36.7668,-1.0374],"geometry": {"type": "MultiPolygon","coordinates": [[[[36.7406,-1.0456,2009.3856],[36.7398,-1.0439,2014.6528],[36.7364,-1.0449,2015.3101],[36.7295,-1.0408,2050.6675],[36.7227,-1.0427,2082.8589],[36.7202,-1.0456,2069.2573],[36.7135,-1.0407,2091.1245],[36.7097,-1.0406,2124.6023],[36.7086,-1.0381,2113.5674],[36.7051,-1.0374,2150.3457],[36.7028,-1.0416,2150.6431],[36.6972,-1.0409,2195.3328],[36.6858,-1.0534,2248.7065],[36.6749,-1.0564,2360.9565],[36.6735,-1.0644,2369.7126],[36.6755,-1.0656,2366.0967],[36.6747,-1.0738,2304.3428],[36.676,-1.0751,2292.126],[36.6777,-1.073,2278.9285],[36.6844,-1.0724,2306.0708],[36.6894,-1.0738,2294.7654],[36.6903,-1.0755,2282.0518],[36.6981,-1.0769,2265.8325],[36.7073,-1.0745,2188.4629],[36.7125,-1.0798,2201.2444],[36.7141,-1.0845,2182.0283],[36.7183,-1.088,2133.7285],[36.7215,-1.0866,2136.3896],[36.7279,-1.0872,2106.2898],[36.7278,-1.0899,2093.0349],[36.7316,-1.0939,2070.6702],[36.7312,-1.0966,2033.8934],[36.7347,-1.1013,2024.406],[36.738,-1.1011,1994.4237],[36.7429,-1.1043,1977.5918],[36.7447,-1.1017,1980.1523],[36.7518,-1.1016,1917.3982],[36.7543,-1.1037,1896.8475],[36.7632,-1.0918,1945.4695],[36.7668,-1.0816,1951.8687],[36.7608,-1.0815,1972.1199],[36.7599,-1.066,1999.5228],[36.7586,-1.0647,1999.5228],[36.7557,-1.0636,1995.0076],[36.7516,-1.066,2006.0713],[36.7488,-1.0645,2028.9026],[36.7468,-1.0652,2023.0245],[36.7385,-1.0586,2043.7839],[36.7333,-1.0575,2073.3589],[36.7353,-1.0498,1994.5565],[36.7406,-1.0456,2009.3856]]]]}
,"properties": {"GID_3": "KEN.13.3.1_1","GID_0": "KEN","country": "Kenya","GID_1": "KEN.13_1","province": "Kiambu","NL_NAME_1": "NA","GID_2": "KEN.13.3_1","county": "Githunguri","NL_NAME_2": "NA","city": "Githiga","VARNAME_3": "NA","NL_NAME_3": "NA","TYPE_3": "Ward","ENGTYPE_3": "Ward","CC_3": "578","HASC_3": "NA","name": "Githiga.city","area_km2": 39.28085,"hist_schema_id": "Elevation0-9000","hist_area_km2": {"1900": 0.16959,"1925": 0.33917,"1950": 0.97513,"1975": 2.07745,"2000": 3.37055,"2025": 3.49775,"2050": 4.09131,"2075": 3.60375,"2100": 4.02772,"2125": 2.71342,"2150": 3.32817,"2175": 2.22585,"2200": 1.56869,"2225": 1.10233,"2250": 1.01753,"2275": 0.93274,"2300": 1.3779,"2325": 1.4415,"2350": 1.03873,"2375": 0.38157}}}