{"type": "Feature","bbox": [35.5958,0.5548,35.7652,0.9228],"geometry": {"type": "MultiPolygon","coordinates": [[[[35.7167,0.5672,1608.922],[35.7127,0.574,1578.4341],[35.7146,0.579,1413.5183],[35.7144,0.5867,1423.1124],[35.7312,0.612,1676.8279],[35.7296,0.616,1548.6305],[35.7252,0.6163,1773.8197],[35.7237,0.6232,1534.3627],[35.7324,0.6471,1755.0637],[35.7335,0.654,1670.3009],[35.7314,0.663,1401.5559],[35.733,0.6699,1434.972],[35.7398,0.684,1390.9657],[35.7465,0.6921,1297.4368],[35.7541,0.6988,1362.7983],[35.7628,0.7032,1598.5144],[35.7642,0.7057,1759.1582],[35.7652,0.715,1762.1825],[35.7618,0.7418,1287.6042],[35.7466,0.7453,1291.9648],[35.7537,0.7635,1259.6252],[35.7522,0.7829,1540.9301],[35.7469,0.7992,1591.4745],[35.7371,0.8139,1493.5562],[35.7366,0.8213,1461.2518],[35.7304,0.8405,1351.4385],[35.7317,0.8437,1345.1726],[35.728,0.847,1264.9639],[35.7269,0.8568,1251.6741],[35.7228,0.8626,1245.5085],[35.7211,0.8641,1274.7063],[35.7192,0.8626,1197.8087],[35.7169,0.8645,1195.2697],[35.7162,0.8715,1268.313],[35.715,0.8705,1242.3064],[35.7055,0.8779,1198.2058],[35.7006,0.8792,1167.7917],[35.6966,0.8776,1073.3427],[35.6933,0.882,1065.4136],[35.6936,0.8796,1065.4933],[35.6924,0.8812,1062.5511],[35.6903,0.8795,1059.4196],[35.6888,0.8809,1059.7048],[35.6879,0.8785,1059.5186],[35.6832,0.876,1054.5297],[35.682,0.8775,1051.3295],[35.6732,0.8779,1047.3235],[35.6686,0.8802,1044.1461],[35.6605,0.8896,1044.0591],[35.6631,0.8948,1047.7684],[35.6623,0.8996,1064.6165],[35.6561,0.9078,1078.9799],[35.6556,0.9148,1104.5365],[35.6433,0.9156,1028.4597],[35.6346,0.9228,1012.7092],[35.6331,0.9154,1016.7766],[35.6299,0.9132,1017.7731],[35.6264,0.9143,1028.981],[35.6256,0.9125,1026.7644],[35.6277,0.9018,1007.4434],[35.6256,0.8988,1019.3362],[35.6275,0.8977,1010.0422],[35.625,0.8934,1025.666],[35.6221,0.8918,1038.3514],[35.6243,0.8855,1015.205],[35.6265,0.8845,1019.6398],[35.6264,0.8801,1009.4186],[35.6243,0.8789,1024.9241],[35.6235,0.8761,1026.0884],[35.6247,0.8744,1019.1483],[35.623,0.8731,1025.3258],[35.6245,0.8688,1022.5374],[35.6234,0.8664,1018.0341],[35.6255,0.8589,1012.0165],[35.6313,0.8547,1031.4615],[35.6361,0.8536,1016.0951],[35.6356,0.8492,1017.0805],[35.6435,0.8452,1023.578],[35.6392,0.8404,1020.1111],[35.6363,0.8407,1021.85],[35.6367,0.8394,1022.8322],[35.6396,0.8394,1020.1111],[35.6381,0.8375,1021.0778],[35.6397,0.8338,1021.6593],[35.639,0.8315,1021.8292],[35.6372,0.8323,1021.8948],[35.6363,0.8307,1024.1838],[35.6427,0.8275,1019.8564],[35.6428,0.8261,1020.5734],[35.642,0.8212,1024.9999],[35.638,0.8187,1024.6315],[35.6371,0.8157,1024.7722],[35.6339,0.8147,1032.6749],[35.6358,0.8125,1027.4065],[35.6346,0.8095,1028.219],[35.6333,0.8114,1029.4963],[35.6329,0.8089,1031.2477],[35.6349,0.8066,1027.0132],[35.6342,0.8047,1027.6566],[35.6357,0.8052,1027.14],[35.6351,0.8027,1028.7205],[35.6369,0.8027,1028.7205],[35.634,0.7975,1028.5112],[35.637,0.797,1029.1156],[35.6364,0.7937,1029.9684],[35.6379,0.7929,1029.996],[35.6341,0.792,1029.8591],[35.6348,0.7824,1031.4219],[35.6322,0.7781,1035.5817],[35.6309,0.7787,1035.5817],[35.6319,0.7752,1035.2048],[35.6293,0.7738,1038.8511],[35.6293,0.7697,1034.3982],[35.627,0.7672,1036.7661],[35.6291,0.7663,1033.9602],[35.6257,0.76,1035.9954],[35.6268,0.7527,1036.1438],[35.6249,0.7521,1037.1366],[35.6261,0.7512,1037.3068],[35.6246,0.748,1036.7543],[35.6239,0.7488,1037.8925],[35.6224,0.7453,1038.4402],[35.621,0.7456,1038.8364],[35.62,0.7423,1047.006],[35.6204,0.7399,1047.967],[35.6245,0.7392,1038.9087],[35.6227,0.7382,1037.4742],[35.6228,0.7343,1039.5659],[35.6241,0.7331,1040.4561],[35.6268,0.734,1037.9803],[35.6261,0.733,1039.0404],[35.6289,0.7307,1043.3376],[35.6252,0.7298,1040.1987],[35.6281,0.7288,1040.3524],[35.6284,0.727,1042.3591],[35.6309,0.7269,1042.0088],[35.6313,0.7223,1043.2253],[35.6288,0.7214,1040.7024],[35.6346,0.7159,1042.6329],[35.6317,0.7159,1042.1682],[35.6341,0.7129,1044.193],[35.6331,0.7053,1044.9817],[35.6357,0.7067,1045.6187],[35.6363,0.7055,1045.6187],[35.6337,0.7027,1045.8552],[35.6331,0.7038,1044.9817],[35.6306,0.6993,1046.3406],[35.633,0.6978,1048.2986],[35.6325,0.6961,1047.9443],[35.6275,0.6944,1047.9613],[35.6299,0.6907,1049.4269],[35.6275,0.6931,1048.4421],[35.6237,0.6907,1048.7677],[35.6242,0.6846,1050.8893],[35.6265,0.6838,1051.5015],[35.6244,0.6827,1052.1406],[35.6232,0.6843,1050.8893],[35.6188,0.6805,1053.3142],[35.6183,0.683,1053.0298],[35.6161,0.6818,1051.9404],[35.6152,0.6833,1051.4467],[35.6153,0.6808,1051.9404],[35.6088,0.6764,1053.1796],[35.6052,0.6785,1056.9535],[35.606,0.6761,1057.8047],[35.6038,0.6734,1059.8278],[35.6051,0.672,1057.1161],[35.6049,0.6665,1057.8893],[35.6068,0.6657,1057.3499],[35.6049,0.6613,1058.7761],[35.6079,0.6597,1059.4161],[35.6074,0.6566,1060.0116],[35.609,0.6557,1058.8923],[35.6068,0.6537,1060.5723],[35.6089,0.6519,1060.6101],[35.6071,0.6511,1059.871],[35.6096,0.6504,1062.8243],[35.6068,0.6461,1061.0347],[35.6081,0.6446,1063.7896],[35.6061,0.6448,1061.4114],[35.6067,0.6427,1066.3867],[35.6048,0.6435,1067.0474],[35.6053,0.642,1066.3003],[35.6016,0.6403,1072.3027],[35.5998,0.6364,1070.9661],[35.6004,0.6327,1070.0465],[35.5967,0.6293,1077.3787],[35.596,0.6238,1072.2625],[35.5978,0.6205,1070.443],[35.5958,0.6168,1072.6288],[35.5986,0.6115,1072.9536],[35.5977,0.6079,1070.774],[35.613,0.5963,1076.3604],[35.6112,0.593,1076.8879],[35.614,0.5843,1079.9181],[35.6101,0.5761,1079.8292],[35.6104,0.5737,1080.2871],[35.6042,0.5659,1082.4481],[35.6038,0.562,1083.9576],[35.6428,0.5548,1095.1471],[35.6563,0.5605,1110.5939],[35.6652,0.5686,1126.4504],[35.6669,0.5669,1139.3882],[35.6692,0.5679,1198.2783],[35.6696,0.5663,1185.0515],[35.6877,0.5715,1433.2339],[35.7025,0.5659,1565.6404],[35.7167,0.5672,1608.922]]]]}
,"properties": {"GID_3": "KEN.1.3.2_1","GID_0": "KEN","country": "Kenya","GID_1": "KEN.1_1","province": "Baringo","NL_NAME_1": "NA","GID_2": "KEN.1.3_1","county": "BaringoNorth","NL_NAME_2": "NA","city": "Barwessa","VARNAME_3": "NA","NL_NAME_3": "NA","TYPE_3": "Ward","ENGTYPE_3": "Ward","CC_3": "788","HASC_3": "NA","name": "Barwessa.city","area_km2": 469.4426,"hist_schema_id": "Elevation0-9000","hist_area_km2": {"1000": 1.5688,"1025": 33.7292,"1050": 88.2359,"1075": 99.7704,"1100": 50.0547,"1125": 25.1013,"1150": 17.2359,"1175": 15.0312,"1200": 15.0311,"1225": 15.116,"1250": 12.8475,"1275": 12.6355,"1300": 9.7311,"1325": 9.7735,"1350": 9.0103,"1375": 7.4838,"1400": 6.9326,"1425": 6.5298,"1450": 6.0846,"1475": 5.6393,"1500": 4.3673,"1525": 3.0741,"1550": 2.8621,"1575": 2.9681,"1600": 1.7385,"1625": 1.3993,"1650": 1.3145,"1675": 1.4629,"1700": 0.9116,"1725": 0.6148,"1750": 0.5512,"1775": 0.4664,"1800": 0.1696}}}