{"type": "Feature","id": "889","bbox": [36.04532,-3.06777,39.45153,4.44965],"geometry": {"type": "Polygon","coordinates": [[[36.2772,4.43645,419.976],[36.26428,4.43821,405.8931],[36.24609,4.44699,390.9547],[36.23627,4.44965,383.6131],[36.22573,4.4496,375.4881],[36.19131,4.44492,362.0],[36.04532,4.44372,362.0],[36.04548,3.26791,362.0],[36.05333,3.24293,362.0],[36.05974,3.23949,362.0],[36.06496,3.23507,362.0],[36.07245,3.23066,362.0],[36.10661,3.21639,366.6858],[36.13059,3.22004,362.0],[36.14294,3.2198,365.3992],[36.14821,3.21329,362.7266],[36.14604,3.20257,364.4511],[36.13674,3.18224,371.9993],[36.13457,3.17231,372.2773],[36.13633,3.16084,362.5741],[36.14501,3.13989,365.1335],[36.14821,3.12826,362.0],[36.14826,3.11661,362.0],[36.12088,3.00814,365.0689],[36.12692,2.98772,366.2281],[36.14217,2.9823,367.6219],[36.18232,2.98362,362.0],[36.19002,2.97943,362.0],[36.20299,2.96602,365.5457],[36.21338,2.96315,366.2424],[36.22345,2.96734,362.0],[36.23999,2.98207,362.0],[36.24753,2.98052,362.0],[36.25157,2.97261,363.7651],[36.25808,2.94266,362.0],[36.26149,2.93848,362.0],[36.30273,2.90246,362.0],[36.35792,2.86639,362.0],[36.38096,2.84644,362.0],[36.4005,2.81355,362.0],[36.41068,2.79135,362.0],[36.41786,2.76391,362.0],[36.43145,2.74141,362.0],[36.43621,2.73038,362.0],[36.43714,2.72355,362.0],[36.43683,2.65444,362.0],[36.44365,2.63069,362.0],[36.47724,2.61175,362.0],[36.4946,2.59134,362.0],[36.51811,2.55163,367.1251],[36.52617,2.51049,538.8101],[36.52612,2.46442,362.0],[36.53217,2.42267,369.0996],[36.55847,2.39458,391.6488],[36.56478,2.40096,389.4818],[36.57227,2.40515,388.3863],[36.58178,2.40748,399.6591],[36.59387,2.40825,414.5239],[36.59744,2.40701,387.6375],[36.62209,2.40329,380.0406],[36.62798,2.40453,364.5],[36.63604,2.40903,366.3327],[36.69107,2.46721,362.0],[36.70255,2.48639,371.1494],[36.70844,2.50848,463.2312],[36.69671,2.53814,396.82],[36.70823,2.54209,503.6525],[36.72048,2.54202,614.1237],[36.73288,2.53907,616.4418],[36.74001,2.53176,662.0794],[36.7459,2.51943,620.7826],[36.82693,2.29002,1008.8609],[36.83499,2.2768099999999998,1057.5789],[36.89318,2.22576,889.5119],[36.90155,2.21289,883.3505],[36.90729,2.20126,881.6342],[36.9509,2.0861,1495.3586],[36.95896,2.05336,1011.1588],[36.95571,2.02605,966.1091],[36.9571,2.02202,967.4924],[36.96113,2.02063,963.4153],[36.96656,2.02047,956.4443],[36.99545,2.02357,936.6754],[37.04185,2.02442,884.3484],[37.14066,2.01559,775.8494],[37.15172,2.01272,772.4991],[37.17017,2.00417,823.0612],[37.17544,2.0006,820.576],[37.18691,1.9875,830.4584],[37.18908,1.98308,838.009],[37.19264,1.97352,840.4644],[37.19482,1.96903,832.2319],[37.19745,1.96492,844.6404],[37.20055,1.96112,818.6739],[37.21549,1.94955,734.6709],[37.22851,1.94133,795.6629],[37.2437,1.92924,814.8918],[37.25052,1.92234,820.9897],[37.26236,1.90704,823.7256],[37.28608,1.86361,710.3716],[37.30266,1.81984,712.8756],[37.3053,1.81511,815.1675],[37.31197,1.80811,706.0509],[37.3238,1.79943,698.657],[37.36426,1.77839,731.523],[37.36798,1.77553,727.5574],[37.37108,1.7725,915.7711],[37.37346,1.76832,1223.449],[37.37532,1.76243,1188.2241],[37.38493,1.69367,894.0226],[37.38834,1.68375,1123.6069],[37.39346,1.6753,1111.5818],[37.41904,1.64675,628.6735],[37.46095,1.6137,771.7271],[37.46762,1.60678,759.8892],[37.47878,1.59089,767.869],[37.54647,1.43066,797.3816],[37.54942,1.42686,800.0714],[37.55267,1.42345,796.6069],[37.55686,1.42074,799.386],[37.56182,1.41873,805.5145],[37.56756,1.41779,794.3649],[37.5736,1.41764,786.1453],[37.57918,1.41857,788.9844],[37.58446,1.41997,787.7812],[37.5983,1.42624,780.4983],[37.60869,1.42934,773.6821],[37.63784,1.43322,666.5558],[37.64828,1.43609,663.0883],[37.65303,1.43795,655.3645],[37.66161,1.44306,656.3682],[37.66533,1.44596,655.4457],[37.6737,1.45084,650.5883],[37.67866,1.45239,645.2097],[37.68409,1.45278,646.068],[37.7013,1.4503,635.1132],[37.71313,1.45115,629.9476],[37.7184,1.45255,619.3354],[37.73638,1.46177,626.0586],[37.75173,1.472,696.594],[37.75623,1.47397,695.8501],[37.76134,1.47528,689.2666],[37.76713,1.47598,648.6195],[37.77302,1.47598,636.056],[37.79008,1.4734,591.5778],[37.79581,1.47373,594.5393],[37.80124,1.47505,599.8626],[37.80558,1.4773,586.3496],[37.80961,1.48001,584.0457],[37.82361,1.49311,575.1222],[37.83137,1.498,558.8575],[37.83633,1.50017,553.1307],[37.83834,1.50058,550.3726],[37.84222,1.50105,545.0667],[37.84609,1.50105,542.1161],[37.84888,1.50043,539.8054],[37.85074,1.4997,537.8756],[37.8526,1.498,536.3111],[37.86067,1.48869,529.0992],[37.91498,1.43826,527.3586],[37.92738,1.42361,595.0827],[37.9325,1.40831,547.9769],[37.94262,1.27315,661.6365],[37.94743,1.2561,654.2531],[37.95906,1.23879,662.1332],[38.02004,1.16815,605.6233],[38.03058,1.15259,625.7614],[38.03554,1.13699,624.3678],[38.05698,0.79453,733.7767],[38.05559,0.79132,727.458],[38.05094,0.79189,708.0261],[38.03461,0.79649,772.8392],[38.02004,0.80223,675.4196],[38.01492,0.80316,660.5408],[38.00949,0.803,673.0023],[38.00066,0.80124,671.6619],[37.99709,0.79902,675.0033],[37.9926,0.79546,683.8802],[37.98572,0.78667,698.131],[37.96851,0.7691,709.5239],[37.95317,0.75649,709.5607],[37.91358,0.73406,873.4641],[37.90692,0.73344,761.6907],[37.90134,0.73458,751.5083],[37.89746,0.73716,755.5942],[37.88878,0.74192,740.1504],[37.88242,0.74218,739.1348],[37.87514,0.74089,731.0377],[37.85633,0.72983,752.6646],[37.85028,0.72533,749.1062],[37.84578,0.72063,753.8118],[37.83803,0.70575,767.5964],[37.83385,0.70016,767.5334],[37.82889,0.69624,778.7739],[37.81953,0.6921,805.8638],[37.79581,0.68456,1023.7795],[37.78977,0.68394,1154.7798],[37.78372,0.68414,1304.5776],[37.77225,0.6859,844.7601],[37.75979,0.68652,822.2952],[37.75375,0.6859,824.9755],[37.74584,0.68327,818.2297],[37.72212,0.66978,807.7502],[37.71391,0.66802,806.3499],[37.70719,0.66854,798.9531],[37.70269,0.67086,805.0193],[37.69789,0.67272,810.8457],[37.6923,0.67174,819.0291],[37.68703,0.66812,826.5266],[37.68052,0.65939,825.472],[37.67417,0.65309,839.1279],[37.66347,0.64596,855.7104],[37.65024,0.6395,858.8903],[37.64388,0.63516,853.2927],[37.62342,0.61573,860.0125],[37.60947,0.60529,856.1615],[37.58957,0.59722,862.1816],[37.5843,0.59412,864.0991],[37.57949,0.58978,858.0023],[37.57438,0.58131,860.2919],[37.57112,0.57754,863.0685],[37.56678,0.57697,870.7157],[37.55516,0.58498,913.4085],[37.55066,0.58689,883.906],[37.54399,0.58653,887.9663],[37.5258,0.581,995.3207],[37.51883,0.58079,914.0551],[37.51247,0.58141,913.9995],[37.50363,0.58482,901.9572],[37.50053,0.58679,906.2384],[37.49108,0.59423,891.2768],[37.4827,0.5994,909.6693],[37.47816,0.60105,900.7711],[37.47304,0.60141,909.1803],[37.46731,0.60079,918.9202],[37.46203,0.5995,929.8434],[37.44653,0.59381,931.0789],[37.40664,0.58565,922.6155],[37.40106,0.58596,922.1335],[37.39067,0.58854,934.5473],[37.38121,0.59273,936.4737],[37.37734,0.59557,930.5621],[37.37067,0.60281,947.7458],[37.36457,0.61082,959.0717],[37.35775,0.61728,935.5596],[37.3545,0.62079,915.6689],[37.35264,0.62596,927.1505],[37.34984,0.64425,981.4449],[37.34767,0.64906,957.3935],[37.34271,0.65789,965.0332],[37.33388,0.66957,951.8005],[37.32504,0.68818,965.4509],[37.29414,0.73313,952.7861],[37.29088,0.7368,943.8652],[37.28732,0.74016,944.4865],[37.27073,0.75112,946.9036],[37.25719,0.76476,952.441],[37.25316,0.76755,957.9022],[37.24866,0.76962,975.5549],[37.2437,0.77055,975.8558],[37.23859,0.77034,984.3614],[37.23378,0.76869,993.2669],[37.22959,0.7661,979.1511],[37.21874,0.75628,1015.6194],[37.2144,0.75349,1029.7327],[37.20913,0.75215,1047.5742],[37.19714,0.75256,1062.0045],[37.18551,0.75396,1046.1937],[37.18086,0.75535,1057.5789],[37.17668,0.75763,1079.5134],[37.17296,0.76032,1093.5494],[37.16722,0.76538,1113.7117],[37.16226,0.77132,1112.0449],[37.15885,0.77422,1115.98],[37.14143,0.77644,1121.3347],[37.13105,0.77975,1101.8647],[37.12671,0.78192,1081.3298],[37.11446,0.78987,1112.2843],[37.10965,0.79173,1107.056],[37.10454,0.79277,1107.8654],[37.09601,0.79313,1095.0695],[37.08464,0.79246,1123.6375],[37.07906,0.79111,1153.1605],[37.0741,0.78879,1132.7551],[37.06464,0.7829,1132.7202],[37.05829,0.77985,1150.6293],[37.03581,0.77292,1141.5029],[36.96098,0.75742,1364.3063],[36.95478,0.75722,1429.8712],[36.94873,0.75768,1434.8083],[36.93741,0.75959,1386.2437],[36.93168,0.75954,1297.8606],[36.92656,0.75675,1368.3444],[36.92264,0.75174,1452.3508],[36.9186,0.73344,1393.6157],[36.91819,0.71851,1453.0079],[36.92036,0.69717,1480.9481],[36.91985,0.68921,1381.0129],[36.9186,0.6829,1409.5077],[36.91566,0.67908,1469.9169],[36.90884,0.67216,1512.4117],[36.90589,0.66802,1555.7633],[36.90388,0.66306,1583.9001],[36.90171,0.6518,1511.4211],[36.89923,0.64756,1576.7014],[36.88961,0.6366,1581.8831],[36.88698,0.63236,1594.303],[36.88078,0.62492,1618.377],[36.86538,0.61299,1612.2347],[36.8629,0.6087,1595.6246],[36.8615,0.60337,1579.1162],[36.86135,0.59769,1546.5842],[36.8629,0.59257,1568.5684],[36.86724,0.58963,1531.7786],[36.87892,0.58622,1591.1312],[37.33093,0.52819,1033.5188],[37.34147,0.52519,1043.6847],[37.34612,0.51878,1013.3054],[37.3486,0.51268,996.7529],[37.34969,0.5071,1036.6477],[37.35108,0.49351,1002.017],[37.35,0.44323,1015.6035],[37.35217,0.43207,1024.868],[37.35977,0.41165,1055.0437],[37.36488,0.40313,1052.8842],[37.36819,0.39946,1065.5154],[37.37966,0.38359,1099.9781],[37.38214,0.37905,1105.9336],[37.39423,0.34928,1117.436],[37.39547,0.3437,1127.3154],[37.39594,0.3375,1137.6996],[37.39392,0.313,1172.4572],[37.39082,0.3021,1210.0162],[37.38741,0.29605,1463.6267],[37.37377,0.27879,1588.2446],[37.36943,0.27187,1545.3352],[37.36659,0.26541,1605.1406],[37.36535,0.25998,1621.6862],[37.36178,0.21637,1761.0321],[37.36054,0.21053,1783.3571],[37.35822,0.20526,1803.1993],[37.2546,0.09772,2248.5908],[37.24711,0.09152,2217.6567],[37.21161,0.06801,2173.8147],[37.11585,0.03426,1985.1958],[37.08619,0.01922,1935.0562],[37.10965,-0.00408,1988.5664],[37.31651,-0.15937,4744.0977],[37.32364,-0.16986,4267.728],[37.42917,-0.42731,1708.0881],[37.43273,-0.44333,1633.1488],[37.43242,-0.52002,1420.5476],[37.43351,-0.5287,1427.2445],[37.43676,-0.53769,1374.2568],[37.4687,-0.57573,1266.7559],[37.47692,-0.59014,1225.2839],[37.47723,-0.61614,1205.1931],[37.47645,-0.62415,1202.8915],[37.47831,-0.69582,1091.6724],[37.48053,-0.70755,1080.9648],[37.4855,-0.72373,1075.8914],[37.48767,-0.72822,1075.0613],[37.49077,-0.732,1067.6147],[37.49247,-0.73572,1070.5406],[37.49077,-0.74026,1067.9353],[37.48022,-0.74662,1088.5333],[37.34783,-0.79613,1138.3856],[37.34008,-0.79701,1095.6501],[37.33403,-0.79613,1107.3755],[37.32954,-0.79396,1113.5422],[37.3098,-0.77954,1095.4431],[37.29615,-0.76579,1128.7887],[37.2884,-0.76021,1153.696],[37.28406,-0.75835,1147.9852],[37.27941,-0.75742,1146.3932],[37.27584,-0.75742,1144.1555],[37.27135,-0.75809,1141.6152],[37.26654,-0.75959,1128.7266],[37.25802,-0.76347,1130.4604],[37.25554,-0.76533,1147.0648],[37.253,-0.77086,1131.6195],[37.25037,-0.77975,1127.2097],[37.2406,-0.85178,1276.8541],[37.2406,-0.86248,1330.6448],[37.24277,-0.86961,1324.8292],[37.28003,-0.90041,1349.4839],[37.28313,-0.90392,1333.0737],[37.28592,-0.90801,1310.5991],[37.28825,-0.91261,1272.1252],[37.29894,-0.95054,1267.6938],[37.30809,-0.96862,1315.0671],[37.31104,-0.97265,1299.895],[37.31445,-0.97606,1277.9592],[37.31915,-0.97808,1263.2156],[37.32457,-0.97875,1305.2953],[37.33031,-0.97782,1314.0081],[37.33543,-0.97606,1270.8726],[37.34023,-0.97389,1265.9886],[37.35698,-0.96351,1329.9205],[37.36132,-0.9617,1466.6121],[37.36535,-0.96154,1495.7263],[37.36891,-0.96418,1398.0065],[37.37191,-0.968,1345.3026],[37.37356,-0.97296,1326.2107],[37.37356,-0.97978,1311.5016],[37.37201,-0.98738,1300.1625],[37.36819,-0.99725,1360.0172],[37.36364,-1.01906,1307.7922],[37.36426,-1.0388,1292.0942],[37.33682,-1.07725,1314.8168],[37.32566,-1.0881,1379.2231],[37.32333,-1.08965,1383.7363],[37.32116,-1.08949,1383.6766],[37.28964,-1.06738,1377.9579],[37.28468,-1.06608,1383.8251],[37.27956,-1.06583,1363.2732],[37.26887,-1.06794,1357.2607],[37.26406,-1.06981,1362.4424],[37.25523,-1.07446,1388.0757],[37.24851,-1.07714,1409.395],[37.23874,-1.079,1405.7327],[37.22696,-1.07849,1406.9055],[37.22153,-1.0774,1407.332],[37.2158,-1.07709,1418.8002],[37.21021,-1.07776,1454.2678],[37.20556,-1.07988,1457.2817],[37.18675,-1.09213,1474.9919],[37.17993,-1.09859,1482.8517],[37.17575,-1.10495,1474.5457],[37.17342,-1.11275,1461.9098],[37.17404,-1.12567,1468.1073],[37.17745,-1.1404,1470.0951],[37.17745,-1.14753,1469.7327],[37.16567,-1.1806,1469.6025],[37.14505,-1.22303,1470.6427],[37.13151,-1.23713,1462.043],[37.10609,-1.26225,1463.9056],[37.10066,-1.26897,1466.2225],[37.08903,-1.27889,1464.7451],[37.07022,-1.29884,1468.2659],[37.0665,-1.30168,1489.7546],[37.06247,-1.30292,1499.6003],[37.05348,-1.30287,1499.4698],[37.00242,-1.29341,1546.6084],[36.98987,-1.29315,1571.2208],[36.97958,-1.29046,1579.8137],[36.97431,-1.28964,1586.8794],[36.96935,-1.2916,1591.9535],[36.96548,-1.29563,1594.3654],[36.96377,-1.3117,1601.8723],[36.96129,-1.31914,1595.313],[36.95648,-1.32581,1601.4711],[36.9107,-1.35661,1632.9347],[36.90853,-1.35935,1635.2526],[36.9076,-1.36266,1635.0381],[36.91008,-1.36787,1636.3745],[36.92481,-1.38725,1619.1147],[36.92419,-1.39097,1616.3086],[36.92191,-1.39526,1600.2864],[36.91442,-1.40301,1548.698],[36.90651,-1.41289,1532.1802],[36.89721,-1.41712,1558.3137],[36.86962,-1.41325,1607.4077],[36.86217,-1.44808,1671.9543],[36.86445,-1.45428,1661.4373],[36.86915,-1.46131,1655.0623],[36.87504,-1.46291,1649.1161],[36.88093,-1.4627,1655.1298],[36.8862,-1.46136,1636.1307],[36.91881,-1.44606,1578.1616],[36.92827,-1.44498,1559.6661],[36.94052,-1.44544,1553.5814],[36.96718,-1.45087,1519.1361],[36.97638,-1.45443,1513.0652],[36.97979,-1.46069,1529.8219],[36.97369,-1.48363,1549.4253],[36.96455,-1.50518,1598.5896],[36.96393,-1.50761,1603.5894],[36.9633,-1.51257,1594.4489],[36.96641,-1.52368,1590.0396],[36.97276,-1.54063,1571.4491],[36.99669,-1.58264,1606.4712],[37.14391,-1.75829,1651.4688],[37.15807,-1.77979,1602.1455],[37.14856,-1.81467,1610.8535],[37.14877,-1.82557,1598.6179],[37.15032,-1.83756,1577.4563],[37.16179,-1.86402,1568.4011],[37.16257,-1.86852,1537.5261],[37.16846,-1.88536,1508.3647],[37.179,-1.90748,1486.9172],[37.18815,-1.91921,1437.9531],[37.19823,-1.92743,1414.2161],[37.21952,-1.93415,1383.248],[37.23548,-1.94226,1379.4745],[37.25491,-1.95683,1327.0815],[37.29848,-2.00034,1270.4504],[37.34721,-2.00835,1236.922],[37.37517,-2.01807,1226.2886],[37.43087,-2.04644,1196.7637],[37.45816,-2.06411,1154.3787],[37.47676,-2.07951,1154.066],[37.49929,-2.09445,1140.6991],[37.5041,-2.09656,1138.4861],[37.52456,-2.10215,1125.205],[37.53107,-2.10556,1116.0215],[37.5935,-2.15491,1022.3907],[37.62311,-2.16545,998.8218],[37.62916,-2.16607,992.507],[37.64156,-2.16514,985.759],[37.65365,-2.16297,978.8062],[37.66114,-2.1625,981.2169],[37.67463,-2.1654,953.8515],[37.68951,-2.17181,937.0209],[37.71251,-2.18643,926.3597],[37.71902,-2.19418,916.4539],[37.72057,-2.19857,914.491],[37.71685,-2.20012,918.5246],[37.69913,-2.20441,924.8348],[37.6906,-2.20798,937.7828],[37.6861,-2.21061,943.307],[37.68207,-2.21346,948.8176],[37.67851,-2.21682,951.9365],[37.67556,-2.22054,961.2181],[37.67339,-2.22488,962.5699],[37.67184,-2.2301,958.9133],[37.66254,-2.28198,999.5867],[37.66083,-2.28679,995.4797],[37.65587,-2.29573,991.8996],[37.65231,-2.29939,1005.8953],[37.64807,-2.30187,997.168],[37.64295,-2.30358,1005.3846],[37.6259,-2.30751,1008.3789],[37.62094,-2.30952,1010.6084],[37.6166,-2.312,1013.1398],[37.61257,-2.3149,1017.1754],[37.60218,-2.32466,1031.5808],[37.59567,-2.33205,1048.2616],[37.5936,-2.33738,1065.2721],[37.59319,-2.34404,1058.5973],[37.59598,-2.35479,1073.7457],[37.60017,-2.36192,1080.9596],[37.89653,-2.70376,1872.338],[37.90661,-2.72826,1533.6482],[37.91792,-2.77993,1226.0043],[37.94371,-2.78763,1479.1106],[37.96758,-2.78004,1586.2396],[38.08861,-2.72252,846.6083],[38.11362,-2.70671,807.1625],[38.12246,-2.69575,795.7343],[38.12913,-2.69151,799.2562],[38.13486,-2.69002,793.6545],[38.13982,-2.69157,781.2108],[38.14432,-2.69374,783.4271],[38.14819,-2.69679,769.4267],[38.15145,-2.7002,759.782],[38.16933,-2.72376,773.9299],[38.17259,-2.72717,769.7727],[38.20328,-2.75048,738.1702],[38.23697,-2.76479,700.3762],[38.24209,-2.76619,694.599],[38.2562,-2.77223,686.7438],[38.26038,-2.77482,682.8951],[38.27811,-2.79079,648.707],[38.32152,-2.85698,622.2665],[38.34188,-2.89817,617.5225],[38.34684,-2.91378,618.9825],[38.34901,-2.91812,616.3826],[38.35195,-2.92184,616.3855],[38.3594,-2.92845,612.7734],[38.36374,-2.93109,609.577],[38.40704,-2.94824,589.8295],[38.41123,-2.95088,668.7708],[38.42549,-2.96333,537.8021],[38.43779,-2.97847,497.445],[38.44414,-2.98493,488.6715],[38.44709,-2.98664,477.2939],[38.44895,-2.98586,478.3432],[38.45469,-2.97832,483.3148],[38.45748,-2.97625,484.6179],[38.46321,-2.97346,498.2531],[38.47376,-2.97108,470.9631],[38.48647,-2.97026,461.8558],[38.50063,-2.97129,448.5673],[38.50404,-2.97098,437.8161],[38.50791,-2.96845,419.2635],[38.51163,-2.96499,422.7371],[38.51737,-2.96132,444.8208],[38.5228,-2.96096,456.1708],[38.52822,-2.96147,521.9093],[38.53907,-2.96395,641.9106],[38.54419,-2.96581,626.4153],[38.55339,-2.97,622.8008],[38.57013,-2.98033,440.957],[38.58455,-2.98592,409.7047],[38.58889,-2.98834,427.5902],[38.5968,-2.99398,418.2825],[38.59974,-2.99677,395.3921],[38.60429,-3.00214,381.9527],[38.60677,-3.00462,359.9938],[38.61049,-3.00721,383.1796],[38.61545,-3.00907,364.7221],[38.62646,-3.01175,352.7635],[38.63607,-3.01542,361.6594],[38.65235,-3.02674,351.2065],[38.65669,-3.02896,347.6552],[38.66186,-3.02989,344.8076],[38.66744,-3.02953,362.9753],[38.69658,-3.02493,372.713],[38.70294,-3.02503,352.6979],[38.70868,-3.02596,333.2294],[38.71415,-3.02741,336.187],[38.74361,-3.03909,321.4461],[38.79172,-3.04317,314.9562],[38.7956,-3.04581,308.4909],[38.79746,-3.0503,285.8173],[38.79498,-3.0578,295.0819],[38.79405,-3.06266,294.2899],[38.79405,-3.06555,293.5686],[38.79653,-3.06741,281.2682],[38.79947,-3.06777,269.9129],[38.80381,-3.06746,276.2714],[38.81885,-3.06245,284.0928],[38.8235,-3.06028,276.4001],[38.82753,-3.05759,288.725],[38.83192,-3.05537,282.2661],[38.83689,-3.05403,269.2756],[38.85425,-3.05263,277.8008],[38.85905,-3.05077,277.3178],[38.8634,-3.04813,271.6586],[38.87843,-3.03615,268.4106],[38.88262,-3.03356,272.8072],[38.88758,-3.0318,262.879],[38.89352,-3.03062,266.7925],[38.89972,-3.03046,274.4227],[38.9174,-3.03279,241.4366],[38.92329,-3.03273,247.0028],[38.92887,-3.03201,233.1387],[38.93383,-3.0302,238.6332],[38.94442,-3.02783,242.1294],[38.95016,-3.02803,232.4261],[38.95512,-3.02953,238.2569],[38.96473,-3.03351,239.4396],[38.96969,-3.03459,231.6697],[38.97512,-3.03418,230.5425],[38.97931,-3.03196,225.5693],[38.98938,-3.02106,225.7901],[38.9962,-3.0148,232.3179],[38.99961,-3.01268,234.4983],[39.00246,-3.01175,233.3495],[39.00711,-3.01175,227.9549],[39.0116,-3.0131,220.8074],[39.01982,-3.01827,210.1774],[39.02447,-3.02023,211.9991],[39.0299,-3.02152,208.7185],[39.04028,-3.02183,206.7718],[39.04199,-3.02028,205.4876],[39.04214,-3.01806,207.9605],[38.63002,-2.41143,378.8342],[38.62863,-2.40719,380.991],[38.63344,-2.40559,373.9048],[38.64863,-2.40983,371.0437],[38.66465,-2.41236,366.9426],[38.67674,-2.41267,362.1855],[38.6893,-2.41122,354.3935],[38.69472,-2.40952,353.985],[38.69953,-2.4075,352.3542],[38.71725,-2.39711,350.6003],[38.72082,-2.39417,350.4443],[38.74035,-2.36564,342.1273],[38.74361,-2.36228,342.6082],[38.75183,-2.35676,339.3669],[38.75648,-2.35479,334.4532],[38.77296,-2.35055,335.7632],[38.77808,-2.34864,335.6644],[38.78242,-2.34647,331.3368],[38.79312,-2.33784,330.5555],[38.79715,-2.33366,322.5228],[38.97946,-1.96887,283.9376],[38.98396,-1.94737,289.0373],[38.98566,-1.91968,285.9748],[38.96024,-1.76434,320.0063],[38.95946,-1.75085,319.1075],[38.96194,-1.73736,319.343],[38.97233,-1.72398,317.2543],[38.99486,-1.70103,307.7965],[38.99868,-1.69251,306.5396],[39.00013,-1.68682,307.1336],[38.99651,-1.14629,336.972],[38.98938,-1.12417,340.9148],[38.87068,-0.86517,412.2749],[38.41588,-0.08056,346.0353],[38.41536,-0.06759,333.1654],[38.42513,-0.06945,341.2238],[38.43443,-0.06925,347.4871],[38.44352,-0.06522,346.5124],[38.46621,-0.07514,318.4513],[38.49613,-0.06124,313.7798],[38.54652,-0.02424,322.2628],[38.5737,-0.02382,292.5],[38.63271,-0.04361,303.5872],[38.65638,-0.03788,315.9283],[38.67044,-0.04496,303.9777],[38.68615,-0.04563,276.9082],[38.69891,-0.0433,295.8066],[38.70418,-0.04129,308.284],[38.7093,-0.04951,302.0567],[38.72134,-0.05643,286.1183],[38.74578,-0.06522,274.0588],[38.73694,0.14242,462.0336],[38.73849,0.14898,455.8406],[38.74594,0.16345,452.6326],[38.74857,0.17017,446.7717],[38.74997,0.17725,444.4693],[38.74718,0.21534,453.9042],[38.69271,0.44747,490.0637],[38.69131,0.45083,482.6275],[38.68899,0.45305,478.5129],[38.67007,0.46648,459.5137],[38.66666,0.47,451.0734],[38.6648,0.47454,451.3652],[38.66558,0.48044,447.077],[38.67007,0.48736,437.6224],[38.67426,0.49093,437.493],[38.67705,0.49289,438.5495],[38.69472,0.50255,421.529],[38.69906,0.50421,415.6625],[38.70434,0.5056,415.1789],[38.76609,0.51372,392.9948],[38.7712,0.51521,388.1022],[38.77555,0.51749,389.0773],[38.77932,0.52059,385.8649],[38.78257,0.52405,385.1489],[38.79622,0.54524,376.0463],[38.80908,0.57263,369.9211],[38.81141,0.5763,370.9106],[38.81451,0.57955,367.6001],[38.81916,0.58234,366.8661],[38.82588,0.5856,363.4534],[39.15852,0.71112,268.5912],[39.16271,0.71531,269.5062],[39.16488,0.7198,266.9427],[39.16798,0.73463,264.3309],[39.17066,0.743,262.5071],[39.18214,0.76466,258.7428],[39.20989,0.80527,246.4923],[39.22306,0.82016,241.7685],[39.24575,0.83768,233.8728],[39.25691,0.84827,229.5642],[39.26916,0.86315,224.8377],[39.30161,0.91922,209.0635],[39.30456,0.92299,208.378],[39.3075,0.92604,208.2541],[39.42605,0.97183,202.0106],[39.43752,0.97746,201.682],[39.44641,0.98387,201.2294],[39.44651,0.99224,201.8807],[39.44496,0.99885,202.101],[39.27939,1.44159,279.8225],[39.27784,1.45262,285.2901],[39.28347,1.45906,290.023],[39.29417,1.4651,302.0129],[39.45075,1.52849,261.4531],[39.45153,1.53076,260.2621],[39.45059,1.5327,260.1608],[39.44734,1.53495,260.8612],[39.42899,1.54394,263.4803],[39.42527,1.54704,264.9892],[39.42202,1.5506,263.4361],[39.4152,1.55696,263.9631],[39.41117,1.5597,264.1133],[39.40078,1.56303,265.3136],[39.39613,1.56528,265.8705],[39.39225,1.56838,266.2556],[39.36988,1.59391,270.0775],[39.36492,1.60305,270.7905],[39.3629,1.60794,271.4178],[39.36042,1.61236,271.4304],[39.35484,1.62037,272.5429],[39.34817,1.62758,273.3187],[39.34089,1.63393,274.5578],[39.27991,1.66879,282.0236],[39.2721,1.67483,283.0233],[39.25862,1.68817,284.13],[39.25459,1.69096,284.4324],[39.24048,1.69788,286.5388],[39.21562,1.70656,289.5149],[39.21128,1.70912,290.7286],[39.20725,1.71199,290.9078],[39.19299,1.72579,294.3929],[39.19004,1.72969,294.8514],[39.18756,1.7338,295.132],[39.18555,1.73837,295.5743],[39.17516,1.78346,300.7097],[39.16612,1.80245,303.1415],[39.16023,1.81023,304.1594],[39.14999,1.82092,305.6203],[39.14689,1.82495,306.1101],[39.14426,1.82922,306.803],[39.13604,1.84808,310.377],[39.12503,1.86485,312.6495],[39.12193,1.86857,313.4723],[39.10731,1.88206,317.1026],[39.07506,1.90448,321.2498],[39.06793,1.91138,322.1844],[39.02649,1.97438,331.0916],[38.9961,2.03336,339.6918],[38.98225,2.0754,344.0393],[38.97745,2.0844,346.5855],[38.97047,2.09109,346.7001],[38.96659,2.09403,347.7629],[38.96334,2.09737,348.222],[38.96039,2.10147,349.109],[38.95512,2.11677,352.2236],[38.95264,2.12119,352.5466],[38.94985,2.12522,353.8411],[38.94318,2.13274,355.0379],[38.94163,2.14266,356.5122],[38.94174,2.1578,358.5288],[38.94535,2.19015,363.9518],[38.94411,2.21475,368.3587],[38.94225,2.21979,369.4213],[38.93662,2.25588,375.1527],[38.93507,2.26139,375.9473],[38.9312,2.27162,377.9955],[38.91941,2.33275,388.5487],[38.91616,2.38792,396.6289],[38.90158,2.44975,406.2783],[38.88779,2.47838,412.7573],[38.88262,2.49375,416.1978],[38.87983,2.49964,415.8923],[38.87983,2.50414,417.9281],[38.8819,2.50796,419.0242],[38.882,2.51439,420.5671],[38.88531,2.51998,419.1815],[38.89693,2.52625,419.8238],[38.95032,2.5431,430.2066],[38.97078,2.57382,436.6646],[39.09537,2.85189,502.6272],[39.10188,2.85585,509.256],[39.10638,2.86058,503.5736],[39.10907,2.8806,509.6047],[39.10886,2.89486,513.5196],[39.11,2.90194,512.3052],[39.11294,2.90915,514.4789],[39.12023,2.91822,521.2397],[39.12565,2.9231,527.9684],[39.13108,2.92644,532.1663],[39.13992,2.93104,539.7689],[39.16674,2.93747,543.8576],[39.1764,2.94119,538.73],[39.18059,2.94375,535.6113],[39.18431,2.94677,535.3153],[39.19934,2.96323,531.896],[39.20679,2.96935,535.3942],[39.21624,2.97346,540.0356],[39.26699,2.98977,551.347],[39.27526,2.99473,556.5063],[39.28177,3.00062,562.0761],[39.29324,3.01762,564.9976],[39.29805,3.02328,566.1699],[39.31991,3.03894,578.6136],[39.32332,3.04235,579.3608],[39.32611,3.05191,586.4509],[39.32812,3.06757,601.5522],[39.32719,3.19978,648.5206],[39.32037,3.25626,659.2309],[39.31045,3.29086,643.389],[39.29619,3.47645,803.8932],[39.29634,3.49199,1075.8601],[39.25758,3.46969,808.4791],[39.21945,3.4687,891.5858],[39.18048,3.477,852.2874],[39.09044,3.51833,951.1321],[39.07754,3.52426,1024.5846],[39.06793,3.52658,1066.7065],[39.01047,3.51446,1063.8076],[38.99496,3.51426,914.1176],[38.97998,3.51981,743.577],[38.96323,3.52209,760.6765],[38.92127,3.514,700.9922],[38.89523,3.51359,678.6207],[38.82071,3.53374,673.0917],[38.72201,3.5604,704.2858],[38.70371,3.57043,712.5669],[38.68811,3.58629,743.8359],[38.66103,3.62195,1109.5475],[38.66144,3.61534,1033.791],[38.6601,3.60131,927.8795],[38.66031,3.59446,844.9119],[38.60191,3.59867,723.5121],[38.59664,3.60213,728.3238],[38.59561,3.60751,736.0092],[38.59375,3.61084,738.7658],[38.57959,3.60531,760.9587],[38.57411,3.60456,768.7908],[38.56109,3.60601,767.5278],[38.54714,3.60952,746.0118],[38.54321,3.61539,754.1122],[38.54124,3.62329,764.1909],[38.53318,3.63283,837.3864],[38.51427,3.64851,1173.392],[38.509,3.65081,1095.5698],[38.49939,3.64691,1122.9749],[38.49732,3.63859,969.0338],[38.49815,3.62968,786.5561],[38.49691,3.62394,766.8979],[38.44595,3.60167,747.6317],[38.38994,3.59689,705.7213],[38.28307,3.6089,761.4186],[38.17693,3.62092,811.1366],[38.14561,3.61844,895.3696],[38.11409,3.61061,934.1913],[38.10189,3.61265,898.4167],[38.07884,3.63267,858.4391],[38.04897,3.64185,860.0944],[38.03616,3.64893,868.8589],[38.02076,3.66717,913.7693],[37.99533,3.70791,1011.7604],[37.97673,3.72644,929.9797],[37.94593,3.74623,888.411],[37.8462,3.81034,817.5939],[37.75101,3.87152,764.3685],[37.64776,3.93787,764.3496],[37.55608,3.99689,698.1294],[37.47506,4.04898,767.6288],[37.36095,4.1222,775.7878],[37.26349,4.18489,784.3116],[37.16603,4.24755,816.4894],[37.11187,4.2823,1083.1542],[37.10598,4.28385,909.5458],[37.09999,4.28369,890.8953],[37.09482,4.28488,908.5024],[37.09162,4.29026,1001.7159],[37.08645,4.31248,1018.5815],[37.08252,4.32217,1128.4404],[37.07591,4.33108,1106.7756],[37.06847,4.33346,1303.0204],[37.04842,4.33196,1333.4084],[37.04108,4.33682,1293.4417],[37.02537,4.36327,1212.6389],[37.01565,4.37059,1290.8584],[36.97483,4.37994,974.9691],[36.90372,4.41578,606.4901],[36.84409,4.43224,549.4817],[36.65133,4.43058,681.1716],[36.64886,4.43118,682.4793],[36.64296,4.4326,703.1566],[36.62818,4.44146,746.0051],[36.6195,4.44337,739.8627],[36.46302,4.44017,585.8041],[36.2772,4.43645,419.976]]]}
,"properties": {"ISO3166-1-Alpha-3": "KEN","country": "Kenya","fill": "#F00","name": "Eastern","area_km2": 158048.83,"hist_schema_id": "Elevation0-9000","hist_area_km2": {"200": 270.67,"225": 1515.94,"250": 2000.32,"275": 2150.65,"300": 2927.38,"325": 4624.91,"350": 9637.53,"375": 6951.7,"400": 5740.19,"425": 5918.15,"450": 5852.71,"475": 5883.18,"500": 6674.66,"525": 7180.01,"550": 7310.58,"575": 6743.61,"600": 6309.36,"625": 5961.78,"650": 5318.82,"675": 4840.6,"700": 4454.46,"725": 3994.51,"750": 3216.97,"775": 2575.96,"800": 2254.14,"825": 1982.64,"850": 1962.76,"875": 1811.18,"900": 1617.04,"925": 1528.97,"950": 1458.23,"975": 1425.28,"1000": 1367.96,"1025": 1303.1,"1050": 1454.32,"1075": 1531.18,"1100": 1498.67,"1125": 1351.34,"1150": 1296.21,"1175": 1258.34,"1200": 1236.53,"1225": 1179.68,"1250": 955.97,"1275": 789.56,"1300": 740.31,"1325": 571.79,"1350": 477.47,"1375": 435.89,"1400": 398.08,"1425": 362.34,"1450": 345.41,"1475": 459.01,"1500": 577.24,"1525": 423.95,"1550": 381.15,"1575": 389.92,"1600": 439.05,"1625": 478.48,"1650": 406.48,"1675": 315.5,"1700": 249.99,"1725": 193.74,"1750": 168.3,"1775": 156.18,"1800": 138.29,"1825": 129.75,"1850": 111.84,"1875": 99.22,"1900": 93.18,"1925": 81.08,"1950": 72.75,"1975": 66.56,"2000": 65.0,"2025": 62.94,"2050": 59.25,"2075": 51.48,"2100": 46.83,"2125": 42.49,"2150": 42.66,"2175": 41.32,"2200": 41.87,"2225": 49.23,"2250": 47.79,"2275": 51.27,"2300": 49.27,"2325": 43.27,"2350": 43.74,"2375": 38.61,"2400": 37.97,"2425": 38.48,"2450": 36.64,"2475": 35.22,"2500": 33.92,"2525": 31.32,"2550": 31.97,"2575": 29.39,"2600": 28.64,"2625": 28.73,"2650": 26.31,"2675": 25.27,"2700": 24.06,"2725": 25.1,"2750": 24.7,"2775": 22.64,"2800": 22.67,"2825": 21.58,"2850": 21.9,"2875": 19.4,"2900": 18.36,"2925": 20.67,"2950": 20.18,"2975": 20.74,"3000": 18.62,"3025": 17.79,"3050": 16.3,"3075": 16.03,"3100": 15.8,"3125": 17.26,"3150": 15.29,"3175": 14.67,"3200": 13.51,"3225": 14.25,"3250": 13.7,"3275": 12.66,"3300": 12.68,"3325": 12.89,"3350": 12.66,"3375": 11.49,"3400": 12.34,"3425": 12.85,"3450": 12.89,"3475": 13.55,"3500": 12.78,"3525": 14.14,"3550": 15.92,"3575": 14.54,"3600": 12.98,"3625": 10.3,"3650": 10.16,"3675": 8.1,"3700": 8.37,"3725": 7.34,"3750": 7.06,"3775": 6.66,"3800": 6.59,"3825": 7.38,"3850": 7.17,"3875": 6.7,"3900": 6.47,"3925": 5.43,"3950": 5.68,"3975": 5.58,"4000": 5.87,"4025": 5.3,"4050": 5.49,"4075": 5.45,"4100": 5.39,"4125": 4.3,"4150": 3.92,"4175": 4.07,"4200": 3.67,"4225": 3.67,"4250": 3.2,"4275": 2.54,"4300": 3.01,"4325": 2.65,"4350": 2.61,"4375": 2.48,"4400": 2.12,"4425": 1.74,"4450": 1.8,"4475": 1.55,"4500": 1.46}}}