{"type": "Feature","bbox": [37.2204,-1.4577,37.2814,-1.3838],"geometry": {"type": "MultiPolygon","coordinates": [[[[37.2757,-1.4352,2001.3719],[37.2742,-1.4278,1969.5498],[37.2751,-1.4226,1923.991],[37.2709,-1.416,1967.3335],[37.2673,-1.4147,1868.4153],[37.2585,-1.4058,1720.5735],[37.2568,-1.3974,1653.3521],[37.2559,-1.398,1646.7612],[37.2567,-1.3943,1605.5806],[37.261,-1.3917,1575.7227],[37.261,-1.3887,1550.1304],[37.2631,-1.3859,1510.0132],[37.2533,-1.3838,1557.6681],[37.2432,-1.387,1607.6357],[37.2384,-1.3894,1651.033],[37.2322,-1.4007,1884.1631],[37.2204,-1.4012,1789.7899],[37.2206,-1.4129,1856.0697],[37.2421,-1.4486,1689.0107],[37.2396,-1.4561,1680.0634],[37.2497,-1.4577,1678.1809],[37.2722,-1.4551,1851.5128],[37.2784,-1.4523,2014.5653],[37.2806,-1.4505,2055.7378],[37.2796,-1.4467,2067.8135],[37.2814,-1.4408,1983.3691],[37.2767,-1.4376,2016.7825],[37.2757,-1.4352,2001.3719]]]]}
,"properties": {"GID_3": "KEN.22.3.6_1","GID_0": "KEN","country": "Kenya","GID_1": "KEN.22_1","province": "Machakos","NL_NAME_1": "NA","GID_2": "KEN.22.3_1","county": "MachakosTown","NL_NAME_2": "NA","city": "Mutituni","VARNAME_3": "NA","NL_NAME_3": "NA","TYPE_3": "Ward","ENGTYPE_3": "Ward","CC_3": "400","HASC_3": "NA","name": "Mutituni.city","area_km2": 33.2348,"hist_schema_id": "Elevation0-9000","hist_area_km2": {"1525": 0.10598,"1550": 0.48751,"1575": 0.5087,"1600": 0.61468,"1625": 0.67827,"1650": 0.40272,"1675": 2.79781,"1700": 2.47988,"1725": 2.31032,"1750": 1.84402,"1775": 1.69565,"1800": 1.73805,"1825": 2.09837,"1850": 2.16196,"1875": 2.14077,"1900": 2.16196,"1925": 2.14076,"1950": 1.86522,"1975": 1.75924,"2000": 1.39891,"2025": 0.97499,"2050": 0.59347,"2075": 0.27554}}}