{"type":"Feature","properties":{"GID_2":"KEN.16.7_1","GID_0":"KEN","country":"Kenya","GID_1":"KEN.16_1","province":"Kisii","NL_NAME_1":"NA","county":"NyaribariChache","VARNAME_2":"NA","NL_NAME_2":"NA","TYPE_2":"Constituency","ENGTYPE_2":"Constituency","CC_2":"267","HASC_2":"NA","name":"Nyaribari_Chache.county"},
"geometry":{"type": "MultiPolygon","coordinates": [[[[34.8517,-0.8065,1810.9078],[34.8557,-0.8096,1878.6208],[34.8587,-0.8073,1936.381],[34.8601,-0.8004,1898.7833],[34.8656,-0.8027,1961.249],[34.8704,-0.8011,1906.733],[34.8831,-0.7771,1903.9458],[34.8908,-0.7748,1883.8528],[34.8929,-0.7685,1893.4834],[34.8987,-0.7699,1913.3008],[34.9039,-0.7649,1963.9467],[34.9156,-0.7613,2012.9197],[34.9156,-0.7569,2083.3542],[34.918,-0.7535,2062.9309],[34.907,-0.7551,1982.8994],[34.9039,-0.7473,1968.5542],[34.8987,-0.7426,1975.3137],[34.8884,-0.7405,1943.9727],[34.8853,-0.7367,1999.3706],[34.8691,-0.7292,1927.3312],[34.8403,-0.709,1775.1169],[34.8348,-0.7019,1783.6758],[34.8277,-0.6984,1789.3716],[34.8271,-0.6999,1781.0961],[34.8252,-0.6972,1795.8525],[34.8235,-0.6993,1776.8387],[34.8229,-0.6919,1800.0197],[34.8207,-0.6881,1812.7543],[34.8083,-0.6817,1867.4453],[34.8008,-0.6843,1881.608],[34.7951,-0.6836,1768.7948],[34.7924,-0.6818,1743.5701],[34.7931,-0.678,1725.3062],[34.789,-0.6718,1707.3756],[34.7865,-0.6706,1697.1017],[34.7844,-0.6739,1677.5996],[34.7786,-0.6716,1652.4072],[34.7736,-0.6598,1684.9818],[34.7654,-0.6568,1704.9178],[34.7596,-0.6676,1604.55],[34.7626,-0.6712,1622.2662],[34.7602,-0.6737,1670.2272],[34.7568,-0.674,1677.9448],[34.7557,-0.6771,1786.7081],[34.7528,-0.6789,1812.6401],[34.7496,-0.6888,1698.9722],[34.7457,-0.6919,1659.375],[34.7454,-0.7029,1638.7612],[34.7475,-0.7122,1669.6659],[34.752,-0.7161,1721.6652],[34.7544,-0.722,1766.7162],[34.7785,-0.7456,1866.1002],[34.8013,-0.7617,1803.1581],[34.8363,-0.7942,1755.2937],[34.8397,-0.7951,1757.4005],[34.8517,-0.8065,1810.9078]]]]}}