{"type": "Feature","bbox": [35.3329,0.297,35.5136,0.5398],"geometry": {"type": "MultiPolygon","coordinates": [[[[35.4809,0.4139,2422.3203],[35.4806,0.4254,2415.0576],[35.4762,0.4304,2416.7227],[35.4729,0.4537,2424.7561],[35.4713,0.4553,2412.4233],[35.4701,0.4546,2412.8237],[35.4675,0.4598,2404.582],[35.4613,0.4601,2391.126],[35.4635,0.5112,2369.1191],[35.4582,0.5083,2331.5894],[35.4546,0.5114,2328.9148],[35.4551,0.5126,2341.8608],[35.4529,0.5132,2344.3833],[35.4462,0.5064,2315.9517],[35.4388,0.5094,2311.9619],[35.4302,0.5095,2298.1638],[35.4264,0.5069,2287.7983],[35.4252,0.5097,2292.6731],[35.421,0.5079,2288.1147],[35.4133,0.5115,2274.9885],[35.4071,0.509,2268.1309],[35.4016,0.5112,2261.0288],[35.3967,0.5076,2253.0461],[35.3928,0.508,2238.2551],[35.3908,0.5129,2236.042],[35.3852,0.5154,2231.4692],[35.3821,0.5142,2221.7156],[35.3794,0.5175,2219.229],[35.372,0.518,2208.4746],[35.3676,0.5222,2203.2581],[35.3538,0.5274,2177.625],[35.3492,0.5398,2172.1284],[35.3329,0.4855,2162.6265],[35.3366,0.4821,2167.7617],[35.3384,0.4823,2167.7617],[35.34,0.479,2163.8867],[35.3475,0.4779,2183.5435],[35.3534,0.4727,2167.7175],[35.3551,0.4595,2185.5835],[35.3571,0.456,2180.3125],[35.3626,0.449,2204.5122],[35.3703,0.4438,2218.3352],[35.3695,0.4423,2214.3503],[35.3722,0.4376,2215.1519],[35.3736,0.4382,2215.1519],[35.374,0.4357,2225.04],[35.3769,0.4357,2228.6797],[35.3779,0.432,2230.9087],[35.3831,0.429,2236.7283],[35.3935,0.4297,2255.5669],[35.3904,0.402,2257.0283],[35.4024,0.3991,2271.2681],[35.3998,0.3678,2242.5042],[35.4138,0.3567,2261.7817],[35.4007,0.3387,2246.4614],[35.4066,0.3346,2248.8037],[35.4078,0.3272,2237.5029],[35.4101,0.3233,2247.1362],[35.4136,0.3212,2252.9316],[35.4158,0.3166,2250.3335],[35.4185,0.3167,2252.7695],[35.4234,0.3137,2259.1252],[35.4252,0.3077,2264.7969],[35.432,0.297,2307.3003],[35.4422,0.304,2336.0649],[35.4424,0.3124,2322.176],[35.4336,0.3137,2280.5933],[35.4312,0.3169,2264.8545],[35.4434,0.3273,2364.2573],[35.4464,0.3294,2365.8457],[35.4474,0.3285,2370.5425],[35.4634,0.347,2372.6086],[35.4696,0.3461,2392.8972],[35.4738,0.3427,2401.4709],[35.4775,0.3425,2414.9795],[35.4882,0.3368,2441.7261],[35.4902,0.3334,2439.2964],[35.4974,0.3281,2480.9771],[35.4959,0.3195,2461.7524],[35.5095,0.3194,2506.3774],[35.5136,0.3258,2495.8303],[35.5129,0.3292,2497.6848],[35.507,0.3305,2468.96],[35.5025,0.3409,2479.9634],[35.4974,0.3466,2487.52],[35.4882,0.3553,2448.083],[35.4827,0.3558,2429.928],[35.4808,0.3643,2431.4888],[35.4732,0.3688,2405.2886],[35.4685,0.3743,2390.7793],[35.4705,0.3831,2399.5916],[35.4788,0.3874,2415.345],[35.4819,0.3838,2425.5303],[35.4881,0.3853,2452.2896],[35.4849,0.391,2440.4585],[35.4793,0.3936,2424.9634],[35.4796,0.3975,2444.8574],[35.4872,0.4093,2430.4441],[35.4812,0.4093,2438.7063],[35.4809,0.4139,2422.3203]]]]}
,"properties": {"GID_3": "KEN.44.1.3_1","GID_0": "KEN","country": "Kenya","GID_1": "KEN.44_1","province": "UasinGishu","NL_NAME_1": "NA","GID_2": "KEN.44.1_1","county": "Ainabkoi","NL_NAME_2": "NA","city": "Kaptagat","VARNAME_3": "NA","NL_NAME_3": "NA","TYPE_3": "Ward","ENGTYPE_3": "Ward","CC_3": "720","HASC_3": "NA","name": "Kaptagat.city","area_km2": 228.2141,"hist_schema_id": "Elevation0-9000","hist_area_km2": {"2150": 0.0848,"2175": 5.7456,"2200": 19.3357,"2225": 17.2792,"2250": 27.6893,"2275": 43.9934,"2300": 36.8484,"2325": 22.1769,"2350": 16.304,"2375": 15.032,"2400": 10.7705,"2425": 6.9542,"2450": 2.735,"2475": 2.6078,"2500": 0.6573}}}