{"type":"Feature","properties":{"GID_3":"KEN.35.1.8_1","GID_0":"KEN","country":"Kenya","GID_1":"KEN.35_1","province":"Nyandarua","NL_NAME_1":"NA","GID_2":"KEN.35.1_1","county":"Kinangop","NL_NAME_2":"NA","city":"Nyakio","VARNAME_3":"NA","NL_NAME_3":"NA","TYPE_3":"Ward","ENGTYPE_3":"Ward","CC_3":"446","HASC_3":"NA","name":"Nyakio.city"},
"geometry":{"type": "MultiPolygon","coordinates": [[[[36.6661,-0.7568,2519.7839],[36.6539,-0.7541,2527.813],[36.6464,-0.7489,2519.355],[36.6398,-0.7476,2527.4871],[36.6364,-0.745,2525.6443],[36.6301,-0.7354,2533.9121],[36.6298,-0.7316,2537.6958],[36.6194,-0.7306,2545.1357],[36.5913,-0.7469,2570.238],[36.5983,-0.7634,2591.9294],[36.588,-0.7856,2612.7429],[36.5897,-0.7889,2613.918],[36.6059,-0.7866,2614.1331],[36.622,-0.8219,2618.6667],[36.6742,-0.7728,2476.1003],[36.6597,-0.7667,2519.6177],[36.6505,-0.7688,2524.0381],[36.6446,-0.767,2533.1199],[36.6537,-0.7586,2525.8633],[36.6576,-0.7619,2503.1428],[36.6622,-0.762,2512.4385],[36.6661,-0.7568,2519.7839]]]]}}