{"type":"Feature","properties":{"GID_3":"KEN.14.7.4_1","GID_0":"KEN","country":"Kenya","GID_1":"KEN.14_1","province":"Kilifi","NL_NAME_1":"NA","GID_2":"KEN.14.7_1","county":"Rabai","NL_NAME_2":"NA","city":"Ruruma","VARNAME_3":"NA","NL_NAME_3":"NA","TYPE_3":"Ward","ENGTYPE_3":"Ward","CC_3":"68","HASC_3":"NA","name":"Ruruma.city"},
"geometry":{"type": "MultiPolygon","coordinates": [[[[39.6021,-3.8361,179.2779],[39.5981,-3.8376,181.5367],[39.578,-3.8391,181.2944],[39.5749,-3.843,170.347],[39.5757,-3.8535,158.7651],[39.5527,-3.8677,190.3401],[39.5499,-3.8744,180.7165],[39.5545,-3.8851,168.6819],[39.5541,-3.8875,174.3226],[39.5495,-3.8962,147.2021],[39.5463,-3.8962,176.3124],[39.5523,-3.8993,159.3588],[39.5573,-3.8958,164.2473],[39.5583,-3.9027,138.7552],[39.561,-3.9062,138.0887],[39.5593,-3.9114,133.9917],[39.5669,-3.9096,137.6006],[39.5773,-3.9128,136.4581],[39.5781,-3.9099,129.6754],[39.5826,-3.9072,134.2478],[39.5849,-3.9098,125.1906],[39.5876,-3.9099,133.1084],[39.5987,-3.8981,183.4411],[39.6089,-3.894,163.6741],[39.6215,-3.8804,115.7739],[39.6229,-3.8759,125.8521],[39.6221,-3.8676,161.3182],[39.6243,-3.8606,164.0223],[39.6225,-3.8427,198.6572],[39.6207,-3.8393,206.9085],[39.6145,-3.8437,166.3972],[39.6137,-3.8476,154.8154],[39.6111,-3.8499,131.1132],[39.6061,-3.845,145.0386],[39.6055,-3.8397,143.2413],[39.6021,-3.8361,179.2779]]]]}}