{"type": "Feature","bbox": [40.0237,0.1835,40.8733,1.0587],"geometry": {"type": "MultiPolygon","coordinates": [[[[40.1753,0.3133,140.8767],[40.1766,0.3159,144.7666],[40.2144,0.2734,131.9995],[40.2382,0.2536,128.1127],[40.2596,0.2413,126.7861],[40.2998,0.2236,124.4075],[40.3289,0.2042,126.1684],[40.3432,0.2027,122.7847],[40.3394,0.1987,122.4285],[40.3425,0.1987,122.0435],[40.3446,0.2013,122.8521],[40.3578,0.2013,121.6395],[40.3595,0.1984,120.924],[40.3785,0.1957,120.0736],[40.3965,0.1851,118.0308],[40.4023,0.1837,117.1409],[40.4055,0.1835,116.8164],[40.4186,0.1887,116.0271],[40.4257,0.1899,116.1524],[40.4527,0.1855,114.5701],[40.4753,0.1863,113.4107],[40.4839,0.1887,112.1293],[40.4951,0.197,115.8475],[40.4983,0.1967,115.8072],[40.5029,0.1931,113.3133],[40.5077,0.1941,115.1498],[40.5129,0.2077,111.9927],[40.5205,0.2137,110.5113],[40.5241,0.2218,110.4664],[40.5349,0.227,109.2676],[40.5407,0.2269,108.2801],[40.5629,0.2163,109.006],[40.5713,0.2153,107.4212],[40.5779,0.2177,110.4245],[40.5855,0.2153,109.9436],[40.5953,0.2253,108.1385],[40.6065,0.2265,108.6856],[40.6115,0.2321,106.8817],[40.6191,0.2313,106.5314],[40.6293,0.2327,106.3139],[40.6465,0.2313,105.7683],[40.6813,0.2571,103.2995],[40.6833,0.2597,102.0889],[40.6845,0.2715,99.8049],[40.6955,0.2785,100.2497],[40.7037,0.2931,97.5285],[40.7114,0.3141,95.4968],[40.7156,0.3196,95.2038],[40.7217,0.3226,94.8776],[40.7367,0.3262,93.2791],[40.7501,0.3417,92.609],[40.7693,0.3524,92.8541],[40.8172,0.3654,90.3994],[40.8465,0.3715,87.1863],[40.8581,0.3759,85.9044],[40.8733,0.386,84.6921],[40.8641,0.3991,86.0863],[40.8573,0.4179,86.0631],[40.8385,0.4553,85.6344],[40.8305,0.4677,86.0841],[40.8275,0.4709,86.6628],[40.8181,0.4753,86.5027],[40.8091,0.4841,87.0687],[40.7931,0.4853,88.2467],[40.7675,0.4975,89.4678],[40.7561,0.5085,88.8418],[40.7519,0.5159,88.1947],[40.7415,0.5269,87.9896],[40.7461,0.5261,88.3417],[40.7541,0.5285,87.593],[40.7557,0.5363,87.6072],[40.7613,0.5439,88.1221],[40.7647,0.5707,89.3439],[40.7665,0.5743,88.9143],[40.7991,0.6117,88.4587],[40.8181,0.6561,91.8348],[40.8265,0.6699,92.2744],[40.829,0.7079,95.563],[40.8361,0.7505,98.2488],[40.8301,0.7595,99.313],[40.8251,0.7639,100.0752],[40.8231,0.7645,99.7086],[40.8215,0.7631,99.9283],[40.8115,0.7669,100.9831],[40.8027,0.7641,102.0278],[40.7937,0.7717,102.6328],[40.7853,0.7735,103.5468],[40.7811,0.7787,104.0325],[40.7671,0.7789,105.1833],[40.7641,0.7805,105.338],[40.7495,0.7911,106.8956],[40.7485,0.7979,107.5183],[40.7391,0.7999,108.1938],[40.7327,0.8053,108.6618],[40.7273,0.8067,109.252],[40.7229,0.8149,109.9384],[40.7199,0.8169,110.4102],[40.7041,0.8213,111.8709],[40.7021,0.8281,113.9359],[40.7029,0.8351,113.6321],[40.6921,0.8427,114.8264],[40.6921,0.8511,116.5426],[40.6875,0.8573,119.3806],[40.6895,0.8673,117.3547],[40.6877,0.8695,117.8913],[40.6843,0.8715,118.8162],[40.6739,0.8841,121.4103],[40.6691,0.8835,120.896],[40.6591,0.8915,123.9381],[40.6527,0.8911,123.0458],[40.6485,0.8929,123.088],[40.6409,0.8995,124.3305],[40.6341,0.8993,125.0588],[40.6153,0.9097,128.2722],[40.6073,0.9163,130.3147],[40.6069,0.9193,130.6031],[40.6097,0.9231,131.0456],[40.6067,0.9253,131.7769],[40.5999,0.9365,133.298],[40.6059,0.9447,134.0161],[40.6047,0.9533,133.9228],[40.5997,0.9583,136.1457],[40.5935,0.9699,136.28],[40.5839,0.9801,136.1369],[40.5739,0.9853,139.1503],[40.5715,0.9897,138.6209],[40.5701,0.9979,143.9329],[40.5669,1.0017,143.6001],[40.5465,1.0119,146.9051],[40.5293,1.0309,148.229],[40.5105,1.0403,150.1002],[40.4971,1.0547,155.485],[40.4923,1.0545,154.5534],[40.4845,1.0513,154.1292],[40.4801,1.0517,154.3401],[40.4767,1.0529,151.3937],[40.4707,1.0585,151.6947],[40.4677,1.0587,152.2062],[40.4655,1.0577,152.3408],[40.4603,1.0437,156.9936],[40.4559,1.0253,157.8677],[40.4535,1.0031,159.147],[40.4475,0.9949,160.041],[40.4423,0.9789,158.4766],[40.4487,0.9465,153.8762],[40.4545,0.9377,151.4935],[40.4655,0.9285,148.3282],[40.4703,0.9185,146.7958],[40.4679,0.9071,144.083],[40.4681,0.9001,140.6651],[40.4643,0.8915,140.5895],[40.4643,0.8833,137.2117],[40.4601,0.8767,134.4238],[40.4633,0.8597,129.5806],[40.4647,0.8401,124.1552],[40.4623,0.8385,124.293],[40.4469,0.8377,125.9801],[40.4421,0.8343,125.4736],[40.4383,0.8261,124.4256],[40.4309,0.8175,123.948],[40.4247,0.8127,123.8044],[40.4139,0.8223,128.034],[40.4077,0.8329,131.3938],[40.3945,0.8419,137.6091],[40.3913,0.8485,139.2887],[40.3847,0.8561,143.8948],[40.3711,0.8611,150.5959],[40.3605,0.8701,155.6255],[40.3447,0.8753,162.8571],[40.3383,0.8863,166.4878],[40.3233,0.8965,170.3121],[40.3075,0.9217,178.2829],[40.2993,0.9473,179.5465],[40.2915,0.9609,180.3853],[40.2849,0.9677,180.7088],[40.2833,0.9759,180.3071],[40.2795,0.9821,179.3375],[40.2797,0.9983,181.0107],[40.2733,1.0117,182.2773],[40.2703,1.0263,181.0727],[40.2599,1.0125,183.0166],[40.2517,0.9977,181.183],[40.2475,0.9855,182.1232],[40.2289,0.9507,182.3383],[40.2179,0.9369,180.6463],[40.2125,0.9273,178.4196],[40.1451,0.8473,171.2621],[40.0731,0.7941,160.5261],[40.0237,0.7539,172.3649],[40.1635,0.6211,166.8485],[40.1575,0.6083,172.2982],[40.1037,0.4563,168.5981],[40.0969,0.4459,164.6038],[40.0901,0.4309,157.4946],[40.0843,0.3907,147.5349],[40.0787,0.3801,142.8328],[40.0764,0.3815,143.6227],[40.1301,0.3421,141.6115],[40.1567,0.3293,145.0335],[40.1753,0.3133,140.8767]]]]}
,"properties": {"GID_3": "KEN.46.5.1_1","GID_0": "KEN","country": "Kenya","GID_1": "KEN.46_1","province": "Wajir","NL_NAME_1": "NA","GID_2": "KEN.46.5_1","county": "WajirSouth","NL_NAME_2": "NA","city": "Benane","VARNAME_3": "NA","NL_NAME_3": "NA","TYPE_3": "Ward","ENGTYPE_3": "Ward","CC_3": "184","HASC_3": "NA","name": "Benane.city","area_km2": 5685.934,"hist_schema_id": "Elevation0-9000","hist_area_km2": {"75": 32.502,"100": 2010.748,"125": 1376.226,"150": 1056.704,"175": 830.099,"200": 363.457,"225": 16.198}}}