{"type":"Feature","properties":{"GID_3":"KEN.27.2.5_1","GID_0":"KEN","country":"Kenya","GID_1":"KEN.27_1","province":"Migori","NL_NAME_1":"NA","GID_2":"KEN.27.2_1","county":"KuriaEast","NL_NAME_2":"NA","city":"NyabasiWest","VARNAME_3":"NA","NL_NAME_3":"NA","TYPE_3":"Ward","ENGTYPE_3":"Ward","CC_3":"1300","HASC_3":"NA","name":"Nyabasi_West.city"},
"geometry":{"type": "MultiPolygon","coordinates": [[[[34.5807,-1.304,1724.9133],[34.5805,-1.3088,1711.6207],[34.5923,-1.3155,1767.1112],[34.5964,-1.3128,1728.655],[34.6366,-1.3355,1710.3832],[34.6429,-1.3275,1699.2476],[34.6465,-1.3191,1645.6221],[34.6473,-1.3154,1684.2637],[34.6429,-1.3025,1582.3418],[34.6442,-1.2989,1597.6188],[34.641,-1.2948,1591.9803],[34.6427,-1.2882,1560.3284],[34.6409,-1.2804,1572.3284],[34.6428,-1.2731,1540.3082],[34.6405,-1.2697,1542.7242],[34.6412,-1.2648,1556.1797],[34.6431,-1.2633,1562.8104],[34.635,-1.2574,1544.6818],[34.6325,-1.2516,1527.8529],[34.6307,-1.251,1504.1238],[34.6289,-1.2415,1491.0156],[34.6311,-1.2379,1513.8519],[34.638,-1.2447,1557.1985],[34.6435,-1.2475,1602.8518],[34.6464,-1.2472,1593.2744],[34.6553,-1.2307,1575.786],[34.656,-1.2142,1484.262],[34.6643,-1.2071,1446.1846],[34.6678,-1.1956,1428.259],[34.661,-1.1836,1443.9463],[34.6529,-1.1814,1425.2561],[34.6531,-1.1738,1442.5973],[34.6546,-1.1717,1464.9825],[34.6492,-1.1686,1436.6986],[34.6463,-1.1642,1437.8022],[34.6429,-1.1643,1422.1068],[34.6432,-1.1615,1425.3667],[34.6378,-1.1571,1442.6433],[34.6375,-1.1617,1421.4866],[34.6395,-1.1631,1420.1007],[34.6377,-1.1649,1414.2322],[34.6384,-1.1688,1417.5383],[34.6343,-1.173,1427.0542],[34.6318,-1.1783,1443.0422],[34.6333,-1.1915,1436.9272],[34.6295,-1.2002,1457.1267],[34.6241,-1.2051,1481.228],[34.6204,-1.2125,1485.0701],[34.6136,-1.2179,1521.2081],[34.6082,-1.2249,1526.3115],[34.611,-1.2294,1489.2439],[34.6114,-1.2398,1548.9633],[34.6034,-1.2422,1521.4188],[34.6027,-1.2443,1527.693],[34.6087,-1.2478,1591.1852],[34.6018,-1.2519,1542.4634],[34.6028,-1.2572,1551.9409],[34.5968,-1.2588,1557.2122],[34.597,-1.2622,1583.7021],[34.5925,-1.2739,1620.2787],[34.5919,-1.2869,1618.843],[34.5873,-1.288,1664.5109],[34.5829,-1.2974,1716.2921],[34.5818,-1.2989,1715.0588],[34.5803,-1.2981,1733.2939],[34.5807,-1.304,1724.9133]]]]}}