{"type":"Feature","properties":{"GID_3":"KEN.10.4.3_1","GID_0":"KEN","country":"Kenya","GID_1":"KEN.10_1","province":"Kajiado","NL_NAME_1":"NA","GID_2":"KEN.10.4_1","county":"KajiadoSouth","NL_NAME_2":"NA","city":"Kuku","VARNAME_3":"NA","NL_NAME_3":"NA","TYPE_3":"Ward","ENGTYPE_3":"Ward","CC_3":"933","HASC_3":"NA","name":"Kuku.city"},
"geometry":{"type": "MultiPolygon","coordinates": [[[[37.4817,-2.936,1924.8806],[37.4864,-2.9386,1935.2045],[37.4855,-2.9396,1957.9783],[37.5108,-2.9543,1823.0891],[37.5224,-2.9428,1691.0616],[37.5243,-2.9359,1683.297],[37.529,-2.9338,1653.1577],[37.5319,-2.9298,1639.4697],[37.5404,-2.9329,1616.1245],[37.5534,-2.9416,1592.4272],[37.5616,-2.9387,1554.9392],[37.5658,-2.936,1527.1619],[37.5677,-2.9318,1507.7253],[37.5783,-2.9238,1484.7238],[37.5801,-2.9163,1471.4773],[37.5871,-2.9166,1456.2593],[37.5867,-2.9106,1439.272],[37.5925,-2.9077,1427.9915],[37.6186,-2.9269,1479.3975],[37.6231,-2.9261,1452.476],[37.6331,-2.918,1385.9524],[37.6399,-2.918,1415.6804],[37.6451,-2.9222,1414.2087],[37.6447,-2.9318,1416.4167],[37.6483,-2.9386,1383.5773],[37.6677,-2.9521,1338.2622],[37.6757,-2.9549,1303.7772],[37.6875,-2.9632,1249.2207],[37.6899,-2.9705,1239.1073],[37.6973,-2.971,1247.0754],[37.6997,-2.9805,1187.5117],[37.7061,-2.9814,1173.0203],[37.7134,-2.9883,1158.5869],[37.7161,-2.9829,1162.1407],[37.7187,-2.9842,1173.0142],[37.7189,-2.9864,1153.1323],[37.7241,-2.9891,1184.4954],[37.7269,-2.9973,1133.6235],[37.7385,-2.9994,1136.255],[37.7421,-2.9966,1115.7896],[37.7415,-2.9951,1141.2881],[37.7452,-2.9937,1085.2208],[37.7469,-2.9891,1082.5195],[37.75,-2.9895,1103.0251],[37.7505,-2.9859,1068.9187],[37.7545,-2.9872,1066.1116],[37.7623,-2.976,1074.7334],[37.7672,-2.9805,1049.6049],[37.7687,-2.9765,1027.6053],[37.7733,-2.9764,1010.5503],[37.7772,-2.9794,984.8887],[37.7785,-2.976,989.5798],[37.7816,-2.9791,1023.6536],[37.7873,-2.9765,967.4146],[37.7927,-2.9765,956.5296],[37.7969,-2.9731,958.1285],[37.7976,-2.9765,952.663],[37.8027,-2.9792,951.6485],[37.8049,-2.9827,940.8346],[37.8098,-2.9854,915.0571],[37.8165,-2.9865,902.578],[37.8307,-2.9961,881.2324],[37.8389,-2.9978,874.2268],[37.84,-3.0019,866.7402],[37.8434,-3.0031,864.691],[37.8493,-3.0022,853.6755],[37.8555,-3.0126,840.5314],[37.8581,-3.0224,825.8214],[37.8629,-3.0291,814.8418],[37.8626,-3.0309,813.3116],[37.8682,-3.0373,802.3744],[37.8751,-3.0399,791.9648],[37.8945,-2.8857,871.4315],[37.9179,-2.8684,1030.1255],[37.9375,-2.7708,1496.3254],[37.9298,-2.7629,1588.869],[37.9263,-2.7496,1846.6117],[37.9261,-2.7407,1836.5635],[37.9291,-2.738,1817.2739],[37.9301,-2.7218,1888.0023],[37.9244,-2.7087,2029.095],[37.9208,-2.7042,1930.0907],[37.9072,-2.7037,1954.8033],[37.9011,-2.7015,2026.1724],[37.8926,-2.6747,2071.5525],[37.8789,-2.6609,2068.3162],[37.8735,-2.6512,1996.7593],[37.7483,-2.7198,1030.7721],[37.7425,-2.7095,1042.6683],[37.7373,-2.7062,1037.4388],[37.7386,-2.699,1041.4092],[37.7369,-2.695,1049.4738],[37.7297,-2.6885,1050.3984],[37.7181,-2.6842,1048.2649],[37.7134,-2.678,1048.0153],[37.7067,-2.6752,1048.7462],[37.6994,-2.679,1047.9193],[37.6884,-2.6755,1050.3026],[37.6765,-2.6839,1052.2128],[37.6705,-2.686,1053.8671],[37.6638,-2.6835,1056.6084],[37.6538,-2.6851,1058.0657],[37.6512,-2.683,1061.0673],[37.6465,-2.6859,1063.2404],[37.6368,-2.6862,1085.5566],[37.6293,-2.6807,1098.8917],[37.6219,-2.6813,1103.9727],[37.6207,-2.6786,1106.9177],[37.6177,-2.6832,1115.094],[37.613,-2.6823,1118.9138],[37.6119,-2.688,1124.037],[37.6097,-2.6881,1136.7515],[37.6076,-2.6903,1148.2363],[37.5979,-2.6873,1166.047],[37.5981,-2.6894,1154.9658],[37.602,-2.6911,1156.5479],[37.6021,-2.6938,1161.1604],[37.6012,-2.6983,1170.4564],[37.5965,-2.7039,1169.4971],[37.5934,-2.7047,1175.5138],[37.5888,-2.7005,1192.0625],[37.5847,-2.7014,1185.5981],[37.5824,-2.7069,1188.657],[37.5742,-2.7125,1195.3628],[37.5727,-2.7072,1193.0275],[37.5739,-2.7055,1193.0985],[37.5702,-2.7007,1206.0276],[37.5699,-2.7168,1204.4255],[37.575,-2.7933,1247.5409],[37.5711,-2.817,1307.9036],[37.577,-2.8654,1412.739],[37.5233,-2.867,1498.8257],[37.5213,-2.8799,1534.7797],[37.5164,-2.8917,1583.2352],[37.5013,-2.902,1664.0009],[37.5002,-2.9068,1685.4641],[37.4891,-2.9166,1771.1976],[37.485,-2.9305,1891.2677],[37.4786,-2.9342,1937.0095],[37.4817,-2.936,1924.8806]]]]}}