{"type": "Feature","bbox": [35.9982,-0.4866,36.0988,-0.2452],"geometry": {"type": "MultiPolygon","coordinates": [[[[36.0736,-0.3171,1786.6768],[36.0647,-0.2985,1815.6649],[36.066,-0.2979,1817.0914],[36.0654,-0.2924,1825.8613],[36.0631,-0.2842,1852.8481],[36.0604,-0.2848,1854.2942],[36.0589,-0.2878,1849.4863],[36.0545,-0.2829,1866.3059],[36.062,-0.2801,1865.0996],[36.0614,-0.277,1876.4248],[36.0556,-0.2756,1888.4066],[36.0484,-0.2699,1941.5244],[36.0499,-0.2611,2022.0515],[36.0543,-0.2609,2014.087],[36.0541,-0.2452,2024.75],[36.0434,-0.2522,2117.0261],[36.0438,-0.2625,2026.8563],[36.0418,-0.2628,2022.49],[36.0422,-0.2671,1984.2511],[36.0382,-0.2637,1974.6467],[36.0383,-0.2666,1956.0177],[36.0341,-0.2686,1931.3274],[36.0293,-0.2671,1934.6917],[36.0229,-0.2685,1937.5663],[36.0252,-0.2743,1925.8582],[36.0114,-0.2704,1947.1438],[36.0097,-0.2895,1929.0477],[36.0081,-0.2907,1933.6848],[35.9998,-0.2908,1984.5839],[35.9982,-0.2927,1990.0178],[36.0203,-0.3605,1976.9578],[36.0421,-0.3728,1911.4148],[36.0581,-0.3992,1879.0811],[36.0661,-0.3941,1772.9021],[36.0669,-0.4007,1812.4272],[36.0627,-0.4009,1864.7141],[36.0763,-0.4837,1840.2264],[36.0777,-0.4866,1844.0321],[36.0835,-0.4838,1816.9059],[36.0855,-0.485,1812.8401],[36.0866,-0.4841,1809.8625],[36.0867,-0.4859,1808.614],[36.0888,-0.4864,1807.3424],[36.0898,-0.4856,1805.7825],[36.0886,-0.4793,1805.1682],[36.0908,-0.4774,1803.9758],[36.09,-0.4746,1801.7948],[36.0927,-0.4722,1797.0687],[36.0908,-0.4713,1797.2664],[36.0913,-0.4646,1795.6198],[36.0892,-0.4614,1792.8177],[36.0916,-0.4573,1788.1711],[36.0903,-0.4534,1785.9912],[36.0942,-0.4517,1785.8051],[36.093,-0.4472,1783.98],[36.0952,-0.4423,1785.7058],[36.094,-0.4396,1786.1652],[36.0951,-0.4381,1787.7316],[36.0936,-0.4311,1779.7302],[36.097,-0.4271,1777.6595],[36.0965,-0.4197,1773.6259],[36.0988,-0.4161,1775.2264],[36.0945,-0.4063,1768.3317],[36.0949,-0.4022,1766.6528],[36.0914,-0.401,1761.7672],[36.0937,-0.397,1761.5],[36.0925,-0.3934,1761.5],[36.0938,-0.3043,1771.7585],[36.0879,-0.3068,1774.6648],[36.0845,-0.3149,1770.5115],[36.0779,-0.3131,1778.3091],[36.0736,-0.3171,1786.6768]]]]}
,"properties": {"GID_2": "KEN.31.8_1","GID_0": "KEN","country": "Kenya","GID_1": "KEN.31_1","province": "Nakuru","NL_NAME_1": "NA","county": "NakuruTownWest","VARNAME_2": "NA","NL_NAME_2": "NA","TYPE_2": "Constituency","ENGTYPE_2": "Constituency","CC_2": "175","HASC_2": "NA","name": "Nakuru_Town_West.county","area_km2": 129.41578,"hist_schema_id": "Elevation0-9000","hist_area_km2": {"1750": 25.99338,"1775": 30.14886,"1800": 14.31117,"1825": 11.42777,"1850": 9.56204,"1875": 8.69277,"1900": 6.84821,"1925": 7.95071,"1950": 6.55137,"1975": 4.87643,"2000": 1.1237,"2025": 0.69967,"2050": 0.40284,"2075": 0.23322,"2100": 0.31803,"2125": 0.27563}}}