{"type": "Feature","bbox": [35.3056,1.709,36.2202,3.0551],"geometry": {"type": "MultiPolygon","coordinates": [[[[35.7045,2.0003,991.8657],[35.6987,2.0026,999.6184],[35.6877,2.0111,1007.2496],[35.6837,2.0166,999.0073],[35.6822,2.0281,997.1286],[35.6857,2.0401,1022.2367],[35.6928,2.0511,1097.1388],[35.6998,2.0595,1118.8567],[35.7156,2.0731,1132.1167],[35.7237,2.0843,1140.2688],[35.7262,2.0973,1109.0234],[35.7248,2.1091,1111.9099],[35.7167,2.123,1107.7686],[35.7092,2.13,1213.564],[35.7009,2.1337,1176.0801],[35.6875,2.1318,925.2543],[35.682,2.1335,935.7086],[35.6754,2.1471,979.5695],[35.6708,2.1509,1081.2633],[35.6435,2.1476,1149.7056],[35.6369,2.152,1159.6604],[35.6361,2.1553,1155.0977],[35.6374,2.161,1303.9567],[35.6507,2.1754,1070.0303],[35.6563,2.1898,898.0447],[35.6666,2.2033,865.4802],[35.669,2.2129,858.0896],[35.6688,2.2191,878.8863],[35.6672,2.2239,902.9698],[35.6637,2.2276,924.4429],[35.6429,2.2409,906.7188],[35.625,2.2561,869.2482],[35.6197,2.2625,893.6189],[35.6157,2.2708,879.8467],[35.6122,2.2849,886.9642],[35.6137,2.2869,873.7589],[35.6279,2.2957,835.7307],[35.6425,2.2976,811.3866],[35.6509,2.3034,797.2628],[35.66,2.3071,778.1888],[35.6767,2.3056,760.2104],[35.6862,2.3077,746.947],[35.6936,2.3113,734.2428],[35.7034,2.319,718.334],[35.7219,2.3264,695.337],[35.729,2.3274,688.0081],[35.7426,2.3261,673.2006],[35.7565,2.3356,663.981],[35.7648,2.337,659.3011],[35.7727,2.3351,654.0597],[35.7864,2.3398,645.9959],[35.7888,2.343,644.5872],[35.7932,2.3447,642.659],[35.8025,2.3426,636.9275],[35.8101,2.3436,632.7198],[35.815,2.3416,631.9147],[35.8181,2.3391,630.7827],[35.8203,2.3332,631.4168],[35.819,2.3267,627.123],[35.8224,2.3168,632.4869],[35.8208,2.3104,632.5851],[35.8147,2.2998,636.5801],[35.8138,2.2904,641.7176],[35.8164,2.2783,646.796],[35.8148,2.2684,652.5453],[35.8156,2.2592,654.7372],[35.8224,2.2465,664.1798],[35.8216,2.2374,664.0489],[35.8185,2.2305,667.2536],[35.8205,2.2234,672.8529],[35.8189,2.2135,675.6641],[35.8199,2.2114,676.4435],[35.8226,2.2101,686.5385],[35.9681,2.1945,621.0634],[35.9726,2.1896,619.4191],[35.9814,2.1676,630.8503],[35.9796,2.1479,653.7418],[35.9926,2.1226,648.4252],[35.9937,2.1154,653.9648],[35.9883,2.0949,636.5667],[35.9892,2.0851,627.0073],[35.991,2.0814,639.6524],[36.0039,2.071,648.158],[36.0081,2.0615,620.1254],[36.0138,2.0603,606.9357],[36.0237,2.0647,601.0085],[36.0309,2.0701,601.5232],[36.0432,2.0623,598.3287],[36.0482,2.0612,590.9849],[36.0532,2.0554,585.9285],[36.0561,2.0543,585.2911],[36.067,2.056,577.8171],[36.0818,2.0632,567.6384],[36.0946,2.0622,563.502],[36.1097,2.1236,550.4795],[36.116,2.1794,532.317],[36.1236,2.2131,521.3589],[36.1252,2.234,526.0041],[36.1239,2.249,525.6956],[36.1194,2.2562,527.6953],[36.1094,2.2653,532.798],[36.0939,2.2845,549.7959],[36.0913,2.2861,548.075],[36.0823,2.2861,566.1096],[36.0763,2.2901,570.9333],[36.0754,2.2933,562.5081],[36.0758,2.3053,560.2791],[36.0828,2.3529,574.261],[36.0866,2.4066,535.5238],[36.0978,2.4424,520.7547],[36.0967,2.4471,523.6447],[36.0912,2.4567,519.5312],[36.0915,2.4624,517.8879],[36.0953,2.4664,514.489],[36.1086,2.4695,512.3413],[36.118,2.4745,510.3233],[36.1282,2.4773,505.2675],[36.1358,2.4823,501.0703],[36.1423,2.4902,499.3304],[36.1531,2.4949,495.4126],[36.1567,2.5,494.2076],[36.166,2.5053,488.8798],[36.1821,2.5075,482.909],[36.2202,2.5331,469.4991],[36.2048,2.5378,472.9543],[36.1952,2.5364,477.9932],[36.189,2.5381,487.805],[36.1753,2.5367,489.3112],[36.1646,2.5323,491.0923],[36.158,2.5324,498.3753],[36.1451,2.5415,496.0174],[36.1091,2.5601,506.8241],[36.1001,2.5669,509.8129],[36.0859,2.5744,513.2844],[36.0791,2.5736,523.8257],[36.0723,2.5696,531.611],[36.0671,2.5693,534.3544],[36.0597,2.5742,554.6339],[36.059,2.5797,555.2168],[36.0672,2.5998,518.9205],[36.0708,2.618,501.869],[36.0713,2.647,490.6374],[36.0692,2.6654,481.0109],[36.0657,2.6696,487.3288],[36.0544,2.6769,494.0744],[36.0516,2.6815,501.7146],[36.058,2.698,486.4784],[36.0576,2.7104,488.0138],[36.0453,2.7255,500.8386],[36.028,2.7369,495.8188],[36.023,2.7426,501.9279],[36.0218,2.7512,508.0479],[36.0237,2.7717,486.4078],[36.0208,2.7801,479.0641],[35.9965,2.8077,468.8742],[35.9677,2.8318,466.7852],[35.9626,2.8329,467.3259],[35.9586,2.8312,469.3901],[35.9558,2.8254,474.0415],[35.9564,2.8194,475.7662],[35.9512,2.8058,490.2392],[35.949,2.8034,495.3811],[35.9488,2.7992,496.2543],[35.923,2.7626,542.5791],[35.9076,2.744,549.5294],[35.8931,2.7311,534.6824],[35.8711,2.7154,529.3005],[35.8645,2.7126,526.3098],[35.8616,2.7133,525.3218],[35.862,2.7374,518.8907],[35.8694,2.7478,512.9825],[35.8716,2.7601,508.2294],[35.8722,2.7769,502.38869999999997],[35.8704,2.7962,497.0536],[35.8711,2.8032,492.8008],[35.8739,2.8089,489.8093],[35.8733,2.8145,551.163],[35.8722,2.8149,551.163],[35.8702,2.8101,491.2188],[35.8657,2.8062,495.9001],[35.8396,2.8019,508.753],[35.8353,2.8026,511.2996],[35.8293,2.8095,512.0316],[35.8117,2.8445,501.9077],[35.8055,2.8586,497.7542],[35.8028,2.8692,494.7646],[35.7932,2.8881,488.8587],[35.791,2.9037,484.8699],[35.7924,2.9147,484.5135],[35.7959,2.9201,486.2434],[35.7909,2.9202,487.4961],[35.7826,2.9174,486.4362],[35.7655,2.9296,487.6858],[35.7555,2.9631,486.9468],[35.7482,2.9792,485.119],[35.7403,2.9882,483.9976],[35.7371,3.0049,482.8704],[35.7395,3.014,481.8805],[35.738,3.0287,481.0371],[35.7302,3.0392,478.9646],[35.728,3.0499,478.1253],[35.7286,3.0536,478.0174],[35.7273,3.0551,477.7423],[35.7217,3.0484,479.4991],[35.715,3.0478,480.9692],[35.7073,3.0431,485.9148],[35.695,3.046,492.186],[35.6827,3.0455,490.7779],[35.6662,3.0392,499.0185],[35.6621,3.0302,501.6613],[35.6588,3.0167,509.4203],[35.647,2.9939,528.4183],[35.6456,2.9831,533.8318],[35.6411,2.9746,540.4012],[35.6246,2.9608,554.0369],[35.6211,2.9491,561.0327],[35.6141,2.9396,573.0067],[35.5947,2.9289,582.6556],[35.5864,2.9161,591.2462],[35.5855,2.9139,594.2016],[35.587,2.9058,593.2432],[35.5841,2.8974,599.4077],[35.5656,2.8745,627.0825],[35.5575,2.8549,640.6895],[35.5559,2.8472,645.5317],[35.5504,2.8424,651.7896],[35.5466,2.8359,656.6042],[35.5459,2.8278,664.2185],[35.5404,2.8183,672.0622],[35.5387,2.8055,681.4845],[35.535,2.8043,682.404],[35.5297,2.8054,685.7796],[35.5015,2.8208,685.347],[35.4809,2.8274,689.8737],[35.4726,2.829,701.7032],[35.4679,2.825,793.8035],[35.4599,2.7856,673.5665],[35.459,2.7592,669.9543],[35.4649,2.7089,763.2143],[35.472,2.681,786.7927],[35.4789,2.6666,725.4],[35.4784,2.6548,737.5677],[35.4798,2.6442,746.5189],[35.4739,2.6328,764.1889],[35.4731,2.6246,768.3201],[35.4696,2.6165,777.7938],[35.4712,2.6079,781.649],[35.4668,2.5939,794.4061],[35.4683,2.5888,797.1525],[35.4685,2.5767,813.6843],[35.4488,2.564,820.6135],[35.44,2.5616,712.9149],[35.4376,2.5631,707.3901],[35.4355,2.5738,689.2911],[35.431,2.5805,672.7938],[35.4269,2.5828,665.8623],[35.4178,2.5831,656.0274],[35.3952,2.5943,627.1388],[35.3841,2.5916,615.2881],[35.3766,2.5954,613.6126],[35.3729,2.5946,614.1964],[35.3768,2.5887,612.8775],[35.3754,2.5787,613.7177],[35.3807,2.5775,615.2266],[35.3801,2.5705,619.7965],[35.3861,2.5671,620.9626],[35.3825,2.561,624.9161],[35.3871,2.5562,623.3295],[35.3884,2.5417,622.7745],[35.3918,2.5362,623.064],[35.3909,2.5335,629.5923],[35.3863,2.5316,628.178],[35.3822,2.5178,628.6653],[35.3887,2.5166,631.8716],[35.3902,2.5143,628.8855],[35.3852,2.5088,629.7681],[35.3847,2.5058,629.6812],[35.3896,2.4987,630.0833],[35.3904,2.4939,630.6819],[35.3973,2.4939,635.6591],[35.3994,2.4876,633.2717],[35.3996,2.4818,634.9138],[35.3938,2.4812,636.069],[35.3913,2.4783,642.5074],[35.3932,2.4635,650.9608],[35.3881,2.4606,646.3346],[35.386,2.4573,650.9045],[35.3878,2.4467,652.0262],[35.3939,2.4384,642.9786],[35.3891,2.4352,651.8738],[35.3869,2.4378,654.4083],[35.3725,2.4313,655.4317],[35.3569,2.4184,669.0621],[35.3491,2.4061,672.6884],[35.34,2.4046,682.0962],[35.328,2.3962,691.0435],[35.3236,2.3891,694.0862],[35.3056,2.3712,708.4633],[35.3073,2.3307,725.4355],[35.3118,2.2841,733.2894],[35.3432,2.1714,763.896],[35.3937,1.9688,761.1421],[35.3893,1.9654,768.8942],[35.3912,1.9585,759.2713],[35.3872,1.9549,766.6562],[35.3805,1.9533,765.5401],[35.3769,1.9502,771.9803],[35.3749,1.9465,769.3118],[35.3745,1.9402,770.5393],[35.3694,1.9343,769.1014],[35.4518,1.8554,787.3915],[35.4527,1.8506,787.4351],[35.4575,1.8516,788.1899],[35.4608,1.8455,790.796],[35.4675,1.8474,795.7098],[35.4691,1.8436,795.1755],[35.4732,1.8411,796.1616],[35.4743,1.8333,794.9249],[35.4767,1.8311,795.5881],[35.4747,1.8284,794.2233],[35.4769,1.8267,792.8335],[35.4726,1.822,795.23],[35.473,1.8186,795.5965],[35.4776,1.8179,796.9229],[35.4745,1.8145,796.8123],[35.4742,1.8108,797.8784],[35.4715,1.8102,800.3643],[35.4709,1.8083,801.1033],[35.4746,1.8085,799.3602],[35.4759,1.8043,799.5735],[35.4825,1.8019,805.728],[35.4827,1.7966,803.9141],[35.4858,1.7953,806.2277],[35.4853,1.7917,803.7554],[35.4879,1.7904,804.0391],[35.4897,1.7862,806.5897],[35.4928,1.787,809.5607],[35.4915,1.7849,806.7422],[35.4925,1.7832,806.9921],[35.495,1.7832,808.7424],[35.4953,1.7811,811.2124],[35.4972,1.7804,813.9979],[35.4953,1.7733,823.0668],[35.4984,1.7735,817.1849],[35.4981,1.7708,811.981],[35.5,1.7729,819.2669],[35.5036,1.7708,815.3007],[35.5159,1.7744,826.5217],[35.5187,1.7721,827.2202],[35.5214,1.7724,827.2866],[35.5236,1.7696,831.0938],[35.5325,1.7677,844.405],[35.5363,1.7698,847.5944],[35.545,1.7684,854.8149],[35.5493,1.7705,857.3815],[35.5596,1.7662,865.8906],[35.5621,1.7672,869.122],[35.5674,1.764,876.1694],[35.5695,1.7664,876.7292],[35.5744,1.7668,880.0739],[35.5771,1.765,882.7141],[35.5858,1.7643,891.0879],[35.5938,1.7685,896.6733],[35.5956,1.7666,898.9219],[35.5984,1.7666,902.4776],[35.6037,1.7586,903.7451],[35.6076,1.7574,908.7625],[35.6084,1.7554,913.867],[35.6135,1.7559,913.2917],[35.6185,1.7538,919.1806],[35.6203,1.7547,921.4823],[35.6289,1.751,941.0392],[35.6384,1.7493,951.3638],[35.6407,1.7466,954.1579],[35.6485,1.7461,965.7783],[35.6577,1.7378,975.9067],[35.6694,1.7352,992.4767],[35.6736,1.7272,997.529],[35.6794,1.7253,1007.6841],[35.6851,1.72,1027.072],[35.7021,1.711,1016.7814],[35.7033,1.709,1012.0189],[35.7738,1.8862,1512.9869],[35.782,1.9108,1190.7451],[35.7924,1.9304,1087.3225],[35.7985,1.9359,1066.6864],[35.8006,1.9424,1043.915],[35.7916,1.9688,992.1001],[35.7882,1.9959,1019.193],[35.7823,2.0013,979.4544],[35.7668,2.0062,1006.1773],[35.727,2.0076,1042.1338],[35.7105,2.006,1008.9252],[35.7045,2.0003,991.8657]]]]}
,"properties": {"GID_2": "KEN.43.5_1","GID_0": "KEN","country": "Kenya","GID_1": "KEN.43_1","province": "Turkana","NL_NAME_1": "NA","county": "TurkanaSouth","VARNAME_2": "NA","NL_NAME_2": "NA","TYPE_2": "Constituency","ENGTYPE_2": "Constituency","CC_2": "127","HASC_2": "NA","name": "Turkana_South.county","area_km2": 7442.481,"hist_schema_id": "Elevation0-9000","hist_area_km2": {"475": 54.719,"500": 261.869,"525": 297.135,"550": 383.533,"575": 494.635,"600": 544.276,"625": 539.661,"650": 490.072,"675": 469.342,"700": 478.06,"725": 465.62,"750": 474.982,"775": 448.723,"800": 413.196,"825": 349.051,"850": 236.228,"875": 176.154,"900": 141.767,"925": 106.301,"950": 92.805,"975": 75.919,"1000": 69.012,"1025": 68.738,"1050": 56.258,"1075": 46.828,"1100": 40.832,"1125": 32.335,"1150": 25.131,"1175": 18.647,"1200": 13.646,"1225": 11.421,"1250": 8.709,"1275": 7.988,"1300": 7.141,"1325": 5.488,"1350": 4.365,"1375": 3.433,"1400": 3.496,"1425": 3.179,"1450": 2.416,"1475": 1.992,"1500": 1.653,"1525": 1.505,"1550": 1.505,"1575": 1.441,"1600": 1.356,"1625": 1.06,"1650": 0.954,"1675": 0.848,"1700": 1.144,"1725": 1.081,"1750": 0.869,"1775": 0.826,"1800": 0.89,"1825": 0.615,"1850": 0.615,"1875": 0.424,"1900": 0.339,"1925": 0.106,"2000": 0.064}}}