{"type": "Feature","bbox": [39.7479,-3.6329,39.8607,-3.4971],"geometry": {"type": "MultiPolygon","coordinates": [[[[39.7811,-3.5543,19.7416],[39.7799,-3.5569,23.4043],[39.7479,-3.5816,72.6438],[39.7505,-3.5861,76.1869],[39.7565,-3.5923,10.8632],[39.7697,-3.5886,11.3483],[39.7737,-3.5924,5.9624],[39.7745,-3.5991,5.3708],[39.7805,-3.611,3.3113],[39.7901,-3.6132,2.4085],[39.8035,-3.6123,3.1401],[39.8076,-3.6198,2.6431],[39.806,-3.6107,1.3695],[39.8007,-3.6071,0.0],[39.7951,-3.6093,2.9094],[39.7985,-3.6063,0.0],[39.8032,-3.6074,1.4905],[39.8088,-3.6115,0.0],[39.8118,-3.6218,0.0],[39.8138,-3.6132,0.9337],[39.8174,-3.609,1.2122],[39.8213,-3.6096,5.3696],[39.8249,-3.6128999999999998,22.2511],[39.8279,-3.6218,0.0],[39.8312,-3.6249,0.0],[39.836,-3.6249,0.0],[39.8382,-3.6274,0.0],[39.8415,-3.6279,26.3837],[39.8432,-3.6329,15.8906],[39.8443,-3.6266,27.6173],[39.8539,-3.6083,18.882],[39.8547,-3.5912,23.0901],[39.8607,-3.5714,20.2672],[39.8513,-3.5518,40.881],[39.8533,-3.5313,41.4907],[39.8559,-3.5239,31.1418],[39.8477,-3.5206,45.5929],[39.8445,-3.5172,46.0033],[39.8507,-3.5008,47.2166],[39.8481,-3.5,44.6154],[39.8487,-3.4977,49.3326],[39.8069,-3.4971,177.7585],[39.8053,-3.5149,209.5104],[39.8013,-3.5285,121.8532],[39.7947,-3.5431,59.1908],[39.7811,-3.5543,19.7416]]]]}
,"properties": {"GID_3": "KEN.14.3.2_1","GID_0": "KEN","country": "Kenya","GID_1": "KEN.14_1","province": "Kilifi","NL_NAME_1": "NA","GID_2": "KEN.14.3_1","county": "KilifiNorth","NL_NAME_2": "NA","city": "Kibarani","VARNAME_3": "NA","NL_NAME_3": "NA","TYPE_3": "Ward","ENGTYPE_3": "Ward","CC_3": "53","HASC_3": "NA","name": "Kibarani.city","area_km2": 102.92795,"hist_schema_id": "Elevation0-9000","hist_area_km2": {"0": 7.68125,"25": 17.88068,"50": 33.66743,"75": 14.34732,"100": 19.82844,"125": 4.21113,"150": 2.17968,"175": 1.77763,"200": 1.22742,"225": 0.12697}}}