{"type": "Feature","bbox": [36.6843,-1.0256,36.8056,-0.9499],"geometry": {"type": "MultiPolygon","coordinates": [[[[36.7268,-0.9499,2188.1248],[36.7152,-0.9581,2216.3845],[36.7106,-0.9557,2248.9204],[36.7096,-0.9573,2253.0769],[36.7131,-0.9599,2217.2554],[36.7016,-0.9687,2251.9595],[36.6946,-0.9708,2250.0767],[36.688,-0.9756,2300.1143],[36.6887,-0.9785,2285.9751],[36.6866,-0.9821,2270.0935],[36.687,-0.9891,2277.3091],[36.6843,-1.0055,2256.7498],[36.6895,-1.0038,2218.562],[36.6928,-1.0049,2205.7876],[36.6946,-1.0022,2231.3723],[36.6978,-1.002,2194.5657],[36.7021,-1.005,2191.0173],[36.7113,-1.0048,2157.4277],[36.7135,-1.007,2139.2173],[36.7195,-1.0069,2132.0312],[36.7224,-1.0087,2115.2964],[36.727,-1.0073,2093.7034],[36.7312,-1.0072,2101.688],[36.7328,-1.009,2082.9937],[36.7353,-1.007,2094.7578],[36.7382,-1.0087,2074.8069],[36.7456,-1.0071,2044.6786],[36.7497,-1.0089,2036.8541],[36.7534,-1.0134,1998.7495],[36.7606,-1.0119,1991.1239],[36.7626,-1.0133,1989.2478],[36.7689,-0.9997,1953.4656],[36.7737,-0.999,1989.2019],[36.7773,-1.0052,1949.53],[36.7777,-1.009,1960.5726],[36.7802,-1.01,1944.5126],[36.7829,-1.008,1943.2681],[36.7858,-1.0126,1925.4711],[36.7875,-1.0124,1931.6301],[36.7873,-1.0144,1928.3453],[36.7886,-1.0139,1925.7357],[36.7904,-1.0163,1909.7446],[36.7903,-1.0185,1924.5349],[36.7958,-1.0191,1884.6011],[36.7963,-1.0225,1905.0863],[36.7998,-1.0231,1883.0796],[36.8006,-1.0219,1882.2607],[36.8014,-1.0239,1883.0796],[36.8054,-1.0256,1873.2365],[36.8056,-1.022,1874.6361],[36.8028,-1.0163,1891.2396],[36.795,-1.0113,1926.0863],[36.7887,-1.0101,1934.1501],[36.7865,-1.0027,1929.6458],[36.7833,-1.0004,1926.1619],[36.7823,-0.9969,1946.489],[36.7783,-0.995,1943.6606],[36.7704,-0.9853,1972.5195],[36.7746,-0.975,2010.8165],[36.7719,-0.9739,2023.8583],[36.773,-0.9718,1998.6071],[36.771,-0.9691,1984.7588],[36.7633,-0.9675,2005.6333],[36.7632,-0.9638,2025.4297],[36.7563,-0.9645,2063.3799],[36.7492,-0.9572,2101.5771],[36.7412,-0.9578,2125.2488],[36.7363,-0.9524,2179.0083],[36.7335,-0.9516,2153.3877],[36.7323,-0.9529,2153.3877],[36.7268,-0.9499,2188.1248]]]]}
,"properties": {"GID_3": "KEN.13.9.5_1","GID_0": "KEN","country": "Kenya","GID_1": "KEN.13_1","province": "Kiambu","NL_NAME_1": "NA","GID_2": "KEN.13.9_1","county": "Lari","NL_NAME_2": "NA","city": "Nyanduma","VARNAME_3": "NA","NL_NAME_3": "NA","TYPE_3": "Ward","ENGTYPE_3": "Ward","CC_3": "608","HASC_3": "NA","name": "Nyanduma.city","area_km2": 51.93772,"hist_schema_id": "Elevation0-9000","hist_area_km2": {"1850": 0.0424,"1875": 0.46637,"1900": 0.72076,"1925": 0.93275,"1950": 1.37793,"1975": 2.26829,"2000": 3.58263,"2025": 4.64259,"2050": 3.90063,"2075": 3.70984,"2100": 4.40941,"2125": 4.96059,"2150": 4.49421,"2175": 5.23618,"2200": 4.34582,"2225": 4.11263,"2250": 2.03511,"2275": 0.67837,"2300": 0.0212}}}