{"type": "Feature","bbox": [36.8731,-1.3285,36.8915,-1.3135],"geometry": {"type": "MultiPolygon","coordinates": [[[[36.8915,-1.326,1638.7],[36.8772,-1.3135,1625.1372],[36.8731,-1.3194,1632.335],[36.8882,-1.3285,1635.9745],[36.8915,-1.326,1638.7]]]]}
,"properties": {"GID_3": "KEN.30.6.2_1","GID_0": "KEN","country": "Kenya","GID_1": "KEN.30_1","province": "Nairobi","NL_NAME_1": "NA","GID_2": "KEN.30.6_1","county": "EmbakasiSouth","NL_NAME_2": "NA","city": "KwaNjenga","VARNAME_3": "NA","NL_NAME_3": "NA","TYPE_3": "Ward","ENGTYPE_3": "Ward","CC_3": "1407","HASC_3": "NA","name": "Kwa_Njenga.city","area_km2": 1.2505976,"hist_schema_id": "Elevation0-9000","hist_area_km2": {"1625": 1.187008,"1650": 0.0635896}}}