{"type": "Feature","bbox": [37.0226,-0.8396,37.1708,-0.7413],"geometry": {"type": "MultiPolygon","coordinates": [[[[37.1365,-0.8268,1371.1132],[37.1537,-0.8383,1349.7454],[37.1601,-0.8396,1327.3726],[37.1614,-0.8378,1329.8881],[37.1609,-0.8343,1335.9517],[37.1647,-0.8337,1328.9159],[37.1697,-0.8246,1302.8364],[37.1703,-0.8115,1293.2026],[37.1682,-0.8081,1293.1188],[37.1708,-0.8051,1302.0646],[37.1646,-0.7926,1308.0001],[37.1655,-0.7863,1291.6875],[37.1642,-0.7818,1312.7064],[37.1667,-0.7775,1220.2456],[37.1641,-0.7703,1310.8173],[37.1593,-0.7657,1299.1992],[37.1634,-0.7542,1292.2244],[37.1672,-0.7559,1270.6357],[37.1657,-0.7484,1214.6782],[37.1668,-0.7436,1296.6208],[37.1654,-0.7426,1279.4102],[37.1587,-0.7437,1257.5286],[37.1543,-0.7413,1243.2419],[37.1503,-0.7442,1308.5723],[37.1537,-0.7592,1290.314],[37.1506,-0.7649,1303.9216],[37.1425,-0.7719,1292.7966],[37.135,-0.7814,1366.2258],[37.1339,-0.7888,1361.7413],[37.1275,-0.7889,1359.6968],[37.1269,-0.7856,1358.0602],[37.0848,-0.7986,1395.9075],[37.0808,-0.8013,1433.7242],[37.0699,-0.8037,1452.0195],[37.0636,-0.7988,1504.8551],[37.0576,-0.7967,1513.6846],[37.0542,-0.7972,1514.3735],[37.0517,-0.7954,1504.1041],[37.0491,-0.798,1514.395],[37.0439,-0.7963,1576.8774],[37.0376,-0.7978,1626.218],[37.0305,-0.7955,1591.932],[37.0291,-0.7959,1597.2428],[37.0285,-0.7987,1623.2358],[37.0226,-0.7995,1660.2007],[37.0347,-0.8037,1564.1836],[37.0426,-0.8106,1595.5874],[37.0459,-0.8106,1573.9924],[37.0508,-0.8147,1566.2738],[37.055,-0.8133,1513.2474],[37.0558,-0.8146,1552.7529],[37.0628,-0.8152,1497.9578],[37.0591,-0.8207,1489.8667],[37.0727,-0.8192,1480.0391],[37.0935,-0.8247,1467.1525],[37.1023,-0.8238,1402.6741],[37.1097,-0.8172,1395.916],[37.1128,-0.8163,1387.0544],[37.1247,-0.8204,1383.4478],[37.1368,-0.8205,1367.7517],[37.1365,-0.8268,1371.1132]]]]}
,"properties": {"GID_3": "KEN.29.6.1_1","GID_0": "KEN","country": "Kenya","GID_1": "KEN.29_1","province": "Murang'a","NL_NAME_1": "NA","GID_2": "KEN.29.6_1","county": "Maragwa","NL_NAME_2": "NA","city": "Ichagaki","VARNAME_3": "NA","NL_NAME_3": "NA","TYPE_3": "Ward","ENGTYPE_3": "Ward","CC_3": "537","HASC_3": "NA","name": "Ichagaki.city","area_km2": 58.10956,"hist_schema_id": "Elevation0-9000","hist_area_km2": {"1225": 0.67841,"1250": 0.61481,"1275": 1.46282,"1300": 7.27167,"1325": 7.22926,"1350": 8.41646,"1375": 13.65285,"1400": 4.07042,"1425": 3.24361,"1450": 2.79841,"1475": 2.41681,"1500": 1.90801,"1525": 1.29321,"1550": 0.9328,"1575": 0.7632,"1600": 0.7844,"1625": 0.5088,"1650": 0.0636}}}