{"type":"Feature","properties":{"GID_3":"KEN.42.2.2_1","GID_0":"KEN","country":"Kenya","GID_1":"KEN.42_1","province":"TransNzoia","NL_NAME_1":"NA","GID_2":"KEN.42.2_1","county":"Endebess","NL_NAME_2":"NA","city":"Endebess","VARNAME_3":"NA","NL_NAME_3":"NA","TYPE_3":"Ward","ENGTYPE_3":"Ward","CC_3":"681","HASC_3":"NA","name":"Endebess.city"},
"geometry":{"type": "MultiPolygon","coordinates": [[[[34.6765,1.0286,2922.2673],[34.6822,1.0271,2863.0776],[34.6919,1.0289,2714.6768],[34.6993,1.0242,2662.9666],[34.7025,1.0249,2634.2444],[34.7049,1.0233,2618.1501],[34.7071,1.0256,2600.8525],[34.7106,1.0234,2595.7493],[34.7135,1.0238,2541.3198],[34.7149,1.021,2478.3135],[34.7231,1.0199,2411.3208],[34.7272,1.0216,2575.5488],[34.7267,1.0382,2623.9863],[34.7298,1.0383,2598.2007],[34.7363,1.036,2541.8262],[34.7406,1.0328,2543.9773],[34.7424,1.0292,2489.7742],[34.7457,1.0296,2485.0581],[34.7499,1.0263,2466.0771],[34.7505,1.0231,2403.792],[34.7533,1.022,2353.2205],[34.7563,1.0221,2322.9133],[34.7582,1.0204,2316.4421],[34.7639,1.0234,2324.855],[34.7716,1.0204,2241.5676],[34.774,1.021,2230.6089],[34.7761,1.0189,2212.8835],[34.7816,1.0191,2199.4934],[34.7873,1.0333,2168.2852],[34.7869,1.0355,2156.0598],[34.8137,1.0292,1983.0199],[34.8115,1.0229,2057.0078],[34.8136,1.0224,2056.5083],[34.8152,1.0253,2046.2931],[34.8306,1.0123,1960.6644],[34.8387,1.018,1915.9751],[34.9054,1.0393,1841.6265],[34.9036,1.0376,1836.3861],[34.9112,1.028,1818.7798],[34.9195,1.0362,1863.1737],[34.9211,1.0307,1859.0552],[34.9375,1.0479,1847.1117],[34.9348,1.0519,1855.038],[34.9372,1.0548,1854.9568],[34.9119,1.0628,1848.0112],[34.906,1.1171,1833.4274],[34.8983,1.1087,1838.7112],[34.8927,1.1059,1843.0256],[34.8896,1.1063,1843.6387],[34.8838,1.0994,1847.5781],[34.8762,1.0976,1850.2725],[34.8756,1.0949,1852.9723],[34.8727,1.094,1854.3953],[34.8722,1.0924,1855.3545],[34.8616,1.0888,1863.6263],[34.8611,1.09,1865.0692],[34.8539,1.0899,1873.2061],[34.8486,1.0874,1883.0322],[34.8482,1.0851,1873.9365],[34.8466,1.0854,1876.1069],[34.8435,1.082,1878.0989],[34.8404,1.0822,1887.7844],[34.8368,1.0796,1891.7972],[34.8331,1.081,1899.7085],[34.8265,1.0803,1928.6703],[34.8201,1.0778,1956.592],[34.8112,1.0817,2004.6222],[34.8056,1.0812,1972.962],[34.8034,1.083,1966.569],[34.7989,1.0802,1994.6328],[34.7874,1.0816,2088.9011],[34.7844,1.0805,2099.6951],[34.7737,1.0852,2137.6582],[34.7695,1.0838,2170.7876],[34.7686,1.0819,2189.5879],[34.7664,1.0822,2218.0308],[34.7508,1.0886,2388.6182],[34.7462,1.0919,2418.0808],[34.7434,1.0901,2463.8716],[34.7387,1.0907,2489.5356],[34.7302,1.0881,2579.1255],[34.7212,1.0822,2634.291],[34.7103,1.0819,2775.4116],[34.7088,1.0795,2749.3889],[34.7021,1.0808,2801.0769],[34.6835,1.0893,2898.1284],[34.6768,1.089,2948.0049],[34.6718,1.0863,3026.593],[34.6706,1.0833,3055.834],[34.6665,1.0871,3100.8823],[34.6616,1.0876,3142.2302],[34.6508,1.0606,3093.4302],[34.6562,1.0568,3081.1782],[34.6765,1.0286,2922.2673]]]]}}