{"type":"Feature","properties":{"GID_3":"KEN.1.2.5_1","GID_0":"KEN","country":"Kenya","GID_1":"KEN.1_1","province":"Baringo","NL_NAME_1":"NA","GID_2":"KEN.1.2_1","county":"BaringoCentral","NL_NAME_2":"NA","city":"Tenges","VARNAME_3":"NA","NL_NAME_3":"NA","TYPE_3":"Ward","ENGTYPE_3":"Ward","CC_3":"795","HASC_3":"NA","name":"Tenges.city"},
"geometry":{"type": "MultiPolygon","coordinates": [[[[35.7208,0.3601,1339.6863],[35.7204,0.3573,1328.9854],[35.7226,0.3552,1300.1342],[35.7186,0.3496,1344.0415],[35.7231,0.3439,1316.5869],[35.7198,0.3422,1299.2606],[35.7192,0.3356,1318.6359],[35.7167,0.3352,1331.2729],[35.7165,0.328,1332.7933],[35.7179,0.327,1334.8632],[35.7124,0.3219,1376.8026],[35.7135,0.3177,1353.0577],[35.7117,0.3165,1360.5336],[35.7129,0.3145,1359.3076],[35.7144,0.3152,1351.9303],[35.7126,0.3106,1362.7709],[35.7155,0.3072,1398.2161],[35.7156,0.304,1384.1169],[35.714,0.3039,1370.8879],[35.7151,0.3021,1377.6299],[35.7136,0.301,1380.6562],[35.7152,0.2911,1405.6251],[35.7145,0.287,1422.4236],[35.7127,0.2859,1430.2311],[35.7145,0.2813,1430.5364],[35.7113,0.2776,1457.701],[35.7136,0.2758,1441.9124],[35.7093,0.2729,1487.5205],[35.711,0.2701,1497.9148],[35.7091,0.2671,1516.29],[35.7098,0.2643,1487.3306],[35.7081,0.2644,1527.954],[35.7106,0.2625,1497.0601],[35.7091,0.2613,1482.647],[35.7131,0.2562,1506.4172],[35.7148,0.2559,1543.359],[35.7169,0.2464,1530.1177],[35.7183,0.2461,1553.1178],[35.7208,0.2401,1562.9561],[35.7224,0.2171,1705.2604],[35.7404,0.2276,1959.741],[35.7512,0.2208,1992.3857],[35.7552,0.2223,1929.9199],[35.7573,0.2254,1871.7969],[35.7777,0.2289,2208.855],[35.7767,0.233,2001.9481],[35.7818,0.2336,2212.2917],[35.784,0.2386,2144.5642],[35.7839,0.248,2128.4365],[35.7775,0.2485,1901.8225],[35.7772,0.2515,1876.1832],[35.7795,0.2673,1819.0662],[35.7764,0.2764,1763.0964],[35.7767,0.2799,1738.6172],[35.7781,0.2804,1708.0262],[35.7764,0.2897,1699.1162],[35.7793,0.2948,1682.8425],[35.7775,0.3008,1670.9639],[35.7783,0.3031,1691.5698],[35.7832,0.3054,1712.1414],[35.7851,0.3034,1793.1846],[35.7964,0.3021,1967.2144],[35.8002,0.2999,1903.5637],[35.8158,0.3009,2009.6484],[35.8123,0.3107,1962.0505],[35.8132,0.3164,1866.2253],[35.8054,0.3164,1922.1404],[35.8037,0.3248,1995.5179],[35.807,0.3324,1874.8638],[35.7975,0.3322,2081.8286],[35.7977,0.3395,2110.8901],[35.781,0.3444,1743.1228],[35.7776,0.3425,1708.1205],[35.7697,0.3438,1645.4601],[35.7646,0.3417,1531.0553],[35.7614,0.3453,1532.5841],[35.7534,0.3473,1447.7209],[35.749,0.3553,1477.8861],[35.7425,0.3553,1448.4646],[35.7411,0.3578,1380.9023],[35.7364,0.3603,1349.249],[35.7326,0.3589,1352.1328],[35.7291,0.3603,1466.9475],[35.7282,0.3583,1393.9753],[35.7208,0.3601,1339.6863]]]]}}