{"type": "Feature","bbox": [35.0544,1.0299,35.1587,1.1382],"geometry": {"type": "MultiPolygon","coordinates": [[[[35.1201,1.0361,1909.2649],[35.1431,1.0345,1888.6771],[35.1587,1.0406,1843.3209],[35.1568,1.0411,1843.4535],[35.1532,1.0482,1843.4517],[35.1515,1.0482,1843.4517],[35.1478,1.0526,1858.6573],[35.1298,1.0584,1868.9685],[35.1264,1.0619,1842.5829],[35.1241,1.0683,1856.2295],[35.1177,1.0725,1852.2063],[35.1176,1.0751,1853.41],[35.1146,1.0783,1855.6975],[35.1146,1.0813,1871.7289],[35.1032,1.0997,1861.0205],[35.1023,1.1061,1866.4749],[35.105,1.1151,1862.4006],[35.0993,1.1382,1869.9882],[35.0894,1.1275,1901.5802],[35.0806,1.1222,1898.3809],[35.0737,1.1206,1903.1233],[35.0692,1.1138,1915.9205],[35.0692,1.1098,1926.1421],[35.0723,1.1018,1926.1018],[35.0769,1.0949,1939.5658],[35.0701,1.0843,1916.0326],[35.0642,1.0801,1914.0164],[35.0622,1.0737,1876.1526],[35.0544,1.0637,1816.3008],[35.0576,1.0593,1815.1052],[35.0561,1.0522,1815.7838],[35.058,1.0457,1805.7975],[35.0638,1.0407,1824.4883],[35.0658,1.0406,1829.6411],[35.0681,1.0372,1821.0083],[35.0694,1.0299,1820.8167],[35.0832,1.0336,1841.5848],[35.1153,1.0369,1912.5171],[35.1201,1.0361,1909.2649]]]]}
,"properties": {"GID_3": "KEN.42.1.7_1","GID_0": "KEN","country": "Kenya","GID_1": "KEN.42_1","province": "TransNzoia","NL_NAME_1": "NA","GID_2": "KEN.42.1_1","county": "Cherangany","NL_NAME_2": "NA","city": "Sitatunga","VARNAME_3": "NA","NL_NAME_3": "NA","TYPE_3": "Ward","ENGTYPE_3": "Ward","CC_3": "700","HASC_3": "NA","name": "Sitatunga.city","area_km2": 62.55679,"hist_schema_id": "Elevation0-9000","hist_area_km2": {"1800": 0.63596,"1825": 3.47658,"1850": 13.05832,"1875": 18.5275,"1900": 17.36155,"1925": 8.41577,"1950": 1.08111}}}