{"type": "Feature","bbox": [35.5229,-0.1989,36.4901,1.6607],"geometry": {"type": "MultiPolygon","coordinates": [[[[35.7616,-0.1904,2308.5127],[35.772,-0.1882,2249.3992],[35.7904,-0.157,2234.0625],[35.7905,-0.1061,2104.5977],[35.7958,-0.105,2034.9075],[35.7989,-0.0979,2014.2982],[35.8029,-0.0938,2020.299],[35.8071,-0.0932,1995.9213],[35.8186,-0.1083,1960.8217],[35.8193,-0.1116,1945.0251],[35.8221,-0.1124,1942.5667],[35.8464,-0.078,2010.5803],[35.8773,-0.0297,1696.6687],[35.8944,-0.0456,1711.5288],[35.9004,-0.0426,1709.8252],[35.9171,-0.0763,1689.6223],[35.923,-0.0722,1676.6517],[35.9289,-0.071,1659.7412],[35.9281,-0.0645,1659.9066],[35.9325,-0.0614,1653.5099],[35.935,-0.0617,1649.0315],[35.938,-0.0568,1636.2769],[35.9373,-0.0538,1639.1748],[35.9497,-0.0457,1613.2931],[35.9551,-0.0315,1596.8173],[35.9608,-0.0254,1578.8616],[35.9603,-0.0194,1579.6877],[35.9638,-0.0174,1574.3887],[35.971,-0.008,1556.475],[35.9742,0.0031,1552.7122],[35.9736,0.0061,1550.2833],[35.9768,0.0116,1546.9084],[35.9761,0.0127,1546.3351],[35.978,0.014,1545.0447],[35.9785,0.021,1542.2212],[35.976,0.0241,1540.8331],[35.9764,0.0266,1540.5364],[35.9703,0.0301,1537.9667],[35.9302,0.075,1618.0312],[35.9406,0.101,1581.1661],[35.9621,0.092,1503.2872],[35.9607,0.0904,1507.7314],[35.9614,0.0879,1505.5181],[35.9664,0.0832,1522.9747],[35.9634,0.0809,1512.9292],[35.9646,0.08,1513.9006],[35.9639,0.077,1518.0344],[35.9666,0.0742,1516.1791],[35.9635,0.0706,1519.5698],[35.9657,0.0621,1535.3933],[36.0,0.0656,1582.931],[36.0069,0.036,1598.1011],[36.0366,0.0261,1650.4897],[36.042,0.0257,1664.6451],[36.0539,0.009,1722.8966],[36.0936,-0.0059,1665.2434],[36.1136,0.0109,1605.6512],[36.1063,0.0664,1536.6001],[36.128,0.0645,1531.5659],[36.1348,0.1137,1552.8859],[36.1402,0.1324,1577.8649],[36.1483,0.1907,1680.6036],[36.1984,0.2049,1581.9346],[36.1999,0.2067,1528.1185],[36.1984,0.2101,1561.9236],[36.1984,0.2205,1553.9711],[36.1972,0.2218,1553.9711],[36.1981,0.2234,1558.9198],[36.1849,0.2275,1607.428],[36.1847,0.2298,1577.1887],[36.1824,0.2295,1512.2286],[36.1797,0.2341,1475.7905],[36.2026,0.24,1648.3319],[36.2361,0.215,1954.3856],[36.2545,0.1879,1913.9089],[36.265,0.1908,2238.895],[36.2674,0.1964,2300.564],[36.2838,0.207,2407.9937],[36.2886,0.2118,2315.9375],[36.2923,0.2176,2215.9126],[36.2912,0.2215,2231.3823],[36.2964,0.234,2110.3293],[36.2964,0.2423,2073.3525],[36.2918,0.2585,2072.1558],[36.279,0.2608,2046.9258],[36.2818,0.2714,2013.7196],[36.2796,0.2784,2005.2473],[36.265,0.282,2032.6141],[36.2598,0.2954,2009.1249],[36.2499,0.3038,2017.949],[36.24,0.3194,2097.5522],[36.2257,0.3249,2137.2104],[36.231,0.34,2100.9031],[36.2477,0.347,2048.0928],[36.2445,0.3331,2102.6431],[36.2492,0.3354,2096.2832],[36.2614,0.3471,1925.9319],[36.2601,0.3497,1966.4475],[36.2607,0.3683,1905.9935],[36.2588,0.3776,1773.8105],[36.2598,0.3802,1777.3669],[36.2581,0.3804,1805.5364],[36.2576,0.3833,1781.6954],[36.2274,0.4026,1780.499],[36.2295,0.4258,1803.6372],[36.2941,0.5704,1412.8572],[36.2779,0.637,1289.1261],[36.2891,0.6507,1672.9731],[36.3474,0.666,1875.541],[36.4047,0.7229,1895.8439],[36.469,0.8264,1844.0464],[36.4754,0.8431,1685.702],[36.4901,0.8523,1631.082],[36.4883,0.855,1622.4404],[36.4817,0.8573,1610.4189],[36.4789,0.8611,1608.5311],[36.4716,0.8649,1594.4644],[36.4706,0.868,1595.5166],[36.4645,0.8697,1584.4128],[36.4625,0.8735,1587.058],[36.4563,0.8765,1586.3497],[36.4457,0.8759,1593.8206],[36.4297,0.889,1572.3779],[36.4235,0.8977,1542.739],[36.4246,0.9023,1571.1248],[36.4191,0.9065,1572.9777],[36.4174,0.9073,1512.5952],[36.4162,0.9055,1469.4248],[36.4109,0.9041,1449.5576],[36.4065,0.9056,1451.2202],[36.4035,0.9048,1450.4456],[36.3955,0.9102,1503.6547],[36.3961,0.913,1488.6696],[36.3939,0.914,1324.2788],[36.3952,0.9156,1350.7927],[36.3929,0.9172,1280.5997],[36.3939,0.9248,1490.9111],[36.388,0.931,1313.0151],[36.388,0.9451,1232.6624],[36.3906,0.9462,1179.4241],[36.3889,0.9494,1210.6624],[36.3843,0.9515,1134.3143],[36.3842,0.9551,1204.6245],[36.3787,0.9554,1178.6868],[36.3753,0.9572,1305.208],[36.3699,0.9559,1213.7139],[36.3654,0.959,1083.8027],[36.3638,0.9642,1144.3866],[36.3515,0.9667,1064.4705],[36.3477,0.9752,1049.9366],[36.3469,0.9913,1035.3378],[36.3426,0.9937,1039.5638],[36.3422,0.9983,1027.6199],[36.3173,0.9955,1187.6252],[36.1732,1.1752,1435.3231],[36.0973,1.1732,729.1472],[36.0961,1.171,728.9161],[35.7855,1.6559,816.5282],[35.7865,1.6583,817.61],[35.7811,1.6607,813.9989],[35.7793,1.6556,824.0347],[35.7817,1.6531,824.0797],[35.7775,1.649,837.7333],[35.7775,1.6453,827.7308],[35.7802,1.6432,827.4017],[35.7812,1.6375,862.6423],[35.7855,1.6372,869.9114],[35.7905,1.6313,848.3789],[35.7871,1.6286,827.1529],[35.7809,1.629,839.5063],[35.7802,1.6272,847.4263],[35.7806,1.6208,832.9485],[35.7841,1.6175,831.1504],[35.7845,1.6145,833.5262],[35.7867,1.6135,838.2604],[35.7833,1.6096,836.9404],[35.7791,1.6088,842.5287],[35.7818,1.6052,840.4413],[35.7805,1.6004,844.9136],[35.7824,1.5973,840.4449],[35.7791,1.5931,844.375],[35.7841,1.5841,850.0621],[35.7813,1.584,846.1246],[35.7797,1.5822,847.6797],[35.7798,1.5757,847.1732],[35.7755,1.5758,855.1224],[35.776,1.5658,855.4005],[35.7739,1.5568,869.0745],[35.7706,1.5543,880.9154],[35.7683,1.5471,876.1891],[35.7693,1.5386,858.7098],[35.7635,1.5367,881.1041],[35.7623,1.5335,891.8745],[35.7641,1.5315,872.1558],[35.7608,1.5266,873.4669],[35.7613,1.5228,871.5952],[35.7561,1.5211,889.0126],[35.7539,1.5157,938.1137],[35.751,1.5142,885.1404],[35.7526,1.5111,875.3452],[35.7516,1.5098,879.9579],[35.7425,1.5088,899.0597],[35.7416,1.5028,893.3746],[35.7391,1.502,896.7695],[35.7317,1.4922,892.5724],[35.7289,1.4914,896.8184],[35.7302,1.486,888.2234],[35.7269,1.4848,890.3895],[35.7247,1.4796,892.0857],[35.7195,1.4766,891.8107],[35.7193,1.4727,892.7887],[35.7232,1.4664,886.1136],[35.7233,1.4625,885.5333],[35.7206,1.4611,889.2313],[35.7203,1.4555,888.6519],[35.7128,1.4519,897.1224],[35.7122,1.4465,890.709],[35.7064,1.442,903.0413],[35.7086,1.4397,893.2101],[35.709,1.4356,890.9725],[35.7057,1.4326,896.751],[35.7082,1.4255,892.374],[35.7065,1.424,892.7402],[35.7067,1.4207,894.0244],[35.7116,1.417,899.3558],[35.7072,1.4138,894.1133],[35.7067,1.4102,896.2332],[35.7103,1.4091,900.8746],[35.7119,1.4063,894.6226],[35.7035,1.4056,899.4049],[35.7029,1.3999,896.7762],[35.6991,1.3941,903.1233],[35.6994,1.3918,904.3346],[35.7024,1.3916,898.9289],[35.7027,1.3899,901.7338],[35.6955,1.3815,911.0125],[35.6957,1.3791,910.142],[35.6933,1.3769,909.0445],[35.6947,1.372,901.4475],[35.6928,1.3732,903.7418],[35.6909,1.3718,905.2115],[35.6919,1.3677,904.0194],[35.6878,1.3626,907.6744],[35.691,1.3571,904.3477],[35.6877,1.3514,911.7729],[35.6891,1.349,907.458],[35.691,1.3496,905.3813],[35.6924,1.348,905.9172],[35.6888,1.3458,906.4067],[35.696,1.3432,909.0754],[35.695,1.3392,910.9883],[35.6982,1.3353,912.9799],[35.6964,1.3333,912.1919],[35.6993,1.3336,911.8139],[35.7002,1.3321,911.8139],[35.6971,1.3281,910.7264],[35.6981,1.3256,911.8419],[35.6969,1.3245,912.7504],[35.6982,1.318,914.7626],[35.6974,1.3111,919.6799],[35.6947,1.3099,917.4985],[35.6951,1.3085,920.5484],[35.6977,1.3099,917.5239],[35.6987,1.3089,917.5239],[35.6942,1.3008,919.92],[35.6975,1.3002,918.0813],[35.6948,1.2926,918.5524],[35.6953,1.2884,924.0665],[35.698,1.2889,918.554],[35.6972,1.2829,920.5363],[35.7014,1.2817,923.4113],[35.7024,1.276,924.2938],[35.7062,1.2775,930.213],[35.7071,1.2762,931.2724],[35.7059,1.2689,923.9602],[35.7031,1.2663,925.3425],[35.7038,1.2641,927.9594],[35.7018,1.2645,933.6597],[35.6997,1.2626,933.3107],[35.7018,1.2574,927.5728],[35.7004,1.256,926.2082],[35.7008,1.2518,930.0128],[35.7038,1.2515,926.968],[35.7011,1.2497,928.0529],[35.7025,1.2493,928.0529],[35.7029,1.2462,928.1534],[35.6996,1.2437,935.0002],[35.7018,1.2411,930.1661],[35.6996,1.24,931.8378],[35.7009,1.237,935.7211],[35.7037,1.2363,932.8249],[35.7042,1.2311,936.477],[35.6968,1.219,936.9739],[35.6983,1.2093,937.2796],[35.6965,1.2084,939.4728],[35.6979,1.205,940.1918],[35.6999,1.2067,941.1891],[35.7031,1.2035,941.1716],[35.7023,1.2009,942.5725],[35.7043,1.1955,941.8914],[35.7027,1.1937,945.2709],[35.7038,1.1914,943.1376],[35.7029,1.1891,940.5021],[35.7045,1.1865,943.3976],[35.7034,1.1834,942.3692],[35.7066,1.1823,942.0302],[35.7062,1.1803,943.087],[35.7043,1.1801,944.5311],[35.7054,1.174,946.024],[35.7038,1.1679,950.8023],[35.7054,1.1637,947.3245],[35.7028,1.1621,950.5992],[35.7059,1.1597,947.3658],[35.7037,1.1568,944.8322],[35.7098,1.1541,948.6418],[35.7053,1.1511,951.6335],[35.7055,1.138,949.603],[35.7007,1.1331,956.989],[35.7022,1.1278,952.8989],[35.6972,1.1163,958.1826],[35.6989,1.1092,959.1655],[35.6953,1.1076,959.3015],[35.6928,1.1087,961.7702],[35.6913,1.1042,963.4655],[35.686,1.1026,969.9694],[35.6865,1.0992,962.0426],[35.6839,1.1006,968.0829],[35.684,1.0892,960.252],[35.6798,1.0893,969.1702],[35.6797,1.0866,964.6908],[35.6778,1.0872,971.783],[35.6763,1.0765,963.4237],[35.6735,1.0743,968.3508],[35.6741,1.0699,966.9447],[35.6756,1.0688,966.9447],[35.6743,1.0671,966.1722],[35.6753,1.0605,969.0733],[35.6713,1.0563,973.5289],[35.6722,1.0534,970.8975],[35.668,1.049,975.4883],[35.6715,1.0469,977.3418],[35.6715,1.0454,974.9535],[35.6696,1.0438,973.8553],[35.6671,1.0444,974.3883],[35.667,1.04,973.4032],[35.6643,1.0381,977.9758],[35.6643,1.0353,974.2579],[35.6602,1.0364,981.9628],[35.6576,1.033,985.6495],[35.6554,1.0327,986.3096],[35.6545,1.0286,980.8063],[35.6516,1.0304,985.5716],[35.6502,1.0292,987.1174],[35.6478,1.03,986.3815],[35.6423,1.0251,998.099],[35.6444,1.02,980.9908],[35.6428,1.0192,986.436],[35.6407,1.0113,998.0853],[35.6392,1.011,998.0853],[35.6394,1.0086,994.2798],[35.6365,1.009,1004.613],[35.6374,1.0048,987.3113],[35.633,0.9982,999.1088],[35.6355,0.9929,985.8917],[35.6374,0.9932,1054.701],[35.6397,0.9864,989.0256],[35.6389,0.9839,986.0195],[35.6352,0.9835,996.7621],[35.6362,0.9799,1003.2106],[35.6348,0.9766,1005.5549],[35.6383,0.9729,998.3639],[35.6377,0.9702,1018.7045],[35.6348,0.9702,997.6845],[35.6367,0.968,1001.718],[35.6367,0.9645,1007.5138],[35.6296,0.9577,1010.3268],[35.6319,0.9513,995.7582],[35.6315,0.9423,998.592],[35.6342,0.9403,1014.1213],[35.6339,0.9374,1010.3712],[35.636,0.9341,1006.6671],[35.6344,0.9325,1001.2255],[35.6347,0.9277,1008.2281],[35.637,0.9223,1002.9865],[35.634,0.9224,1012.7092],[35.6346,0.9179,1018.8777],[35.6331,0.9154,1016.7766],[35.6299,0.9132,1017.7731],[35.6259,0.9138,1028.981],[35.6277,0.9018,1007.4434],[35.6256,0.8988,1019.3362],[35.6275,0.8971,1010.0422],[35.6221,0.8918,1038.3514],[35.6243,0.8855,1015.205],[35.6264,0.885,1019.6398],[35.6265,0.8804,1009.4186],[35.6243,0.8789,1024.9241],[35.6235,0.8761,1026.0884],[35.6247,0.8744,1019.1483],[35.623,0.8731,1025.3258],[35.6255,0.8589,1012.0165],[35.6313,0.8547,1031.4615],[35.6361,0.8536,1016.0951],[35.6356,0.8492,1017.0805],[35.6435,0.8452,1023.578],[35.6392,0.8404,1020.1111],[35.6363,0.8407,1021.85],[35.6367,0.8394,1022.8322],[35.6396,0.8394,1020.1111],[35.6381,0.8375,1021.0778],[35.6397,0.8338,1021.6593],[35.639,0.8315,1021.8292],[35.6372,0.8323,1021.8948],[35.6363,0.8307,1024.1838],[35.6427,0.8275,1019.8564],[35.6428,0.8261,1020.5734],[35.642,0.8212,1024.9999],[35.638,0.8187,1024.6315],[35.6371,0.8157,1024.7722],[35.6339,0.8147,1032.6749],[35.6358,0.8125,1027.4065],[35.6346,0.8095,1028.219],[35.6333,0.8114,1029.4963],[35.6329,0.8089,1031.2477],[35.6349,0.8066,1027.0132],[35.6342,0.8047,1027.6566],[35.6357,0.8052,1027.14],[35.6351,0.8027,1028.7205],[35.6369,0.8027,1028.7205],[35.634,0.7975,1028.5112],[35.637,0.797,1029.1156],[35.6364,0.7937,1029.9684],[35.6379,0.7929,1029.996],[35.6341,0.792,1029.8591],[35.6348,0.7824,1031.4219],[35.6322,0.7781,1035.5817],[35.6309,0.7787,1035.5817],[35.6319,0.7752,1035.2048],[35.6293,0.7738,1038.8511],[35.6293,0.7697,1034.3982],[35.627,0.7672,1036.7661],[35.6291,0.7663,1033.9602],[35.6257,0.76,1035.9954],[35.6268,0.7527,1036.1438],[35.6249,0.7521,1037.1366],[35.6261,0.7512,1037.3068],[35.6246,0.748,1036.7543],[35.6239,0.7488,1037.8925],[35.6224,0.7453,1038.4402],[35.621,0.7456,1038.8364],[35.62,0.7423,1047.006],[35.6204,0.7399,1047.967],[35.6245,0.7392,1038.9087],[35.6227,0.7382,1037.4742],[35.6228,0.7343,1039.5659],[35.6241,0.7331,1040.4561],[35.6268,0.734,1037.9803],[35.6261,0.733,1039.0404],[35.6289,0.7307,1043.3376],[35.6252,0.7298,1040.1987],[35.6281,0.7288,1040.3524],[35.6284,0.727,1042.3591],[35.6309,0.7269,1042.0088],[35.6313,0.7223,1043.2253],[35.6288,0.7214,1040.7024],[35.6346,0.7159,1042.6329],[35.6317,0.7159,1042.1682],[35.6341,0.7129,1044.193],[35.6331,0.7053,1044.9817],[35.6357,0.7067,1045.6187],[35.6363,0.7055,1045.6187],[35.6337,0.7027,1045.8552],[35.6331,0.7038,1044.9817],[35.6306,0.6993,1046.3406],[35.633,0.6978,1048.2986],[35.6325,0.6961,1047.9443],[35.6275,0.6944,1047.9613],[35.6299,0.6907,1049.4269],[35.6275,0.6931,1048.4421],[35.6237,0.6907,1048.7677],[35.6241,0.6848,1050.8893],[35.6266,0.6845,1051.5015],[35.6262,0.6835,1051.0361],[35.6244,0.6827,1052.1406],[35.6232,0.6843,1050.8893],[35.6188,0.6805,1053.3142],[35.6183,0.683,1053.0298],[35.6161,0.6818,1051.9404],[35.6152,0.6833,1051.4467],[35.6153,0.6808,1051.9404],[35.6088,0.6764,1053.1796],[35.6052,0.6785,1056.9535],[35.606,0.6764,1057.8047],[35.6038,0.6734,1059.8278],[35.6051,0.672,1057.1161],[35.6044,0.6689,1056.6125],[35.6049,0.6665,1057.8893],[35.6068,0.6657,1057.3499],[35.6049,0.6613,1058.7761],[35.6081,0.6593,1059.4161],[35.6074,0.6566,1060.0116],[35.609,0.6557,1058.8923],[35.6068,0.6537,1060.5723],[35.6089,0.6519,1060.6101],[35.6071,0.6511,1059.871],[35.6096,0.6504,1062.8243],[35.6068,0.6461,1061.0347],[35.6081,0.6446,1063.7896],[35.606,0.6446,1061.4114],[35.6067,0.6427,1066.3867],[35.6048,0.6435,1067.0474],[35.6053,0.642,1066.3003],[35.6016,0.6403,1072.3027],[35.5998,0.6364,1070.9661],[35.6004,0.6327,1070.0465],[35.5967,0.6293,1077.3787],[35.596,0.6245,1072.2625],[35.5978,0.6207,1070.443],[35.5958,0.6173,1072.0807],[35.5986,0.6115,1072.9536],[35.5974,0.6081,1070.774],[35.6129,0.5965,1076.3604],[35.6112,0.593,1076.8879],[35.614,0.5843,1079.9181],[35.6101,0.5761,1079.8292],[35.6104,0.5737,1080.2871],[35.6081,0.5722,1080.9946],[35.6083,0.5704,1081.7014],[35.6042,0.5659,1082.4481],[35.6038,0.562,1083.9576],[35.6018,0.5606,1085.2249],[35.6056,0.5475,1095.0065],[35.6037,0.5458,1085.8376],[35.6044,0.5441,1089.1583],[35.6023,0.5417,1089.0051],[35.6021,0.5385,1093.9224],[35.6036,0.5351,1089.6923],[35.6086,0.5335,1097.0511],[35.6119,0.529,1096.6858],[35.6141,0.5236,1095.2773],[35.6118,0.5217,1093.2794],[35.6135,0.5193,1096.4397],[35.6136,0.514,1096.296],[35.6212,0.5097,1108.8616],[35.6232,0.5102,1108.6743],[35.6246,0.5076,1111.3104],[35.6286,0.5063,1108.468],[35.631,0.5076,1111.2134],[35.6299,0.4989,1102.5248],[35.6331,0.5002,1110.0859],[35.6338,0.4952,1113.9004],[35.6315,0.4931,1109.9744],[35.6329,0.4918,1115.3973],[35.632,0.4884,1113.7966],[35.6392,0.4809,1122.4724],[35.6401,0.4752,1121.427],[35.6433,0.4737,1125.4146],[35.644,0.4696,1128.2499],[35.648,0.4661,1128.5565],[35.6456,0.4642,1129.2773],[35.6474,0.4592,1124.9935],[35.6454,0.457,1122.5125],[35.6514,0.4538,1154.073],[35.653,0.4509,1159.1027],[35.6549,0.4404,1143.5129],[35.6537,0.4334,1152.7572],[35.6552,0.4287,1154.0177],[35.658,0.4268,1164.0209],[35.6578,0.4241,1162.543],[35.66,0.422,1171.8949],[35.6589,0.4203,1159.0906],[35.661,0.4177,1167.4575],[35.6545,0.4042,1187.1129],[35.6592,0.3997,1188.205],[35.661,0.3939,1206.4689],[35.6601,0.3918,1185.4502],[35.6636,0.3937,1209.988],[35.6644,0.3915,1224.3442],[35.6675,0.3924,1224.9199],[35.6662,0.3901,1224.1254],[35.6674,0.3871,1214.0488],[35.6699,0.3843,1194.011],[35.6726,0.3842,1215.2651],[35.6738,0.3802,1208.7502],[35.6759,0.3821,1216.2772],[35.6797,0.379,1219.9731],[35.6805,0.3756,1227.9941],[35.6816,0.3773,1228.8868],[35.6836,0.3766,1227.5726],[35.684,0.3782,1230.1499],[35.6969,0.3697,1245.3358],[35.6982,0.3706,1252.1649],[35.6964,0.3739,1250.9966],[35.6985,0.3748,1256.7102],[35.7003,0.37,1254.5811],[35.7042,0.3677,1263.306],[35.7067,0.3704,1270.7567],[35.71,0.3624,1266.1649],[35.7129,0.3616,1268.9243],[35.7144,0.3631,1271.1927],[35.718,0.3607,1309.712],[35.7201,0.3617,1326.6057],[35.7204,0.3573,1328.9854],[35.7227,0.3556,1326.5706],[35.7186,0.3496,1344.0415],[35.7231,0.3439,1316.5869],[35.7198,0.3422,1299.2606],[35.7192,0.3356,1318.6359],[35.7167,0.3352,1331.2729],[35.7165,0.328,1332.7933],[35.7179,0.327,1334.8632],[35.7149,0.3253,1372.5746],[35.7122,0.321,1376.8026],[35.7135,0.3177,1353.0577],[35.7117,0.3165,1360.5336],[35.7129,0.3145,1359.3076],[35.7144,0.3152,1351.9303],[35.7126,0.3106,1362.7709],[35.7155,0.3072,1398.2161],[35.7156,0.304,1384.1169],[35.714,0.3039,1370.8879],[35.7151,0.3021,1377.6299],[35.7136,0.301,1380.6562],[35.7152,0.2911,1405.6251],[35.7145,0.287,1422.4236],[35.7127,0.2859,1430.2311],[35.7145,0.2813,1430.5364],[35.7113,0.2776,1457.701],[35.7136,0.2758,1441.9124],[35.7093,0.2729,1487.5205],[35.711,0.2701,1497.9148],[35.7091,0.2671,1516.29],[35.7098,0.2643,1487.3306],[35.7081,0.2644,1527.954],[35.7106,0.2625,1497.0601],[35.7091,0.2613,1482.647],[35.7131,0.2562,1506.4172],[35.7148,0.2559,1543.359],[35.7169,0.2464,1530.1177],[35.7183,0.2461,1553.1178],[35.7208,0.2401,1562.9561],[35.7204,0.2315,1607.2906],[35.7227,0.2252,1615.884],[35.7224,0.2173,1705.2604],[35.7177,0.2153,1870.4873],[35.7164,0.211,1847.8799],[35.7128,0.2111,1989.4353],[35.7056,0.2078,2267.936],[35.701,0.199,2200.5601],[35.6927,0.1916,2473.877],[35.6914,0.192,2355.4377],[35.6953,0.1827,2564.6519],[35.6692,0.1745,2652.9902],[35.5881,0.1745,2598.7744],[35.5907,0.1532,2554.3577],[35.5752,0.1193,2588.3716],[35.5735,0.0707,2713.2368],[35.5866,0.0378,2718.0825],[35.5229,0.0199,2831.2285],[35.5431,-0.0023,2754.979],[35.571,-0.0015,2630.9897],[35.5724,-0.0033,2643.0576],[35.5839,-0.0013,2692.8657],[35.6113,-0.0264,2557.9736],[35.6328,-0.0294,2542.6062],[35.6401,-0.0446,2522.1353],[35.6365,-0.0485,2500.8621],[35.6412,-0.0544,2506.2927],[35.6476,-0.0528,2450.0269],[35.6579,-0.0456,2421.1057],[35.6596,-0.0483,2423.26],[35.6671,-0.0437,2400.7163],[35.6523,-0.0724,2491.1917],[35.666,-0.0686,2481.5674],[35.6889,-0.0684,2501.3677],[35.6903,-0.0787,2504.1074],[35.6887,-0.0869,2510.0869],[35.6934,-0.103,2640.6987],[35.7066,-0.1161,2756.7104],[35.7058,-0.1183,2740.0105],[35.7137,-0.1262,2779.6606],[35.7298,-0.1513,2692.1636],[35.7228,-0.1673,2576.6279],[35.7227,-0.194,2469.262],[35.7243,-0.1989,2482.8264],[35.7616,-0.1904,2308.5127]]],
[[[35.6725,1.0732,966.9745],[35.6731,1.0741,968.3508],[35.6725,1.0744,968.3508],[35.6723,1.073,966.9745],[35.6725,1.0732,966.9745]]]]}
,"properties": {"GID_1": "KEN.1_1","GID_0": "KEN","country": "Kenya","province": "Baringo","VARNAME_1": "NA","NL_NAME_1": "NA","TYPE_1": "County","ENGTYPE_1": "County","CC_1": "30","HASC_1": "KE.BA","ISO_1": "KE-01","name": "Baringo.province","area_km2": 10889.845,"hist_schema_id": "Elevation0-9000","hist_area_km2": {"725": 1.802,"750": 14.436,"775": 80.045,"800": 81.572,"825": 77.226,"850": 139.869,"875": 229.052,"900": 197.609,"925": 210.177,"950": 236.739,"975": 602.031,"1000": 544.816,"1025": 363.824,"1050": 389.433,"1075": 376.864,"1100": 341.208,"1125": 340.872,"1150": 322.365,"1175": 316.366,"1200": 284.991,"1225": 261.079,"1250": 253.575,"1275": 227.158,"1300": 228.261,"1325": 226.461,"1350": 212.089,"1375": 199.051,"1400": 180.394,"1425": 168.013,"1450": 161.886,"1475": 191.719,"1500": 177.494,"1525": 173.975,"1550": 174.59,"1575": 225.879,"1600": 187.291,"1625": 170.796,"1650": 167.893,"1675": 152.819,"1700": 122.882,"1725": 98.521,"1750": 90.38,"1775": 80.5,"1800": 69.879,"1825": 64.133,"1850": 62.459,"1875": 58.134,"1900": 55.166,"1925": 51.647,"1950": 53.364,"1975": 55.76,"2000": 58.58,"2025": 65.874,"2050": 65.047,"2075": 62.672,"2100": 59.598,"2125": 55.74,"2150": 50.312,"2175": 48.616,"2200": 50.906,"2225": 45.966,"2250": 44.439,"2275": 36.658,"2300": 36.828,"2325": 32.079,"2350": 29.577,"2375": 29.937,"2400": 29.874,"2425": 28.899,"2450": 28.983,"2475": 28.665,"2500": 30.319,"2525": 29.153,"2550": 30.531,"2575": 32.27,"2600": 30.531,"2625": 21.329,"2650": 15.478,"2675": 13.23,"2700": 9.52,"2725": 7.294,"2750": 6.085,"2775": 4.389,"2800": 3.838,"2825": 3.626,"2850": 2.417,"2875": 2.099,"2900": 1.675,"2925": 1.166,"2950": 0.53,"2975": 0.254,"3000": 0.254}}}