{"type": "Feature","bbox": [35.4974,-0.7703,35.8829,-0.4505],"geometry": {"type": "MultiPolygon","coordinates": [[[[35.4974,-0.6096,2242.0388],[35.5087,-0.6401,2228.5486],[35.6005,-0.7386,2329.3184],[35.6091,-0.7391,2318.1533],[35.6389,-0.7703,2197.1133],[35.6398,-0.7683,2194.7805],[35.6371,-0.7659,2252.7905],[35.64,-0.7653,2215.7661],[35.639,-0.7635,2247.3716],[35.6414,-0.7635,2289.5146],[35.6428,-0.7672,2264.9844],[35.6459,-0.7627,2226.959],[35.65,-0.7629,2318.4214],[35.6522,-0.7581,2315.3828],[35.6592,-0.7552,2291.8704],[35.6586,-0.7516,2336.1763],[35.6633,-0.7495,2400.9663],[35.6668,-0.7513,2291.8391],[35.6704,-0.7496,2326.2373],[35.6708,-0.7475,2344.8223],[35.6675,-0.7452,2275.9368],[35.667,-0.7429,2282.8616],[35.6681,-0.7368,2286.3411],[35.6665,-0.7346,2335.8901],[35.667,-0.7302,2334.22],[35.669,-0.7302,2305.8093],[35.6693,-0.7261,2333.155],[35.6669,-0.7245,2306.0083],[35.6678,-0.7213,2312.8347],[35.6655,-0.7194,2361.218],[35.6677,-0.7104,2440.9646],[35.6712,-0.7085,2452.0273],[35.6744,-0.7024,2371.4558],[35.6849,-0.703,2425.4766],[35.6876,-0.7022,2452.7329],[35.6897,-0.6982,2472.6448],[35.6921,-0.698,2439.387],[35.6934,-0.6947,2425.1448],[35.6926,-0.6927,2460.3652],[35.6947,-0.6921,2420.4888],[35.6955,-0.6884,2415.7466],[35.7077,-0.6747,2447.8687],[35.7063,-0.668,2423.4021],[35.7077,-0.6646,2466.2292],[35.709,-0.6655,2466.2292],[35.716,-0.6624,2478.811],[35.7189,-0.6553,2473.9126],[35.722,-0.6533,2494.3472],[35.7229,-0.6544,2494.3472],[35.7264,-0.6537,2475.395],[35.7263,-0.651,2537.8967],[35.7376,-0.6494,2533.3301],[35.7477,-0.6524,2594.7634],[35.7653,-0.6424,2558.3833],[35.7668,-0.6381,2585.8516],[35.7702,-0.6357,2566.9697],[35.7706,-0.6305,2590.7498],[35.7724,-0.6303,2576.158],[35.7711,-0.6266,2615.0811],[35.7751,-0.624,2585.4436],[35.7781,-0.6087,2609.3994],[35.7868,-0.6035,2654.9854],[35.7917,-0.5991,2684.6382],[35.7918,-0.597,2690.856],[35.7947,-0.5963,2672.3835],[35.7952,-0.5871,2675.1807],[35.7967,-0.5867,2685.0771],[35.7972,-0.5828,2703.1533],[35.8012,-0.5806,2697.2144],[35.8063,-0.5735,2747.8896],[35.8215,-0.5625,2778.8035],[35.8214,-0.5605,2786.9565],[35.825,-0.5569,2810.2827],[35.8214,-0.5549,2805.0981],[35.8197,-0.5557,2806.6672],[35.8162,-0.5485,2793.4592],[35.8123,-0.5476,2768.3401],[35.8119,-0.5433,2765.2791],[35.817,-0.541,2778.157],[35.8188,-0.5385,2779.6128],[35.8252,-0.5364,2824.0037],[35.8272,-0.5313,2824.1697],[35.8321,-0.5279,2859.8811],[35.8494,-0.5449,2890.1821],[35.8774,-0.5544,2904.6885],[35.8829,-0.5343,2930.7031],[35.8819,-0.5173,2990.0552],[35.8813,-0.5149,3006.7349],[35.8531,-0.5003,2956.4106],[35.8543,-0.4983,2968.5457],[35.8321,-0.4885,2942.5576],[35.8391,-0.4675,2972.8406],[35.8364,-0.4606,2970.2305],[35.8306,-0.4607,2976.1606],[35.8271,-0.4672,2964.7546],[35.8145,-0.4702,2911.4932],[35.8161,-0.4609,2958.5474],[35.813,-0.4522,2961.6587],[35.7982,-0.4505,2952.5195],[35.7943,-0.4623,2889.9756],[35.7951,-0.4677,2892.9714],[35.778,-0.5086,2788.8879],[35.7735,-0.5313,2727.8984],[35.7405,-0.5239,2635.1819],[35.734,-0.5273,2624.4971],[35.7237,-0.542,2616.584],[35.717,-0.5464,2585.1799],[35.7111,-0.5471,2571.2598],[35.7091,-0.5531,2539.0947],[35.7106,-0.5543,2539.0947],[35.7112,-0.5525,2552.3096],[35.7125,-0.5532,2533.8943],[35.7118,-0.5638,2525.2339],[35.7133,-0.5649,2545.2603],[35.7117,-0.571,2515.2246],[35.708,-0.5796,2522.2551],[35.7054,-0.5805,2546.8916],[35.7037,-0.585,2515.6421],[35.6951,-0.5911,2530.2197],[35.6927,-0.5951,2506.9917],[35.6925,-0.5997,2481.4006],[35.6886,-0.6066,2508.709],[35.689,-0.6102,2484.6121],[35.6845,-0.6165,2482.6152],[35.6865,-0.621,2437.2961],[35.6856,-0.6326,2400.7954],[35.6813,-0.64,2444.6648],[35.6812,-0.6453,2390.2437],[35.6778,-0.6476,2483.9214],[35.6769,-0.6527,2421.2607],[35.6723,-0.6522,2435.3391],[35.6688,-0.6563,2448.7383],[35.6677,-0.6602,2429.5676],[35.6655,-0.6612,2445.0837],[35.6662,-0.6637,2399.8779],[35.6637,-0.669,2463.8521],[35.664,-0.6731,2350.6362],[35.6531,-0.6787,2438.4248],[35.6502,-0.6887,2343.5552],[35.6476,-0.6898,2409.6797],[35.6452,-0.6958,2428.2854],[35.6422,-0.6951,2428.4849],[35.6288,-0.6777,2362.3096],[35.6106,-0.6664,2323.884],[35.5984,-0.6491,2355.7717],[35.5872,-0.5833,2349.2422],[35.4974,-0.6096,2242.0388]]]]}
,"properties": {"GID_3": "KEN.33.4.6_1","GID_0": "KEN","country": "Kenya","GID_1": "KEN.33_1","province": "Narok","NL_NAME_1": "NA","GID_2": "KEN.33.4_1","county": "NarokNorth","NL_NAME_2": "NA","city": "Olpusimoru","VARNAME_3": "NA","NL_NAME_3": "NA","TYPE_3": "Ward","ENGTYPE_3": "Ward","CC_3": "891","HASC_3": "NA","name": "Olpusimoru.city","area_km2": 406.1682,"hist_schema_id": "Elevation0-9000","hist_area_km2": {"2175": 0.0636,"2200": 0.9116,"2225": 3.8373,"2250": 8.7347,"2275": 15.2221,"2300": 22.6848,"2325": 26.7978,"2350": 28.8118,"2375": 27.2642,"2400": 23.0876,"2425": 19.0382,"2450": 10.9184,"2475": 9.4132,"2500": 10.5156,"2525": 10.3249,"2550": 11.915,"2575": 15.0315,"2600": 17.7877,"2625": 18.5934,"2650": 13.6535,"2675": 10.4946,"2700": 9.0953,"2725": 7.9505,"2750": 7.8021,"2775": 7.5477,"2800": 6.7632,"2825": 6.2756,"2850": 7.3357,"2875": 9.0318,"2900": 12.0848,"2925": 13.9293,"2950": 7.9505,"2975": 4.3675,"3000": 0.8693,"3025": 0.0636}}}