{"type":"Feature","properties":{"GID_3":"KEN.26.6.2_1","GID_0":"KEN","country":"Kenya","GID_1":"KEN.26_1","province":"Meru","NL_NAME_1":"NA","GID_2":"KEN.26.6_1","county":"NorthImenti","NL_NAME_2":"NA","city":"NtimaEast","VARNAME_3":"NA","NL_NAME_3":"NA","TYPE_3":"Ward","ENGTYPE_3":"Ward","CC_3":"277","HASC_3":"NA","name":"Ntima_East.city"},
"geometry":{"type": "MultiPolygon","coordinates": [[[[37.711,0.0072,1228.7339],[37.7084,0.0154,1286.2626],[37.7,0.0199,1309.524],[37.6954,0.0271,1355.6398],[37.6865,0.0308,1403.817],[37.6918,0.0354,1377.6768],[37.6801,0.0397,1404.3676],[37.6809,0.0403,1395.9449],[37.6775,0.0399,1416.6724],[37.6631,0.0588,1533.6819],[37.6565,0.0592,1579.4691],[37.6509,0.0575,1620.9597],[37.6517,0.0553,1589.4227],[37.6555,0.0551,1573.701],[37.6557,0.0439,1563.7241],[37.6521,0.0463,1595.4697],[37.6499,0.0463,1602.781],[37.6517,0.0459,1595.4697],[37.6529,0.0365,1584.1851],[37.6587,0.0325,1512.8074],[37.6669,0.0225,1484.2101],[37.6763,0.0183,1426.8354],[37.6842,0.0231,1394.8679],[37.6889,0.0215,1370.1384],[37.6907,0.0173,1339.4352],[37.6985,0.0125,1351.3394],[37.6979,0.0089,1307.3179],[37.7061,0.0053,1242.0654],[37.711,0.0072,1228.7339]]]]}}