{"type": "Feature","bbox": [36.7232,-1.6015,36.9601,-1.4349],"geometry": {"type": "MultiPolygon","coordinates": [[[[36.7955,-1.574,1709.3578],[36.7955,-1.5741,1709.3578],[36.7956,-1.5741,1707.5687],[36.7955,-1.574,1709.3578]]],
[[[36.9601,-1.466,1558.5542],[36.9474,-1.4592,1532.0112],[36.9496,-1.4554,1528.5706],[36.943,-1.4527,1537.5944],[36.9366,-1.4531,1540.6625],[36.9306,-1.4572,1544.2903],[36.9277,-1.4556,1546.3091],[36.923,-1.4566,1549.1509],[36.9206,-1.4593,1548.1978],[36.9206,-1.4617,1548.5052],[36.9119,-1.4651,1557.2313],[36.9004,-1.4723,1579.3179],[36.8887,-1.4838,1579.0317],[36.8826,-1.4858,1578.8364],[36.8802,-1.492,1580.0265],[36.8786,-1.4896,1580.965],[36.8746,-1.4882,1592.4958],[36.868,-1.4924,1610.1228],[36.856,-1.4933,1663.0072],[36.8336,-1.4872,1675.6361],[36.8309,-1.4821,1683.4993],[36.8257,-1.4785,1677.505],[36.8247,-1.4758,1692.9213],[36.8203,-1.4789,1690.9713],[36.8165,-1.4778,1706.2709],[36.8103,-1.4736,1707.6316],[36.8065,-1.4674,1722.9329],[36.7989,-1.4632,1719.7623],[36.7962,-1.4593,1728.1841],[36.786,-1.4593,1735.6012],[36.7805,-1.4613,1736.2864],[36.7743,-1.4598,1738.8036],[36.7696,-1.4616,1737.4336],[36.7554,-1.4574,1752.2831],[36.7434,-1.4349,1759.2253],[36.7232,-1.4382,1789.0491],[36.76,-1.5016,1738.2275],[36.7778,-1.5256,1713.8744],[36.7918,-1.5487,1705.167],[36.7985,-1.5629,1718.3665],[36.7955,-1.5739,1709.3578],[36.7993,-1.5736,1706.5688],[36.8027,-1.5812,1698.8982],[36.8068,-1.5844,1667.2196],[36.8287,-1.5956,1641.2321],[36.8284,-1.5971,1641.7203],[36.8414,-1.6011,1640.7272],[36.8443,-1.5999,1639.1993],[36.8461,-1.6015,1632.1399],[36.8487,-1.6012,1632.5336],[36.8554,-1.5961,1636.8929],[36.8587,-1.5968,1625.3397],[36.8592,-1.5944,1627.6377],[36.862,-1.5924,1624.1863],[36.8677,-1.5922,1618.9125],[36.8689,-1.5909,1623.7458],[36.8679,-1.59,1623.7458],[36.8702,-1.5887,1627.1013],[36.8799,-1.5882,1615.1969],[36.8822,-1.5849,1614.6219],[36.8842,-1.5855,1612.1993],[36.885,-1.584,1613.5133],[36.8896,-1.5833,1610.1627],[36.8934,-1.577,1613.5105],[36.897,-1.5744,1618.0596],[36.911,-1.5717,1602.6495],[36.9174,-1.5726,1599.7018],[36.9212,-1.5714,1598.1509],[36.9233,-1.573,1596.1621],[36.9278,-1.5712,1599.8042],[36.9367,-1.548,1596.1714],[36.9343,-1.5224,1623.0847],[36.9292,-1.51,1611.6089],[36.929,-1.4978,1619.1217],[36.9309,-1.4921,1607.6508],[36.9346,-1.4879,1591.9988],[36.9509,-1.4817,1578.3737],[36.9543,-1.479,1578.1521],[36.9574,-1.4753,1573.7623],[36.9601,-1.466,1558.5542]]]]}
,"properties": {"GID_3": "KEN.10.2.5_1","GID_0": "KEN","country": "Kenya","GID_1": "KEN.10_1","province": "Kajiado","NL_NAME_1": "NA","GID_2": "KEN.10.2_1","county": "KajiadoEast","NL_NAME_2": "NA","city": "Oloosirkon/Sholinke","VARNAME_3": "NA","NL_NAME_3": "NA","TYPE_3": "Ward","ENGTYPE_3": "Ward","CC_3": "923","HASC_3": "NA","name": "Oloosirkon_Sholinke.city","area_km2": 232.0187,"hist_schema_id": "Elevation0-9000","hist_area_km2": {"1525": 1.1022,"1550": 7.3548,"1575": 10.1313,"1600": 20.4529,"1625": 51.3332,"1650": 25.4546,"1675": 36.9209,"1700": 32.5973,"1725": 26.1334,"1750": 14.01,"1775": 6.5282}}}