{"type": "Feature","bbox": [37.0095,-0.8037,37.1535,-0.7447],"geometry": {"type": "MultiPolygon","coordinates": [[[[37.0144,-0.7974,1656.675],[37.0209,-0.8,1621.1536],[37.0285,-0.7987,1623.2358],[37.0291,-0.7959,1597.2428],[37.0305,-0.7955,1591.932],[37.0376,-0.7978,1626.218],[37.0439,-0.7963,1576.8774],[37.0491,-0.798,1514.395],[37.0517,-0.7954,1504.1041],[37.0542,-0.7972,1514.3735],[37.0576,-0.7967,1513.6846],[37.0636,-0.7988,1504.8551],[37.0699,-0.8037,1452.0195],[37.0808,-0.8013,1433.7242],[37.0848,-0.7986,1395.9075],[37.1269,-0.7856,1358.0602],[37.1275,-0.7889,1359.6968],[37.1339,-0.7888,1361.7413],[37.135,-0.7814,1366.2258],[37.1425,-0.7719,1292.7966],[37.1502,-0.7654,1303.9216],[37.1535,-0.7595,1277.3207],[37.1514,-0.7522,1232.6859],[37.1526,-0.7501,1220.9401],[37.1516,-0.7463,1264.6842],[37.1501,-0.7447,1335.4749],[37.1497,-0.7474,1270.3977],[37.1476,-0.7483,1227.4653],[37.1479,-0.7532,1260.7738],[37.1442,-0.7571,1283.8213],[37.1385,-0.7578,1321.6992],[37.1328,-0.762,1359.3395],[37.1242,-0.7606,1330.3855],[37.1112,-0.7663,1401.0801],[37.1034,-0.7614,1393.7606],[37.0926,-0.7608,1408.7471],[37.0919,-0.7675,1376.9856],[37.0938,-0.7686,1370.5797],[37.0934,-0.7708,1373.0991],[37.0871,-0.7705,1393.2095],[37.0827,-0.7671,1383.1647],[37.0813,-0.7686,1400.4822],[37.085,-0.7793,1398.9877],[37.0798,-0.777,1401.312],[37.0624,-0.774,1498.3877],[37.0608,-0.7759,1487.9116],[37.0545,-0.7768,1530.1578],[37.0429,-0.7674,1543.1274],[37.0255,-0.7732,1601.7753],[37.0208,-0.7724,1656.9846],[37.0188,-0.7754,1528.2668],[37.0105,-0.7773,1537.9883],[37.0095,-0.7789,1604.0614],[37.0156,-0.7904,1649.8242],[37.0144,-0.7974,1656.675]]]]}
,"properties": {"GID_3": "KEN.29.6.6_1","GID_0": "KEN","country": "Kenya","GID_1": "KEN.29_1","province": "Murang'a","NL_NAME_1": "NA","GID_2": "KEN.29.6_1","county": "Maragwa","NL_NAME_2": "NA","city": "Nginda","VARNAME_3": "NA","NL_NAME_3": "NA","TYPE_3": "Ward","ENGTYPE_3": "Ward","CC_3": "538","HASC_3": "NA","name": "Nginda.city","area_km2": 43.39689,"hist_schema_id": "Elevation0-9000","hist_area_km2": {"1225": 0.2332,"1250": 0.1908,"1275": 1.18722,"1300": 1.95043,"1325": 1.12362,"1350": 3.49804,"1375": 6.65688,"1400": 5.89367,"1425": 4.45205,"1450": 2.98923,"1475": 3.66764,"1500": 2.84083,"1525": 1.90802,"1550": 1.01761,"1575": 1.27201,"1600": 1.99282,"1625": 1.33561,"1650": 0.82681,"1675": 0.3392,"1700": 0.0212}}}