{"type":"Feature","properties":{"GID_3":"KEN.22.9.4_1","GID_0":"KEN","country":"Kenya","GID_1":"KEN.22_1","province":"Machakos","NL_NAME_1":"NA","GID_2":"KEN.22.9_1","county":"Yatta","NL_NAME_2":"NA","city":"Matuu","VARNAME_3":"NA","NL_NAME_3":"NA","TYPE_3":"Ward","ENGTYPE_3":"Ward","CC_3":"377","HASC_3":"NA","name":"Matuu.city"},
"geometry":{"type": "MultiPolygon","coordinates": [[[[37.5957,-1.0868,1195.8677],[37.5264,-1.0764,1219.443],[37.5199,-1.0659,1209.3599],[37.5104,-1.105,1179.2117],[37.5077,-1.1084,1173.2529],[37.5096,-1.1113,1175.2617],[37.5089,-1.122,1184.7307],[37.5017,-1.1312,1212.3184],[37.5012,-1.1361,1208.241],[37.4976,-1.1416,1208.6426],[37.4978,-1.1453,1213.368],[37.5055,-1.1557,1250.8986],[37.5097,-1.1579,1260.6287],[37.5156,-1.1576,1258.616],[37.5184,-1.1597,1254.2781],[37.5183,-1.163,1254.5303],[37.5132,-1.1716,1285.8514],[37.5132,-1.1751,1296.0389],[37.5154,-1.1782,1296.7915],[37.5213,-1.1831,1311.3694],[37.5228,-1.1809,1314.1232],[37.5316,-1.1793,1297.1329],[37.5381,-1.1869,1314.1641],[37.5406,-1.1876,1310.3528],[37.5413,-1.1905,1313.3894],[37.5561,-1.2086,1311.9393],[37.5954,-1.1785,1261.2104],[37.5985,-1.1743,1262.8048],[37.6137,-1.1645,1233.8513],[37.6177,-1.1639,1223.8423],[37.6175,-1.1617,1224.7537],[37.6283,-1.1536,1202.5884],[37.6261,-1.152,1204.9648],[37.6243,-1.1472,1210.8176],[37.6177,-1.1426,1218.491],[37.6125,-1.1422,1217.4763],[37.6101,-1.1403,1225.1558],[37.6056,-1.1423,1222.2046],[37.6031,-1.1341,1235.85],[37.6006,-1.1311,1243.8977],[37.5977,-1.1312,1245.4011],[37.5957,-1.0868,1195.8677]]]]}}