{"type":"Feature","properties":{"GID_3":"KEN.11.2.3_1","GID_0":"KEN","country":"Kenya","GID_1":"KEN.11_1","province":"Kakamega","NL_NAME_1":"NA","GID_2":"KEN.11.2_1","county":"Ikolomani","NL_NAME_2":"NA","city":"IdakhoNorth","VARNAME_3":"NA","NL_NAME_3":"NA","TYPE_3":"Ward","ENGTYPE_3":"Ward","CC_3":"1049","HASC_3":"NA","name":"Idakho_North.city"},
"geometry":{"type": "MultiPolygon","coordinates": [[[[34.7138,0.2227,1515.5011],[34.7177,0.2302,1511.3521],[34.7118,0.2522,1459.5693],[34.7083,0.2564,1474.0165],[34.7077,0.2639,1458.3215],[34.7049,0.2652,1472.1322],[34.7051,0.2668,1467.8054],[34.7029,0.2659,1470.8145],[34.7009,0.2677,1460.7433],[34.6846,0.2601,1460.4845],[34.6774,0.2586,1455.3491],[34.6772,0.255,1474.4888],[34.6744,0.2549,1464.8938],[34.6739,0.2526,1449.6495],[34.6692,0.2525,1408.0831],[34.6671,0.2491,1433.8462],[34.6615,0.2468,1420.0205],[34.6564,0.2452,1400.969],[34.6509,0.2463,1400.2083],[34.6518,0.2476,1426.5154],[34.6505,0.2498,1403.1982],[34.6436,0.2482,1393.1042],[34.6429,0.2452,1386.7644],[34.6377,0.2454,1413.1467],[34.635,0.2399,1396.1013],[34.6306,0.2382,1404.202],[34.6319,0.224,1480.9241],[34.6531,0.2151,1483.2605],[34.662,0.2134,1484.8401],[34.6853,0.2018,1463.282],[34.6964,0.2041,1477.6571],[34.698,0.2128,1451.4604],[34.6941,0.2178,1449.0436],[34.6939,0.2221,1458.9446],[34.7016,0.2245,1469.7556],[34.7138,0.2227,1515.5011]]]]}}