{"type": "Feature","bbox": [36.8996,-1.2456,36.9305,-1.2349],"geometry": {"type": "MultiPolygon","coordinates": [[[[36.9004,-1.2422,1579.6031],[36.9077,-1.2375,1571.8802],[36.9088,-1.2456,1585.7675],[36.917,-1.2403,1537.9277],[36.9259,-1.2403,1539.7974],[36.9305,-1.2376,1551.595],[36.9253,-1.2392,1565.0725],[36.9228,-1.2375,1574.1553],[36.9185,-1.2385,1558.7129],[36.9129,-1.2349,1583.1392],[36.9072,-1.2354,1557.2678],[36.9016,-1.2374,1583.7888],[36.9017,-1.2397,1571.9042],[36.8996,-1.2395,1592.1447],[36.9004,-1.2422,1579.6031]]]]}
,"properties": {"GID_3": "KEN.30.5.4_1","GID_0": "KEN","country": "Kenya","GID_1": "KEN.30_1","province": "Nairobi","NL_NAME_1": "NA","GID_2": "KEN.30.5_1","county": "EmbakasiNorth","NL_NAME_2": "NA","city": "DandoraAreaIv","VARNAME_3": "NA","NL_NAME_3": "NA","TYPE_3": "Ward","ENGTYPE_3": "Ward","CC_3": "1415","HASC_3": "NA","name": "Dandora_Area_Iv.city","area_km2": 1.2930322,"hist_schema_id": "Elevation0-9000","hist_area_km2": {"1525": 0.0635917,"1550": 0.5087341,"1575": 0.7207064}}}