{"type": "Feature","bbox": [35.9962,-2.3595,36.8389,-1.0408],"geometry": {"type": "MultiPolygon","coordinates": [[[[36.6698,-1.7631,1800.7777],[36.6747,-1.7409,1985.9478],[36.7066,-1.7572,1807.7903],[36.7173,-1.7597,1796.0355],[36.7586,-1.7669,1740.0081],[36.8117,-1.7702,1745.8773],[36.827,-1.7726,1705.4996],[36.8341,-1.7504,1718.5232],[36.8389,-1.7433,1702.1854],[36.8198,-1.6623,1670.2021],[36.8051,-1.5897,1709.2424],[36.7955,-1.5741,1709.3578],[36.7983,-1.5621,1718.3665],[36.7847,-1.5359,1712.6328],[36.76,-1.5016,1738.2275],[36.7177,-1.43,1756.6626],[36.7091,-1.43,1822.0057],[36.7038,-1.4369,1790.2283],[36.697,-1.4341,1832.6584],[36.6946,-1.4379,1799.0349],[36.6894,-1.441,1823.2805],[36.6886,-1.4362,1807.9585],[36.6838,-1.434,1825.4518],[36.6866,-1.4277,1832.6035],[36.6845,-1.4217,1848.6351],[36.6871,-1.4112,1873.905],[36.6868,-1.3988,1878.0369],[36.6633,-1.3974,2000.5858],[36.6529,-1.3985,2140.2095],[36.6459,-1.4001,2216.8057],[36.6359,-1.4056,2278.1741],[36.6346,-1.3976,2150.8018],[36.6376,-1.3854,2290.8828],[36.6355,-1.3822,2239.1519],[36.6307,-1.3792,2032.613],[36.6284,-1.3675,1968.5665],[36.6467,-1.3647,2011.568],[36.6467,-1.3562,1983.2178],[36.6529,-1.3561,1949.2229],[36.6512,-1.3485,1949.165],[36.6426,-1.3407,1964.4604],[36.639,-1.3327,2003.9006],[36.6432,-1.329,1994.2538],[36.6422,-1.3202,2004.417],[36.6479,-1.3198,1996.2451],[36.6484,-1.2984,2006.5254],[36.6597,-1.3005,1946.2251],[36.6658,-1.3118,1872.8633],[36.6702,-1.3036,1913.1359],[36.6747,-1.3048,1874.1666],[36.6785,-1.2976,1924.9678],[36.6807,-1.2965,1891.275],[36.6892,-1.2769,1886.8789],[36.6863,-1.2783,1880.4956],[36.6807,-1.2925,1925.2043],[36.6785,-1.2936,1947.1544],[36.6747,-1.3008,1922.4249],[36.6702,-1.2996,1950.1144],[36.6658,-1.3078,1908.9231],[36.6597,-1.2965,1974.3386],[36.4908,-1.264,1414.0088],[36.5136,-1.236,1443.8049],[36.5349,-1.1612,1548.8884],[36.537,-1.1488,1741.6729],[36.4935,-1.1151,1547.3367],[36.3356,-1.0408,1609.3704],[36.3477,-1.1685,1866.6031],[36.2474,-1.2772,1525.9703],[36.0492,-1.4859,1511.3372],[36.0588,-1.4922,1421.627],[36.0613,-1.5061,1349.9562],[36.0743,-1.5408,1476.178],[36.0845,-1.5587,1338.2515],[36.0863,-1.5713,1283.8782],[36.084,-1.5785,1361.6196],[36.0803,-1.5807,1415.0428],[36.0791,-1.5923,1408.9026],[36.0742,-1.5895,1412.4585],[36.07,-1.596,1417.8334],[36.0667,-1.6062,1419.2437],[36.0651,-1.608,1415.3887],[36.063,-1.6071,1417.0908],[36.0652,-1.6126,1346.9657],[36.0635,-1.6145,1411.1786],[36.06,-1.6147,1411.7061],[36.0565,-1.6292,1423.3115],[36.0534,-1.634,1424.1692],[36.0511,-1.6346,1420.3604],[36.0529,-1.6376,1379.7913],[36.0524,-1.6452,1409.9541],[36.0487,-1.6455,1414.1135],[36.0465,-1.6477,1456.6006],[36.0488,-1.649,1372.0862],[36.0477,-1.6519,1439.8939],[36.0506,-1.6526,1317.071],[36.0537,-1.659,1317.804],[36.0524,-1.6641,1436.4595],[36.0541,-1.6636,1338.1143],[36.0583,-1.6694,1330.9353],[36.0574,-1.675,1459.8221],[36.0588,-1.6769,1458.9612],[36.0573,-1.6789,1450.0564],[36.0588,-1.6809,1397.7103],[36.0571,-1.6838,1442.6964],[36.062,-1.6863,1279.38],[36.0642,-1.6924,1371.0674],[36.0617,-1.6926,1430.9426],[36.0579,-1.6963,1513.3414],[36.0558,-1.7037,1432.126],[36.0522,-1.6998,1419.7996],[36.0477,-1.6983,1402.5806],[36.0457,-1.7031,1411.655],[36.043,-1.7045,1434.3345],[36.0429,-1.7097,1395.2848],[36.0445,-1.7148,1339.3582],[36.0476,-1.717,1299.8367],[36.0485,-1.7253,1465.7412],[36.046,-1.727,1465.8496],[36.0429,-1.7239,1470.9762],[36.0411,-1.7332,1418.0197],[36.0357,-1.7362,1474.3345],[36.0353,-1.7482,1419.5636],[36.0323,-1.7526,1421.7969],[36.0355,-1.7571,1353.3584],[36.0358,-1.7606,1422.6577],[36.0313,-1.7582,1397.8469],[36.031,-1.7659,1420.828],[36.0233,-1.7729,1419.6176],[36.0301,-1.7747,1082.9736],[36.0275,-1.7764,1163.0264],[36.0274,-1.7888,1377.9397],[36.0226,-1.7896,1428.0551],[36.0228,-1.7919,1420.6643],[36.0183,-1.7944,1451.8147],[36.016,-1.7978,1520.594],[36.0166,-1.802,1417.7917],[36.0224,-1.8006,1315.1763],[36.028,-1.8041,1079.3164],[36.0298,-1.8153,1393.6365],[36.0278,-1.8169,1389.1971],[36.0286,-1.8237,1311.2029],[36.0381,-1.8188,1089.2936],[36.0395,-1.823,1296.1937],[36.0431,-1.824,1053.3074],[36.0432,-1.8267,1120.9261],[36.0404,-1.8284,1234.4973],[36.0488,-1.836,1014.5469],[36.0471,-1.8429,1221.2311],[36.0499,-1.8522,1070.2656],[36.0481,-1.8593,1213.8503],[36.0514,-1.8652,902.1035],[36.0448,-1.8741,1156.7479],[36.0413,-1.8723,1082.5118],[36.0366,-1.8735,1147.8357],[36.0368,-1.8864,1129.288],[36.0347,-1.89,1136.8867],[36.031,-1.8857,1133.963],[36.0258,-1.8893,1021.7487],[36.0311,-1.896,1016.3391],[36.0319,-1.9014,1091.9332],[36.0354,-1.902,929.6606],[36.0402,-1.9053,859.3879],[36.0433,-1.9044,807.7805],[36.0425,-1.909,896.2426],[36.033,-1.9127,1034.1921],[36.037,-1.9129,1012.0144],[36.0366,-1.9235,1042.6208],[36.0396,-1.9249,983.4468],[36.0425,-1.9319,927.5263],[36.042,-1.9394,1036.1575],[36.0386,-1.9458,1017.5306],[36.0411,-1.9577,885.6744],[36.0384,-1.9654,977.0073],[36.0395,-1.9716,809.0621],[36.0364,-1.9791,914.9965],[36.0355,-1.9995,818.9371],[36.0338,-1.9982,823.0887],[36.0319,-1.999,803.9553],[36.0346,-2.0029,762.5122],[36.0313,-2.0085,779.9422],[36.0286,-2.007,788.8587],[36.0274,-2.0195,735.3365],[36.0245,-2.017,760.2695],[36.0213,-2.0251,729.6538],[36.0225,-2.0354,707.4838],[36.0267,-2.0372,681.9096],[36.0267,-2.0821,606.3483],[36.0001,-2.0819,626.6421],[36.0001,-2.1006,601.6305],[35.9962,-2.0983,602.082],[35.9962,-2.1027,601.7281],[36.1046,-2.1654,692.298],[36.2035,-2.2275,761.3281],[36.2513,-2.2659,817.329],[36.4409,-2.3595,1720.124],[36.4435,-2.3542,1653.1803],[36.4931,-2.306,1603.2723],[36.4378,-2.2355,1239.0649],[36.4496,-2.2188,1233.4968],[36.4709,-2.1971,1267.608],[36.4886,-2.1705,1271.9324],[36.5002,-2.1601,1296.5615],[36.5014,-2.1555,1296.5176],[36.5101,-2.147,1308.9497],[36.5158,-2.1377,1305.2257],[36.6365,-2.0645,1504.8275],[36.6817,-2.0267,1596.4985],[36.6981,-2.0181,1695.5742],[36.7003,-2.0123,1628.2726],[36.7189,-2.0007,1740.6034],[36.7244,-1.9947,1786.7146],[36.7356,-1.9894,2028.8501],[36.7298,-1.9708,1922.9841],[36.7341,-1.967,1818.1232],[36.7341,-1.9646,1811.3481],[36.7365,-1.9618,1783.6351],[36.7387,-1.9506,1717.4657],[36.7435,-1.9387,1721.6562],[36.7384,-1.927,1692.8945],[36.7318,-1.9177,1707.2502],[36.7139,-1.9124,1687.8707],[36.662,-1.8568,1747.845],[36.6573,-1.8257,1649.8457],[36.6698,-1.7631,1800.7777]]]]}
,"properties": {"GID_2": "KEN.10.5_1","GID_0": "KEN","country": "Kenya","GID_1": "KEN.10_1","province": "Kajiado","NL_NAME_1": "NA","county": "KajiadoWest","VARNAME_2": "NA","NL_NAME_2": "NA","TYPE_2": "Constituency","ENGTYPE_2": "Constituency","CC_2": "186","HASC_2": "NA","name": "Kajiado_West.county","area_km2": 7975.154,"hist_schema_id": "Elevation0-9000","hist_area_km2": {"600": 242.898,"625": 316.738,"650": 284.011,"675": 211.1,"700": 188.318,"725": 161.004,"750": 141.679,"775": 130.51,"800": 125.402,"825": 160.284,"850": 157.81,"875": 123.333,"900": 130.429,"925": 118.055,"950": 110.768,"975": 126.789,"1000": 189.246,"1025": 205.523,"1050": 179.226,"1075": 158.755,"1100": 159.195,"1125": 170.213,"1150": 158.985,"1175": 161.021,"1200": 186.254,"1225": 164.787,"1250": 134.169,"1275": 179.041,"1300": 196.064,"1325": 226.063,"1350": 201.777,"1375": 191.287,"1400": 186.841,"1425": 183.177,"1450": 186.172,"1475": 141.748,"1500": 106.882,"1525": 90.247,"1550": 84.335,"1575": 65.321,"1600": 67.632,"1625": 57.309,"1650": 67.099,"1675": 114.911,"1700": 122.16,"1725": 115.675,"1750": 115.104,"1775": 108.853,"1800": 81.049,"1825": 91.733,"1850": 89.401,"1875": 79.121,"1900": 50.338,"1925": 37.536,"1950": 32.789,"1975": 37.303,"2000": 31.517,"2025": 14.816,"2050": 4.981,"2075": 3.328,"2100": 2.544,"2125": 2.056,"2150": 2.077,"2175": 1.675,"2200": 1.611,"2225": 1.78,"2250": 1.293,"2275": 0.996,"2300": 0.763,"2325": 0.678,"2350": 0.615,"2375": 0.382,"2400": 0.36,"2425": 0.212}}}