{"type": "Feature","bbox": [38.4457,-4.1592,39.3505,-3.9595],"geometry": {"type": "MultiPolygon","coordinates": [[[[39.2989,-4.0227,185.1178],[39.2975,-4.027,189.1736],[39.2905,-4.0315,201.6193],[39.2843,-4.0327,212.7474],[39.2773,-4.0376,214.5734],[39.2645,-4.0429,223.3706],[39.2527,-4.0395,228.008],[39.2441,-4.0406,238.5437],[39.2333,-4.0388,262.7899],[39.1997,-4.0237,213.8069],[39.1869,-4.0161,247.4076],[39.1789,-4.0066,246.6269],[39.1739,-4.0031,241.9123],[39.1523,-4.0017,288.1613],[39.1317,-3.9947,288.7175],[39.1067,-3.9754,294.9322],[39.0933,-3.9608,288.6773],[39.0843,-3.9599,286.391],[39.0585,-3.9651,308.2955],[39.0555,-3.9669,312.9385],[39.0487,-3.9655,314.9141],[39.0303,-3.9674,325.7738],[39.0131,-3.9728,340.2084],[38.9903,-3.9679,363.138],[38.9767,-3.9718,365.6709],[38.9685,-3.9818,365.6629],[38.9613,-3.9828,374.0249],[38.9531,-3.9818,388.0204],[38.9501,-3.9795,399.3716],[38.9461,-3.9595,749.2744],[38.4457,-4.1379,631.1355],[39.0809,-4.1439,253.094],[39.0873,-4.1435,239.5684],[39.0821,-4.1316,252.0914],[39.0873,-4.1269,296.1187],[39.0923,-4.1339,289.1581],[39.1107,-4.1333,277.683],[39.1183,-4.1391,260.7419],[39.1349,-4.1592,250.4398],[39.1531,-4.1379,242.9973],[39.1587,-4.1369,240.6912],[39.1609,-4.139,239.6891],[39.1617,-4.1368,239.8913],[39.1635,-4.1376,238.8733],[39.1655,-4.1346,237.6702],[39.1729,-4.1368,233.7146],[39.1738,-4.1342,236.2639],[39.1803,-4.1332,231.8173],[39.1813,-4.1289,231.2875],[39.1859,-4.1283,229.6046],[39.1897,-4.1247,229.0907],[39.1931,-4.1261,227.0287],[39.2031,-4.1196,223.6231],[39.2061,-4.1155,223.9923],[39.2139,-4.1135,220.5254],[39.2189,-4.1145,222.4358],[39.2289,-4.1223,217.359],[39.2343,-4.1208,215.2346],[39.2375,-4.1229,214.3967],[39.2351,-4.1282,213.4249],[39.2381,-4.1339,212.8634],[39.2361,-4.1403,209.9084],[39.2377,-4.1442,209.2398],[39.2405,-4.146,211.4191],[39.2463,-4.1415,208.9203],[39.2501,-4.1329,219.0605],[39.2557,-4.1311,201.9599],[39.2551,-4.1252,208.7869],[39.2591,-4.1231,200.2942],[39.2617,-4.1189,219.2061],[39.2637,-4.1197,205.9477],[39.2659,-4.1176,218.1383],[39.2643,-4.109,278.8612],[39.2657,-4.1045,266.1059],[39.2713,-4.1014,259.3594],[39.2875,-4.1034,272.6984],[39.2991,-4.1007,252.5281],[39.3039,-4.0984,243.8562],[39.3093,-4.0918,215.8398],[39.3153,-4.0919,201.2706],[39.3167,-4.0862,207.9982],[39.3285,-4.0864,193.0401],[39.3293,-4.083,189.1553],[39.3381,-4.0774,184.0265],[39.3385,-4.0742,184.2113],[39.3441,-4.0715,177.2845],[39.3459,-4.0635,185.0536],[39.3505,-4.0592,183.8955],[39.3493,-4.0486,180.7169],[39.3475,-4.0464,184.105],[39.3407,-4.0528,200.6585],[39.3347,-4.0479,217.5903],[39.3293,-4.0475,219.183],[39.3231,-4.0499,226.6469],[39.3075,-4.0401,207.2501],[39.3063,-4.0355,204.3174],[39.3005,-4.0295,186.941],[39.2989,-4.0227,185.1178]]]]}
,"properties": {"GID_3": "KEN.19.1.6_1","GID_0": "KEN","country": "Kenya","GID_1": "KEN.19_1","province": "Kwale","NL_NAME_1": "NA","GID_2": "KEN.19.1_1","county": "Kinango","NL_NAME_2": "NA","city": "Puma","VARNAME_3": "NA","NL_NAME_3": "NA","TYPE_3": "Ward","ENGTYPE_3": "Ward","CC_3": "45","HASC_3": "NA","name": "Puma.city","area_km2": 1190.1434,"hist_schema_id": "Elevation0-9000","hist_area_km2": {"175": 1.6285,"200": 20.451,"225": 62.7899,"250": 101.3643,"275": 113.187,"300": 137.8285,"325": 103.5047,"350": 92.6763,"375": 85.74,"400": 68.6087,"425": 43.9049,"450": 30.6232,"475": 27.0702,"500": 32.7165,"525": 29.6289,"550": 29.967,"575": 25.6526,"600": 27.8303,"625": 52.2344,"650": 55.9569,"675": 32.6314,"700": 12.2871,"725": 1.7342,"750": 0.0634,"775": 0.0211,"800": 0.0423}}}