{"type": "Feature","bbox": [40.5034,3.0913,40.9987,3.6176],"geometry": {"type": "MultiPolygon","coordinates": [[[[40.9976,3.6105,560.8884],[40.9828,3.6132,555.8504],[40.9712,3.6176,537.2693],[40.954,3.6102,540.2212],[40.9489,3.6077,542.2526],[40.9393,3.5933,547.9531],[40.9287,3.5849,553.4572],[40.9267,3.5789,561.2432],[40.911,3.5714,569.2726],[40.8979,3.5597,587.402],[40.8837,3.5525,592.9502],[40.8756,3.545,580.7074],[40.8558,3.5354,604.8285],[40.8044,3.5215,624.2348],[40.7689,3.5172,650.621],[40.7395,3.5175,651.9736],[40.7301,3.5147,661.2681],[40.7135,3.504,673.1132],[40.6883,3.5021,686.6967],[40.6786,3.5072,690.8671],[40.6595,3.5081,708.563],[40.6534,3.5114,712.04],[40.6479,3.5112,715.8659],[40.6421,3.5079,725.2275],[40.6249,3.5063,742.1744],[40.6081,3.5145,748.3412],[40.6021,3.5189,743.0091],[40.6023,3.5213,741.6248],[40.5855,3.5333,724.5997],[40.5797,3.5349,712.5847],[40.5751,3.5343,698.4004],[40.5685,3.5269,702.744],[40.5619,3.5269,701.6987],[40.5541,3.5231,685.4538],[40.5391,3.5081,659.9801],[40.5257,3.5011,644.9094],[40.5219,3.4973,640.7268],[40.5209,3.4931,638.0888],[40.5215,3.4809,630.6771],[40.5184,3.4682,625.4114],[40.5195,3.4575,621.6852],[40.5167,3.4439,611.0269],[40.5139,3.438,607.605],[40.5182,3.4287,610.8683],[40.5211,3.4162,617.4762],[40.5034,3.3767,634.8983],[40.5163,3.3465,657.8907],[40.5238,3.3353,675.926],[40.5218,3.3345,677.6868],[40.5239,3.3315,681.7589],[40.5413,3.3381,653.9197],[40.5527,3.3387,652.7527],[40.5587,3.3369,655.407],[40.5743,3.3103,617.3261],[40.6133,3.3073,572.9714],[40.6555,3.2863,544.4429],[40.6793,3.2621,528.3124],[40.6913,3.2519,520.2308],[40.6949,3.2505,519.879],[40.7067,3.2211,508.5818],[40.7087,3.2207,507.3409],[40.7095,3.2265,507.5546],[40.7193,3.2495,516.7886],[40.7275,3.2503,513.661],[40.7387,3.2449,508.2862],[40.7465,3.2443,505.5727],[40.7775,3.2519,509.1638],[40.7909,3.2611,526.3561],[40.7985,3.2641,516.9917],[40.8031,3.2635,515.7383],[40.8085,3.2559,513.5234],[40.8177,3.2519,508.9583],[40.8221,3.2515,508.7728],[40.8385,3.2573,515.5763],[40.8439,3.2569,515.135],[40.8651,3.2483,513.5963],[40.8645,3.2275,501.4901],[40.8659,3.2113,495.4525],[40.8635,3.2041,490.1528],[40.8635,3.1971,487.4088],[40.8669,3.1855,480.9783],[40.8691,3.1647,470.4437],[40.8849,3.0941,442.0276],[40.8857,3.0913,440.498],[40.9065,3.0923,443.0043],[40.9131,3.0969,445.0597],[40.9197,3.1121,454.2002],[40.9245,3.1189,456.9948],[40.9373,3.1199,454.4739],[40.9329,3.1291,460.494],[40.9281,3.1333,462.0025],[40.9277,3.1403,467.7159],[40.9213,3.1569,483.1501],[40.9217,3.1715,498.0909],[40.9367,3.1869,520.8642],[40.9383,3.1947,542.3123],[40.9423,3.1999,561.5062],[40.9509,3.2057,538.1312],[40.9611,3.2091,550.3226],[40.9651,3.2137,555.9454],[40.9785,3.2167,576.4916],[40.9867,3.2253,596.8846],[40.9883,3.2299,585.702],[40.9867,3.2443,596.4905],[40.9835,3.2485,600.1068],[40.9779,3.2521,617.6495],[40.9667,3.2657,660.2695],[40.9537,3.2759,678.6534],[40.9547,3.2805,703.0693],[40.9521,3.2893,725.8055],[40.9423,3.3003,673.948],[40.9403,3.3061,646.0483],[40.9435,3.3157,633.6433],[40.9427,3.3289,614.4121],[40.9305,3.3321,605.676],[40.9113,3.3327,592.3239],[40.8921,3.3303,573.1336],[40.9067,3.3657,613.6548],[40.9073,3.3713,628.8104],[40.9099,3.3739,638.4156],[40.9107,3.3835,636.2822],[40.9141,3.3923,638.6288],[40.9271,3.4033,648.9816],[40.9379,3.4077,649.6635],[40.9429,3.4127,637.8242],[40.9507,3.4171,624.6701],[40.9667,3.4319,589.2581],[40.9651,3.4429,591.1786],[40.9577,3.4519,594.7936],[40.9541,3.4735,607.3729],[40.9707,3.5195,625.9464],[40.9759,3.5275,624.9946],[40.9849,3.5345,623.2601],[40.9891,3.5531,609.5785],[40.9959,3.5641,593.4797],[40.9965,3.5777,581.8251],[40.9897,3.5911,567.4177],[40.9933,3.6013,567.0688],[40.9987,3.6063,556.1541],[40.9976,3.6105,560.8884]]]]}
,"properties": {"GID_3": "KEN.24.4.1_1","GID_0": "KEN","country": "Kenya","GID_1": "KEN.24_1","province": "Mandera","NL_NAME_1": "NA","GID_2": "KEN.24.4_1","county": "ManderaNorth","NL_NAME_2": "NA","city": "Ashabito","VARNAME_3": "NA","NL_NAME_3": "NA","TYPE_3": "Ward","ENGTYPE_3": "Ward","CC_3": "201","HASC_3": "NA","name": "Ashabito.city","area_km2": 1524.378,"hist_schema_id": "Elevation0-9000","hist_area_km2": {"450": 20.811,"475": 27.839,"500": 30.843,"525": 109.67,"550": 127.04,"575": 138.359,"600": 172.536,"625": 275.897,"650": 197.973,"675": 179.05,"700": 111.917,"725": 65.63,"750": 46.92,"775": 15.026,"800": 4.444,"825": 0.423}}}