{"type": "Feature","bbox": [39.7792,2.1761,41.9262,4.2772],"geometry": {"type": "MultiPolygon","coordinates": [[[[40.9875,2.3415,325.5275],[40.9861,2.7015,395.9285],[40.9875,2.7326,384.6101],[40.9854,2.7849,384.4778],[40.9866,2.8194,381.9519],[40.9921,2.8248,382.034],[40.9921,2.8297,381.8165],[41.0812,2.9168,382.2021],[41.1335,2.9708,371.686],[41.2857,3.1153,391.5249],[41.3281,3.1586,396.5791],[41.6106,3.5641,450.3736],[41.6614,3.6392,343.8994],[41.7239,3.7256,316.9006],[41.7249,3.7236,317.4974],[41.8602,3.9127,250.6406],[41.8729,3.9366,217.0121],[41.8991,3.9755,194.9337],[41.9069,3.978,195.5829],[41.9131,3.9908,193.4716],[41.9214,3.9941,193.3619],[41.9262,4.0023,198.3691],[41.9139,3.9964,192.4818],[41.9007,3.9853,195.3165],[41.8836,3.9869,196.1357],[41.8589,3.9867,202.7146],[41.8436,3.9807,218.1472],[41.7988,3.975,205.2353],[41.7673,3.9804,208.2432],[41.752,3.9745,210.4415],[41.7245,3.9696,232.2027],[41.6976,3.9721,216.2618],[41.6774,3.9666,217.0353],[41.6528,3.9664,219.4334],[41.5784,3.961,230.1642],[41.5558,3.9557,243.2161],[41.4972,3.9611,233.8781],[41.4721,3.9561,236.2798],[41.433,3.9597,295.0084],[41.3786,3.9573,242.7525],[41.332,3.9592,252.5969],[41.288,3.9633,259.9187],[41.2151,3.9749,276.2968],[41.1917,3.9599,267.7884],[41.1721,3.9617,266.5701],[41.1463,3.9764,308.9723],[41.1127,3.9869,271.1177],[41.1013,3.9977,273.0174],[41.057,4.0264,290.0303],[41.0418,4.05,332.6892],[41.0255,4.0613,352.7986],[41.0072,4.0778,427.9396],[40.9814,4.0925,430.7728],[40.9546,4.1245,479.8028],[40.9369,4.1483,349.8627],[40.881,4.1854,418.4605],[40.8263,4.2372,507.1478],[40.8056,4.2539,371.7234],[40.7922,4.2699,312.8888],[40.7752,4.2772,384.8793],[40.7586,4.2686,551.0663],[40.743899999999996,4.258,537.9628],[40.7211,4.2454,663.8954],[40.706,4.243,745.9647],[40.6871,4.2311,801.5771],[40.6704,4.2294,816.627],[40.649,4.2211,820.1644],[40.4396,4.1341,915.0726],[40.3998,4.1159,921.5593],[40.3846,4.101,960.5823],[40.3726,4.1025,972.6222],[40.2309,4.0463,1030.2119],[40.1908,4.0361,1017.9229],[40.1264,4.0024,876.2795],[40.119,3.9963,858.4099],[40.1066,3.9896,843.3348],[40.0181,3.9474,770.9119],[39.8619,3.8641,860.8292],[39.8543,3.8462,821.4185],[39.8366,3.8133,840.4786],[39.7792,3.6865,879.4476],[39.7826,3.6579,910.9205],[39.7853,3.6603,903.973],[39.7859,3.3399,790.6484],[39.7871,3.3365,777.3726],[39.8077,3.3279,735.8721],[40.0335,3.2373,610.3807],[40.0337,3.2337,610.0048],[40.0437,3.2283,598.1824],[40.1699,3.0907,534.627],[40.2639,2.9803,489.6411],[40.2681,2.9805,488.8261],[40.2701,2.9717,513.8856],[40.4931,2.8687,449.0211],[40.4953,2.8583,442.7868],[40.4939,2.8563,442.2444],[40.4973,2.8515,441.6497],[40.4945,2.8455,441.9767],[40.4947,2.8391,440.0384],[40.4991,2.8343,439.1941],[40.4965,2.8269,436.1763],[40.4985,2.8213,434.2852],[40.4955,2.8191,433.9287],[40.5031,2.8103,436.8608],[40.4963,2.8049,430.9643],[40.4943,2.7999,430.6628],[40.4957,2.7979,429.7271],[40.5021,2.7955,429.6078],[40.5011,2.7873,432.5211],[40.5035,2.7843,430.9407],[40.5083,2.7845,428.7575],[40.5129,2.7787,425.6342],[40.5187,2.7779,424.0934],[40.5207,2.7761,422.5301],[40.5185,2.7739,421.5734],[40.5179,2.7701,425.9036],[40.5193,2.7659,423.5216],[40.5179,2.7555,423.5816],[40.5193,2.7527,423.3089],[40.5199,2.7403,418.043],[40.5121,2.7351,416.6738],[40.5065,2.7257,416.8083],[40.4997,2.7229,413.5784],[40.4999,2.7201,410.13],[40.5127,2.7031,404.0821],[40.5161,2.7015,404.232],[40.5213,2.6919,406.7774],[40.5267,2.6739,396.4969],[40.5269,2.6661,401.696],[40.5357,2.6529,393.3422],[40.5499,2.6111,385.857],[40.5491,2.6023,385.8184],[40.5539,2.5935,384.6046],[40.5599,2.5891,375.9645],[40.5581,2.5787,381.0684],[40.5629,2.5727,375.1657],[40.5653,2.5667,374.9434],[40.5689,2.5651,369.5634],[40.5793,2.5497,368.4136],[40.5793,2.5303,363.3731],[40.5969,2.5131,357.0309],[40.5973,2.5099,360.7535],[40.5915,2.5031,361.7283],[40.5939,2.4997,356.3302],[40.6037,2.4927,352.4756],[40.6033,2.4819,351.207],[40.6135,2.4643,346.7852],[40.6215,2.4551,344.7731],[40.6291,2.4499,342.7625],[40.6319,2.4449,342.1561],[40.6363,2.4417,340.6628],[40.6385,2.4421,340.399],[40.6411,2.4371,340.246],[40.6557,2.4337,336.5409],[40.6617,2.4283,336.378],[40.6639,2.4249,336.2881],[40.6645,2.4099,334.2667],[40.6659,2.4065,336.7869],[40.6655,2.3911,335.3081],[40.6749,2.3837,332.757],[40.6763,2.3761,333.3521],[40.6905,2.3685,323.9361],[40.7105,2.3491,319.9211],[40.7131,2.3453,321.2182],[40.7161,2.3329,321.0717],[40.7225,2.3253,316.1779],[40.7409,2.3133,312.2569],[40.7561,2.3163,310.7867],[40.7745,2.3141,311.7426],[40.8011,2.2917,304.0665],[40.8233,2.2923,301.6747],[40.8329,2.2881,299.2281],[40.8573,2.2627,294.6177],[40.8627,2.2531,291.4996],[40.8645,2.2409,290.1148],[40.8673,2.2357,288.4095],[40.8843,2.2165,283.9925],[40.9003,2.2029,280.2935],[40.9203,2.1881,279.7213],[40.9437,2.1773,275.6816],[40.9651,2.1761,278.71],[40.9786,2.1784,285.2245],[40.9869,2.2289,294.3124],[40.9875,2.3415,325.5275]]]]}
,"properties": {"GID_1": "KEN.24_1","GID_0": "KEN","country": "Kenya","province": "Mandera","VARNAME_1": "NA","NL_NAME_1": "NA","TYPE_1": "County","ENGTYPE_1": "County","CC_1": "9","HASC_1": "KE.MD","ISO_1": "KE-24","name": "Mandera.province","area_km2": 25895.46,"hist_schema_id": "Elevation0-9000","hist_area_km2": {"200": 53.81,"225": 169.5,"250": 256.31,"275": 331.42,"300": 527.26,"325": 670.28,"350": 662.44,"375": 1181.82,"400": 1843.48,"425": 1730.68,"450": 1429.34,"475": 1253.35,"500": 1212.84,"525": 1039.82,"550": 1068.41,"575": 1067.89,"600": 1186.01,"625": 1236.45,"650": 1126.87,"675": 1111.97,"700": 1008.59,"725": 1092.49,"750": 886.96,"775": 829.5,"800": 783.31,"825": 546.29,"850": 388.41,"875": 321.63,"900": 309.04,"925": 189.66,"950": 121.72,"975": 132.06,"1000": 81.7,"1025": 39.89,"1050": 1.14,"1075": 0.95,"1100": 0.53,"1125": 0.51,"1150": 0.51,"1175": 0.34,"1200": 0.21}}}