{"type":"Feature","properties":{"GID_3":"KEN.30.2.2_1","GID_0":"KEN","country":"Kenya","GID_1":"KEN.30_1","province":"Nairobi","NL_NAME_1":"NA","GID_2":"KEN.30.2_1","county":"DagorettiSouth","NL_NAME_2":"NA","city":"Kawangware","VARNAME_3":"NA","NL_NAME_3":"NA","TYPE_3":"Ward","ENGTYPE_3":"Ward","CC_3":"1372","HASC_3":"NA","name":"Kawangware.city"},
"geometry":{"type": "MultiPolygon","coordinates": [[[[36.7492,-1.2717,1814.9172],[36.7373,-1.2754,1838.843],[36.7418,-1.2805,1802.0243],[36.7428,-1.2862,1813.5466],[36.752,-1.2904,1800.3331],[36.7537,-1.2825,1798.1399],[36.7492,-1.2717,1814.9172]]]]}}