{"type":"Feature","properties":{"GID_3":"KEN.11.6.7_1","GID_0":"KEN","country":"Kenya","GID_1":"KEN.11_1","province":"Kakamega","NL_NAME_1":"NA","GID_2":"KEN.11.6_1","county":"Malava","NL_NAME_2":"NA","city":"WestKabras","VARNAME_3":"NA","NL_NAME_3":"NA","TYPE_3":"Ward","ENGTYPE_3":"Ward","CC_3":"1002","HASC_3":"NA","name":"West_Kabras.city"},
"geometry":{"type": "MultiPolygon","coordinates": [[[[34.7377,0.4581,1501.4989],[34.7242,0.4401,1484.9557],[34.7239,0.4327,1457.9814],[34.7193,0.429,1467.0164],[34.7179,0.43,1466.4365],[34.7154,0.4282,1460.5542],[34.715,0.4241,1449.8337],[34.7138,0.4229,1451.7476],[34.7126,0.4242,1455.7157],[34.7099,0.42,1462.7689],[34.7165,0.4186,1442.1785],[34.7193,0.4088,1468.4713],[34.7236,0.4058,1468.5952],[34.7217,0.4014,1445.0762],[34.7236,0.398,1458.0831],[34.7413,0.3918,1500.6626],[34.7509,0.395,1516.9694],[34.7544,0.3941,1554.1361],[34.7622,0.3989,1518.9407],[34.7851,0.4025,1554.791],[34.7884,0.4014,1555.5876],[34.7962,0.3937,1571.5839],[34.8019,0.3927,1560.5995],[34.8025,0.3956,1554.6361],[34.8008,0.4033,1553.8851],[34.7971,0.41,1523.5618],[34.797,0.4157,1527.7261],[34.7903,0.422,1493.7461],[34.7889,0.4296,1494.4163],[34.7856,0.4343,1495.2932],[34.7859,0.4373,1487.9634],[34.7825,0.4392,1502.579],[34.7817,0.4413,1501.4863],[34.7776,0.4403,1510.1328],[34.7748,0.4413,1511.701],[34.7744,0.4482,1528.5005],[34.7706,0.4515,1557.5179],[34.7681,0.4574,1521.7977],[34.7606,0.4586,1531.0032],[34.7499,0.4519,1516.0931],[34.7448,0.456,1507.8296],[34.7415,0.4556,1510.3478],[34.7377,0.4581,1501.4989]]]]}}