{"type": "Feature","bbox": [34.6287,-0.5987,34.7962,-0.3975],"geometry": {"type": "MultiPolygon","coordinates": [[[[34.6388,-0.4809,1265.7468],[34.6372,-0.4819,1268.549],[34.6389,-0.484,1254.3324],[34.6386,-0.488,1213.9404],[34.633,-0.4952,1247.142],[34.6354,-0.501,1230.2207],[34.6287,-0.5132,1264.3502],[34.6354,-0.5226,1287.7218],[34.6337,-0.5274,1327.6903],[34.6377,-0.5322,1358.3945],[34.6342,-0.5396,1345.9657],[34.6351,-0.5482,1398.6382],[34.6414,-0.5534,1402.2605],[34.6452,-0.5668,1429.5305],[34.647,-0.5688,1449.8994],[34.6507,-0.5695,1430.9402],[34.6491,-0.5764,1403.9993],[34.6456,-0.5803,1454.6219],[34.653,-0.5861,1448.0824],[34.6607,-0.5987,1473.7844],[34.6853,-0.5967,1497.5668],[34.6897,-0.5902,1446.6948],[34.6963,-0.5851,1455.4467],[34.7015,-0.5707,1464.2351],[34.7098,-0.5636,1441.7195],[34.7122,-0.553,1458.7847],[34.7234,-0.5553,1484.7073],[34.7298,-0.5511,1503.4172],[34.7384,-0.5539,1490.9475],[34.7485,-0.5535,1533.7126],[34.7529,-0.5514,1546.6475],[34.7611,-0.5426,1569.1807],[34.7611,-0.5388,1555.8936],[34.7653,-0.5344,1605.8821],[34.7681,-0.5283,1530.2902],[34.7762,-0.5286,1547.5142],[34.7777,-0.527,1515.2057],[34.7782,-0.5294,1527.0796],[34.7804,-0.5293,1523.7214],[34.7892,-0.5273,1547.1285],[34.7919,-0.5236,1569.226],[34.7887,-0.5197,1545.2709],[34.7798,-0.5147,1480.9839],[34.7857,-0.5121,1599.8596],[34.7829,-0.5044,1467.9591],[34.7862,-0.5008,1475.0344],[34.7899,-0.4923,1429.5438],[34.7878,-0.4897,1423.85],[34.7962,-0.4829,1461.4452],[34.7945,-0.471,1426.1349],[34.787,-0.461,1369.8289],[34.7866,-0.4462,1357.8246],[34.7766,-0.4385,1318.5549],[34.7727,-0.4287,1329.8333],[34.7679,-0.4256,1320.6814],[34.7629,-0.4181,1322.5314],[34.7581,-0.4161,1338.6268],[34.7569,-0.4175,1339.4453],[34.7477,-0.4123,1322.4561],[34.7445,-0.4132,1330.5892],[34.7279,-0.4088,1328.6763],[34.7234,-0.4099,1285.8788],[34.7213,-0.4088,1280.9766],[34.72,-0.4052,1304.7997],[34.7132,-0.4072,1297.614],[34.7044,-0.404,1293.7751],[34.6975,-0.4047,1259.3687],[34.6963,-0.4019,1272.1328],[34.6943,-0.4026,1261.0353],[34.6913,-0.3975,1324.0613],[34.6831,-0.4168,1276.6187],[34.6755,-0.4261,1268.1891],[34.6702,-0.4273,1226.6567],[34.6723,-0.4339,1248.9929],[34.6692,-0.4367,1251.9136],[34.6559,-0.4645,1299.6233],[34.65,-0.4723,1287.6401],[34.6388,-0.4809,1265.7468]]],
[[[34.6701,-0.427,1226.6567],[34.67,-0.4263,1226.6567],[34.6694,-0.4259,1220.1528],[34.6695,-0.4262,1220.1528],[34.67,-0.4265,1226.6567],[34.6701,-0.427,1226.6567]]],
[[[34.6693,-0.4258,1220.1528],[34.6694,-0.4259,1220.1528],[34.6693,-0.4256,1220.1528],[34.6688,-0.4252,1220.1528],[34.6689,-0.4255,1220.1528],[34.6693,-0.4258,1220.1528]]]]}
,"properties": {"GID_2": "KEN.8.4_1","GID_0": "KEN","country": "Kenya","GID_1": "KEN.8_1","province": "HomaBay","NL_NAME_1": "NA","county": "Kasipul","VARNAME_2": "NA","NL_NAME_2": "NA","TYPE_2": "Constituency","ENGTYPE_2": "Constituency","CC_2": "245","HASC_2": "NA","name": "Kasipul.county","area_km2": 259.2932,"hist_schema_id": "Elevation0-9000","hist_area_km2": {"1200": 0.0212,"1225": 1.7173,"1250": 9.0318,"1275": 22.5584,"1300": 31.4418,"1325": 33.2439,"1350": 32.5654,"1375": 29.4063,"1400": 27.0953,"1425": 22.6854,"1450": 20.3109,"1475": 12.9328,"1500": 8.2049,"1525": 4.3463,"1550": 1.8233,"1575": 0.6572,"1600": 0.5724,"1625": 0.318,"1650": 0.3604}}}