{"type":"Feature","properties":{"GID_3":"KEN.29.5.3_1","GID_0":"KEN","country":"Kenya","GID_1":"KEN.29_1","province":"Murang'a","NL_NAME_1":"NA","GID_2":"KEN.29.5_1","county":"Kiharu","NL_NAME_2":"NA","city":"Mugoiri","VARNAME_3":"NA","NL_NAME_3":"NA","TYPE_3":"Ward","ENGTYPE_3":"Ward","CC_3":"523","HASC_3":"NA","name":"Mugoiri.city"},
"geometry":{"type": "MultiPolygon","coordinates": [[[[37.0201,-0.7729,1656.9846],[37.0323,-0.7715,1561.0513],[37.0429,-0.7674,1543.1274],[37.0545,-0.7768,1530.1578],[37.0608,-0.7759,1487.9116],[37.0624,-0.774,1498.3877],[37.0798,-0.777,1401.312],[37.085,-0.7793,1398.9877],[37.0814,-0.7684,1400.4822],[37.0827,-0.7671,1383.1647],[37.0871,-0.7705,1393.2095],[37.0924,-0.7712,1373.0991],[37.0939,-0.7687,1370.5797],[37.092,-0.7678,1376.9856],[37.0923,-0.7612,1408.7471],[37.0981,-0.7608,1412.5944],[37.0972,-0.7533,1403.8182],[37.0936,-0.7471,1409.9216],[37.0965,-0.7429,1384.6985],[37.0834,-0.7468,1450.3738],[37.0841,-0.7322,1474.087],[37.0762,-0.7334,1528.1321],[37.0748,-0.7316,1544.1375],[37.0715,-0.7338,1534.9138],[37.0698,-0.7322,1552.9448],[37.0682,-0.7338,1538.0807],[37.068,-0.7324,1565.179],[37.065,-0.7335,1541.5438],[37.0587,-0.7313,1556.2008],[37.0569,-0.7348,1557.1415],[37.0541,-0.7354,1588.1765],[37.05,-0.7315,1569.1543],[37.0472,-0.7319,1571.3984],[37.0432,-0.7287,1600.6687],[37.0409,-0.7308,1574.9812],[37.033,-0.7265,1623.094],[37.0307,-0.7284,1634.7512],[37.0288,-0.7275,1639.8807],[37.0255,-0.729,1623.0396],[37.0232,-0.7271,1645.0149],[37.0133,-0.7265,1634.251],[37.0121,-0.7292,1662.427],[37.0055,-0.7313,1679.0072],[37.003,-0.7369,1599.0751],[36.9986,-0.7411,1670.2773],[36.9942,-0.7388,1637.5913],[36.9885,-0.7383,1706.3798],[36.9829,-0.734,1661.106],[36.9764,-0.7344,1643.3257],[36.9755,-0.7363,1714.4709],[36.9671,-0.7388,1665.3071],[36.9645,-0.7458,1726.2228],[36.9641,-0.7633,1814.4429],[36.9707,-0.7622,1735.7324],[36.9729,-0.7657,1737.7927],[36.9792,-0.7676,1677.2891],[36.9844,-0.7673,1699.3157],[36.9863,-0.7646,1682.0133],[36.9962,-0.766,1663.0057],[37.0039,-0.7694,1651.1677],[37.0059,-0.7667,1679.5597],[37.0084,-0.7662,1635.1],[37.0164,-0.7701,1620.7837],[37.017,-0.7727,1576.8418],[37.0201,-0.7729,1656.9846]]]]}}