{"type":"Feature","properties":{"GID_3":"KEN.12.2.1_1","GID_0":"KEN","country":"Kenya","GID_1":"KEN.12_1","province":"Kericho","NL_NAME_1":"NA","GID_2":"KEN.12.2_1","county":"Belgut","NL_NAME_2":"NA","city":"Chaik","VARNAME_3":"NA","NL_NAME_3":"NA","TYPE_3":"Ward","ENGTYPE_3":"Ward","CC_3":"960","HASC_3":"NA","name":"Chaik.city"},
"geometry":{"type": "MultiPolygon","coordinates": [[[[35.3121,-0.5063,2062.2615],[35.3499,-0.4849,2176.5327],[35.3516,-0.4823,2171.5679],[35.356,-0.4835,2208.6885],[35.361,-0.4783,2225.3018],[35.3655,-0.4778,2232.7925],[35.3692,-0.4794,2203.8396],[35.3704,-0.4777,2223.5122],[35.3761,-0.4761,2254.27],[35.3778,-0.472,2235.2554],[35.3802,-0.4716,2207.0786],[35.3786,-0.4705,2219.8438],[35.3808,-0.4674,2205.1819],[35.3858,-0.4698,2246.9746],[35.3878,-0.4641,2236.5503],[35.3888,-0.4632,2256.3347],[35.3896,-0.4643,2256.3347],[35.3918,-0.46,2261.6897],[35.3938,-0.4592,2258.1919],[35.3946,-0.4553,2292.0176],[35.3985,-0.4543,2274.5781],[35.4006,-0.4573,2264.4568],[35.4044,-0.455,2258.553],[35.406,-0.4568,2296.5237],[35.4088,-0.4554,2268.2852],[35.4113,-0.4512,2280.6997],[35.4144,-0.4515,2275.437],[35.4182,-0.4491,2259.647],[35.4239,-0.4517,2325.0972],[35.4249,-0.4495,2327.1685],[35.4257,-0.4514,2326.439],[35.4277,-0.4506,2309.6602],[35.4323,-0.4447,2314.407],[35.4314,-0.4429,2329.5859],[35.4328,-0.4382,2356.5286],[35.4356,-0.4365,2320.9917],[35.4355,-0.4326,2345.1199],[35.4386,-0.4318,2352.0835],[35.4413,-0.4247,2332.8264],[35.446,-0.4225,2342.9409],[35.4473,-0.4232,2372.3816],[35.4534,-0.4189,2392.6313],[35.4533,-0.4162,2407.5168],[35.4605,-0.4049,2413.7488],[35.4633,-0.4041,2377.689],[35.4644,-0.3997,2385.6836],[35.4689,-0.4,2423.3062],[35.4695,-0.3977,2398.4563],[35.4738,-0.3951,2442.7603],[35.4427,-0.3443,2370.5874],[35.4295,-0.359,2349.1243],[35.4207,-0.3648,2301.7029],[35.4137,-0.3649,2345.833],[35.4072,-0.37,2344.7659],[35.3962,-0.3714,2335.1267],[35.391,-0.3745,2309.9668],[35.3846,-0.3711,2258.7837],[35.3822,-0.3749,2287.3567],[35.3789,-0.3754,2260.4219],[35.3732,-0.3728,2201.6746],[35.3683,-0.3741,2195.5498],[35.3606,-0.3696,2164.4937],[35.3581,-0.3711,2151.7661],[35.3566,-0.3691,2184.741],[35.3544,-0.3697,2183.1499],[35.3531,-0.3727,2168.2183],[35.3457,-0.3712,2157.355],[35.3432,-0.3684,2140.6294],[35.3441,-0.364,2148.7458],[35.3384,-0.3532,2070.7405],[35.3312,-0.3463,2046.7378],[35.3266,-0.3438,2056.1245],[35.3245,-0.3458,2043.2802],[35.3179,-0.3451,2051.342],[35.3173,-0.3469,2037.449],[35.3116,-0.3487,2052.7336],[35.3093,-0.3532,2017.0455],[35.3008,-0.3558,2018.7207],[35.2992,-0.3589,2026.6355],[35.3051,-0.3655,2042.8644],[35.2829,-0.3845,1981.3311],[35.2921,-0.3931,2081.74],[35.281,-0.3946,1983.7562],[35.272,-0.3908,1945.2126],[35.2668,-0.3938,1942.5978],[35.2671,-0.3961,1950.4937],[35.2648,-0.3988,1946.5497],[35.2619,-0.398,1958.2296],[35.2562,-0.3998,1941.6552],[35.254,-0.402,1935.0033],[35.2457,-0.405,1927.6255],[35.2382,-0.4,1966.9706],[35.2327,-0.3922,1931.0775],[35.2285,-0.3962,1940.6716],[35.216,-0.4282,1900.6962],[35.2106,-0.4335,1889.9648],[35.2066,-0.4411,1864.5161],[35.2065,-0.4457,1884.7902],[35.198,-0.4549,1827.8881],[35.1824,-0.4555,1757.26],[35.1789,-0.4566,1778.6086],[35.1786,-0.4584,1758.865],[35.1768,-0.4578,1779.7157],[35.1769,-0.4553,1779.0306],[35.1755,-0.4575,1766.2834],[35.173,-0.4568,1748.7848],[35.1701,-0.4527,1731.1121],[35.1682,-0.4554,1702.563],[35.1658,-0.455,1703.9961],[35.1639,-0.4506,1749.0459],[35.1635,-0.4518,1720.5068],[35.1609,-0.4514,1731.8357],[35.1614,-0.4529,1731.8357],[35.1574,-0.4568,1733.6733],[35.1595,-0.4603,1714.1471],[35.1626,-0.4631,1711.2207],[35.1646,-0.4628,1710.6261],[35.1673,-0.4662,1741.6688],[35.169,-0.4661,1742.7529],[35.17,-0.4637,1726.8964],[35.1736,-0.4647,1721.2853],[35.1731,-0.4686,1722.877],[35.1785,-0.4756,1758.6685],[35.1774,-0.4772,1731.2493],[35.1803,-0.4773,1761.7275],[35.1815,-0.4755,1774.616],[35.1823,-0.48,1768.8623],[35.1838,-0.4788,1785.4493],[35.1843,-0.4806,1768.8623],[35.1875,-0.4806,1787.5525],[35.1882,-0.478,1800.0272],[35.1915,-0.4791,1777.2244],[35.1913,-0.4777,1792.4193],[35.1941,-0.4766,1791.9901],[35.1974,-0.4788,1789.9495],[35.2001,-0.4771,1793.4432],[35.2035,-0.4774,1784.6398],[35.2049,-0.4749,1763.4323],[35.2061,-0.4766,1784.1538],[35.2066,-0.4751,1773.0945],[35.2155,-0.4747,1817.8474],[35.2163,-0.4718,1829.3179],[35.2206,-0.4699,1821.1959],[35.2215,-0.467,1828.4735],[35.2086,-0.4616,1813.1934],[35.2099,-0.4579,1834.5206],[35.2137,-0.457,1827.2334],[35.2156,-0.4548,1816.1947],[35.2152,-0.4525,1828.0516],[35.2168,-0.4531,1822.3357],[35.217,-0.4507,1827.4392],[35.219,-0.4503,1803.2296],[35.2192,-0.4488,1829.2356],[35.217,-0.4495,1824.58],[35.2183,-0.448,1829.2356],[35.2175,-0.4465,1843.488],[35.2191,-0.4431,1854.0359],[35.2209,-0.4429,1857.1842],[35.2254,-0.4328,1891.3761],[35.2271,-0.4331,1852.3348],[35.2289,-0.43,1830.0894],[35.2286,-0.4248,1857.202],[35.2312,-0.4224,1886.7389],[35.2295,-0.4203,1902.2356],[35.2327,-0.4169,1875.9219],[35.2372,-0.4187,1866.2927],[35.2421,-0.4182,1923.2661],[35.2474,-0.4174,1890.8813],[35.2508,-0.4146,1915.2318],[35.2561,-0.4181,1890.2793],[35.2608,-0.4187,1936.8007],[35.2775,-0.4118,1974.7014],[35.2794,-0.4142,1986.3979],[35.2867,-0.4127,1967.5936],[35.2915,-0.4181,2006.1179],[35.3034,-0.4203,2066.5825],[35.3079,-0.4198,2087.6255],[35.3148,-0.4154,2114.124],[35.2834,-0.4858,1982.5208],[35.2889,-0.4856,1962.8074],[35.2898,-0.4825,1980.9104],[35.2929,-0.4826,1983.2479],[35.2936,-0.4848,1943.8439],[35.3,-0.4897,1998.7916],[35.3037,-0.4905,2003.7354],[35.3114,-0.498,2043.0056],[35.3106,-0.5033,2028.3823],[35.3121,-0.5063,2062.2615]]]]}}