{"type": "Feature","bbox": [35.4308,0.851,35.5594,1.0118],"geometry": {"type": "MultiPolygon","coordinates": [[[[35.5416,0.8735,2509.196],[35.543,0.8939,2511.9006],[35.5502,0.8988,2552.1809],[35.5552,0.9082,2476.7559],[35.5533,0.9187,2417.8452],[35.5479,0.9213,2531.8435],[35.5574,0.9226,2389.1333],[35.5594,0.9249,2382.7957],[35.5547,0.9272,2412.2769],[35.5542,0.9297,2415.7227],[35.5492,0.9347,2372.2285],[35.5424,0.935,2325.9189],[35.536,0.9465,2452.0259],[35.5218,0.9643,2539.584],[35.5143,0.9516,2407.7966],[35.5142,0.9697,2478.5508],[35.5119,0.9718,2455.8052],[35.5115,0.9761,2541.4922],[35.507,0.9725,2499.9604],[35.5002,0.976,2470.625],[35.4959,0.9837,2556.2705],[35.4945,0.9897,2660.8962],[35.497,0.9907,2613.9229],[35.4971,0.9924,2623.0281],[35.4939,0.9997,2732.0117],[35.482,0.9961,2623.8804],[35.4811,0.9975,2640.6147],[35.4757,0.9985,2470.1636],[35.4757,1.0022,2489.4441],[35.4678,1.0006,2680.916],[35.4676,1.0062,2719.0205],[35.4584,1.0056,2814.5366],[35.4483,1.0077,2703.4893],[35.4388,1.0076,2809.4321],[35.4355,1.0118,2794.6533],[35.434,1.0089,2723.3093],[35.4343,0.9968,2642.3979],[35.4308,0.9852,2611.0391],[35.4381,0.9686,2536.9211],[35.4405,0.9523,2647.5786],[35.4444,0.9496,2581.4404],[35.4418,0.9412,2505.3533],[35.4458,0.9411,2518.1887],[35.4457,0.9381,2469.6536],[35.4495,0.9385,2530.4692],[35.4492,0.9359,2483.4243],[35.4529,0.9374,2485.6157],[35.4533,0.934,2450.7212],[35.4557,0.9318,2487.7583],[35.4524,0.9169,2444.8137],[35.4479,0.9147,2276.5178],[35.4503,0.9141,2333.7056],[35.4507,0.9085,2437.2861],[35.4689,0.906,2282.739],[35.4653,0.9032,2334.0269],[35.4632,0.8934,2223.2341],[35.4584,0.8883,2227.2686],[35.4562,0.8823,2225.7993],[35.4885,0.882,2332.3511],[35.487,0.8799,2323.9417],[35.4878,0.8736,2320.5601],[35.4913,0.871,2360.8577],[35.4898,0.8697,2312.8647],[35.4917,0.8668,2301.6052],[35.4911,0.8606,2276.9788],[35.4932,0.8593,2301.2188],[35.4901,0.851,2317.0874],[35.5146,0.8634,2445.4368],[35.5177,0.8629,2452.7966],[35.5207,0.8649,2444.2583],[35.5275,0.8656,2493.6619],[35.5307,0.8715,2454.6499],[35.5372,0.8737,2521.9807],[35.5416,0.8735,2509.196]]],
[[[35.4739,1.0062,2535.251],[35.4728,1.0061,2535.251],[35.4721,1.0056,2619.9756],[35.4735,1.005,2547.4453],[35.4739,1.0062,2535.251]]]]}
,"properties": {"GID_3": "KEN.5.4.4_1","GID_0": "KEN","country": "Kenya","GID_1": "KEN.5_1","province": "Elgeyo-Marakwet","NL_NAME_1": "NA","GID_2": "KEN.5.4_1","county": "MarakwetWest","NL_NAME_2": "NA","city": "Moiben/Kuserwo","VARNAME_3": "NA","NL_NAME_3": "NA","TYPE_3": "Ward","ENGTYPE_3": "Ward","CC_3": "738","HASC_3": "NA","name": "Moiben_Kuserwo.city","area_km2": 137.5205,"hist_schema_id": "Elevation0-9000","hist_area_km2": {"2150": 0.1908,"2175": 0.3604,"2200": 0.2968,"2225": 0.4452,"2250": 0.636,"2275": 0.8268,"2300": 1.8656,"2325": 3.1587,"2350": 6.0631,"2375": 10.091,"2400": 13.6313,"2425": 17.1928,"2450": 16.6204,"2475": 12.6773,"2500": 10.9601,"2525": 8.8189,"2550": 8.5009,"2575": 4.9606,"2600": 3.3707,"2625": 3.2435,"2650": 3.0527,"2675": 2.6075,"2700": 2.4803,"2725": 1.9927,"2750": 1.2083,"2775": 0.8904,"2800": 0.4664,"2825": 0.3604,"2850": 0.2544,"2875": 0.2544,"2900": 0.0424}}}