{"type": "Feature","bbox": [41.2059,-2.0471,41.5624,-1.658],"geometry": {"type": "MultiPolygon","coordinates": [[[[41.2532,-2.0112,0.0],[41.2501,-2.0107,0.0],[41.2485,-2.0126,0.0],[41.249,-2.0146,3.3034],[41.2449,-2.0196,3.1808],[41.2446,-2.0235,2.6102],[41.2465,-2.0263,0.0],[41.249,-2.026,3.5806],[41.2521,-2.0215,0.0],[41.2518,-2.0149,0.9424],[41.2554,-2.0126,0.0],[41.2532,-2.0112,0.0]]],
[[[41.2599,-2.0146,2.0683],[41.2588,-2.0137,0.0],[41.2576,-2.0154,0.0],[41.2582,-2.0215,0.0],[41.261,-2.0165,2.5475],[41.2599,-2.0146,2.0683]]],
[[[41.2668,-1.9643,0.8437],[41.2626,-1.9637,0.0],[41.2496,-1.9712,0.0],[41.2493,-1.9746,8.2747],[41.2474,-1.974,0.7274],[41.2485,-1.9835,9.5583],[41.2471,-1.9887,4.758],[41.2518,-1.9965,1.1959],[41.2687,-2.0026,3.7261],[41.2676,-2.0093,3.8941],[41.2624,-2.016,0.0],[41.259,-2.0246,20.1036],[41.2368,-2.0471,0.0],[41.2551,-2.0321,2.4839],[41.2565,-2.034,0.0],[41.2579,-2.0335,0.0],[41.2596,-2.0276,3.874],[41.2679,-2.0165,0.0],[41.2774,-2.0085,0.0],[41.2935,-1.9854,20.4778],[41.2976,-1.9835,1.2595],[41.3076,-1.9718,2.5742],[41.3071,-1.9685,1.3287],[41.3043,-1.9685,5.7932],[41.2868,-1.9865,12.3971],[41.2824,-1.9943,2.4544],[41.2788,-1.9974,3.0537],[41.2743,-1.9976,0.0],[41.2668,-1.991,0.0],[41.2643,-1.9912,0.0],[41.2635,-1.9929,0.7873],[41.2615,-1.9921,1.7928],[41.2607,-1.9937,1.1838],[41.2562,-1.9935,4.6619],[41.2657,-1.9882,1.0158],[41.2621,-1.9843,0.0],[41.2599,-1.9882,2.8069],[41.2568,-1.9876,0.0],[41.2574,-1.9854,0.0],[41.2596,-1.9857,0.0],[41.2618,-1.9829,0.0],[41.2596,-1.9801,0.7753],[41.2618,-1.9796,0.9435],[41.2682,-1.9874,0.0],[41.2732,-1.9763,0.0],[41.2668,-1.9643,0.8437]]],
[[[41.2757,-1.9837,0.0],[41.2738,-1.9824,0.0],[41.271,-1.9851,0.0],[41.2704,-1.9918,0.0],[41.2746,-1.9954,0.0],[41.279,-1.9954,1.4114],[41.281,-1.9918,3.1347],[41.2757,-1.9896,1.2409],[41.2768,-1.9876,0.0],[41.2757,-1.9837,0.0]]],
[[[41.2449,-1.9726,1.372],[41.244,-1.9715,1.669],[41.2426,-1.9738,5.6095],[41.244,-1.9763,0.0],[41.2446,-1.9763,0.0],[41.2449,-1.9726,1.372]]],
[[[41.369,-1.9085,0.0],[41.3671,-1.9079,0.0],[41.3651,-1.9107,1.6776],[41.3668,-1.9107,1.4668],[41.369,-1.9085,0.0]]],
[[[41.3726,-1.9007,0.0],[41.3721,-1.8996,0.0],[41.3707,-1.9035,0.9733],[41.3721,-1.9029,0.0],[41.3726,-1.9007,0.0]]],
[[[41.4329,-1.8254,8.192],[41.4313,-1.8251,0.0],[41.4304,-1.8268,3.6145],[41.4301,-1.8321,4.4153],[41.4313,-1.8326,4.4153],[41.4343,-1.8276,0.0],[41.4329,-1.8254,8.192]]],
[[[41.4401,-1.8246,0.0],[41.4393,-1.8232,3.8685],[41.4368,-1.8246,2.9005],[41.4368,-1.829,0.8505],[41.4376,-1.8265,3.1207],[41.4401,-1.8246,0.0]]],
[[[41.3719,-1.6741,27.653],[41.2435,-1.6857,27.453],[41.2059,-1.8752,13.0512],[41.2641,-1.8295,119.9024],[41.2573,-1.8468,34.9449],[41.2483,-1.8621,15.7053],[41.2287,-1.8835,11.607],[41.2155,-1.902,2.0398],[41.2171,-1.9117,1.8899],[41.2197,-1.9103,1.9134],[41.2179,-1.9179,3.3291],[41.2207,-1.9176,1.9547],[41.2193,-1.9149,2.2498],[41.2215,-1.9165,1.9547],[41.2201,-1.9251,1.4465],[41.2218,-1.9265,1.8832],[41.2232,-1.9396,0.0],[41.2254,-1.9396,0.0],[41.2271,-1.9346,1.1481],[41.2263,-1.9404,1.3209],[41.2357,-1.9401,1.5786],[41.226,-1.9432,2.4883],[41.2243,-1.9451,3.9229],[41.2257,-1.9474,0.0],[41.2243,-1.9507,8.9386],[41.2274,-1.959,0.6589],[41.229,-1.9701,0.0],[41.2315,-1.9732,0.0],[41.2337,-1.969,0.8582],[41.2321,-1.9646,0.0],[41.2332,-1.9618,0.0],[41.2357,-1.9621,0.9156],[41.2365,-1.9693,1.4486],[41.241,-1.9679,0.0],[41.2426,-1.964,3.0446],[41.2562,-1.9671,2.0037],[41.2593,-1.9643,0.0],[41.2585,-1.959,4.0454],[41.2615,-1.9546,1.0248],[41.2604,-1.9629,2.2583],[41.2663,-1.9621,0.0],[41.2707,-1.9649,0.0],[41.2757,-1.9721,2.843],[41.2779,-1.986,8.8017],[41.2807,-1.9871,0.0],[41.2857,-1.9832,0.0],[41.2904,-1.9754,2.1146],[41.2943,-1.9721,2.2323],[41.2979,-1.9721,0.0],[41.2993,-1.9657,4.3737],[41.3043,-1.9599,0.0],[41.3082,-1.9576,5.3029],[41.3112,-1.9579,6.6128],[41.3149,-1.9604,1.5965],[41.3126,-1.9654,0.8986],[41.3157,-1.9635,0.0],[41.3171,-1.9607,1.2196],[41.314,-1.9585,4.2747],[41.3174,-1.9524,8.8158],[41.3218,-1.9507,6.4371],[41.3229,-1.9537,0.0],[41.3465,-1.9287,5.4587],[41.3399,-1.9249,3.1615],[41.3418,-1.9199,3.5926],[41.3454,-1.9176,5.6402],[41.3479,-1.9179,6.1459],[41.3504,-1.9243,3.596],[41.3535,-1.9224,1.2656],[41.3626,-1.9132,4.6541],[41.3635,-1.9101,4.1038],[41.3621,-1.9085,1.7205],[41.3674,-1.8999,3.2966],[41.3693,-1.9004,1.1831],[41.3685,-1.8974,4.1904],[41.3699,-1.8946,1.6536],[41.3763,-1.8887,4.2591],[41.3776,-1.8921,3.0464],[41.3732,-1.899,2.0338],[41.3757,-1.8982,0.9642],[41.3793,-1.8921,6.1492],[41.3815,-1.8913,1.4081],[41.3782,-1.8904,3.1945],[41.3776,-1.8851,12.0199],[41.3868,-1.8765,0.0],[41.3907,-1.8774,11.1485],[41.3921,-1.8793,5.9911],[41.3935,-1.8757,4.8166],[41.391,-1.8726,0.0],[41.3957,-1.8712,7.4641],[41.3965,-1.8676,8.4463],[41.4032,-1.8624,2.1092],[41.4043,-1.8587,0.8781],[41.4063,-1.8599,0.0],[41.4096,-1.8546,0.0],[41.4113,-1.8549,5.2653],[41.4096,-1.8599,33.8245],[41.4015,-1.869,5.618],[41.3954,-1.8799,10.6668],[41.3885,-1.8876,7.5914],[41.3874,-1.8913,0.0],[41.4179,-1.8593,12.4385],[41.4218,-1.8582,0.0],[41.4243,-1.8529,19.0009],[41.4293,-1.8518,0.0],[41.4388,-1.8415,1.2313],[41.4362,-1.8382,5.1884],[41.4304,-1.8382,8.6168],[41.4287,-1.8465,9.0339],[41.4243,-1.849,3.0174],[41.4265,-1.8446,0.0],[41.4257,-1.8407,0.0],[41.4224,-1.8401,5.4281],[41.4199,-1.8421,3.7549],[41.4193,-1.8407,0.0],[41.4154,-1.8421,1.4365],[41.4121,-1.841,3.77],[41.4226,-1.8299,3.4185],[41.4271,-1.8279,6.7282],[41.4285,-1.8235,2.8252],[41.4335,-1.8199,8.7171],[41.4368,-1.8207,0.4747],[41.4349,-1.8174,0.9711],[41.4338,-1.8187,10.0088],[41.4321,-1.8182,6.7272],[41.4287,-1.8132,8.5817],[41.4285,-1.8096,3.0187],[41.4313,-1.8087,1.1792],[41.434,-1.811,10.607],[41.4396,-1.8104,4.6358],[41.4471,-1.8124,5.3343],[41.4468,-1.8087,0.9101],[41.4401,-1.8087,3.7214],[41.4368,-1.8062,7.986],[41.446,-1.8004,3.158],[41.4476,-1.7954,9.0675],[41.4521,-1.7929,8.0737],[41.4562,-1.7876,11.4541],[41.4571,-1.789,7.2459],[41.4521,-1.7974,0.0],[41.4532,-1.8026,3.0905],[41.459,-1.7987,1.527],[41.4651,-1.7915,1.9592],[41.4665,-1.7926,1.9592],[41.4646,-1.7979,4.6306],[41.466,-1.8001,1.0538],[41.4804,-1.7987,0.8825],[41.4796,-1.7937,1.6249],[41.4824,-1.791,5.8042],[41.4824,-1.7885,6.657],[41.4857,-1.7882,1.4177],[41.4851,-1.7829,14.9233],[41.489,-1.7779,0.7374],[41.4863,-1.7668,7.2222],[41.4821,-1.7685,6.5817],[41.4787,-1.7746,9.8634],[41.4774,-1.774,0.9286],[41.4785,-1.7707,2.1765],[41.476,-1.7718,3.3825],[41.4718,-1.7799,5.5793],[41.471,-1.7776,0.0],[41.4729,-1.7724,0.937],[41.4704,-1.7735,3.2859],[41.4674,-1.7793,1.3785],[41.4629,-1.779,3.2656],[41.4599,-1.7812,3.8702],[41.459,-1.7801,3.8702],[41.4957,-1.7451,0.0],[41.4949,-1.7429,3.254],[41.4968,-1.7393,0.0],[41.4951,-1.7379,6.2455],[41.4965,-1.7351,1.8247],[41.5182,-1.7021,2.5028],[41.5501,-1.6743,2.7309],[41.5624,-1.658,1.3903],[41.3719,-1.6741,27.653]]],
[[[41.381,-1.8999,1.0071],[41.3779,-1.9015,0.0],[41.3782,-1.9029,1.103],[41.3804,-1.9012,1.0071],[41.381,-1.8999,1.0071]]],
[[[41.3901,-1.8824,7.9946],[41.3887,-1.881,0.0],[41.3857,-1.8846,0.0],[41.3882,-1.8849,0.6015],[41.3901,-1.8824,7.9946]]],
[[[41.4393,-1.8357,2.3583],[41.4374,-1.8354,0.0],[41.4365,-1.8374,1.1682],[41.439,-1.8374,1.1248],[41.4393,-1.8357,2.3583]]],
[[[41.4268,-1.8335,0.8569],[41.4254,-1.8335,0.0],[41.4246,-1.8368,0.0],[41.4263,-1.8393,2.6318],[41.4285,-1.8365,0.0],[41.4265,-1.8351,6.0918],[41.4268,-1.8335,0.8569]]],
[[[41.4415,-1.8374,2.5948],[41.4407,-1.8357,0.0],[41.4388,-1.8388,0.0],[41.4396,-1.8401,0.0],[41.4401,-1.8399,0.0],[41.4415,-1.8374,2.5948]]],
[[[41.4449,-1.8332,0.0],[41.4426,-1.8326,0.0],[41.4412,-1.8351,0.0],[41.4432,-1.8335,0.0],[41.4449,-1.8332,0.0]]],
[[[41.4554,-1.8204,3.3711],[41.4546,-1.8193,3.2585],[41.4524,-1.8218,4.0879],[41.4526,-1.8237,0.0],[41.4549,-1.8224,0.0],[41.4554,-1.8204,3.3711]]],
[[[41.4568,-1.8174,0.0],[41.456,-1.816,0.0],[41.4549,-1.8187,3.2585],[41.456,-1.8187,3.2585],[41.4568,-1.8174,0.0]]],
[[[41.4754,-1.8062,1.532],[41.4751,-1.8076,1.2234],[41.4776,-1.806,0.0],[41.4776,-1.8032,0.0],[41.4757,-1.8043,0.0],[41.4754,-1.8062,1.532]]],
[[[41.5121,-1.7518,0.5633],[41.5093,-1.754,2.7475],[41.5068,-1.7537,0.4086],[41.5065,-1.756,4.803],[41.5018,-1.7596,5.3538],[41.4946,-1.7613,2.0102],[41.4912,-1.7651,0.0],[41.4915,-1.771,3.1723],[41.4943,-1.771,1.9794],[41.4946,-1.7726,0.0],[41.4979,-1.7704,0.0],[41.504,-1.7599,0.0],[41.5121,-1.7518,0.5633]]]]}
,"properties": {"GID_3": "KEN.21.1.3_1","GID_0": "KEN","country": "Kenya","GID_1": "KEN.21_1","province": "Lamu","NL_NAME_1": "NA","GID_2": "KEN.21.1_1","county": "LamuEast","NL_NAME_2": "NA","city": "Kiunga","VARNAME_3": "NA","NL_NAME_3": "NA","TYPE_3": "Ward","ENGTYPE_3": "Ward","CC_3": "102","HASC_3": "NA","name": "Kiunga.city","area_km2": 774.643,"hist_schema_id": "Elevation0-9000","hist_area_km2": {"0": 262.1112,"25": 394.9371,"50": 65.2713,"75": 31.2161,"100": 17.2927,"125": 3.4118,"150": 0.4026}}}