{"type":"Feature","properties":{"GID_1":"KEN.19_1","GID_0":"KEN","country":"Kenya","province":"Kwale","VARNAME_1":"NA","NL_NAME_1":"NA","TYPE_1":"County","ENGTYPE_1":"County","CC_1":"2","HASC_1":"KE.KW","ISO_1":"KE-19","name":"Kwale.province"},
"geometry":{"type": "MultiPolygon","coordinates": [[[[39.3788,-4.7165,0.0],[39.3751,-4.7157,0.0],[39.3735,-4.7171,0.0],[39.3785,-4.7176,0.0],[39.3779,-4.7204,0.0],[39.3801,-4.7179,0.0],[39.3788,-4.7165,0.0]]],
[[[39.4087,-4.7051,1.0619],[39.4101,-4.7012,0.0],[39.4124,-4.7001,0.0],[39.409,-4.7007,0.0],[39.404,-4.7035,0.0],[39.4087,-4.7051,1.0619]]],
[[[39.4157,-4.6985,0.0],[39.4151,-4.6965,0.0],[39.4132,-4.6987,0.0],[39.4135,-4.7018,0.0],[39.4143,-4.7015,0.0],[39.4157,-4.6985,0.0]]],
[[[39.4068,-4.6849,0.0],[39.4068,-4.6832,0.0],[39.4043,-4.6835,0.0],[39.4038,-4.6851,0.0],[39.3954,-4.6862,0.0],[39.3949,-4.6879,0.0],[39.4007,-4.6904,0.0],[39.4068,-4.6849,0.0]]],
[[[39.4282,-4.5629,0.5],[39.4263,-4.5621,1.3579],[39.4285,-4.5696,0.0],[39.4329,-4.5737,0.0],[39.4301,-4.5671,2.1148],[39.431,-4.5654,0.0],[39.4282,-4.5629,0.5]]],
[[[39.5382,-4.4432,1.7086],[39.5385,-4.4418,2.3789],[39.5335,-4.4421,0.9623],[39.5313,-4.4485,0.0],[39.5346,-4.4488,0.0],[39.5382,-4.4432,1.7086]]],
[[[39.5785,-4.0804,0.5],[39.5882,-4.0676,0.0],[39.5821,-4.0707,0.0],[39.5749,-4.0685,2.5004],[39.5724,-4.0635,0.4831],[39.5715,-4.056,0.0],[39.5679,-4.0518,0.0],[39.5665,-4.0468,0.0],[39.5696,-4.0424,0.0],[39.5726,-4.041,0.0],[39.5793,-4.0415,0.0],[39.581,-4.0432,0.0],[39.5824,-4.0396,0.0],[39.5807,-4.0349,1.8938],[39.5738,-4.0279,0.0],[39.5685,-4.0262,0.0],[39.566,-4.0382,2.2032],[39.5624,-4.0412,1.8151],[39.559,-4.0415,1.4214],[39.5638,-4.0396,2.2634],[39.5657,-4.0371,2.61],[39.5663,-4.0257,0.0],[39.5732,-4.0257,0.4274],[39.5793,-4.0296,0.0],[39.5851,-4.0368,0.5859],[39.5862,-4.0291,1.8923],[39.5835,-4.0257,19.0134],[39.574,-4.0237,9.7671],[39.5681,-4.02,8.3642],[39.5642,-4.0125,20.9228],[39.5678,-4.0074,11.4306],[39.5699,-3.9913,49.124],[39.5645,-3.9875,61.6711],[39.5545,-3.9842,73.312],[39.5501,-3.986,104.4194],[39.5451,-3.9913,123.7725],[39.5397,-3.9885,87.3669],[39.5459,-3.9759,163.4081],[39.5483,-3.9633,164.5741],[39.5453,-3.9574,162.5551],[39.5393,-3.9569,167.1068],[39.5339,-3.9538,172.191],[39.5283,-3.9472,168.2906],[39.5277,-3.9436,154.069],[39.5303,-3.9346,159.7468],[39.5283,-3.931,175.8227],[39.5221,-3.9285,190.2788],[39.5201,-3.9151,198.9703],[39.5125,-3.9115,186.9661],[39.5065,-3.905,194.7683],[39.5023,-3.9045,195.514],[39.5001,-3.9022,198.8829],[39.4975,-3.8877,193.9393],[39.4942,-3.8844,200.4045],[39.4857,-3.8809,197.7899],[39.4677,-3.8595,202.8394],[39.4589,-3.8546,211.5546],[39.4509,-3.8533,204.3119],[39.4493,-3.8499,206.349],[39.4355,-3.8362,213.5986],[39.4343,-3.8323,209.5095],[39.4217,-3.8256,196.5519],[39.4195,-3.8205,190.9118],[39.4135,-3.8201,187.357],[39.4073,-3.8234,190.5096],[39.4039,-3.8213,186.8993],[39.3995,-3.8256,194.2119],[39.3935,-3.8178,186.0461],[39.3905,-3.8174,190.1052],[39.3795,-3.8061,170.2434],[39.3813,-3.7971,175.2104],[39.3773,-3.7933,174.8542],[39.3833,-3.7856,181.8377],[39.3879,-3.785,180.8031],[39.3897,-3.782,183.017],[39.3889,-3.7757,185.416],[39.3845,-3.7744,182.5282],[39.3835,-3.7714,181.0821],[39.3857,-3.7688,187.6873],[39.3917,-3.7675,187.3876],[39.3951,-3.7536,186.4206],[39.3919,-3.7472,187.9847],[39.3919,-3.7387,189.472],[39.3907,-3.7367,190.6952],[39.3881,-3.7367,195.1728],[39.3763,-3.7405,198.7713],[39.3697,-3.7356,210.1795],[39.3635,-3.7338,206.7256],[39.3581,-3.7269,200.6081],[39.3583,-3.7192,203.0614],[39.3531,-3.7104,205.7489],[39.3537,-3.708,206.4207],[39.3488,-3.7045,207.1205],[39.3473,-3.7015,207.1168],[39.3485,-3.6921,210.3288],[39.3519,-3.6919,211.2885],[39.3531,-3.6886,212.1776],[39.3533,-3.6739,217.0246],[39.3553,-3.6692,217.9565],[39.3541,-3.6612,221.8581],[39.3567,-3.6536,220.8439],[39.3523,-3.64,224.4935],[39.3499,-3.6374,226.3349],[39.3451,-3.6365,226.7964],[39.3439,-3.6331,227.5057],[39.3471,-3.6199,232.4764],[39.3473,-3.5986,245.3772],[39.3455,-3.5955,242.6211],[39.3359,-3.5899,246.9294],[39.3299,-3.5885,249.3281],[39.3251,-3.5843,250.9049],[39.3217,-3.578,253.887],[39.3183,-3.5754,259.2528],[39.3203,-3.568,259.861],[39.3183,-3.5645,263.4403],[39.3065,-3.5666,265.6523],[39.3035,-3.5685,266.9409],[39.2827,-3.5696,279.711],[39.0873,-3.5696,369.0495],[39.0561,-3.6845,380.2025],[38.9685,-3.6336,423.2684],[38.9305,-3.6958,409.6035],[39.0353,-3.7582,360.0426],[38.9461,-3.9595,749.2744],[38.8651,-3.9873,405.0933],[38.445,-4.1388,623.1754],[38.7608,-4.3604,398.1151],[38.8028,-4.3875,308.8384],[38.9645,-4.4984,188.007],[39.1928,-4.6603,5.7324],[39.1979,-4.6661,5.3455],[39.2047,-4.6659,4.0162],[39.2073,-4.6675,2.4975],[39.2097,-4.6722,2.4621],[39.2193,-4.6758,2.3386],[39.2223,-4.6707,3.442],[39.226,-4.671,0.0],[39.2313,-4.6587,1.0154],[39.2337,-4.6624,0.0],[39.2368,-4.661,0.0],[39.2354,-4.6543,0.6845],[39.2382,-4.6515,0.0],[39.2393,-4.6457,1.7701],[39.2432,-4.6429,0.0],[39.244,-4.6454,0.0],[39.2465,-4.6424,0.0],[39.2365,-4.6349,0.5],[39.2449,-4.6365,0.0],[39.2465,-4.6354,0.0],[39.2457,-4.6324,0.25],[39.249,-4.6351,0.0],[39.2474,-4.6318,0.6507],[39.2515,-4.6271,0.0],[39.2513,-4.6243,2.0249],[39.2532,-4.6276,0.0],[39.2546,-4.6237,0.474],[39.2562,-4.6237,0.474],[39.2579,-4.621,1.6947],[39.2607,-4.624,0.0],[39.2629,-4.6235,0.0],[39.2651,-4.6221,0.0],[39.2651,-4.619,0.9757],[39.2671,-4.6168,0.5],[39.2674,-4.6174,0.5],[39.266,-4.6229,0.0],[39.2643,-4.6251,0.0],[39.2654,-4.6274,0.0],[39.2679,-4.6276,1.46],[39.2704,-4.6257,0.0],[39.2735,-4.6279,0.4013],[39.2757,-4.6254,1.0787],[39.2768,-4.6151,2.2214],[39.2751,-4.6104,1.956],[39.2771,-4.6113,0.7548],[39.2779,-4.6018,0.5],[39.2732,-4.5968,1.6931],[39.2738,-4.5929,1.25],[39.2715,-4.5901,1.5],[39.2646,-4.5882,2.4656],[39.2621,-4.5901,2.5935],[39.2571,-4.5904,2.25],[39.2593,-4.5885,2.9766],[39.2637,-4.5871,2.7847],[39.2699,-4.5879,1.5],[39.2704,-4.5868,1.5],[39.2768,-4.5968,1.0],[39.2813,-4.5937,2.003],[39.279,-4.5968,1.6301],[39.2807,-4.6154,0.0],[39.2871,-4.6185,0.0],[39.2871,-4.616,1.3469],[39.2907,-4.6146,0.0],[39.2965,-4.5987,0.0],[39.2932,-4.5868,3.1031],[39.2929,-4.5796,2.8014],[39.2943,-4.5804,3.9219],[39.2943,-4.5874,3.2323],[39.2982,-4.5996,0.0],[39.3021,-4.5971,0.0],[39.314,-4.5801,1.5],[39.3115,-4.5887,0.75],[39.3065,-4.5926,0.8199],[39.3049,-4.5968,1.6566],[39.3082,-4.6035,0.6031],[39.3063,-4.6074,0.0],[39.3063,-4.6121,0.6753],[39.3104,-4.6132,3.1514],[39.306,-4.616,0.6438],[39.3057,-4.6304,0.5432],[39.3043,-4.6301,0.5432],[39.3035,-4.6335,0.0],[39.3054,-4.6388,0.0],[39.324,-4.6429,5.3179],[39.3282,-4.6465,0.0],[39.3387,-4.6415,0.3973],[39.3546,-4.6407,0.0],[39.3838,-4.6499,0.0],[39.3885,-4.6499,0.0],[39.3985,-4.649,0.0],[39.4046,-4.6465,0.0],[39.4065,-4.6399,12.2355],[39.409,-4.639,0.0],[39.409,-4.6363,0.0],[39.4129,-4.6346,0.0],[39.4124,-4.6212,0.0],[39.4051,-4.6199,0.0],[39.4026,-4.6232,5.4323],[39.3982,-4.619,9.9374],[39.3982,-4.6135,2.6266],[39.4007,-4.6088,0.0],[39.3974,-4.6076,0.3822],[39.3985,-4.6051,0.632],[39.3949,-4.6032,0.703],[39.3957,-4.6012,0.0],[39.3943,-4.599,0.745],[39.3971,-4.5985,0.0],[39.3946,-4.5957,0.0],[39.3954,-4.5904,1.4432],[39.3985,-4.5868,0.0],[39.3943,-4.5774,2.0308],[39.3971,-4.5782,1.1202],[39.3999,-4.5871,0.697],[39.4024,-4.5901,0.0],[39.4057,-4.5893,0.0],[39.4049,-4.5874,0.0],[39.4093,-4.5849,0.0],[39.4101,-4.5818,0.0],[39.4143,-4.5796,0.4103],[39.4174,-4.5807,0.0],[39.4224,-4.5729,0.5793],[39.4221,-4.5707,0.0],[39.4179,-4.5674,2.833],[39.424,-4.5696,0.0],[39.4246,-4.5651,1.1624],[39.4171,-4.5568,4.3951],[39.4168,-4.5557,3.9714],[39.419,-4.556,2.3902],[39.4182,-4.5532,1.2607],[39.414,-4.5526,0.5],[39.4113,-4.5546,2.5124],[39.4129,-4.5504,2.2781],[39.4182,-4.5524,3.0688],[39.4224,-4.5585,0.5],[39.4232,-4.5546,3.4406],[39.4265,-4.5521,1.0],[39.4263,-4.5493,1.7519],[39.4418,-4.5385,1.5],[39.4399,-4.5354,2.4306],[39.4354,-4.534,1.5],[39.4299,-4.5351,2.1035],[39.4285,-4.5329,2.7939],[39.4301,-4.534,1.5],[39.4393,-4.5332,2.7238],[39.4435,-4.5357,2.3234],[39.4485,-4.526,2.8931],[39.449,-4.5268,1.9821],[39.4474,-4.5332,3.9199],[39.4368,-4.5474,1.9579],[39.4401,-4.5507,1.937],[39.4346,-4.549,1.0],[39.4315,-4.551,1.0],[39.4271,-4.5571,0.7906],[39.4271,-4.5599,0.5],[39.4329,-4.566,0.0],[39.4354,-4.5718,3.4937],[39.4349,-4.5835,0.0],[39.4362,-4.5846,1.6506],[39.4362,-4.5901,1.4495],[39.439,-4.5924,0.0],[39.4426,-4.5921,1.2302],[39.4446,-4.5857,2.3572],[39.4488,-4.5854,4.7033],[39.4507,-4.5868,0.0],[39.4532,-4.5838,0.0],[39.4562,-4.5735,0.0],[39.4565,-4.5621,0.0],[39.4621,-4.5546,0.0],[39.4626,-4.5474,0.0],[39.466,-4.5446,0.0],[39.4629,-4.5429,0.0],[39.464,-4.539,0.0],[39.4624,-4.5376,0.0],[39.4624,-4.5338,0.0],[39.4649,-4.531,0.0],[39.4654,-4.5221,4.5974],[39.4696,-4.5132,4.1959],[39.4724,-4.5013,4.7216],[39.4787,-4.4893,5.1701],[39.4787,-4.4868,12.5704],[39.481,-4.4857,0.0],[39.481,-4.4829,1.2042],[39.4846,-4.4818,0.0],[39.4857,-4.4799,0.0],[39.4882,-4.4801,0.0],[39.4885,-4.4763,0.0],[39.4926,-4.4724,2.0837],[39.4946,-4.4726,3.2935],[39.4979,-4.4687,0.0],[39.4982,-4.4657,1.1156],[39.5001,-4.4654,0.0],[39.4985,-4.4582,0.0],[39.5018,-4.4493,0.0],[39.5004,-4.4446,0.8469],[39.5026,-4.4443,2.5424],[39.5029,-4.4476,0.0],[39.5071,-4.4468,0.0],[39.5032,-4.4437,2.5424],[39.5096,-4.4412,0.505],[39.5124,-4.4296,1.0704],[39.516,-4.4293,0.0],[39.5151,-4.4221,0.8559],[39.5168,-4.4243,0.0],[39.5168,-4.421,1.653],[39.5179,-4.4226,0.0],[39.5218,-4.4218,0.0],[39.5246,-4.419,2.124],[39.5293,-4.4299,0.0],[39.5335,-4.4287,3.1945],[39.5337,-4.4387,0.6082],[39.5374,-4.4396,0.0],[39.541,-4.4351,0.0],[39.5407,-4.4329,0.0],[39.544,-4.4268,1.0834],[39.546,-4.4068,4.3416],[39.5482,-4.4026,5.2005],[39.5496,-4.3921,0.0],[39.5582,-4.3738,0.0],[39.5643,-4.3507,7.7415],[39.5701,-4.3382,0.0],[39.571,-4.3307,12.8468],[39.599,-4.2701,0.0],[39.5988,-4.2596,1.1198],[39.5971,-4.2585,1.688],[39.5996,-4.2579,1.2532],[39.6012,-4.2529,0.0],[39.6143,-4.2032,11.3341],[39.631,-4.1807,2.6487],[39.6387,-4.1621,9.7556],[39.6446,-4.1535,9.4506],[39.6263,-4.1416,22.7619],[39.6301,-4.1366,24.09],[39.6329,-4.1242,24.5765],[39.6369,-4.1219,20.0435],[39.6377,-4.1182,18.0287],[39.6325,-4.1169,23.3878],[39.6293,-4.1105,25.7539],[39.6121,-4.0924,58.1662],[39.6135,-4.0908,52.5428],[39.6101,-4.0923,56.8521],[39.6083,-4.0873,42.9781],[39.6067,-4.0878,42.9781],[39.6065,-4.094,46.7811],[39.6009,-4.097,58.972],[39.5985,-4.1003,62.7166],[39.6001,-4.108,25.8742],[39.5959,-4.1137,64.5951],[39.5919,-4.1137,18.0936],[39.5869,-4.1181,2.7488],[39.5827,-4.1163,1.6178],[39.5797,-4.1194,1.9229],[39.5751,-4.1199,4.9717],[39.5831,-4.11,1.8576],[39.5847,-4.1031,1.914],[39.5837,-4.0966,2.5876],[39.5791,-4.0888,2.523],[39.5787,-4.0821,1.0334],[39.5754,-4.0868,0.9593],[39.5751,-4.0843,2.417],[39.5785,-4.0804,0.5]]],
[[[39.5982,-4.0504,0.0],[39.5896,-4.0515,0.0],[39.5965,-4.0529,0.0],[39.5896,-4.0537,0.0],[39.5882,-4.0568,0.0],[39.5893,-4.0588,0.0],[39.5915,-4.059,0.0],[39.5929,-4.0568,0.0],[39.6035,-4.0526,0.0],[39.6024,-4.0501,0.0],[39.5982,-4.0504,0.0]]],
[[[39.581,-4.0476,0.0],[39.5799,-4.0468,0.0],[39.5799,-4.0518,0.0],[39.5835,-4.0576,0.0],[39.5857,-4.0582,0.0],[39.5857,-4.0562,0.0],[39.581,-4.0476,0.0]]],
[[[39.2718,-4.6537,0.0],[39.2679,-4.6537,0.0],[39.2679,-4.6593,0.0],[39.2707,-4.661,0.0],[39.2724,-4.6671,0.0],[39.2768,-4.6707,0.0],[39.2832,-4.6715,0.0],[39.284,-4.6696,0.0],[39.2901,-4.6674,0.0],[39.2946,-4.6621,0.0],[39.2938,-4.661,0.0],[39.2893,-4.6632,0.0],[39.2868,-4.6618,0.0],[39.2863,-4.6632,1.0731],[39.2718,-4.6537,0.0]]],
[[[39.2893,-4.6232,1.2185],[39.2857,-4.6226,0.6212],[39.2865,-4.626,0.0],[39.2893,-4.6251,0.0],[39.2893,-4.6232,1.2185]]],
[[[39.2929,-4.6199,0.2946],[39.2924,-4.619,0.7434],[39.291,-4.6187,0.0],[39.2932,-4.6218,0.0],[39.2929,-4.6199,0.2946]]],
[[[39.2968,-4.6082,1.0365],[39.2954,-4.6074,0.6572],[39.294,-4.609,3.9944],[39.2929,-4.6187,0.7434],[39.2968,-4.6151,0.0],[39.2962,-4.6129,1.5677],[39.2988,-4.6118,0.0],[39.2968,-4.6082,1.0365]]],
[[[39.3618,-4.6537,0.0],[39.3579,-4.6537,0.0],[39.3568,-4.656,0.0],[39.3582,-4.6585,1.6043],[39.3504,-4.6632,0.0],[39.3482,-4.6668,0.0],[39.3518,-4.666,0.0],[39.3526,-4.6693,0.0],[39.3549,-4.6707,0.6371],[39.3649,-4.6704,3.8768],[39.3668,-4.6718,0.0],[39.3874,-4.6693,0.0],[39.3946,-4.6707,0.0],[39.3965,-4.6693,8.2642],[39.4004,-4.6724,2.6498],[39.4007,-4.6743,1.4514],[39.4057,-4.6718,0.0],[39.4051,-4.6746,0.0],[39.4021,-4.6751,0.0],[39.4032,-4.6779,0.0],[39.4068,-4.6746,0.0],[39.4068,-4.671,0.0],[39.4004,-4.6576,0.0],[39.3946,-4.6587,0.0],[39.3965,-4.6599,0.0],[39.3951,-4.6618,5.4098],[39.3899,-4.6618,9.666],[39.3882,-4.6599,0.0],[39.3807,-4.6601,10.9675],[39.3796,-4.6585,6.874],[39.3749,-4.6574,0.0],[39.3735,-4.6585,12.2537],[39.366,-4.6579,0.0],[39.3618,-4.6537,0.0]]],
[[[39.3035,-4.6015,3.2922],[39.3018,-4.5987,0.3562],[39.2968,-4.6037,0.0],[39.2993,-4.609,0.0],[39.3035,-4.6079,3.5711],[39.3035,-4.6015,3.2922]]],
[[[39.306,-4.6021,0.0],[39.3054,-4.6007,0.0],[39.3043,-4.6007,0.0],[39.3049,-4.6037,0.0],[39.306,-4.6021,0.0]]]]}}