{"type": "Feature","bbox": [39.8267,1.7829,40.4115,2.3865],"geometry": {"type": "MultiPolygon","coordinates": [[[[39.8709,2.1945,347.5938],[39.8708,2.1818,343.3605],[39.8669,2.1523,337.0592],[39.8673,2.1317,333.6239],[39.8699,2.1049,327.9196],[39.8783,2.0551,319.1035],[39.8835,2.0017,307.1775],[39.8977,1.9781,303.2444],[39.9407,1.9291,296.4881],[39.9789,1.8943,291.7492],[39.9911,1.8791,287.3735],[39.9946,1.8768,287.7738],[39.9964,1.8727,288.0768],[39.9909,1.8645,285.3526],[39.9903,1.8549,281.0673],[39.9965,1.8459,282.3428],[40.0079,1.8342,279.6322],[40.0241,1.7933,270.4671],[40.0277,1.7931,268.4311],[40.0755,1.8059,274.2246],[40.0999,1.8093,272.9354],[40.1031,1.8081,272.0559],[40.1077,1.8017,270.0921],[40.1123,1.7829,265.9186],[40.1225,1.7897,267.7664],[40.1461,1.8125,273.8444],[40.1719,1.8337,280.099],[40.1835,1.8389,282.9994],[40.1907,1.8479,285.1224],[40.1925,1.8483,285.0164],[40.1985,1.8443,284.8615],[40.2045,1.8443,284.0264],[40.2163,1.8521,286.5735],[40.2301,1.8529,285.783],[40.2409,1.8601,286.9677],[40.2495,1.8707,289.7747],[40.2617,1.8791,290.8566],[40.2677,1.8855,291.0134],[40.2803,1.9091,297.6391],[40.2957,1.9319,305.0017],[40.3147,1.9549,315.553],[40.3211,1.9767,321.8052],[40.3241,1.9815,322.662],[40.3461,1.9979,327.2036],[40.3497,1.9997,327.7016],[40.3573,1.9995,329.7331],[40.3597,2.0045,330.63],[40.3675,2.0099,331.9603],[40.3731,2.0225,334.1354],[40.3737,2.0361,340.063],[40.3761,2.0439,344.2286],[40.3791,2.0467,345.3864],[40.3839,2.0477,344.9489],[40.3861,2.0505,348.1234],[40.3869,2.0569,350.4558],[40.3943,2.0645,354.4027],[40.3999,2.0767,357.5129],[40.4003,2.0843,358.5079],[40.4077,2.0995,362.3112],[40.4073,2.1075,367.077],[40.4115,2.1189,374.0699],[40.3579,2.1151,381.3823],[40.3537,2.1207,386.4418],[40.3481,2.1241,389.4731],[40.3281,2.1303,402.1183],[40.3155,2.1283,410.5231],[40.3097,2.1235,414.4906],[40.3019,2.1201,418.5521],[40.2865,2.1191,428.9266],[40.2717,2.1205,430.7996],[40.2635,2.1181,420.8759],[40.2581,2.1183,416.6303],[40.2435,2.1109,404.2795],[40.2257,2.0923,383.8943],[40.1535,2.2181,439.5507],[40.152,2.2198,438.7693],[40.1372,2.2245,429.9572],[40.1277,2.2215,422.8363],[40.1749,2.2971,474.1502],[40.0735,2.2765,413.3738],[39.9839,2.3459,387.1333],[39.9751,2.3451,384.1797],[39.9625,2.3521,381.8849],[39.9511,2.3559,380.8055],[39.9419,2.3529,380.1101],[39.9325,2.3531,379.8259],[39.9023,2.3685,381.3132],[39.8865,2.3717,381.9408],[39.8655,2.3715,380.2815],[39.8529,2.3791,383.5339],[39.8421,2.3801,383.7414],[39.8267,2.3865,387.2395],[39.8271,2.3665,378.322],[39.8321,2.3413,371.3697],[39.8425,2.3045,365.557],[39.8501,2.2867,361.5738],[39.8547,2.2609,356.4935],[39.8709,2.1945,347.5938]]]]}
,"properties": {"GID_3": "KEN.46.2.3_1","GID_0": "KEN","country": "Kenya","GID_1": "KEN.46_1","province": "Wajir","NL_NAME_1": "NA","GID_2": "KEN.46.2_1","county": "Tarbaj","NL_NAME_2": "NA","city": "Tarbaj","VARNAME_3": "NA","NL_NAME_3": "NA","TYPE_3": "Ward","ENGTYPE_3": "Ward","CC_3": "174","HASC_3": "NA","name": "Tarbaj.city","area_km2": 2282.463,"hist_schema_id": "Elevation0-9000","hist_area_km2": {"275": 112.463,"300": 387.952,"325": 479.022,"350": 500.605,"375": 485.214,"400": 206.635,"425": 90.001,"450": 17.881,"475": 2.563,"500": 0.127}}}