{"type": "Feature","bbox": [34.7734,-0.0945,34.7856,-0.0738],"geometry": {"type": "MultiPolygon","coordinates": [[[[34.7734,-0.0771,1168.722],[34.7752,-0.0838,1180.5211],[34.7749,-0.0945,1166.458],[34.7844,-0.0893,1161.1411],[34.7856,-0.0821,1160.3792],[34.7827,-0.0738,1171.9827],[34.7734,-0.0771,1168.722]]]]}
,"properties": {"GID_3": "KEN.17.1.1_1","GID_0": "KEN","country": "Kenya","GID_1": "KEN.17_1","province": "Kisumu","NL_NAME_1": "NA","GID_2": "KEN.17.1_1","county": "KisumuCentral","NL_NAME_2": "NA","city": "Kondele","VARNAME_3": "NA","NL_NAME_3": "NA","TYPE_3": "Ward","ENGTYPE_3": "Ward","CC_3": "1200","HASC_3": "NA","name": "Kondele.city","area_km2": 2.099016,"hist_schema_id": "Elevation0-9000","hist_area_km2": {"1150": 0.212022,"1175": 1.886994}}}