{"type":"Feature","properties":{"GID_3":"KEN.43.6.6_1","GID_0":"KEN","country":"Kenya","GID_1":"KEN.43_1","province":"Turkana","NL_NAME_1":"NA","GID_2":"KEN.43.6_1","county":"TurkanaWest","NL_NAME_2":"NA","city":"Nanaam","VARNAME_3":"NA","NL_NAME_3":"NA","TYPE_3":"Ward","ENGTYPE_3":"Ward","CC_3":"623","HASC_3":"NA","name":"Nanaam.city"},
"geometry":{"type": "MultiPolygon","coordinates": [[[[34.4795,4.3077,557.6663],[34.5442,4.4177,514.0342],[34.5553,4.4381,508.7314],[34.5593,4.4496,504.4284],[34.571,4.4604,500.7972],[34.5946,4.4748,494.3885],[34.6071,4.4933,489.729],[34.6143,4.508,486.4026],[34.6312,4.5179,483.3992],[34.638,4.5279,481.5471],[34.6438,4.5324,480.351],[34.7402,4.5724,470.3756],[34.6599,4.7498,581.0311],[34.3715,4.6243,525.5231],[34.2256,4.4811,602.736],[34.2232,4.4828,602.5459],[34.2098,4.4695,615.7778],[34.2256,4.4512,612.474],[34.2867,4.4053,598.9135],[34.3047,4.3965,611.2773],[34.3092,4.3928,616.1127],[34.3188,4.3921,631.3903],[34.3309,4.3816,670.4443],[34.3485,4.3717,1028.9607],[34.3561,4.3646,929.2869],[34.37,4.3579,837.5758],[34.3825,4.3545,838.5994],[34.3894,4.3582,760.6402],[34.3932,4.358,697.3247],[34.4029,4.3613,688.9474],[34.407,4.3577,640.3346],[34.4158,4.3568,603.4338],[34.4201,4.3485,587.8545],[34.4239,4.3469,584.0927],[34.4298,4.3402,575.2075],[34.4327,4.3396,573.1519],[34.4378,4.3312,566.7598],[34.4474,4.3259,560.8404],[34.4493,4.3214,558.1144],[34.4542,4.3188,554.3785],[34.4623,4.3206,550.1376],[34.4668,4.3195,550.988],[34.4795,4.3117,556.5702],[34.4795,4.3077,557.6663]]]]}}