{"type": "Feature","bbox": [34.9143,2.2255,35.3024,2.6527],"geometry": {"type": "MultiPolygon","coordinates": [[[[35.1091,2.6527,775.0713],[35.0961,2.6495,785.2535],[35.0923,2.6454,791.4102],[35.0811,2.6394,801.5844],[35.0742,2.6284,806.4303],[35.0654,2.6248,813.7646],[35.0595,2.6108,821.0443],[35.0598,2.6033,827.2804],[35.0565,2.5912,834.442],[35.0583,2.5776,847.3063],[35.0555,2.5677,855.86],[35.0386,2.5379,912.1786],[35.0197,2.513,1278.3712],[35.0156,2.5018,1251.5696],[35.0204,2.4877,1352.9252],[35.0193,2.4748,1339.0262],[35.0218,2.4685,1359.6665],[35.0194,2.4607,1130.3066],[35.0228,2.4468,1569.168],[35.0256,2.4439,1549.8782],[35.0256,2.4365,1662.5635],[34.9702,2.4483,1244.9526],[34.9536,2.4579,1048.2046],[34.9461,2.4542,1133.6775],[34.9448,2.4554,1152.7764],[34.9421,2.4531,1148.3949],[34.9437,2.4494,1162.2097],[34.9398,2.4502,1208.7849],[34.9404,2.4483,1185.525],[34.9366,2.4439,1208.65],[34.9375,2.4407,1226.7136],[34.9358,2.4383,1224.5298],[34.9312,2.4387,1247.965],[34.9323,2.4311,1257.5981],[34.9298,2.429,1264.7184],[34.9255,2.4289,1281.7756],[34.926,2.4274,1275.4977],[34.9222,2.4269,1288.0325],[34.9189,2.4244,1295.3464],[34.9166,2.4249,1297.9072],[34.9171,2.4102,1314.5505],[34.9143,2.4032,1337.6636],[34.915,2.3975,1351.9773],[34.9197,2.3937,1490.5544],[34.9178,2.3903,1503.8796],[34.9202,2.3733,1587.3638],[34.9439,2.2255,1514.3577],[34.9472,2.2273,1522.704],[34.9581,2.2258,1585.64],[34.9771,2.2293,1577.8625],[34.9811,2.2281,1639.1022],[34.9928,2.231,1654.2189],[35.008,2.2398,1656.6738],[35.017,2.25,1559.0145],[35.0209,2.2508,1557.6155],[35.0356,2.2621,1615.3003],[35.0521,2.2669,1711.4871],[35.0572,2.2723,1814.0908],[35.0671,2.2768,2027.8984],[35.0756,2.283,2276.8403],[35.099,2.2905,2058.1843],[35.1038,2.2937,2067.0918],[35.1138,2.293,1791.3998],[35.1186,2.2955,1706.03],[35.1328,2.2931,1291.8752],[35.135,2.2953,1237.241],[35.1326,2.2987,1359.0253],[35.1356,2.3047,1182.5917],[35.1345,2.3108,1310.2246],[35.1363,2.315,1199.4666],[35.1418,2.3182,1118.9393],[35.1438,2.3242,1126.5341],[35.1525,2.3285,1030.6427],[35.1503,2.3325,1176.198],[35.1512,2.3358,1097.0858],[35.1541,2.3348,1115.2034],[35.1554,2.3369,1115.01],[35.1588,2.3377,1042.7124],[35.1642,2.3468,1106.0038],[35.1722,2.3507,1120.0122],[35.1776,2.3463,1020.2887],[35.1786,2.3491,964.9076],[35.181,2.3471,955.8552],[35.1843,2.348,1035.5712],[35.1846,2.3429,948.4801],[35.1883,2.3349,912.9543],[35.1874,2.3311,906.42],[35.1891,2.3235,895.0021],[35.1912,2.3218,918.4868],[35.1873,2.3108,906.3796],[35.1917,2.2979,865.4942],[35.1948,2.2954,963.9474],[35.1936,2.2876,845.3453],[35.1959,2.2852,864.1194],[35.1955,2.2825,847.9019],[35.2002,2.2845,962.0296],[35.2025,2.2876,1112.4446],[35.2053,2.2876,1128.4562],[35.208,2.2849,888.9805],[35.2122,2.2866,982.1834],[35.2142,2.2855,993.0905],[35.2185,2.2901,882.3288],[35.2261,2.2926,790.7009],[35.2295,2.2922,788.0971],[35.232,2.2982,787.4324],[35.2367,2.2971,780.5864],[35.2416,2.3018,775.9001],[35.2428,2.3062,774.7686],[35.2467,2.3077,762.627],[35.2454,2.3146,774.2053],[35.251,2.3201,762.0219],[35.2521,2.3238,763.0142],[35.256,2.3261,753.9259],[35.2554,2.3283,751.1112],[35.2583,2.3287,750.7158],[35.2565,2.3307,743.619],[35.2586,2.3365,747.2177],[35.2574,2.3387,749.4229],[35.2693,2.3458,733.3439],[35.2708,2.3519,731.0248],[35.2744,2.3553,728.1495],[35.2751,2.3606,733.8299],[35.2871,2.3645,717.7625],[35.2873,2.3841,709.7975],[35.2927,2.3867,708.834],[35.3024,2.4018,696.6586],[35.2976,2.4206,689.5397],[35.2917,2.4285,699.4232],[35.2721,2.4374,707.7397],[35.2507,2.4397,718.3337],[35.2459,2.4455,729.3654],[35.2325,2.4469,738.8054],[35.2288,2.4498,744.7393],[35.2231,2.4593,756.8002],[35.2211,2.4662,768.0115],[35.2205,2.4788,778.087],[35.2153,2.4965,764.629],[35.2129,2.5425,782.1886],[35.1869,2.5716,1094.4719],[35.1858,2.5789,921.0684],[35.1784,2.598,812.849],[35.1668,2.6167,784.9636],[35.1575,2.6284,789.9794],[35.1317,2.6452,776.657],[35.1126,2.6526,771.7042],[35.1106,2.6499,775.0427],[35.1091,2.6527,775.0713]]]]}
,"properties": {"GID_3": "KEN.47.1.1_1","GID_0": "KEN","country": "Kenya","GID_1": "KEN.47_1","province": "WestPokot","NL_NAME_1": "NA","GID_2": "KEN.47.1_1","county": "Kacheliba","NL_NAME_2": "NA","city": "Alale","VARNAME_3": "NA","NL_NAME_3": "NA","TYPE_3": "Ward","ENGTYPE_3": "Ward","CC_3": "656","HASC_3": "NA","name": "Alale.city","area_km2": 1097.4834,"hist_schema_id": "Elevation0-9000","hist_area_km2": {"700": 9.0453,"725": 28.8096,"750": 32.5169,"775": 52.1301,"800": 69.158,"825": 55.3473,"850": 35.4578,"875": 31.4335,"900": 27.155,"925": 29.6336,"950": 28.8713,"975": 24.9528,"1000": 19.4032,"1025": 14.3406,"1050": 14.8702,"1075": 13.8748,"1100": 13.5783,"1125": 13.875,"1150": 13.2185,"1175": 15.4215,"1200": 14.659,"1225": 14.5531,"1250": 14.9555,"1275": 17.6458,"1300": 17.6034,"1325": 16.7561,"1350": 14.9556,"1375": 16.3325,"1400": 16.9045,"1425": 16.3749,"1450": 17.1375,"1475": 15.1886,"1500": 14.193,"1525": 17.2437,"1550": 22.1586,"1575": 31.1834,"1600": 36.628,"1625": 27.4765,"1650": 24.8922,"1675": 24.1295,"1700": 23.1549,"1725": 19.723,"1750": 17.5622,"1775": 13.4946,"1800": 9.1517,"1825": 6.4824,"1850": 5.4444,"1875": 4.936,"1900": 4.4064,"1925": 4.0463,"1950": 3.3895,"1975": 3.5167,"2000": 4.1098,"2025": 3.5166,"2050": 3.8556,"2075": 3.3683,"2100": 3.2624,"2125": 3.8132,"2150": 3.4107,"2175": 3.559,"2200": 2.6904,"2225": 1.6948,"2250": 1.8007,"2275": 1.3135,"2300": 1.2075,"2325": 1.3558,"2350": 1.144,"2375": 1.4617,"2400": 1.2923,"2425": 0.9109,"2450": 0.6779,"2475": 0.5508,"2500": 0.4237,"2525": 0.6144,"2550": 0.4449,"2575": 0.572,"2600": 0.3813,"2625": 0.2754,"2650": 0.1695,"2675": 0.0212,"2700": 0.0636,"2725": 0.0424,"2750": 0.1059}}}