{"type": "Feature","bbox": [34.6226,0.2959,34.7162,0.374],"geometry": {"type": "MultiPolygon","coordinates": [[[[34.7063,0.3173,1438.9132],[34.7087,0.3199,1433.4196],[34.7112,0.3197,1434.3236],[34.7125,0.3218,1439.6104],[34.7108,0.3233,1449.0686],[34.7142,0.3245,1440.4077],[34.7145,0.3263,1448.0852],[34.7122,0.3276,1455.092],[34.7162,0.3284,1436.4697],[34.715,0.3294,1451.3519],[34.7151,0.3336,1455.2573],[34.712,0.3356,1427.5853],[34.7092,0.3423,1462.4935],[34.7014,0.3447,1444.0027],[34.7016,0.3483,1459.4008],[34.6962,0.3566,1468.5801],[34.6904,0.3592,1426.4263],[34.6881,0.3659,1463.4652],[34.6855,0.3657,1449.991],[34.6835,0.374,1455.3989],[34.674,0.3678,1409.4559],[34.6664,0.3698,1429.803],[34.6599,0.3639,1425.9744],[34.657,0.3645,1413.8131],[34.6498,0.361,1426.4344],[34.6487,0.3578,1416.9401],[34.6434,0.3548,1415.5635],[34.6494,0.343,1419.0598],[34.6484,0.3365,1428.6008],[34.6524,0.3332,1426.9216],[34.6472,0.3343,1428.6781],[34.6453,0.3304,1446.55],[34.6421,0.3299,1435.1216],[34.637,0.3256,1408.7489],[34.6296,0.325,1399.6964],[34.6312,0.3222,1409.1918],[34.6281,0.3203,1369.7429],[34.628,0.3169,1368.4236],[34.6226,0.3083,1389.578],[34.6262,0.305,1398.4646],[34.6246,0.3033,1403.2035],[34.6257,0.298,1387.7589],[34.6287,0.2959,1377.3916],[34.6309,0.2976,1367.3817],[34.6317,0.2964,1361.209],[34.632,0.2996,1366.3933],[34.6346,0.3018,1376.2338],[34.6359,0.3011,1385.74],[34.64,0.3039,1374.1022],[34.6405,0.3023,1375.1033],[34.6415,0.3034,1372.0789],[34.6426,0.3022,1372.0789],[34.6428,0.3039,1383.9349],[34.647,0.3055,1401.6016],[34.6489,0.308,1373.2531],[34.6518,0.3073,1382.0399],[34.6528,0.3099,1380.6562],[34.6539,0.3089,1372.6388],[34.6537,0.3111,1376.4966],[34.6601,0.3119,1384.583],[34.6613,0.3087,1377.4387],[34.6648,0.3089,1394.0012],[34.6665,0.3062,1407.5574],[34.6745,0.302,1383.4614],[34.677,0.3025,1397.8433],[34.6781,0.3048,1416.3088],[34.6821,0.3044,1401.8185],[34.693,0.3092,1466.9387],[34.7032,0.3101,1435.811],[34.7063,0.3173,1438.9132]]]]}
,"properties": {"GID_3": "KEN.11.10.5_1","GID_0": "KEN","country": "Kenya","GID_1": "KEN.11_1","province": "Kakamega","NL_NAME_1": "NA","GID_2": "KEN.11.10_1","county": "Navakholo","NL_NAME_2": "NA","city": "Shinoyi-Shikomari-Esumeyia","VARNAME_3": "NA","NL_NAME_3": "NA","TYPE_3": "Ward","ENGTYPE_3": "Ward","CC_3": "1016","HASC_3": "NA","name": "Shinoyi-Shikomari-Esumeyia.city","area_km2": 48.55223,"hist_schema_id": "Elevation0-9000","hist_area_km2": {"1375": 3.3287,"1400": 15.22294,"1425": 17.78834,"1450": 10.24049,"1475": 1.95057,"1500": 0.0212}}}