{"type": "Feature","bbox": [37.6603,-2.1247,37.8489,-1.8593],"geometry": {"type": "MultiPolygon","coordinates": [[[[37.8483,-2.1118,828.3984],[37.8455,-2.1083,831.5651],[37.8424,-2.1087,836.3778],[37.8409,-2.1072,839.6454],[37.8387,-2.102,849.7996],[37.8307,-2.0933,872.4536],[37.8258,-2.0786,902.4554],[37.8211,-2.072,922.5391],[37.821,-2.0672,941.4808],[37.8184,-2.0623,956.4021],[37.8105,-2.0552,972.9474],[37.8119,-2.0513,969.8075],[37.8089,-2.0346,978.8403],[37.8178,-2.0205,929.9673],[37.816,-2.0196,927.309],[37.8132,-2.0119,935.2148],[37.8142,-2.0053,939.1035],[37.8158,-2.0044,938.2346],[37.815,-2.0012,949.4226],[37.8112,-1.9974,947.9568],[37.8106,-1.9931,948.4047],[37.8018,-1.9868,957.1713],[37.8007,-1.9829,972.5024],[37.7957,-1.9803,970.2852],[37.795,-1.9784,977.9855],[37.7912,-1.9788,975.5446],[37.7874,-1.9755,974.688],[37.7889,-1.9742,975.5909],[37.7874,-1.9702,994.9874],[37.7794,-1.9661,992.774],[37.7784,-1.9628,988.7634],[37.779,-1.9586,1000.5222],[37.7869,-1.9515,1002.8702],[37.7862,-1.9488,1007.1233],[37.7881,-1.9409,1019.2804],[37.79,-1.9391,1017.0539],[37.7897,-1.9305,1022.9294],[37.7919,-1.9239,1025.3296],[37.7887,-1.9174,1040.9087],[37.7934,-1.9063,1060.4458],[37.7974,-1.9025,1065.533],[37.7931,-1.8912,1065.8473],[37.7928,-1.8828,1079.333],[37.7887,-1.8682,1092.4368],[37.7868,-1.8658,1093.2068],[37.7777,-1.862,1081.0479],[37.7763,-1.8593,1091.8335],[37.7719,-1.8596,1100.3296],[37.7692,-1.861,1099.9207],[37.767,-1.8689,1096.1448],[37.7646,-1.8713,1096.6991],[37.7498,-1.8757,1106.3667],[37.7452,-1.873,1113.8291],[37.7394,-1.8759,1100.3093],[37.7377,-1.88,1090.1503],[37.7344,-1.8824,1081.6741],[37.7294,-1.8776,1085.1584],[37.7294,-1.8727,1083.8685],[37.7279,-1.871,1085.8103],[37.7225,-1.873,1096.2783],[37.718,-1.8713,1100.4365],[37.7187,-1.8808,1108.4385],[37.7152,-1.8908,1099.5616],[37.7159,-1.8979,1097.5199],[37.7057,-1.8977,1098.4323],[37.6987,-1.9009,1081.6748],[37.6947,-1.8835,1103.156],[37.6955,-1.8803,1096.0253],[37.6935,-1.8756,1106.8445],[37.6881,-1.8734,1119.5825],[37.6838,-1.8675,1142.1998],[37.6804,-1.8655,1148.4257],[37.6781,-1.8734,1118.9094],[37.6633,-1.9022,1143.8154],[37.6603,-1.9033,1140.6985],[37.6603,-1.9063,1123.6017],[37.662,-1.9077,1136.605],[37.6613,-1.9134,1108.1517],[37.6647,-1.9209,1093.4777],[37.6682,-1.9206,1093.7107],[37.6724,-1.9236,1078.9351],[37.6725,-1.9259,1077.3284],[37.67,-1.9272,1091.6439],[37.6702,-1.9297,1091.9017],[37.6788,-1.9436,1070.3828],[37.6831,-1.9621,1060.694],[37.6867,-1.9643,1052.897],[37.6912,-1.9745,1047.4149],[37.6972,-1.9809,1044.3934],[37.6826,-1.9878,1011.0302],[37.6799,-2.0062,946.1588],[37.6831,-2.0086,921.7194],[37.6843,-2.0206,922.943],[37.6925,-2.0214,914.703],[37.696,-2.0233,908.6323],[37.6956,-2.0281,909.5468],[37.6987,-2.0274,906.324],[37.6956,-2.0308,910.0731],[37.6973,-2.0317,903.3077],[37.6968,-2.0345,912.9519],[37.7013,-2.039,913.4668],[37.7024,-2.0444,899.9305],[37.7074,-2.0474,896.0316],[37.7094,-2.044,913.8669],[37.7108,-2.0477,893.9315],[37.7156,-2.0496,898.7902],[37.7157,-2.052,894.5256],[37.723,-2.0547,894.6014],[37.7234,-2.0591,900.5593],[37.726,-2.0615,890.6077],[37.7244,-2.0649,886.9366],[37.7267,-2.0679,886.1838],[37.7284,-2.0663,890.3771],[37.733,-2.067,887.9245],[37.7384,-2.0654,884.4384],[37.7386,-2.0702,880.7319],[37.7416,-2.0722,879.6762],[37.7421,-2.0691,884.7349],[37.7457,-2.0671,892.4928],[37.7488,-2.0686,877.9471],[37.7469,-2.0772,878.3132],[37.75,-2.0764,872.7127],[37.7515,-2.0798,870.5663],[37.754,-2.0789,878.3215],[37.76,-2.0839,867.4071],[37.7601,-2.0811,882.0227],[37.7628,-2.0818,874.6637],[37.7643,-2.0842,867.0895],[37.7691,-2.082,881.0914],[37.772,-2.0854,863.188],[37.7697,-2.0876,864.988],[37.773,-2.0894,867.1566],[37.7714,-2.0925,861.1701],[37.7725,-2.0937,861.1858],[37.7748,-2.0931,860.8792],[37.7755,-2.088,865.4169],[37.7783,-2.0854,867.3568],[37.7833,-2.0864,858.732],[37.7861,-2.0897,857.093],[37.7881,-2.0895,865.2642],[37.7889,-2.0928,852.7466],[37.7853,-2.0961,875.2075],[37.7952,-2.1011,850.4996],[37.7941,-2.1035,850.9666],[37.7922,-2.1039,854.3588],[37.7923,-2.1067,852.4439],[37.7987,-2.1076,850.421],[37.8,-2.1054,855.8364],[37.8024,-2.113,844.5751],[37.8069,-2.1099,847.1084],[37.8119,-2.1145,840.7628],[37.8147,-2.1115,843.8536],[37.8138,-2.1145,841.4893],[37.8169,-2.1172,842.5418],[37.8177,-2.1247,840.1492],[37.8215,-2.1237,839.3141],[37.8292,-2.118,838.5873],[37.8328,-2.1198,829.8849],[37.8346,-2.1171,830.1263],[37.8338,-2.1131,834.679],[37.8349,-2.1124,833.8107],[37.8448,-2.1119,832.8715],[37.8451,-2.1155,825.2123],[37.8475,-2.1167,824.3004],[37.8489,-2.1153,822.3201],[37.8472,-2.113,821.9693],[37.8483,-2.1118,828.3984]]]]}
,"properties": {"GID_3": "KEN.23.5.1_1","GID_0": "KEN","country": "Kenya","GID_1": "KEN.23_1","province": "Makueni","NL_NAME_1": "NA","GID_2": "KEN.23.5_1","county": "Makueni","NL_NAME_2": "NA","city": "Kathonzweni","VARNAME_3": "NA","NL_NAME_3": "NA","TYPE_3": "Ward","ENGTYPE_3": "Ward","CC_3": "428","HASC_3": "NA","name": "Kathonzweni.city","area_km2": 304.5992,"hist_schema_id": "Elevation0-9000","hist_area_km2": {"825": 0.7628,"850": 6.3564,"875": 11.823,"900": 18.7093,"925": 23.3923,"950": 27.9905,"975": 28.6477,"1000": 29.3896,"1025": 38.883,"1050": 42.698,"1075": 46.5554,"1100": 23.7759,"1125": 4.4077,"1150": 1.0807,"1175": 0.1271}}}