{"type":"Feature","properties":{"GID_3":"KEN.11.8.3_1","GID_0":"KEN","country":"Kenya","GID_1":"KEN.11_1","province":"Kakamega","NL_NAME_1":"NA","GID_2":"KEN.11.8_1","county":"MumiasEast","NL_NAME_2":"NA","city":"Malaha/Isongo/Makunga","VARNAME_3":"NA","NL_NAME_3":"NA","TYPE_3":"Ward","ENGTYPE_3":"Ward","CC_3":"1025","HASC_3":"NA","name":"Malaha_Isongo_Makunga.city"},
"geometry":{"type": "MultiPolygon","coordinates": [[[[34.6114,0.2823,1326.0461],[34.6138,0.2824,1337.8239],[34.6183,0.2877,1342.9482],[34.6212,0.2851,1331.3746],[34.6248,0.2846,1353.1499],[34.6284,0.2893,1354.5963],[34.629,0.2918,1347.0161],[34.6275,0.294,1377.5592],[34.6294,0.2952,1363.043],[34.6257,0.298,1387.7589],[34.6246,0.3033,1403.2035],[34.6263,0.3047,1398.4646],[34.6237,0.3064,1386.1569],[34.6228,0.3093,1407.8596],[34.628,0.3169,1368.4236],[34.6281,0.3203,1369.7429],[34.6312,0.3222,1409.1918],[34.6296,0.325,1399.6964],[34.637,0.3256,1408.7489],[34.6421,0.3299,1435.1216],[34.6453,0.3304,1446.55],[34.6472,0.3343,1428.6781],[34.6524,0.3332,1426.9216],[34.6484,0.3365,1428.6008],[34.6494,0.343,1419.0598],[34.6431,0.3551,1412.583],[34.6328,0.3537,1407.9111],[34.6297,0.3601,1397.7173],[34.625,0.3627,1408.9277],[34.6208,0.3688,1388.4158],[34.6168,0.3708,1358.1062],[34.6164,0.369,1362.1469],[34.6092,0.372,1374.1816],[34.6048,0.3719,1367.7849],[34.6003,0.3686,1356.7046],[34.5965,0.3724,1362.1597],[34.5904,0.3737,1347.7318],[34.5824,0.3727,1344.9778],[34.5763,0.3748,1330.4961],[34.5784,0.3694,1326.5793],[34.5824,0.3657,1315.3151],[34.5971,0.361,1349.8151],[34.5999,0.3543,1353.2808],[34.6073,0.3495,1391.2319],[34.6072,0.3464,1387.1746],[34.6043,0.3414,1370.8284],[34.603,0.342,1379.5469],[34.5962,0.3335,1374.8042],[34.5961,0.3263,1345.8958],[34.5898,0.3229,1370.1812],[34.5871,0.3129,1350.3734],[34.5922,0.3043,1339.4442],[34.5924,0.3007,1329.7642],[34.58,0.2956,1346.4805],[34.5707,0.2878,1334.4883],[34.5676,0.2876,1344.9546],[34.5664,0.2844,1334.2421],[34.5606,0.2844,1324.244],[34.559,0.281,1321.4094],[34.5606,0.2792,1318.7698],[34.5623,0.2801,1312.7344],[34.5645,0.2785,1306.9858],[34.5649,0.2761,1314.6501],[34.5669,0.2781,1307.4077],[34.5688,0.2777,1315.752],[34.5712,0.2738,1336.4844],[34.5737,0.2749,1340.0306],[34.5758,0.2738,1349.8918],[34.5775,0.2752,1351.1942],[34.5822,0.2723,1326.1136],[34.5851,0.2741,1342.7888],[34.588,0.2731,1328.5691],[34.5897,0.2789,1355.1952],[34.5995,0.2791,1330.146],[34.6057,0.2866,1336.4823],[34.6097,0.285,1344.9373],[34.6114,0.2823,1326.0461]]]]}}