{"type": "Feature","bbox": [34.2168,0.6205,34.3397,0.6555],"geometry": {"type": "MultiPolygon","coordinates": [[[[34.2168,0.6296,1122.5234],[34.2212,0.6306,1125.3738],[34.2236,0.6278,1119.2246],[34.2277,0.629,1122.5583],[34.2242,0.6322,1128.39],[34.2201,0.6328,1125.2079],[34.2168,0.6296,1122.5234]]],
[[[34.2442,0.6205,1134.6615],[34.249,0.6211,1136.3584],[34.2544,0.6282,1141.1484],[34.2575,0.6281,1142.8123],[34.2586,0.6264,1142.059],[34.2601,0.629,1144.2877],[34.2631,0.6286,1146.1865],[34.2678,0.6239,1142.5088],[34.274,0.6284,1146.6204],[34.2853,0.6256,1149.249],[34.2901,0.6284,1154.4154],[34.2922,0.6258,1154.9392],[34.2947,0.6263,1156.3809],[34.2957,0.629,1157.2565],[34.2989,0.6289,1159.2473],[34.3055,0.6324,1162.0403],[34.3089,0.631,1164.6328],[34.3082,0.6301,1165.6475],[34.3133,0.6316,1168.3997],[34.314,0.6295,1170.1689],[34.3212,0.627,1175.0308],[34.3224,0.6242,1179.9862],[34.3249,0.6245,1184.6846],[34.3251,0.6218,1178.2754],[34.3266,0.6239,1189.8494],[34.3288,0.6223,1186.3813],[34.3313,0.6258,1199.9755],[34.3367,0.6261,1193.6494],[34.3368,0.6281,1195.1161],[34.3397,0.6287,1198.9331],[34.3341,0.6555,1221.2894],[34.3046,0.6465,1167.7515],[34.3,0.6502,1177.9631],[34.2947,0.6507,1180.4058],[34.2901,0.6491,1185.2184],[34.2883,0.651,1191.76],[34.2792,0.6515,1146.8226],[34.2774,0.6493,1149.7889],[34.2789,0.6487,1149.2421],[34.2768,0.643,1143.5197],[34.2731,0.6429,1148.0312],[34.2729,0.6416,1141.4385],[34.2715,0.6435,1152.8396],[34.2701,0.6426,1156.1472],[34.2713,0.6403,1139.2266],[34.2692,0.6423,1156.1472],[34.267,0.6396,1148.868],[34.2609,0.6397,1150.1495],[34.2605,0.6379,1140.2988],[34.2495,0.6313,1136.295],[34.2405,0.6357,1130.511],[34.2382,0.6299,1125.3701],[34.2374,0.6308,1129.9176],[34.2354,0.6283,1125.0482],[34.2338,0.6303,1126.3035],[34.2294,0.6289,1122.5583],[34.2326,0.6249,1125.3525],[34.2344,0.6244,1127.6686],[34.2356,0.6262,1125.4613],[34.2409,0.6207,1132.2228],[34.2435,0.6215,1133.5784],[34.2442,0.6205,1134.6615]]]]}
,"properties": {"GID_3": "KEN.4.6.4_1","GID_0": "KEN","country": "Kenya","GID_1": "KEN.4_1","province": "Busia","NL_NAME_1": "NA","GID_2": "KEN.4.6_1","county": "TesoNorth","NL_NAME_2": "NA","city": "MalabaCentral","VARNAME_3": "NA","NL_NAME_3": "NA","TYPE_3": "Ward","ENGTYPE_3": "Ward","CC_3": "1121","HASC_3": "NA","name": "Malaba_Central.city","area_km2": 23.639,"hist_schema_id": "Elevation0-9000","hist_area_km2": {"1125": 3.20134,"1150": 9.4132,"1175": 5.87264,"1200": 3.47695,"1225": 1.67487}}}