{"type":"Feature","properties":{"GID_3":"KEN.14.2.4_1","GID_0":"KEN","country":"Kenya","GID_1":"KEN.14_1","province":"Kilifi","NL_NAME_1":"NA","GID_2":"KEN.14.2_1","county":"Kaloleni","NL_NAME_2":"NA","city":"Mwanamwinga","VARNAME_3":"NA","NL_NAME_3":"NA","TYPE_3":"Ward","ENGTYPE_3":"Ward","CC_3":"66","HASC_3":"NA","name":"Mwanamwinga.city"},
"geometry":{"type": "MultiPolygon","coordinates": [[[[39.4407,-3.682,206.0014],[39.4561,-3.6872,203.4639],[39.4589,-3.6957,201.0206],[39.4579,-3.7,200.5455],[39.4613,-3.7224,195.8286],[39.4641,-3.7253,195.5059],[39.4691,-3.7262,194.5411],[39.4739,-3.7296,192.6203],[39.4723,-3.7546,189.7792],[39.4769,-3.7632,185.9932],[39.4799,-3.7662,191.3975],[39.4845,-3.7675,186.5092],[39.4873,-3.7616,186.0112],[39.4851,-3.7566,187.8678],[39.4871,-3.7463,191.9845],[39.4943,-3.7295,200.3267],[39.4941,-3.7265,200.8082],[39.4973,-3.7182,204.8417],[39.4965,-3.7149,205.049],[39.5309,-3.71,281.1365],[39.5309,-3.7197,265.595],[39.5347,-3.7285,247.6843],[39.5397,-3.753,231.3994],[39.5408,-3.7662,241.4706],[39.5487,-3.7651,248.742],[39.5597,-3.7475,306.9196],[39.5619,-3.7454,295.8025],[39.5655,-3.7451,290.821],[39.5692,-3.7465,283.6521],[39.5741,-3.7528,275.0323],[39.5723,-3.7635,288.2066],[39.5753,-3.7715,304.4243],[39.5881,-3.7563,268.5035],[39.5887,-3.7508,278.5449],[39.5855,-3.7468,292.0484],[39.5795,-3.7446,313.0967],[39.5751,-3.7372,319.5421],[39.5747,-3.7339,318.7018],[39.5789,-3.7345,317.3869],[39.5927,-3.7294,288.205],[39.6007,-3.7232,272.7612],[39.6056,-3.717,263.879],[39.6101,-3.7219,268.9109],[39.6134,-3.7214,286.4759],[39.6177,-3.724,282.3817],[39.6293,-3.7146,264.3763],[39.6347,-3.7127,257.1841],[39.6371,-3.7138,233.7251],[39.6377,-3.7197,200.3868],[39.6442,-3.7288,162.9075],[39.6521,-3.7184,186.1338],[39.6547,-3.7166,162.588],[39.6579,-3.718,122.1074],[39.6607,-3.7105,148.6239],[39.6689,-3.7052,111.0283],[39.6653,-3.6984,108.838],[39.6651,-3.695,106.5371],[39.6673,-3.6822,108.1355],[39.6695,-3.6784,122.4424],[39.6533,-3.6799,190.1422],[39.6417,-3.6855,228.4167],[39.6383,-3.6808,200.4712],[39.6313,-3.6551,171.7563],[39.6275,-3.6593,178.8763],[39.6233,-3.6589,181.5831],[39.6217,-3.6559,174.037],[39.6225,-3.6472,181.6444],[39.6209,-3.6409,194.7337],[39.6175,-3.6412,187.9472],[39.6163,-3.6436,190.5996],[39.6117,-3.6429,196.872],[39.6088,-3.652,189.8904],[39.6021,-3.6559,190.8575],[39.6025,-3.652,194.3138],[39.5955,-3.6457,207.7569],[39.5925,-3.6496,191.154],[39.5897,-3.6489,202.7687],[39.5936,-3.6533,190.5972],[39.5923,-3.6559,191.1538],[39.5837,-3.6583,203.7645],[39.5841,-3.6635,194.3209],[39.5781,-3.6642,205.6563],[39.5699,-3.6594,195.9823],[39.5689,-3.6572,202.822],[39.5707,-3.6524,203.2989],[39.5689,-3.6511,206.6886],[39.5631,-3.6508,204.5391],[39.5581,-3.6537,206.2263],[39.5493,-3.6543,205.2851],[39.5485,-3.6494,208.348],[39.5535,-3.6428,203.8507],[39.5528,-3.6395,210.1893],[39.5499,-3.637,206.6271],[39.5425,-3.639,212.0429],[39.5311,-3.6298,208.2722],[39.5269,-3.6315,207.4932],[39.5265,-3.6339,210.2989],[39.5239,-3.6765,266.4263],[39.5067,-3.6756,253.6361],[39.4915,-3.6728,224.8088],[39.4701,-3.6648,231.3685],[39.4593,-3.6666,215.6475],[39.4485,-3.6658,222.2899],[39.4425,-3.6724,215.7244],[39.4391,-3.6811,206.9069],[39.4407,-3.682,206.0014]]]]}}