{"type":"Feature","properties":{"GID_3":"KEN.23.1.3_1","GID_0":"KEN","country":"Kenya","GID_1":"KEN.23_1","province":"Makueni","NL_NAME_1":"NA","GID_2":"KEN.23.1_1","county":"Kaiti","NL_NAME_2":"NA","city":"Kilungu","VARNAME_3":"NA","NL_NAME_3":"NA","TYPE_3":"Ward","ENGTYPE_3":"Ward","CC_3":"422","HASC_3":"NA","name":"Kilungu.city"},
"geometry":{"type": "MultiPolygon","coordinates": [[[[37.3925,-1.7585,1397.4957],[37.3883,-1.7598,1461.6434],[37.3722,-1.7715,1788.8679],[37.367,-1.7719,1663.5364],[37.366,-1.7694,1666.9252],[37.3684,-1.7628,1577.1334],[37.3684,-1.7572,1560.9636],[37.3699,-1.756,1514.8407],[37.3703,-1.7467,1483.7545],[37.3679,-1.7427,1451.5177],[37.3675,-1.7354,1460.9771],[37.3632,-1.7359,1496.7318],[37.3626,-1.7382,1474.5171],[37.3604,-1.7391,1463.8346],[37.3575,-1.7339,1480.1685],[37.3474,-1.7325,1456.1021],[37.348,-1.7287,1513.2977],[37.3451,-1.7289,1501.1643],[37.3441,-1.7274,1571.2628],[37.3455,-1.7308,1454.4149],[37.3434,-1.7334,1490.5051],[37.3412,-1.7332,1496.186],[37.3395,-1.7397,1501.7576],[37.3423,-1.7541,1599.1403],[37.3409,-1.7596,1636.7963],[37.3308,-1.7565,1592.6925],[37.3277,-1.7509,1592.442],[37.3253,-1.7554,1546.9614],[37.3232,-1.7556,1566.7222],[37.323,-1.7582,1538.8859],[37.315,-1.7635,1591.973],[37.3144,-1.7674,1567.0518],[37.3115,-1.7708,1606.6213],[37.3159,-1.7776,1663.2202],[37.33,-1.7802,1728.3518],[37.3347,-1.7873,1720.2908],[37.3396,-1.7914,1801.2759],[37.3396,-1.7937,1773.1626],[37.3433,-1.7941,1803.9508],[37.3514,-1.8004,1938.3073],[37.3509,-1.8052,1935.7094],[37.3563,-1.8055,1957.9919],[37.3577,-1.8119,1861.6294],[37.3642,-1.8189,1781.0886],[37.3775,-1.8265,1586.1066],[37.3791,-1.83,1550.6094],[37.3837,-1.8315,1529.4595],[37.3848,-1.8335,1483.8423],[37.3902,-1.8321,1502.2932],[37.3903,-1.8299,1546.4639],[37.4041,-1.8228,1742.2156],[37.4069,-1.8249,1787.1306],[37.4074,-1.8275,1766.8843],[37.416,-1.8308,1809.2854],[37.4212,-1.8309,1709.0327],[37.4285,-1.8213,1618.7968],[37.432,-1.82,1634.7078],[37.4267,-1.8121,1536.9554],[37.4294,-1.8109,1539.2434],[37.4227,-1.8078,1604.3489],[37.4215,-1.8006,1670.1152],[37.4163,-1.794,1682.7604],[37.406,-1.7847,1824.4614],[37.4031,-1.7844,1848.1542],[37.4041,-1.7824,1817.2615],[37.4006,-1.7734,1653.1337],[37.3971,-1.7696,1520.7843],[37.3962,-1.7646,1459.5286],[37.3925,-1.7585,1397.4957]]]]}}