{"type": "Feature","bbox": [34.8597,-0.5541,34.9409,-0.4637],"geometry": {"type": "MultiPolygon","coordinates": [[[[34.8816,-0.4824,1524.8994],[34.8597,-0.498,1614.5259],[34.8631,-0.4969,1631.1245],[34.8663,-0.4997,1607.5215],[34.8678,-0.4992,1625.3557],[34.8725,-0.5025,1597.7166],[34.8752,-0.5081,1651.97],[34.8771,-0.5087,1668.2767],[34.8831,-0.5172,1673.7115],[34.89,-0.5178,1745.3391],[34.8975,-0.5319,1775.5186],[34.8991,-0.5334,1791.1844],[34.9051,-0.5342,1978.8734],[34.9132,-0.5423,1932.3494],[34.9177,-0.5487,1960.7988],[34.9187,-0.5541,1898.7856],[34.9194,-0.5512,1980.3383],[34.9219,-0.5496,1996.1396],[34.9206,-0.5482,2009.9717],[34.9228,-0.5476,1996.0437],[34.9202,-0.5389,2033.02],[34.9238,-0.5385,2027.1709],[34.9252,-0.5403,2021.8762],[34.9328,-0.5412,1966.9131],[34.9313,-0.5387,1934.5325],[34.9317,-0.5339,1957.8298],[34.9344,-0.5333,1950.7383],[34.9327,-0.5321,1925.5996],[34.9336,-0.5295,1885.0955],[34.9318,-0.5273,1864.4434],[34.9319,-0.5203,1815.0739],[34.9289,-0.519,1807.3005],[34.9312,-0.5099,1788.6447],[34.9294,-0.5042,1694.8942],[34.9326,-0.4996,1730.8481],[34.931399999999996,-0.4963,1746.7371],[34.9336,-0.4873,1600.4768],[34.9397,-0.4808,1548.8951],[34.9409,-0.4718,1558.5499],[34.9328,-0.4674,1531.0148],[34.9308,-0.4637,1539.5085],[34.9062,-0.476,1539.5342],[34.8816,-0.4824,1524.8994]]]]}
,"properties": {"GID_3": "KEN.34.4.4_1","GID_0": "KEN","country": "Kenya","GID_1": "KEN.34_1","province": "Nyamira","NL_NAME_1": "NA","GID_2": "KEN.34.4_1","county": "WestMugirango","NL_NAME_2": "NA","city": "Nyamaiya","VARNAME_3": "NA","NL_NAME_3": "NA","TYPE_3": "Ward","ENGTYPE_3": "Ward","CC_3": "1352","HASC_3": "NA","name": "Nyamaiya.city","area_km2": 41.93635,"hist_schema_id": "Elevation0-9000","hist_area_km2": {"1500": 0.29682,"1525": 2.62898,"1550": 3.94347,"1575": 3.75266,"1600": 3.68905,"1625": 3.43463,"1650": 2.60777,"1675": 2.07774,"1700": 1.4629,"1725": 1.88692,"1750": 1.95053,"1775": 1.35689,"1800": 2.48056,"1825": 2.52296,"1850": 1.5689,"1875": 0.80565,"1900": 0.80565,"1925": 0.80565,"1950": 0.99646,"1975": 1.20847,"2000": 0.89045,"2025": 0.74204,"2050": 0.0212}}}