{"type":"Feature","properties":{"GID_2":"KEN.36.2_1","GID_0":"KEN","country":"Kenya","GID_1":"KEN.36_1","province":"Nyeri","NL_NAME_1":"NA","county":"Mathira","VARNAME_2":"NA","NL_NAME_2":"NA","TYPE_2":"Constituency","ENGTYPE_2":"Constituency","CC_2":"96","HASC_2":"NA","name":"Mathira.county"},
"geometry":{"type": "MultiPolygon","coordinates": [[[[37.1494,-0.517,1660.6067],[37.1548,-0.5196,1607.1735],[37.1554,-0.5142,1676.1158],[37.1592,-0.5175,1649.8784],[37.1628,-0.5183,1593.6512],[37.1651,-0.5145,1588.9857],[37.1621,-0.5151,1587.7133],[37.1633,-0.5119,1624.2739],[37.1695,-0.5086,1592.762],[37.1709,-0.504,1653.9364],[37.1688,-0.4982,1683.8593],[37.1637,-0.4942,1671.0742],[37.1657,-0.4914,1677.3651],[37.1642,-0.4893,1710.1302],[37.1621,-0.4905,1713.5568],[37.1616,-0.4881,1712.9783],[37.1669,-0.4814,1740.7764],[37.1768,-0.4775,1764.0083],[37.1756,-0.4373,1837.512],[37.1817,-0.4338,1867.1697],[37.1875,-0.437,1860.2776],[37.1996,-0.4346,1827.1632],[37.1989,-0.4259,1897.4911],[37.2008,-0.4231,1908.9277],[37.2027,-0.4232,1938.8391],[37.205,-0.4176,1977.307],[37.3078,-0.1456,4597.0439],[37.2016,-0.2803,2528.0889],[37.1964,-0.2813,2463.0015],[37.1849,-0.2878,2459.208],[37.1688,-0.304,2284.4287],[37.1475,-0.3068,2199.146],[37.1448,-0.3047,2170.8809],[37.1433,-0.3064,2167.7673],[37.1373,-0.3049,2141.647],[37.1319,-0.3065,2133.6025],[37.1305,-0.3106,2116.1445],[37.1273,-0.3136,2086.3374],[37.1187,-0.3137,2052.4019],[37.1122,-0.3193,1999.4949],[37.1053,-0.3194,1980.4712],[37.0965,-0.3275,1953.2465],[37.0847,-0.3294,1930.6113],[37.0781,-0.3372,1886.3895],[37.0788,-0.3388,1883.0461],[37.0755,-0.3445,1876.4199],[37.0755,-0.3485,1837.7589],[37.0711,-0.3535,1818.2419],[37.0657,-0.3546,1830.0231],[37.063,-0.3587,1824.3405],[37.0596,-0.3589,1827.2177],[37.056399999999996,-0.3634,1813.9746],[37.0574,-0.3661,1805.2882],[37.0544,-0.3668,1796.2487],[37.0523,-0.3721,1788.9861],[37.0501,-0.3717,1787.1353],[37.0469,-0.3741,1781.8495],[37.0454,-0.3696,1778.3195],[37.0424,-0.3686,1779.3929],[37.0386,-0.3729,1758.646],[37.0374,-0.3717,1712.325],[37.0356,-0.3756,1702.8857],[37.0338,-0.3756,1699.5483],[37.0275,-0.3808,1695.1914],[37.0329,-0.3846,1713.2958],[37.0302,-0.3885,1668.5659],[37.0316,-0.3897,1689.0015],[37.0311,-0.3942,1703.1422],[37.0287,-0.3959,1723.104],[37.0313,-0.3983,1664.5258],[37.0306,-0.4015,1656.2378],[37.0325,-0.4005,1719.6863],[37.0325,-0.404,1713.9698],[37.0342,-0.4033,1713.9698],[37.0336,-0.4053,1698.4253],[37.0364,-0.4059,1717.2249],[37.0357,-0.4087,1691.0792],[37.0372,-0.4081,1685.8982],[37.0378,-0.4107,1689.1566],[37.0395,-0.4103,1684.1599],[37.0381,-0.4138,1653.9509],[37.0399,-0.4153,1655.5298],[37.0396,-0.4183,1655.8501],[37.0435,-0.4188,1708.4835],[37.043,-0.4221,1700.5288],[37.0464,-0.4236,1672.1807],[37.045,-0.4283,1637.5262],[37.0471,-0.4303,1634.8228],[37.0477,-0.4364,1638.1296],[37.0447,-0.4358,1642.634],[37.0428,-0.4385,1718.8701],[37.0401,-0.4389,1720.3367],[37.0446,-0.4462,1642.0543],[37.0478,-0.4482,1657.2869],[37.046,-0.4496,1628.2181],[37.049,-0.4538,1651.4065],[37.0475,-0.4575,1630.0779],[37.0498,-0.4579,1648.9718],[37.0514,-0.4602,1641.9663],[37.0467,-0.4654,1693.3998],[37.0508,-0.4672,1617.5674],[37.0533,-0.4642,1675.6716],[37.0543,-0.4668,1628.3672],[37.0481,-0.4739,1648.6697],[37.0492,-0.4752,1628.6509],[37.0512,-0.4745,1616.5414],[37.0506,-0.4784,1599.2463],[37.0449,-0.4808,1671.718],[37.0471,-0.4844,1644.8384],[37.0576,-0.4844,1706.1654],[37.0558,-0.4876,1644.6298],[37.0633,-0.4933,1686.8533],[37.0634,-0.496,1640.2054],[37.0696,-0.5065,1648.0944],[37.0727,-0.5054,1691.5983],[37.0809,-0.5094,1659.777],[37.0823,-0.512,1598.1914],[37.0799,-0.5153,1547.1379],[37.0841,-0.5163,1595.4133],[37.0848,-0.5207,1559.5297],[37.0877,-0.5225,1591.5291],[37.0885,-0.5284,1552.1812],[37.0949,-0.5287,1663.0549],[37.0947,-0.5347,1519.23],[37.0977,-0.5349,1546.1204],[37.0997,-0.5371,1606.2311],[37.1025,-0.5366,1615.0308],[37.1051,-0.5387,1613.5077],[37.1081,-0.5384,1584.3595],[37.11,-0.535,1629.8347],[37.115,-0.5354,1630.1925],[37.1218,-0.5327,1661.2214],[37.1259,-0.5336,1668.012],[37.1295,-0.5323,1627.2206],[37.1338,-0.5342,1564.8447],[37.1354,-0.5378,1547.6655],[37.1347,-0.5445,1529.7054],[37.1477,-0.559,1463.8206],[37.1498,-0.5476,1507.4398],[37.1462,-0.538,1578.245],[37.148,-0.5336,1616.407],[37.1453,-0.5222,1645.6532],[37.1494,-0.517,1660.6067]]]]}}