{"type": "Feature","bbox": [36.8772,-1.2599,36.9305,-1.2349],"geometry": {"type": "MultiPolygon","coordinates": [[[[36.8937,-1.2556,1604.204],[36.9021,-1.253,1593.3508],[36.9033,-1.2495,1594.5876],[36.917,-1.2403,1537.9277],[36.9259,-1.2403,1539.7974],[36.9305,-1.2376,1551.595],[36.9253,-1.2392,1565.0725],[36.9228,-1.2375,1574.1553],[36.9185,-1.2385,1558.7129],[36.9129,-1.2349,1583.1392],[36.9035,-1.2361,1567.2518],[36.9016,-1.2374,1583.7888],[36.9017,-1.2397,1571.9042],[36.8957,-1.2411,1593.3438],[36.8959,-1.2431,1579.3433],[36.8923,-1.2469,1591.734],[36.893,-1.25,1590.9626],[36.8895,-1.2521,1601.1927],[36.8861,-1.2466,1597.0388],[36.8772,-1.2465,1611.9529],[36.8783,-1.2599,1613.8184],[36.8884,-1.2583,1607.0138],[36.8937,-1.2556,1604.204]]]]}
,"properties": {"GID_2": "KEN.30.5_1","GID_0": "KEN","country": "Kenya","GID_1": "KEN.30_1","province": "Nairobi","NL_NAME_1": "NA","county": "EmbakasiNorth","VARNAME_2": "NA","NL_NAME_2": "NA","TYPE_2": "Constituency","ENGTYPE_2": "Constituency","CC_2": "283","HASC_2": "NA","name": "Embakasi_North.county","area_km2": 5.447676,"hist_schema_id": "Elevation0-9000","hist_area_km2": {"1525": 0.063592,"1550": 0.572326,"1575": 1.441411,"1600": 3.285559,"1625": 0.084788}}}