{"type": "Feature","bbox": [34.604,0.0325,34.6734,0.0855],"geometry": {"type": "MultiPolygon","coordinates": [[[[34.604,0.0432,1460.2823],[34.6049,0.0391,1484.4703],[34.6083,0.0381,1505.4241],[34.6092,0.0351,1509.061],[34.6159,0.0325,1566.4351],[34.6166,0.0371,1539.1243],[34.6207,0.0416,1509.3726],[34.6263,0.0424,1532.4684],[34.627,0.0471,1521.7152],[34.6323,0.0466,1505.6826],[34.633,0.0482,1505.4254],[34.6394,0.0436,1516.4742],[34.6418,0.0466,1516.6177],[34.6428,0.0439,1517.8873],[34.6471,0.0459,1526.7843],[34.649,0.0446,1519.8269],[34.6523,0.0476,1482.2969],[34.6529,0.0456,1488.0422],[34.6552,0.0474,1495.8506],[34.6592,0.0463,1511.7236],[34.6625,0.0533,1493.8545],[34.6595,0.0587,1509.3704],[34.6639,0.0597,1522.7983],[34.6656,0.0689,1532.3932],[34.6734,0.0713,1533.2439],[34.6732,0.0855,1495.3759],[34.6647,0.081,1532.3494],[34.6608,0.0816,1545.152],[34.6584,0.079,1528.9596],[34.6522,0.0802,1534.5278],[34.6509,0.075,1502.1479],[34.6475,0.077,1525.343],[34.6429,0.0744,1532.1575],[34.642,0.0791,1535.4781],[34.6343,0.0754,1540.3489],[34.6182,0.0709,1510.8018],[34.6129,0.0666,1482.142],[34.6154,0.0641,1468.5601],[34.6134,0.057,1454.7169],[34.615,0.0533,1475.9568],[34.6093,0.0509,1450.0397],[34.6064,0.0464,1455.4465],[34.6067,0.0444,1456.7454],[34.604,0.0432,1460.2823]]]]}
,"properties": {"GID_3": "KEN.45.3.5_1","GID_0": "KEN","country": "Kenya","GID_1": "KEN.45_1","province": "Vihiga","NL_NAME_1": "NA","GID_2": "KEN.45.3_1","county": "Luanda","NL_NAME_2": "NA","city": "Wemilabi","VARNAME_3": "NA","NL_NAME_3": "NA","TYPE_3": "Ward","ENGTYPE_3": "Ward","CC_3": "1069","HASC_3": "NA","name": "Wemilabi.city","area_km2": 22.1775,"hist_schema_id": "Elevation0-9000","hist_area_km2": {"1425": 0.0212,"1450": 1.01771,"1475": 4.96131,"1500": 8.29006,"1525": 6.02142,"1550": 1.73858,"1575": 0.12721}}}