{"type": "Feature","bbox": [36.6041,-0.6408,37.3078,0.0204],"geometry": {"type": "MultiPolygon","coordinates": [[[[36.7041,-0.6187,3608.8562],[36.7076,-0.6212,3633.8394],[36.7089,-0.6188,3597.6543],[36.7104,-0.6136,3552.915],[36.7095,-0.6053,3429.4482],[36.7122,-0.6017,3361.0659],[36.7093,-0.596,3286.0107],[36.7102,-0.5889,3206.5732],[36.7081,-0.581,3142.355],[36.7134,-0.577,3076.7266],[36.717,-0.5715,3065.501],[36.7221,-0.5692,3087.0505],[36.7243,-0.5649,3089.0762],[36.7351,-0.5604,3029.6548],[36.75,-0.565,2979.4543],[36.7581,-0.5624,2823.1855],[36.7629,-0.5632,2829.9021],[36.7783,-0.5608,2721.5989],[36.7924,-0.5646,2552.9185],[36.8013,-0.5626,2478.8193],[36.8092,-0.5651,2447.9573],[36.8102,-0.5742,2447.8735],[36.8116,-0.5756,2420.9707],[36.8227,-0.5778,2382.8564],[36.8382,-0.5887,2275.4883],[36.8462,-0.5882,2212.137],[36.8613,-0.601,2082.929],[36.867,-0.5991,2036.7295],[36.8767,-0.6006,1990.726],[36.8826,-0.6025,2038.5193],[36.8843,-0.6054,2067.1052],[36.8884,-0.6038,2055.0251],[36.8915,-0.6045,2035.2755],[36.8942,-0.6028,2033.0775],[36.9137,-0.6042,1993.0808],[36.9201,-0.5981,1890.9293],[36.9243,-0.5992,1856.9233],[36.9371,-0.5922,1859.6985],[36.9496,-0.5891,1800.7318],[36.9572,-0.5828,1790.1019],[36.9671,-0.5813,1828.8818],[36.9774,-0.5735,1794.8613],[36.9823,-0.5736,1797.2222],[36.9874,-0.5701,1806.052],[36.9943,-0.572,1785.875],[36.9972,-0.58,1802.2917],[37.016,-0.5796,1718.8748],[37.0261,-0.586,1668.0021],[37.0343,-0.5856,1670.5203],[37.0489,-0.59,1627.5874],[37.056399999999996,-0.5979,1628.5657],[37.0593,-0.6057,1541.9634],[37.0634,-0.6075,1584.8632],[37.0676,-0.6055,1561.7168],[37.0756,-0.611,1524.1821],[37.0782,-0.6105,1507.0154],[37.0793,-0.6145,1532.4941],[37.0826,-0.6146,1523.277],[37.0855,-0.6191,1507.6464],[37.0878,-0.6179,1471.6222],[37.0951,-0.6202,1459.1964],[37.0961,-0.6223,1467.8435],[37.0993,-0.6219,1475.9404],[37.1026,-0.6256,1478.3213],[37.1008,-0.6279,1456.8306],[37.1015,-0.6325,1449.6984],[37.1148,-0.6368,1392.6503],[37.1203,-0.6408,1398.4174],[37.1277,-0.6397,1408.3301],[37.139,-0.6328,1414.4438],[37.1449,-0.6325,1425.6788],[37.1531,-0.6359,1352.7858],[37.1547,-0.6312,1291.301],[37.1595,-0.6322,1326.1532],[37.1671,-0.6297,1242.5073],[37.1694,-0.6312,1229.9612],[37.1708,-0.6263,1242.132],[37.1749,-0.6269,1247.4308],[37.1713,-0.6228,1238.7081],[37.1733,-0.6162,1260.0271],[37.1766,-0.6148,1225.1206],[37.174,-0.6118,1276.1382],[37.1759,-0.61,1331.2653],[37.1787,-0.6101,1269.7454],[37.1799,-0.6054,1233.8002],[37.1782,-0.5955,1366.1909],[37.1697,-0.5924,1239.0646],[37.1682,-0.586,1423.1594],[37.1662,-0.5886,1343.9004],[37.16,-0.587,1404.7621],[37.1496,-0.5752,1338.3312],[37.1505,-0.5713,1367.6865],[37.1492,-0.5675,1463.2769],[37.1453,-0.5663,1418.1344],[37.1442,-0.5643,1429.3469],[37.1445,-0.5575,1480.5527],[37.1484,-0.5587,1463.8206],[37.1498,-0.5478,1507.4398],[37.1462,-0.538,1578.245],[37.148,-0.5336,1616.407],[37.1453,-0.522,1645.6532],[37.1496,-0.5167,1653.4468],[37.1501,-0.5183,1627.1694],[37.1548,-0.5196,1607.1735],[37.1554,-0.5142,1676.1158],[37.1592,-0.5175,1649.8784],[37.1629,-0.5182,1593.6512],[37.1651,-0.5145,1588.9857],[37.1621,-0.5151,1587.7133],[37.1633,-0.5119,1624.2739],[37.1695,-0.5086,1592.762],[37.1709,-0.504,1653.9364],[37.1688,-0.4982,1683.8593],[37.1637,-0.4942,1671.0742],[37.1657,-0.4914,1677.3651],[37.1642,-0.4893,1710.1302],[37.1621,-0.4905,1713.5568],[37.1616,-0.4881,1712.9783],[37.1669,-0.4814,1740.7764],[37.1768,-0.4775,1764.0083],[37.1756,-0.4373,1837.512],[37.1817,-0.4338,1867.1697],[37.1875,-0.437,1860.2776],[37.1996,-0.4346,1827.1632],[37.1989,-0.4259,1897.4911],[37.2008,-0.4231,1908.9277],[37.2027,-0.4232,1938.8391],[37.205,-0.4176,1977.307],[37.3078,-0.1456,4597.0439],[37.1373,-0.0336,2119.7092],[37.1317,-0.0285,2101.0554],[37.1326,-0.0235,2122.3098],[37.1304,-0.0234,2117.3289],[37.1287,-0.0205,2083.4888],[37.1262,-0.0206,2080.5374],[37.1208,-0.0145,2084.4131],[37.1127,-0.0314,2096.0325],[37.1115,-0.0285,2082.5449],[37.1059,-0.0239,2056.6418],[37.1,-0.0214,2041.7133],[37.1003,-0.0187,2038.3188],[37.0928,-0.0109,2001.3805],[37.0882,-0.0099,2000.3336],[37.0794,0.0012,1966.335],[37.0776,0.0046,1958.3544],[37.079,0.0084,1946.6112],[37.0773,0.0125,1942.5619],[37.0789,0.0204,1928.9172],[37.0714,0.0097,1945.193],[37.0689,0.0032,1956.5237],[37.0613,0.0058,1929.9009],[37.0522,-0.0027,1921.7097],[37.0518,-0.008,1928.4667],[37.027,-0.0389,1892.0076],[37.0256,-0.0427,1892.6493],[36.9979,-0.0584,1859.2749],[36.9899,-0.0597,1851.2615],[36.986,-0.0629,1840.0134],[36.9802,-0.0627,1826.1366],[36.9778,-0.0649,1837.2645],[36.9821,-0.0892,1861.4083],[36.9855,-0.1285,1896.6777],[36.9955,-0.1385,1909.3401],[37.0081,-0.1433,1941.8868],[37.0075,-0.1473,1935.6382],[37.0148,-0.1563,1956.0049],[37.0172,-0.1623,1976.5723],[37.0167,-0.1658,1977.7179],[37.0194,-0.1694,1979.9824],[37.0081,-0.2161,1953.0049],[37.0133,-0.2251,1951.4542],[37.0105,-0.236,1935.8055],[37.0081,-0.2356,1934.7994],[37.006,-0.2393,1930.5782],[37.0041,-0.2388,1928.1444],[37.0027,-0.2427,1924.6448],[36.998,-0.2469,1918.3787],[36.9886,-0.2503,1908.7207],[36.9983,-0.265,1936.8495],[36.9878,-0.2893,1902.4995],[36.9579,-0.2759,1879.3177],[36.8795,-0.2521,1931.1166],[36.8722,-0.2456,1966.0439],[36.8716,-0.2407,1969.1134],[36.8566,-0.2486,2003.3295],[36.8412,-0.2076,1996.4086],[36.8448,-0.206,1989.4688],[36.8394,-0.1917,2012.1437],[36.8446,-0.1911,1992.1128],[36.844,-0.1897,1992.1128],[36.8457,-0.1893,1978.528],[36.8505,-0.1915,1953.3986],[36.8535,-0.1905,1928.6898],[36.8524,-0.1892,1946.1554],[36.8551,-0.1889,1937.8363],[36.8544,-0.186,1934.6116],[36.8598,-0.182,1913.7552],[36.8661,-0.1809,1899.2341],[36.8656,-0.1747,1890.8762],[36.8694,-0.175,1891.6351],[36.8717,-0.1699,1897.2896],[36.8701,-0.1655,1902.3909],[36.8652,-0.1612,1875.2932],[36.8631,-0.1511,1873.8348],[36.8588,-0.147,1865.0748],[36.8592,-0.1423,1866.7134],[36.8618,-0.1397,1859.6921],[36.861,-0.1365,1863.4608],[36.8479,-0.1307,1893.7578],[36.8315,-0.1283,1907.6115],[36.831,-0.0976,1931.2946],[36.7915,-0.1012,2056.45],[36.7684,-0.1078,2078.2529],[36.7654,-0.1027,2054.1204],[36.7524,-0.114,2057.6948],[36.7168,-0.1224,2173.0906],[36.7115,-0.129,2197.1892],[36.6596,-0.1458,2322.1755],[36.6903,-0.1678,2293.0244],[36.6826,-0.1683,2281.4595],[36.6842,-0.1785,2443.3079],[36.6153,-0.3036,3883.2471],[36.615,-0.3122,3962.9578],[36.6104,-0.3206,3890.3933],[36.6092,-0.3271,3768.2393],[36.6109,-0.339,3863.1609],[36.6167,-0.3497,3749.1497],[36.605,-0.3604,3764.4346],[36.6041,-0.3663,3802.9631],[36.6067,-0.37,3819.6848],[36.6161,-0.3721,3790.4292],[36.6315,-0.3813,3783.5359],[36.6318,-0.3839,3798.4595],[36.6233,-0.3941,3741.7661],[36.6235,-0.396,3783.5684],[36.6341,-0.4061,3693.095],[36.6504,-0.428,3397.0159],[36.6515,-0.4533,3178.1465],[36.6597,-0.4552,3159.4724],[36.6641,-0.4595,3104.9407],[36.6674,-0.4731,3116.2932],[36.6614,-0.4841,3165.7734],[36.6605,-0.4892,3149.8796],[36.662,-0.4962,3182.3853],[36.6585,-0.4999,3186.2654],[36.6579,-0.5046,3181.5146],[36.6589,-0.5114,3182.8838],[36.6644,-0.522,3188.2393],[36.6639,-0.5287,3236.4446],[36.6684,-0.5362,3203.7275],[36.67,-0.5436,3285.7483],[36.6689,-0.5525,3277.5127],[36.6703,-0.5671,3245.7041],[36.6728,-0.5697,3154.698],[36.6806,-0.5728,3191.2661],[36.6796,-0.5817,3286.3975],[36.6844,-0.5924,3336.1089],[36.7041,-0.6187,3608.8562]]]]}
,"properties": {"GID_1": "KEN.36_1","GID_0": "KEN","country": "Kenya","province": "Nyeri","VARNAME_1": "NA","NL_NAME_1": "NA","TYPE_1": "County","ENGTYPE_1": "County","CC_1": "19","HASC_1": "KE.NI","ISO_1": "KE-36","name": "Nyeri.province","area_km2": 3347.866,"hist_schema_id": "Elevation0-9000","hist_area_km2": {"1200": 0.064,"1225": 0.912,"1250": 1.505,"1275": 1.357,"1300": 2.353,"1325": 2.693,"1350": 3.032,"1375": 4.367,"1400": 5.533,"1425": 6.678,"1450": 9.689,"1475": 10.749,"1500": 8.65,"1525": 8.565,"1550": 9.901,"1575": 12.551,"1600": 15.859,"1625": 26.014,"1650": 32.226,"1675": 39.011,"1700": 46.41,"1725": 76.113,"1750": 95.259,"1775": 88.792,"1800": 70.474,"1825": 66.149,"1850": 76.199,"1875": 90.362,"1900": 99.839,"1925": 110.398,"1950": 104.589,"1975": 101.642,"2000": 100.349,"2025": 96.384,"2050": 95.811,"2075": 89.324,"2100": 79.338,"2125": 72.299,"2150": 66.298,"2175": 61.125,"2200": 58.178,"2225": 56.355,"2250": 53.217,"2275": 48.764,"2300": 49.634,"2325": 46.199,"2350": 40.898,"2375": 40.093,"2400": 38.1,"2425": 36.51,"2450": 33.711,"2475": 32.036,"2500": 29.555,"2525": 27.138,"2550": 25.4,"2575": 26.608,"2600": 26.82,"2625": 26.036,"2650": 26.184,"2675": 25.082,"2700": 23.386,"2725": 23.513,"2750": 22.877,"2775": 21.244,"2800": 19.166,"2825": 20.651,"2850": 19.039,"2875": 17.301,"2900": 18.891,"2925": 19.145,"2950": 22.262,"2975": 23.958,"3000": 26.693,"3025": 27.562,"3050": 37.251,"3075": 30.064,"3100": 29.046,"3125": 23.809,"3150": 18.488,"3175": 19.018,"3200": 18.212,"3225": 14.756,"3250": 11.64,"3275": 8.905,"3300": 9.414,"3325": 9.096,"3350": 7.951,"3375": 8.926,"3400": 8.438,"3425": 8.99,"3450": 6.869,"3475": 6.891,"3500": 6.191,"3525": 6.233,"3550": 6.361,"3575": 6.297,"3600": 6.127,"3625": 6.403,"3650": 6.445,"3675": 6.085,"3700": 5.831,"3725": 6.17,"3750": 6.149,"3775": 5.512,"3800": 4.516,"3825": 4.134,"3850": 3.032,"3875": 3.18,"3900": 2.65,"3925": 2.756,"3950": 2.968,"3975": 2.353,"4000": 2.057,"4025": 2.163,"4050": 2.014,"4075": 1.972,"4100": 2.014,"4125": 1.866,"4150": 2.035,"4175": 2.057,"4200": 1.823,"4225": 1.442,"4250": 1.293,"4275": 1.336,"4300": 1.081,"4325": 1.018,"4350": 0.996,"4375": 0.933,"4400": 0.615,"4425": 0.424,"4450": 0.551,"4475": 0.445,"4500": 0.53,"4525": 0.212,"4550": 0.17,"4575": 0.085,"4600": 0.085,"4625": 0.106,"4650": 0.064,"4675": 0.064,"4775": 0.042}}}