{"type":"Feature","properties":{"GID_3":"KEN.15.2.4_1","GID_0":"KEN","country":"Kenya","GID_1":"KEN.15_1","province":"Kirinyaga","NL_NAME_1":"NA","GID_2":"KEN.15.2_1","county":"KirinyagaCentral","NL_NAME_2":"NA","city":"Mutira","VARNAME_3":"NA","NL_NAME_3":"NA","TYPE_3":"Ward","ENGTYPE_3":"Ward","CC_3":"512","HASC_3":"NA","name":"Mutira.city"},
"geometry":{"type": "MultiPolygon","coordinates": [[[[37.3078,-0.1457,4597.0439],[37.2158,-0.4165,2019.5735],[37.2171,-0.4261,1961.1283],[37.2138,-0.4317,1893.781],[37.2172,-0.4428,1876.392],[37.2183,-0.4576,1794.641],[37.2218,-0.4639,1756.7042],[37.2183,-0.4713,1732.1149],[37.2197,-0.477,1700.9572],[37.2271,-0.4868,1674.7185],[37.2271,-0.4921,1649.7233],[37.2303,-0.4964,1604.6902],[37.23,-0.5002,1593.6694],[37.2352,-0.5066,1577.5441],[37.2356,-0.5103,1560.6465],[37.2379,-0.5099,1564.6508],[37.2477,-0.5153,1513.7743],[37.2473,-0.5111,1555.3789],[37.249,-0.5092,1542.1526],[37.2548,-0.5115,1528.248],[37.2545,-0.4934,1614.4478],[37.2527,-0.4872,1637.1779],[37.2485,-0.4829,1665.1919],[37.2446,-0.4749,1678.3818],[37.2386,-0.4438,1821.3923],[37.2428,-0.437,1865.698],[37.2486,-0.4318,1878.9382],[37.2527,-0.4233,1929.5486],[37.2467,-0.4112,2046.2368],[37.3078,-0.1457,4597.0439]]]]}}