{"type": "Feature","bbox": [40.4489,3.8587,40.7363,4.0508],"geometry": {"type": "MultiPolygon","coordinates": [[[[40.5016,3.8679,783.6932],[40.5015,3.8645,781.6768],[40.5053,3.8613,778.9381],[40.5115,3.8627,779.4182],[40.5777,3.8619,767.3977],[40.5851,3.8587,773.6934],[40.5925,3.8607,794.2254],[40.6027,3.8707,783.3365],[40.6069,3.8729,788.6572],[40.6299,3.8703,796.0105],[40.6487,3.8613,793.9504],[40.6765,3.8639,776.2668],[40.6727,3.8739,793.1099],[40.6801,3.9097,783.5416],[40.6835,3.9161,780.3091],[40.6879,3.9219,779.6776],[40.6953,3.9277,773.4042],[40.7089,3.9351,758.6989],[40.7261,3.9409,746.9664],[40.7345,3.9495,747.8149],[40.7363,3.9587,768.8676],[40.7335,4.0047,712.0975],[40.7293,4.0027,725.6066],[40.7161,4.0045,740.8945],[40.7105,4.0071,751.2014],[40.7017,4.0145,750.906],[40.6975,4.0155,756.8002],[40.6883,4.0137,773.9817],[40.6362,4.0221,814.5592],[40.6283,4.0212,823.3922],[40.6194,4.0232,829.0974],[40.6105,4.0231,837.8187],[40.6083,4.0367,843.1326],[40.5998,4.0508,844.1215],[40.5763,4.0483,864.7947],[40.5599,4.0493,872.7943],[40.544,4.0421,881.5583],[40.5201,4.0421,888.1515],[40.4931,4.0367,899.9738],[40.4699,4.0421,911.3322],[40.4489,4.0317,920.8109],[40.4533,4.0249,924.3876],[40.4531,4.0135,929.0521],[40.4873,3.9567,885.4484],[40.4887,3.9507,879.9664],[40.4843,3.9333,870.9746],[40.4869,3.9291,865.8356],[40.4861,3.9195,846.8737],[40.4881,3.9095,833.8782],[40.4959,3.9007,824.5316],[40.4971,3.8939,816.9227],[40.5065,3.8871,805.532],[40.5067,3.8847,810.9598],[40.5033,3.8795,794.9528],[40.5016,3.8679,783.6932]]]]}
,"properties": {"GID_3": "KEN.24.1.3_1","GID_0": "KEN","country": "Kenya","GID_1": "KEN.24_1","province": "Mandera","NL_NAME_1": "NA","GID_2": "KEN.24.1_1","county": "Banissa","NL_NAME_2": "NA","city": "Guba","VARNAME_3": "NA","NL_NAME_3": "NA","TYPE_3": "Ward","ENGTYPE_3": "Ward","CC_3": "198","HASC_3": "NA","name": "Guba.city","area_km2": 472.6551,"hist_schema_id": "Elevation0-9000","hist_area_km2": {"725": 1.5228,"750": 13.7059,"775": 47.3377,"800": 97.1118,"825": 83.5298,"850": 74.2207,"875": 59.5187,"900": 54.3373,"925": 36.6961,"950": 4.6743}}}