{"type":"Feature","properties":{"GID_3":"KEN.4.4.3_1","GID_0":"KEN","country":"Kenya","GID_1":"KEN.4_1","province":"Busia","NL_NAME_1":"NA","GID_2":"KEN.4.4_1","county":"Matayos","NL_NAME_2":"NA","city":"Busibwabo","VARNAME_3":"NA","NL_NAME_3":"NA","TYPE_3":"Ward","ENGTYPE_3":"Ward","CC_3":"1140","HASC_3":"NA","name":"Busibwabo.city"},
"geometry":{"type": "MultiPolygon","coordinates": [[[[34.1472,0.3909,1183.358],[34.1472,0.3887,1173.0111],[34.1526,0.3899,1166.4641],[34.1553,0.3882,1159.3878],[34.157,0.3895,1161.3851],[34.1654,0.3882,1163.2732],[34.1695,0.3902,1166.8804],[34.1717,0.3877,1167.4453],[34.1749,0.3874,1177.7468],[34.1817,0.3909,1169.4158],[34.1838,0.3957,1175.0537],[34.1873,0.3965,1176.6208],[34.1931,0.4018,1178.1399],[34.1939,0.4003,1170.2957],[34.2036,0.4085,1187.3201],[34.2089,0.4056,1191.437],[34.2162,0.4078,1187.3778],[34.2172,0.4067,1178.5002],[34.2243,0.4136,1190.2845],[34.2282,0.4147,1179.8093],[34.2193,0.4473,1210.2373],[34.2203,0.4553,1215.2771],[34.2186,0.4661,1223.5519],[34.2215,0.4784,1231.4321],[34.2104,0.4824,1222.2367],[34.2039,0.4746,1221.7],[34.1977,0.4726,1218.4614],[34.1936,0.4598,1212.5276],[34.1944,0.4529,1205.7234],[34.1927,0.4424,1197.9435],[34.1847,0.4346,1198.509],[34.1847,0.4246,1185.3865],[34.1867,0.4156,1180.2859],[34.1816,0.4089,1189.9633],[34.1751,0.4026,1185.4574],[34.1606,0.3933,1164.2463],[34.1535,0.3945,1177.1674],[34.1514,0.3921,1178.2726],[34.1472,0.3909,1183.358]]]]}}