{"type": "Feature","bbox": [36.9957,-1.1988,37.1869,-1.055],"geometry": {"type": "MultiPolygon","coordinates": [[[[36.9957,-1.1228,1507.6154],[36.999,-1.1318,1505.6663],[37.0039,-1.1316,1515.3611],[37.0088,-1.1335,1511.2827],[37.0144,-1.1314,1503.9845],[37.0225,-1.1309,1503.8917],[37.0262,-1.1347,1493.1892],[37.0287,-1.1422,1491.2703],[37.0301,-1.1406,1491.1241],[37.0299,-1.1453,1488.574],[37.0318,-1.1439,1488.099],[37.037,-1.1477,1491.9546],[37.0455,-1.1493,1488.3103],[37.0512,-1.1521,1486.1246],[37.0541,-1.1556,1484.5221],[37.0628,-1.1536,1466.8573],[37.0649,-1.1557,1464.14],[37.0665,-1.1537,1469.771],[37.0692,-1.1559,1470.3206],[37.0731,-1.1554,1467.1466],[37.0786,-1.1616,1479.6637],[37.0855,-1.1644,1479.795],[37.0933,-1.1701,1471.5841],[37.0956,-1.1751,1463.0377],[37.1001,-1.1788,1474.5356],[37.111,-1.1797,1473.2175],[37.1115,-1.1833,1469.8438],[37.1148,-1.186,1471.489],[37.1183,-1.1926,1458.356],[37.1232,-1.1901,1473.0078],[37.127,-1.1924,1472.7798],[37.131,-1.1988,1470.8313],[37.134,-1.1978,1471.2114],[37.1374,-1.1922,1474.7693],[37.1431,-1.1953,1472.6737],[37.1499,-1.1933,1472.6171],[37.1537,-1.1947,1459.387],[37.1564,-1.1922,1470.2631],[37.1615,-1.1911,1469.0657],[37.166,-1.1863,1439.2034],[37.1741,-1.1714,1465.4387],[37.1823,-1.1637,1434.8121],[37.1825,-1.157,1453.7192],[37.1807,-1.1506,1462.3055],[37.185,-1.1438,1425.0767],[37.1841,-1.1404,1459.1013],[37.1869,-1.136,1437.3883],[37.1866,-1.1307,1473.5308],[37.1849,-1.1284,1451.9685],[37.182,-1.1278,1431.6177],[37.1817,-1.124,1452.2081],[37.1792,-1.1225,1424.8925],[37.1755,-1.1136,1420.2253],[37.17,-1.1122,1471.4493],[37.1672,-1.115,1469.1606],[37.1673,-1.1182,1427.2885],[37.1577,-1.1246,1469.9965],[37.1481,-1.1282,1445.7627],[37.1427,-1.1255,1467.6328],[37.1359,-1.1298,1440.5293],[37.1332,-1.1273,1462.724],[37.1321,-1.1292,1449.892],[37.1251,-1.1277,1469.7692],[37.1189,-1.1221,1473.0808],[37.1126,-1.1229,1471.4065],[37.1066,-1.1198,1474.5106],[37.1053,-1.1216,1465.4598],[37.1035,-1.1188,1475.8667],[37.1016,-1.1202,1468.0658],[37.0974,-1.1183,1469.7565],[37.0946,-1.1156,1479.3793],[37.1063,-1.0886,1476.7463],[37.1035,-1.0891,1476.6129],[37.0962,-1.0851,1452.3794],[37.095,-1.0819,1469.7932],[37.0799,-1.0655,1496.3098],[37.0778,-1.0697,1473.6334],[37.0536,-1.055,1510.8892],[37.0438,-1.0712,1520.7003],[37.0337,-1.0835,1501.7234],[37.0135,-1.1017,1523.9933],[37.008,-1.1137,1500.5746],[36.9957,-1.1228,1507.6154]]]]}
,"properties": {"GID_3": "KEN.13.4.2_1","GID_0": "KEN","country": "Kenya","GID_1": "KEN.13_1","province": "Kiambu","NL_NAME_1": "NA","GID_2": "KEN.13.4_1","county": "Juja","NL_NAME_2": "NA","city": "Kalimoni","VARNAME_3": "NA","NL_NAME_3": "NA","TYPE_3": "Ward","ENGTYPE_3": "Ward","CC_3": "563","HASC_3": "NA","name": "Kalimoni.city","area_km2": 152.5201,"hist_schema_id": "Elevation0-9000","hist_area_km2": {"1425": 6.8682,"1450": 15.6442,"1475": 78.8564,"1500": 40.3614,"1525": 10.6204,"1550": 0.1696}}}