{"type":"Feature","properties":{"GID_3":"KEN.42.5.2_1","GID_0":"KEN","country":"Kenya","GID_1":"KEN.42_1","province":"TransNzoia","NL_NAME_1":"NA","GID_2":"KEN.42.5_1","county":"Saboti","NL_NAME_2":"NA","city":"Machewa","VARNAME_3":"NA","NL_NAME_3":"NA","TYPE_3":"Ward","ENGTYPE_3":"Ward","CC_3":"687","HASC_3":"NA","name":"Machewa.city"},
"geometry":{"type": "MultiPolygon","coordinates": [[[[34.8012,0.8522,1710.8875],[34.8356,0.8697,1819.3688],[34.8271,0.8851,1898.4991],[34.8495,0.9003,1812.1184],[34.8486,0.9062,1825.8521],[34.8817,0.9143,1785.4822],[34.8807,0.9161,1794.1682],[34.8705,0.9204,1793.1311],[34.8211,0.9059,1936.4608],[34.828,0.922,1935.7888],[34.8209,0.9243,1962.7484],[34.812,0.9183,1981.5227],[34.8035,0.9248,2078.7244],[34.7959,0.9203,2116.73],[34.7997,0.9162,2144.8481],[34.8007,0.9105,2065.3447],[34.799,0.9077,2071.7715],[34.7935,0.9061,2066.5037],[34.7925,0.9014,2034.9072],[34.7891,0.8993,2030.1536],[34.7866,0.8949,2029.4832],[34.79,0.8912,1998.7607],[34.7893,0.8884,1989.8604],[34.7929,0.8776,1914.2821],[34.7955,0.8745,1917.6522],[34.7951,0.8649,1855.3804],[34.7964,0.8599,1779.3064],[34.8012,0.8522,1710.8875]]]]}}