{"type": "Feature","bbox": [36.1372,-1.1023,36.3352,-0.8715],"geometry": {"type": "MultiPolygon","coordinates": [[[[36.1729,-0.8715,2679.0225],[36.1457,-0.8729,2689.2751],[36.1474,-0.8773,2655.6514],[36.1463,-0.886,2640.2559],[36.1442,-0.893,2668.2178],[36.1412,-0.8968,2662.374],[36.1425,-0.9067,2551.553],[36.1418,-0.9216,2520.9792],[36.1372,-0.9297,2533.3726],[36.1373,-0.9322,2535.4758],[36.1416,-0.9495,2488.9407],[36.1483,-0.9545,2492.4294],[36.1492,-0.957,2478.9109],[36.1449,-0.9711,2439.9453],[36.149,-0.9776,2441.4551],[36.1474,-0.983,2309.1929],[36.1479,-0.9897,2248.634],[36.1503,-0.9956,2259.8608],[36.1538,-0.9984,2263.7393],[36.1544,-1.0023,2219.3496],[36.1616,-1.0086,2247.3052],[36.1668,-1.0079,2229.8372],[36.1716,-1.0026,2200.9468],[36.1752,-1.0039,2253.8352],[36.1775,-1.0013,2269.8696],[36.1818,-1.0017,2189.1216],[36.1837,-1.0,2184.5144],[36.1874,-1.0025,2163.2668],[36.1924,-1.0012,2201.5032],[36.2016,-1.0036,2072.646],[36.1966,-1.0986,1794.2435],[36.2224,-1.0984,1709.9331],[36.2403,-1.1023,1672.954],[36.2555,-1.0994,1643.2405],[36.2818,-1.0899,1649.7139],[36.2995,-1.0749,1629.9712],[36.3352,-1.04,1609.3704],[36.2638,-0.9085,2103.9866],[36.2057,-0.9278,2238.1914],[36.1948,-0.9091,2462.8569],[36.1855,-0.9087,2708.8726],[36.1895,-0.9017,2554.2639],[36.1729,-0.8715,2679.0225]]]]}
,"properties": {"GID_3": "KEN.33.3.3_1","GID_0": "KEN","country": "Kenya","GID_1": "KEN.33_1","province": "Narok","NL_NAME_1": "NA","GID_2": "KEN.33.3_1","county": "NarokEast","NL_NAME_2": "NA","city": "Suswa","VARNAME_3": "NA","NL_NAME_3": "NA","TYPE_3": "Ward","ENGTYPE_3": "Ward","CC_3": "900","HASC_3": "NA","name": "Suswa.city","area_km2": 312.3674,"hist_schema_id": "Elevation0-9000","hist_area_km2": {"1600": 0.1484,"1625": 31.4165,"1650": 35.1898,"1675": 16.5987,"1700": 12.7617,"1725": 10.9386,"1750": 12.4013,"1775": 11.5533,"1800": 10.0906,"1825": 11.0022,"1850": 10.1755,"1875": 8.1404,"1900": 8.6916,"1925": 5.9993,"1950": 5.427,"1975": 6.4022,"2000": 7.5257,"2025": 6.8262,"2050": 4.9818,"2075": 3.4979,"2100": 3.1375,"2125": 3.2647,"2150": 2.6499,"2175": 2.0563,"2200": 2.8195,"2225": 2.9679,"2250": 3.3495,"2275": 3.6675,"2300": 4.1126,"2325": 3.7099,"2350": 3.1587,"2375": 2.8195,"2400": 2.4803,"2425": 2.5651,"2450": 2.9043,"2475": 2.8619,"2500": 2.8619,"2525": 3.9855,"2550": 4.6851,"2575": 5.2363,"2600": 4.4307,"2625": 4.6639,"2650": 4.7063,"2675": 3.7099,"2700": 3.0315,"2725": 2.5228,"2750": 1.696,"2775": 1.3992,"2800": 0.9752,"2825": 0.1696}}}