{"type":"Feature","properties":{"featurecla":"Desert","name":"Chalbi Desert","namealt":null,"region":"Africa","subregion":null,"min_label":5.4,"max_label":10.0,"scalerank":5},
"geometry":{"type": "MultiPolygon","coordinates": [[[[40.222502498711293,1.18336422474701,187.1351],[40.251719597271205,1.288885809369106,187.8325],[40.216792793423878,1.356714573270025,190.1378],[39.810801628521261,1.7078311218690909,260.2875],[39.691661003521261,2.3427798523378409,385.9221],[39.52825992943238,2.5788338777230142,440.6682],[38.868178135114618,3.2001294843709189,587.6353],[38.673106316021205,3.2952945007753272,639.4988],[38.104258659771205,3.7186343445253272,851.4472],[37.826426628521205,4.0890567078065914,867.5513],[37.364402704771209,4.3328566204158534,923.3124],[37.112071159771261,3.94354889530662,635.9171],[36.887095573833761,2.9777896179627992,522.4282],[36.887095573833761,2.3163516296815772,817.7207],[36.768077019146261,1.8004214539003409,1255.9021],[36.715602163010686,1.7070969405269809,1288.8698],[37.019419792583705,1.76068756718162,2111.0891],[37.535411003521261,1.7475039734315909,725.0292],[37.799937370708705,1.615179754681549,557.6453],[38.223277214458705,1.4564273132753269,359.6643],[38.210093620708705,0.914068914837827,577.9546],[38.368785026958705,0.728827215619049,518.5049],[38.778941276958705,0.384894110150341,453.3191],[39.400645378521205,0.411322332806606,225.9247],[39.784312370708705,0.490729071087827,161.7479],[39.744639519146205,1.072821356244049,259.3886],[40.167979362896205,1.112494207806549,182.5374],[40.222502498711293,1.18336422474701,187.1351]]],
[[[36.06204562410764,1.698804047412096,646.7686],[36.106577995708705,1.9326846374940769,566.9219],[35.881724480083705,3.176214910931606,457.3677],[35.775889519146261,4.1419741882753414,620.1816],[35.849813544162117,4.6064099106579732,387.7601],[35.828868034771205,4.5917422546816056,432.7581],[35.696543816021261,3.9567324890565492,631.2637],[35.524546745708705,3.42761871952537,546.07],[35.458384636333705,3.12329743046287,522.9775],[35.630381706646205,2.8455264343690629,645.6075],[35.722911003521205,2.56769440311912,653.1747],[35.987559441021205,2.0781924499940492,632.8854],[36.053721550396205,1.8533389343690769,625.9968],[36.06204562410764,1.698804047412096,646.7686]]]]}}