{"type": "Feature","bbox": [34.5763,0.0224,34.6159,0.0479],"geometry": {"type": "MultiPolygon","coordinates": [[[[34.5906,0.0477,1451.0385],[34.5858,0.0477,1460.6442],[34.585,0.0456,1488.439],[34.5875,0.0399,1464.0035],[34.584,0.0335,1494.0112],[34.5802,0.0333,1501.1576],[34.5763,0.0266,1497.5591],[34.5823,0.0263,1518.5197],[34.587,0.029,1494.2526],[34.5894,0.0267,1507.2662],[34.5894,0.0237,1520.7736],[34.5918,0.0231,1509.2952],[34.5927,0.0244,1503.9423],[34.5991,0.0224,1494.3855],[34.6041,0.0262,1501.4492],[34.6138,0.0275,1540.9331],[34.6159,0.0325,1566.4351],[34.6102,0.0344,1509.061],[34.6083,0.0381,1505.4241],[34.6049,0.0391,1484.4703],[34.605,0.0429,1464.5933],[34.6024,0.0458,1444.5581],[34.5965,0.0479,1451.2402],[34.5906,0.0477,1451.0385]]]]}
,"properties": {"GID_3": "KEN.45.3.3_1","GID_0": "KEN","country": "Kenya","GID_1": "KEN.45_1","province": "Vihiga","NL_NAME_1": "NA","GID_2": "KEN.45.3_1","county": "Luanda","NL_NAME_2": "NA","city": "LuandaTownship","VARNAME_3": "NA","NL_NAME_3": "NA","TYPE_3": "Ward","ENGTYPE_3": "Ward","CC_3": "1068","HASC_3": "NA","name": "Luanda_Township.city","area_km2": 6.975525,"hist_schema_id": "Elevation0-9000","hist_area_km2": {"1425": 0.042404,"1450": 1.06011,"1475": 2.8835,"1500": 2.395849,"1525": 0.402842,"1550": 0.169618,"1575": 0.021202}}}