{"type": "Feature","bbox": [34.6441,0.3639,34.7369,0.466],"geometry": {"type": "MultiPolygon","coordinates": [[[[34.6441,0.4555,1365.0499],[34.6454,0.4447,1358.6124],[34.653,0.4283,1442.6921],[34.6524,0.4235,1450.5287],[34.657,0.42,1456.3213],[34.6599,0.4128,1486.9037],[34.6592,0.3962,1467.2291],[34.6608,0.3896,1435.7358],[34.6552,0.3834,1414.7859],[34.6571,0.3727,1436.3527],[34.6566,0.3641,1413.8131],[34.6599,0.3639,1425.9744],[34.6664,0.3698,1429.803],[34.674,0.3678,1409.4559],[34.6806,0.3732,1445.6765],[34.6831,0.3735,1461.7788],[34.6824,0.3754,1455.3989],[34.6846,0.3774,1447.1583],[34.6855,0.3735,1465.8501],[34.6908,0.377,1433.3898],[34.6938,0.3745,1437.8191],[34.6966,0.375,1446.363],[34.6999,0.3684,1474.457],[34.7053,0.3698,1464.1528],[34.7064,0.3737,1443.9407],[34.7231,0.3758,1491.8384],[34.7368,0.3875,1478.505],[34.7369,0.393,1490.7439],[34.7236,0.398,1458.0831],[34.7217,0.4014,1445.0762],[34.7236,0.4058,1468.5952],[34.7193,0.4088,1468.4713],[34.7165,0.4186,1442.1785],[34.7094,0.42,1462.7689],[34.7077,0.4109,1443.4712],[34.7055,0.4118,1451.7881],[34.7008,0.4206,1475.1058],[34.6921,0.423,1467.3231],[34.69,0.4322,1461.3469],[34.6771,0.4445,1398.0981],[34.6756,0.4564,1397.4399],[34.6713,0.4638,1374.782],[34.6692,0.4631,1376.7961],[34.6665,0.4654,1389.7522],[34.6634,0.4646,1380.975],[34.6606,0.466,1399.116],[34.6571,0.4596,1380.7593],[34.6541,0.4584,1365.4225],[34.6504,0.4607,1384.0757],[34.6441,0.4555,1365.0499]]]]}
,"properties": {"GID_3": "KEN.11.10.1_1","GID_0": "KEN","country": "Kenya","GID_1": "KEN.11_1","province": "Kakamega","NL_NAME_1": "NA","GID_2": "KEN.11.10_1","county": "Navakholo","NL_NAME_2": "NA","city": "BunyalaCentral","VARNAME_3": "NA","NL_NAME_3": "NA","TYPE_3": "Ward","ENGTYPE_3": "Ward","CC_3": "1019","HASC_3": "NA","name": "Bunyala_Central.city","area_km2": 57.2445,"hist_schema_id": "Elevation0-9000","hist_area_km2": {"1325": 0.08481,"1350": 1.59012,"1375": 3.90108,"1400": 3.9435,"1425": 10.79166,"1450": 19.12393,"1475": 12.36058,"1500": 4.77038,"1525": 0.65725,"1550": 0.0212}}}