{"type": "Feature","bbox": [39.6907,-3.3601,39.9199,-3.1038],"geometry": {"type": "MultiPolygon","coordinates": [[[[39.8086,-3.2913,127.7043],[39.9179,-3.3601,15.1861],[39.9179,-3.2506,93.5581],[39.9165,-3.1981,35.627],[39.9149,-3.1948,27.3619],[39.9199,-3.1803,29.4209],[39.9159,-3.176,28.134],[39.9101,-3.1746,29.8916],[39.9089,-3.1724,32.9475],[39.9116,-3.1666,31.4045],[39.9103,-3.164,31.4867],[39.9049,-3.1636,32.8839],[39.9025,-3.1659,33.9375],[39.9013,-3.175,34.6539],[39.8973,-3.1758,32.5795],[39.8953,-3.1722,33.9245],[39.8953,-3.166,31.1042],[39.8891,-3.1613,31.125],[39.8681,-3.1593,36.5357],[39.8684,-3.1482,37.1655],[39.8585,-3.1375,41.8636],[39.8549,-3.1366,44.7021],[39.8433,-3.1394,42.0824],[39.8453,-3.1295,41.8429],[39.8433,-3.1245,43.8216],[39.8249,-3.1237,44.935],[39.8243,-3.1205,44.8178],[39.8277,-3.1129,47.2157],[39.8305,-3.1106,46.4714],[39.8261,-3.1048,51.5835],[39.8211,-3.1038,53.8081],[39.8145,-3.1046,62.8008],[39.7979,-3.1152,54.5165],[39.7869,-3.1132,62.8246],[39.7825,-3.1146,62.3453],[39.7773,-3.1183,54.2609],[39.7712,-3.1201,79.1849],[39.7645,-3.1275,56.621],[39.7376,-3.1198,70.24],[39.7319,-3.1231,62.2833],[39.7247,-3.1233,60.0218],[39.7191,-3.1274,66.0027],[39.7159,-3.1276,59.966],[39.7099,-3.1342,80.3359],[39.6997,-3.1353,87.8662],[39.6907,-3.1382,79.3362],[39.6941,-3.1548,102.6363],[39.7049,-3.1674,143.0892],[39.7153,-3.187,157.3187],[39.7159,-3.1912,157.8233],[39.7301,-3.1977,153.0267],[39.7593,-3.2064,117.7169],[39.7419,-3.2513,175.8187],[39.7577,-3.2463,172.7867],[39.7691,-3.2463,169.1757],[39.8153,-3.2077,110.7837],[39.8247,-3.2317,71.4153],[39.8193,-3.2372,75.6431],[39.8151,-3.258,113.3661],[39.8101,-3.2667,121.1175],[39.8097,-3.2726,130.9142],[39.8047,-3.2802,139.6788],[39.8045,-3.2835,139.0713],[39.8086,-3.2913,127.7043]]]]}
,"properties": {"GID_3": "KEN.14.6.2_1","GID_0": "KEN","country": "Kenya","GID_1": "KEN.14_1","province": "Kilifi","NL_NAME_1": "NA","GID_2": "KEN.14.6_1","county": "Malindi","NL_NAME_2": "NA","city": "Jilore","VARNAME_3": "NA","NL_NAME_3": "NA","TYPE_3": "Ward","ENGTYPE_3": "Ward","CC_3": "75","HASC_3": "NA","name": "Jilore.city","area_km2": 363.6602,"hist_schema_id": "Elevation0-9000","hist_area_km2": {"25": 18.4375,"50": 76.2718,"75": 94.9001,"100": 78.9813,"125": 68.9687,"150": 22.5022,"175": 3.5986}}}