{"type": "Feature","bbox": [34.8557,-0.9076,35.0127,-0.7535],"geometry": {"type": "MultiPolygon","coordinates": [[[[34.9579,-0.7915,1988.5334],[34.9435,-0.7672,2100.1963],[34.9391,-0.7658,2094.219],[34.9344,-0.7605,2085.5264],[34.9276,-0.7605,2005.7363],[34.9236,-0.7561,1994.5256],[34.918,-0.7535,2062.9309],[34.9156,-0.7569,2083.3542],[34.9156,-0.7613,2012.9197],[34.9039,-0.7649,1963.9467],[34.8987,-0.7699,1913.3008],[34.8929,-0.7685,1893.4834],[34.8908,-0.7748,1883.8528],[34.8831,-0.7771,1903.9458],[34.8709,-0.8006,1906.733],[34.8663,-0.8027,1961.249],[34.8623,-0.8023,1871.9906],[34.8601,-0.8004,1898.7833],[34.8587,-0.8073,1936.381],[34.8557,-0.8096,1878.6208],[34.8751,-0.8334,1985.7661],[34.8819,-0.8454,2067.4497],[34.8891,-0.8483,1976.5774],[34.8919,-0.8514,2022.9165],[34.8916,-0.8585,2021.7837],[34.8945,-0.8675,1949.1501],[34.8979,-0.8709,1916.5786],[34.904,-0.8876,1951.3621],[34.9174,-0.9076,1967.6494],[35.0127,-0.8839,2062.1208],[34.9579,-0.7915,1988.5334]]]]}
,"properties": {"GID_2": "KEN.16.8_1","GID_0": "KEN","country": "Kenya","GID_1": "KEN.16_1","province": "Kisii","NL_NAME_1": "NA","county": "NyaribariMasaba","VARNAME_2": "NA","NL_NAME_2": "NA","TYPE_2": "Constituency","ENGTYPE_2": "Constituency","CC_2": "266","HASC_2": "NA","name": "Nyaribari_Masaba.county","area_km2": 159.9112,"hist_schema_id": "Elevation0-9000","hist_area_km2": {"1850": 0.0212,"1875": 1.7172,"1900": 6.8052,"1925": 14.0344,"1950": 19.8431,"1975": 22.5143,"2000": 23.2351,"2025": 22.0267,"2050": 17.6595,"2075": 12.5504,"2100": 8.8192,"2125": 5.7664,"2150": 3.4344,"2175": 1.484}}}