{"type":"Feature","properties":{"GID_3":"KEN.25.3.3_1","GID_0":"KEN","country":"Kenya","GID_1":"KEN.25_1","province":"Marsabit","NL_NAME_1":"NA","GID_2":"KEN.25.3_1","county":"NorthHorr","NL_NAME_2":"NA","city":"Maikona","VARNAME_3":"NA","NL_NAME_3":"NA","TYPE_3":"Ward","ENGTYPE_3":"Ward","CC_3":"229","HASC_3":"NA","name":"Maikona.city"},
"geometry":{"type": "MultiPolygon","coordinates": [[[[37.5547,4.0117,712.2806],[37.5555,3.9977,707.2719],[37.5571,3.9939,698.5292],[37.5665,3.9863,708.6179],[37.5717,3.9753,698.1924],[37.5781,3.9721,739.959],[37.5771,3.9642,690.4076],[37.5785,3.9589,735.797],[37.5753,3.9453,690.5693],[37.5794,3.9284,719.0064],[37.5785,3.9247,717.5458],[37.5695,3.9157,714.1067],[37.5685,3.8979,717.444],[37.5591,3.8867,709.6163],[37.5585,3.8839,704.6687],[37.5603,3.8683,698.4043],[37.5545,3.8641,692.3791],[37.5501,3.8547,657.9494],[37.5519,3.8497,682.0212],[37.5483,3.8353,673.4219],[37.5433,3.8253,662.1624],[37.5437,3.8081,656.6709],[37.5373,3.7967,638.8305],[37.5369,3.7941,627.2856],[37.5401,3.7861,641.5197],[37.5375,3.7795,633.6819],[37.5369,3.7693,627.8713],[37.5339,3.7594,633.9287],[37.5275,3.7573,629.2182],[37.5235,3.7517,627.299],[37.5195,3.7503,624.2764],[37.5149,3.7557,606.3787],[37.5139,3.7645,614.484],[37.5119,3.7671,591.2024],[37.5083,3.7679,601.3376],[37.4943,3.7587,588.1711],[37.4881,3.7513,585.8928],[37.4863,3.7519,586.3136],[37.4833,3.7576,584.7955],[37.4804,3.7571,584.6111],[37.4746,3.752,582.0607],[37.4719,3.7467,565.6013],[37.4683,3.7265,570.9787],[37.4623,3.7225,567.1835],[37.4583,3.7175,558.3405],[37.4551,3.7047,544.9019],[37.4553,3.6899,549.4875],[37.4487,3.6807,549.5657],[37.4403,3.6831,546.9407],[37.4327,3.6821,538.692],[37.4243,3.6777,534.1138],[37.4177,3.6787,533.5012],[37.4143,3.6777,524.4327],[37.4097,3.6641,524.2686],[37.4041,3.6601,520.884],[37.3977,3.6605,511.9243],[37.3911,3.6465,506.0393],[37.3911,3.6373,509.549],[37.3869,3.6341,504.9794],[37.3841,3.6291,512.2829],[37.3783,3.6267,510.225],[37.3727,3.6191,492.7865],[37.3605,3.6125,487.1728],[37.3557,3.6137,483.8524],[37.3475,3.6022,479.7496],[37.3395,3.5989,475.4874],[37.3363,3.5941,474.1254],[37.3233,3.5853,466.0647],[37.3007,3.5797,458.8347],[37.2947,3.5807,456.3401],[37.2861,3.5773,453.7653],[37.2733,3.5599,447.0034],[37.2655,3.5537,444.5145],[37.2451,3.5515,438.935],[37.2447,3.553,439.3948],[37.2463,3.5414,436.2017],[37.2421,3.5345,433.4687],[37.2419,3.5297,433.0825],[37.2377,3.5197,430.0002],[37.2373,3.4997,425.2878],[37.2355,3.4945,423.521],[37.2411,3.4869,421.919],[37.2435,3.4667,418.1348],[37.2397,3.4581,416.4275],[37.2385,3.4473,413.4434],[37.2433,3.4101,402.0178],[37.2563,3.3791,392.4827],[37.2571,3.3663,390.6865],[37.2541,3.3577,388.7371],[37.2551,3.3517,387.1624],[37.2539,3.3457,386.5583],[37.2387,3.3585,390.8838],[37.2317,3.3455,385.9686],[37.2307,3.3367,383.2962],[37.2333,3.3273,382.0628],[37.2279,3.3147,377.5097],[37.2273,3.3055,375.8682],[37.2247,3.2989,374.798],[37.2279,3.2851,373.5562],[37.2265,3.2824,373.3797],[37.2261,3.2725,372.7448],[37.2331,3.2547,371.9557],[37.1175,3.1541,402.1429],[37.0029,3.0648,439.9899],[37.0021,3.0589,444.0037],[36.9903,3.0457,457.5143],[36.9859,3.0433,460.8624],[36.9813,3.0429,463.6091],[36.9789,3.0403,467.0738],[36.9725,3.0245,484.3516],[36.9729,3.0215,493.5591],[36.9741,3.0185,495.1121],[37.4715,2.7923,377.4199],[37.7971,2.6423,493.2167],[37.9409,2.5865,637.3677],[37.9414,2.5848,638.0352],[38.0655,2.5389,810.1165],[38.0627,2.5763,720.7128],[38.0577,2.5907,688.685],[38.0651,2.6065,668.2155],[38.0655,2.6155,645.6772],[38.0711,2.6317,637.4781],[38.0799,2.6475,629.6585],[38.0857,2.6931,576.3218],[38.0941,2.7113,569.6639],[38.0921,2.7271,555.2526],[38.0959,2.7415,546.2877],[38.0937,2.7585,536.377],[38.0963,2.7721,528.084],[38.0935,2.7859,529.7086],[38.0983,2.7949,523.1658],[38.0993,2.8045,515.0436],[38.1055,2.8149,520.9857],[38.1105,2.8299,510.2529],[38.1243,2.8541,511.9878],[38.1271,2.8625,510.6239],[38.1287,2.8776,510.7745],[38.1383,2.8981,514.3675],[38.1495,2.9185,521.0473],[38.1639,2.9271,524.5309],[38.1617,2.9319,525.5422],[38.1613,2.9401,526.3276],[38.1721,2.9683,536.4066],[38.1697,2.9813,540.3902],[38.1705,3.0003,549.8434],[38.1656,3.0146,554.8824],[38.1431,3.0207,558.4207],[38.1267,3.0193,556.5654],[38.2577,3.4591,737.4425],[38.1295,3.608,1012.433],[38.1262,3.6068,979.6952],[38.1203,3.6085,967.8721],[38.0968,3.6314,918.3631],[38.0508,3.6675,882.8024],[38.0449,3.6695,907.8317],[38.0139,3.7022,1348.0996],[38.013,3.7086,1458.3811],[38.0053,3.7153,1228.7991],[38.0025,3.7222,1183.7643],[37.9959,3.7263,1046.5808],[37.9852,3.7291,981.1876],[37.9662,3.7385,886.633],[37.9294,3.7591,888.7062],[37.9166,3.7685,896.3179],[37.9002,3.7777,881.4167],[37.8337,3.8233,794.509],[37.7827,3.8556,773.3593],[37.74,3.8869,754.0529],[37.7099,3.9049,755.7172],[37.6697,3.933,754.4495],[37.6371,3.9531,757.7465],[37.631,3.9625,761.5397],[37.5972,3.985,749.2347],[37.5854,3.9906,767.6335],[37.577,3.9986,771.8347],[37.5547,4.0117,712.2806]]]]}}