{"type":"Feature","properties":{"GID_3":"KEN.44.2.2_1","GID_0":"KEN","country":"Kenya","GID_1":"KEN.44_1","province":"UasinGishu","NL_NAME_1":"NA","GID_2":"KEN.44.2_1","county":"Kapseret","NL_NAME_2":"NA","city":"Langas","VARNAME_3":"NA","NL_NAME_3":"NA","TYPE_3":"Ward","ENGTYPE_3":"Ward","CC_3":"726","HASC_3":"NA","name":"Langas.city"},
"geometry":{"type": "MultiPolygon","coordinates": [[[[35.1598,0.5098,1917.9088],[35.1799,0.5098,1969.1646],[35.1895,0.5128,1976.6992],[35.1947,0.5168,1978.8867],[35.204,0.5162,1961.7657],[35.2095,0.5088,1965.553],[35.2102,0.5038,1961.3815],[35.2128,0.5011,1964.2483],[35.219,0.4993,2027.5624],[35.225,0.4888,2007.3293],[35.2343,0.4835,2056.6223],[35.235,0.4803,2046.7173],[35.2432,0.4709,2093.9153],[35.2553,0.5,2083.3628],[35.2419,0.5112,2061.8638],[35.2445,0.5136,2067.2234],[35.2354,0.5142,2045.698],[35.2077,0.5364,2017.5363],[35.2133,0.5607,1975.9102],[35.2115,0.5631,1969.8196],[35.2123,0.5652,1967.2578],[35.2089,0.566,1964.3618],[35.2058,0.5696,1977.7144],[35.1968,0.5684,1980.3032],[35.1919,0.5638,1974.7173],[35.1899,0.5654,1966.2458],[35.1891,0.5617,1964.3087],[35.1863,0.5611,1959.8895],[35.1855,0.5629,1961.2544],[35.1841,0.5624,1967.9757],[35.1822,0.5589,1973.5665],[35.1775,0.5575,1973.4229],[35.1762,0.5528,1955.3387],[35.1744,0.5516,1946.2847],[35.1687,0.5493,1909.2825],[35.1667,0.5517,1938.157],[35.1598,0.5098,1917.9088]]]]}}