{"type": "Feature","bbox": [34.24,-0.4244,34.483,-0.0561],"geometry": {"type": "MultiPolygon","coordinates": [[[[34.3574,-0.3849,1133.0],[34.4218,-0.3308,1133.0],[34.483,-0.2947,1133.0],[34.4318,-0.141,1177.7903],[34.426,-0.1162,1206.0948],[34.4151,-0.089,1311.151],[34.4166,-0.0695,1334.2532],[34.4025,-0.0607,1344.7214],[34.3749,-0.0561,1293.9937],[34.3717,-0.0583,1308.989],[34.3692,-0.0636,1308.1034],[34.367,-0.0639,1302.2744],[34.3628,-0.0711,1320.2844],[34.3596,-0.0716,1323.6415],[34.3486,-0.0851,1289.2168],[34.3445,-0.0856,1306.4167],[34.3442,-0.0886,1305.807],[34.3406,-0.0914,1303.6506],[34.3319,-0.092,1327.3942],[34.3252,-0.1002,1340.7058],[34.3212,-0.1008,1329.8953],[34.3173,-0.1038,1323.974],[34.3105,-0.1134,1291.119],[34.3073,-0.1259,1242.109],[34.3075,-0.1309,1226.3397],[34.3037,-0.1284,1230.1851],[34.3002,-0.1383,1226.4202],[34.2933,-0.1449,1205.1968],[34.2942,-0.154,1226.4513],[34.2874,-0.1647,1231.636],[34.2861,-0.1737,1208.8644],[34.2829,-0.1756,1197.067],[34.28,-0.1838,1199.0165],[34.2831,-0.1851,1187.6289],[34.2808,-0.1859,1210.2323],[34.2775,-0.1907,1203.2599],[34.2764,-0.1968,1170.6223],[34.2728,-0.1997,1165.4603],[34.2644,-0.2116,1166.0189],[34.2598,-0.2131,1187.4326],[34.2528,-0.219,1149.343],[34.2433,-0.2329,1159.3234],[34.24,-0.3341,1133.0],[34.2711,-0.4121,1133.0],[34.2771,-0.4181,1133.0],[34.2852,-0.4225,1133.0],[34.2961,-0.4244,1133.0],[34.307,-0.423,1133.0],[34.3195,-0.4167,1133.0],[34.3574,-0.3849,1133.0]]]]}
,"properties": {"GID_2": "KEN.38.4_1","GID_0": "KEN","country": "Kenya","GID_1": "KEN.38_1","province": "Siaya","NL_NAME_1": "NA","county": "Rarieda","VARNAME_2": "NA","NL_NAME_2": "NA","TYPE_2": "Constituency","ENGTYPE_2": "Constituency","CC_2": "237","HASC_2": "NA","name": "Rarieda.county","area_km2": 681.9407,"hist_schema_id": "Elevation0-9000","hist_area_km2": {"1125": 271.8722,"1150": 81.5428,"1175": 106.0312,"1200": 91.3806,"1225": 55.0404,"1250": 23.6828,"1275": 15.4564,"1300": 16.6013,"1325": 16.3469,"1350": 3.986}}}