{"type": "Feature","bbox": [35.633,0.637,36.4899,1.6607],"geometry": {"type": "MultiPolygon","coordinates": [[[[36.2614,0.6521,1194.0753],[36.2648,0.6548,1202.5762],[36.2779,0.637,1289.1261],[36.2891,0.6507,1672.9731],[36.3474,0.666,1875.541],[36.406,0.7243,1881.6129],[36.469,0.8264,1844.0464],[36.4754,0.8431,1685.702],[36.4899,0.853,1631.082],[36.4716,0.8649,1594.4644],[36.4706,0.868,1595.5166],[36.4645,0.8697,1584.4128],[36.4625,0.8735,1587.058],[36.4563,0.8765,1586.3497],[36.4457,0.8759,1593.8206],[36.4297,0.889,1572.3779],[36.4235,0.8977,1542.739],[36.4246,0.9023,1571.1248],[36.4191,0.9065,1572.9777],[36.4174,0.9073,1512.5952],[36.4162,0.9055,1469.4248],[36.4109,0.9041,1449.5576],[36.4065,0.9056,1451.2202],[36.4035,0.9048,1450.4456],[36.3955,0.9102,1503.6547],[36.3961,0.913,1488.6696],[36.3939,0.914,1324.2788],[36.3952,0.9156,1350.7927],[36.3929,0.9172,1280.5997],[36.3939,0.9248,1490.9111],[36.388,0.931,1313.0151],[36.388,0.9451,1232.6624],[36.3906,0.9462,1179.4241],[36.3889,0.9494,1210.6624],[36.3843,0.9515,1134.3143],[36.3842,0.9551,1204.6245],[36.3787,0.9554,1178.6868],[36.3753,0.9572,1305.208],[36.3699,0.9559,1213.7139],[36.3654,0.959,1083.8027],[36.3638,0.9642,1144.3866],[36.3515,0.9667,1064.4705],[36.3477,0.9752,1049.9366],[36.3469,0.9913,1035.3378],[36.3426,0.9937,1039.5638],[36.3422,0.9983,1027.6199],[36.3173,0.9955,1187.6252],[36.1732,1.1752,1435.3231],[36.0973,1.1732,729.1472],[36.0961,1.171,728.9161],[35.7855,1.6559,816.5282],[35.7865,1.6583,817.61],[35.7811,1.6607,813.9989],[35.7793,1.6556,824.0347],[35.7817,1.6531,824.0797],[35.7775,1.649,837.7333],[35.7775,1.6453,827.7308],[35.7802,1.6432,827.4017],[35.7812,1.6375,862.6423],[35.7855,1.6372,869.9114],[35.7905,1.6313,848.3789],[35.7871,1.6286,827.1529],[35.7809,1.629,839.5063],[35.7802,1.6272,847.4263],[35.7806,1.6208,832.9485],[35.7841,1.6175,831.1504],[35.7845,1.6145,833.5262],[35.7867,1.6135,838.2604],[35.7833,1.6096,836.9404],[35.7791,1.6088,842.5287],[35.7818,1.6052,840.4413],[35.7805,1.6004,844.9136],[35.7824,1.5973,840.4449],[35.7791,1.5931,844.375],[35.7841,1.5841,850.0621],[35.7813,1.584,846.1246],[35.7797,1.5822,847.6797],[35.7798,1.5757,847.1732],[35.7755,1.5758,855.1224],[35.776,1.5658,855.4005],[35.7739,1.5568,869.0745],[35.7706,1.5543,880.9154],[35.7683,1.5471,876.1891],[35.7693,1.5386,858.7098],[35.7635,1.5367,881.1041],[35.7623,1.5335,891.8745],[35.7641,1.5315,872.1558],[35.7608,1.5266,873.4669],[35.7613,1.5228,871.5952],[35.7561,1.5211,889.0126],[35.7539,1.5157,938.1137],[35.751,1.5142,885.1404],[35.7526,1.5111,875.3452],[35.7516,1.5098,879.9579],[35.7425,1.5088,899.0597],[35.7416,1.5028,893.3746],[35.7391,1.502,896.7695],[35.7317,1.4922,892.5724],[35.7289,1.4914,896.8184],[35.7302,1.486,888.2234],[35.7269,1.4848,890.3895],[35.7247,1.4796,892.0857],[35.7195,1.4766,891.8107],[35.7193,1.4727,892.7887],[35.7232,1.4664,886.1136],[35.7233,1.4625,885.5333],[35.7206,1.4611,889.2313],[35.7203,1.4555,888.6519],[35.7128,1.4519,897.1224],[35.7122,1.4465,890.709],[35.7064,1.442,903.0413],[35.7086,1.4397,893.2101],[35.709,1.4356,890.9725],[35.7057,1.4326,896.751],[35.7082,1.4255,892.374],[35.7065,1.424,892.7402],[35.7067,1.4207,894.0244],[35.7116,1.417,899.3558],[35.7072,1.4138,894.1133],[35.7067,1.4102,896.2332],[35.7103,1.4091,900.8746],[35.7119,1.4063,894.6226],[35.7035,1.4056,899.4049],[35.7029,1.3999,896.7762],[35.6991,1.3941,903.1233],[35.6994,1.3918,904.3346],[35.7024,1.3916,898.9289],[35.7027,1.3899,901.7338],[35.6955,1.3815,911.0125],[35.6957,1.3791,910.142],[35.6933,1.3769,909.0445],[35.6947,1.372,901.4475],[35.6928,1.3732,903.7418],[35.6909,1.3718,905.2115],[35.6919,1.3677,904.0194],[35.6878,1.3626,907.6744],[35.691,1.3571,904.3477],[35.6877,1.3514,911.7729],[35.6891,1.349,907.458],[35.691,1.3496,905.3813],[35.6924,1.348,905.9172],[35.6888,1.3458,906.4067],[35.696,1.3432,909.0754],[35.695,1.3392,910.9883],[35.6982,1.3353,912.9799],[35.6964,1.3333,912.1919],[35.6993,1.3336,911.8139],[35.7002,1.3321,911.8139],[35.6971,1.3281,910.7264],[35.6981,1.3256,911.8419],[35.6969,1.3245,912.7504],[35.6982,1.318,914.7626],[35.6974,1.3111,919.6799],[35.6947,1.3099,917.4985],[35.6951,1.3085,920.5484],[35.6977,1.3099,917.5239],[35.6987,1.3089,917.5239],[35.6942,1.3008,919.92],[35.6975,1.3002,918.0813],[35.6948,1.2926,918.5524],[35.6953,1.2884,924.0665],[35.698,1.2889,918.554],[35.6972,1.2829,920.5363],[35.7014,1.2817,923.4113],[35.7024,1.276,924.2938],[35.7062,1.2775,930.213],[35.7071,1.2762,931.2724],[35.7059,1.2689,923.9602],[35.7031,1.2663,925.3425],[35.7038,1.2641,927.9594],[35.7018,1.2645,933.6597],[35.6997,1.2626,933.3107],[35.7018,1.2574,927.5728],[35.7004,1.256,926.2082],[35.7008,1.2518,930.0128],[35.7038,1.2515,926.968],[35.7011,1.2497,928.0529],[35.7025,1.2493,928.0529],[35.7029,1.2462,928.1534],[35.6996,1.2437,935.0002],[35.7018,1.2411,930.1661],[35.6996,1.24,931.8378],[35.7009,1.237,935.7211],[35.7037,1.2363,932.8249],[35.7042,1.2311,936.477],[35.6968,1.219,936.9739],[35.6983,1.2093,937.2796],[35.6965,1.2084,939.4728],[35.6979,1.205,940.1918],[35.6999,1.2067,941.1891],[35.7031,1.2035,941.1716],[35.7023,1.2009,942.5725],[35.7043,1.1955,941.8914],[35.7027,1.1937,945.2709],[35.7038,1.1914,943.1376],[35.7029,1.1891,940.5021],[35.7045,1.1865,943.3976],[35.7034,1.1834,942.3692],[35.7066,1.1823,942.0302],[35.7062,1.1803,943.087],[35.7043,1.1801,944.5311],[35.7054,1.174,946.024],[35.7038,1.1679,950.8023],[35.7054,1.1637,947.3245],[35.7028,1.1621,950.5992],[35.7059,1.1597,947.3658],[35.7037,1.1568,944.8322],[35.7098,1.1541,948.6418],[35.7053,1.1511,951.6335],[35.7055,1.138,949.603],[35.7007,1.1331,956.989],[35.7022,1.1278,952.8989],[35.6972,1.1163,958.1826],[35.6989,1.1092,959.1655],[35.6953,1.1076,959.3015],[35.6928,1.1087,961.7702],[35.6913,1.1042,963.4655],[35.686,1.1026,969.9694],[35.6865,1.0992,962.0426],[35.6839,1.1006,968.0829],[35.684,1.0892,960.252],[35.6798,1.0893,969.1702],[35.6797,1.0866,964.6908],[35.6778,1.0872,971.783],[35.6763,1.0765,963.4237],[35.6735,1.0743,968.3508],[35.6741,1.0699,966.9447],[35.6756,1.0688,966.9447],[35.6743,1.0671,966.1722],[35.6753,1.0605,969.0733],[35.6713,1.0563,973.5289],[35.6722,1.0534,970.8975],[35.668,1.049,975.4883],[35.6715,1.0469,977.3418],[35.6715,1.0454,974.9535],[35.6696,1.0438,973.8553],[35.6671,1.0444,974.3883],[35.667,1.04,973.4032],[35.6643,1.0381,977.9758],[35.6643,1.0353,974.2579],[35.6602,1.0364,981.9628],[35.6576,1.033,985.6495],[35.6554,1.0327,986.3096],[35.6545,1.0286,980.8063],[35.6516,1.0304,985.5716],[35.6502,1.0292,987.1174],[35.6478,1.03,986.3815],[35.6423,1.0251,998.099],[35.6444,1.02,980.9908],[35.6428,1.0192,986.436],[35.6407,1.0113,998.0853],[35.6392,1.011,998.0853],[35.6394,1.0086,994.2798],[35.6365,1.009,1004.613],[35.6374,1.0048,987.3113],[35.633,0.9982,999.1088],[35.6355,0.9929,985.8917],[35.6374,0.9932,1054.701],[35.6397,0.9864,989.0256],[35.6389,0.9839,986.0195],[35.6352,0.9835,996.7621],[35.6362,0.9799,1003.2106],[35.6348,0.9766,1005.5549],[35.6399,0.9695,1038.939],[35.6459,0.971,1064.3679],[35.6525,0.9698,1057.4945],[35.6593,0.9728,1070.5764],[35.6593,0.9693,1032.0166],[35.6633,0.9699,1039.1655],[35.6641,0.9664,1039.2798],[35.6691,0.9664,1037.7313],[35.6679,0.9638,1032.6815],[35.6713,0.9609,1037.8544],[35.671,0.9573,1039.4154],[35.6741,0.9573,1084.811],[35.6739,0.954,1038.7571],[35.6753,0.9539,1042.226],[35.6761,0.9511,1044.6333],[35.6801,0.9498,1104.2004],[35.6804,0.9472,1059.0878],[35.6847,0.9464,1086.8091],[35.6869,0.9478,1068.6813],[35.6902,0.9461,1076.3906],[35.7653,0.9903,1144.54],[35.7951,0.9862,1231.6331],[35.8316,0.97,1731.6317],[35.8813,0.9384,1154.4084],[35.8883,0.9318,1138.2637],[35.8897,0.9156,1140.7933],[35.8996,0.9066,1140.2993],[35.9,0.9027,1109.6364],[35.9017,0.9015,1109.8633],[35.9005,0.8943,1088.069],[35.9052,0.8928,1109.6042],[35.9087,0.8886,1072.0638],[35.9114,0.8876,1081.4365],[35.9103,0.886,1069.0038],[35.914,0.8829,1076.851],[35.914,0.8789,1061.3051],[35.9116,0.8777,1055.4731],[35.9142,0.8687,1050.5092],[35.9191,0.8633,1063.1935],[35.917,0.8608,1029.3909],[35.9185,0.8599,1026.0576],[35.9176,0.859,1026.0576],[35.9191,0.8564,1059.4871],[35.9173,0.8558,1035.896],[35.9196,0.855,1080.6525],[35.9218,0.8565,1076.5177],[35.9219,0.8527,1078.2003],[35.9313,0.8501,1054.2723],[35.9316,0.847,1015.9509],[35.9356,0.8485,1117.5735],[35.9397,0.8472,1007.0146],[35.9378,0.8441,987.7454],[35.9398,0.8417,974.2259],[35.938,0.8369,964.2352],[35.9409,0.8299,953.1933],[35.9469,0.8267,959.0178],[35.9506,0.8326,980.1757],[35.9559,0.8333,942.8922],[35.965,0.8377,918.1548],[35.967,0.8409,915.6132],[35.975,0.8392,891.5585],[35.9745,0.8355,893.6046],[35.9721,0.8366,898.0796],[35.9713,0.8323,899.4636],[35.9682,0.8279,912.7355],[35.968,0.8253,910.3982],[35.9703,0.8236,903.9458],[35.9718,0.8184,905.4695],[35.9699,0.8122,904.8679],[35.9707,0.8098,907.5518],[35.965,0.8027,924.2699],[35.9622,0.8013,933.2731],[35.959,0.795,923.7183],[35.9693,0.7929,1018.1725],[35.9844,0.7961,1010.2554],[35.9921,0.7961,999.392],[35.9896,0.7766,1000.4221],[35.986,0.7756,1004.0524],[35.9861,0.7744,1004.0806],[35.9986,0.7576,1007.317],[36.0188,0.7424,1010.7121],[36.0334,0.7275,993.9045],[36.0302,0.7177,984.6624],[36.0393,0.728,996.2598],[36.0472,0.7219,1014.8334],[36.0537,0.7381,1080.9272],[36.0558,0.736,1037.2463],[36.0571,0.737,1040.8638],[36.0575,0.7339,1035.0845],[36.0593,0.7326,1068.5348],[36.0617,0.7361,1073.6361],[36.0647,0.7344,1059.1532],[36.0665,0.7357,1062.5437],[36.0642,0.729,1016.9268],[36.067,0.7308,1054.6985],[36.0696,0.7288,1088.6158],[36.067,0.7269,973.0],[36.0678,0.7241,1016.6087],[36.0725,0.7323,1117.1906],[36.0777,0.7313,1079.8473],[36.0785,0.7266,1003.556],[36.077,0.7204,973.0],[36.0748,0.7187,973.0],[36.0735,0.7128,973.0],[36.0702,0.7088,973.0],[36.0723,0.7094,973.0],[36.0781,0.7005,991.314],[36.0822,0.6978,991.3708],[36.0838,0.6916,989.1924],[36.1343,0.7018,1023.361],[36.1669,0.6734,1002.8388],[36.183,0.6626,1164.4318],[36.2118,0.652,1140.1553],[36.2338,0.6475,1156.1313],[36.2496,0.647,1175.5066],[36.2614,0.6521,1194.0753]]],
[[[35.673,1.0738,968.3508],[35.6723,1.0742,968.3508],[35.6723,1.073,966.9745],[35.6724,1.0731,966.9745],[35.673,1.0738,968.3508]]]]}
,"properties": {"GID_2": "KEN.1.7_1","GID_0": "KEN","country": "Kenya","GID_1": "KEN.1_1","province": "Baringo","NL_NAME_1": "NA","county": "Tiaty","VARNAME_2": "NA","NL_NAME_2": "NA","TYPE_2": "Constituency","ENGTYPE_2": "Constituency","CC_2": "157","HASC_2": "NA","name": "Tiaty.county","area_km2": 4445.868,"hist_schema_id": "Elevation0-9000","hist_area_km2": {"700": 0.064,"725": 1.802,"750": 14.436,"775": 80.045,"800": 81.572,"825": 77.226,"850": 139.869,"875": 229.052,"900": 195.129,"925": 202.884,"950": 220.076,"975": 255.755,"1000": 246.641,"1025": 200.047,"1050": 213.935,"1075": 188.877,"1100": 163.841,"1125": 185.893,"1150": 170.948,"1175": 159.797,"1200": 126.216,"1225": 106.501,"1250": 98.213,"1275": 94.375,"1300": 93.506,"1325": 84.349,"1350": 63.998,"1375": 63.532,"1400": 58.168,"1425": 53.844,"1450": 52.954,"1475": 45.725,"1500": 37.457,"1525": 35.126,"1550": 37.013,"1575": 40.553,"1600": 40.914,"1625": 44.858,"1650": 39.664,"1675": 33.453,"1700": 25.863,"1725": 24.464,"1750": 20.479,"1775": 22.005,"1800": 19.165,"1825": 16.048,"1850": 15.582,"1875": 7.865,"1900": 4.325,"1925": 3.307,"1950": 2.141,"1975": 1.272,"2000": 0.784,"2025": 0.975,"2050": 0.784,"2075": 0.615,"2100": 0.721,"2125": 0.318,"2150": 0.127,"2175": 0.212,"2200": 0.106,"2225": 0.085,"2250": 0.106,"2275": 0.148,"2300": 0.064}}}