{"type": "Feature","bbox": [37.5854,-4.1388,39.2195,-2.6792],"geometry": {"type": "MultiPolygon","coordinates": [[[[39.1165,-3.4555,336.864],[39.2195,-3.0661,166.3116],[39.2041,-3.0654,171.6356],[39.1997,-3.062,176.9288],[39.1959,-3.0613,171.1736],[39.1835,-3.0632,172.7616],[39.1777,-3.057,181.2611],[39.1741,-3.0582,177.2299],[39.1705,-3.0649,175.8297],[39.1671,-3.0663,177.1346],[39.1643,-3.0651,173.5067],[39.1635,-3.0595,178.0856],[39.1527,-3.0447,179.9678],[39.1509,-3.0443,182.5815],[39.1435,-3.0485,180.1207],[39.1415,-3.0414,194.3651],[39.1355,-3.042,180.1871],[39.1337,-3.0396,183.6561],[39.1343,-3.0357,179.3579],[39.1297,-3.0199,189.0061],[39.1257,-3.0195,192.2784],[39.1131,-3.0245,189.5616],[39.1063,-3.0346,190.7834],[39.1025,-3.0377,191.9913],[39.0899,-3.0427,202.9798],[39.0885,-3.0446,193.7453],[39.0888,-3.0507,192.9288],[39.0855,-3.0532,194.8419],[39.0805,-3.0496,192.0626],[39.0789,-3.042,199.9925],[39.0726,-3.0403,198.303],[39.062,-3.0409,200.1744],[39.0535,-3.033,202.1681],[39.0458,-3.0313,196.5003],[39.0445,-3.0281,203.6537],[39.0453,-3.021,204.4247],[39.0367,-3.025,207.4483],[39.0256,-3.0206,211.9991],[39.0139,-3.0253,209.4052],[38.9919,-3.0257,215.9826],[38.9893,-3.0272,214.7808],[38.9863,-3.033,213.5188],[38.9767,-3.0393,217.8118],[38.9529,-3.0385,225.2087],[38.9371,-3.0343,229.3637],[38.9316,-3.0402,226.4984],[38.9255,-3.0397,227.7087],[38.9175,-3.0427,229.7489],[38.9115,-3.0429,244.4325],[38.9029,-3.0422,237.7596],[38.8988,-3.0381,256.5393],[38.8933,-3.0377,260.7443],[38.8623,-3.0575,261.0004],[38.8477,-3.0609,267.3569],[38.8449,-3.0548,260.6871],[38.8415,-3.0534,266.3549],[38.8362,-3.0592,269.9228],[38.8259,-3.0608,281.3194],[38.8195,-3.0672,270.9017],[38.8053,-3.0684,277.0445],[38.7989,-3.0663,269.9129],[38.7981,-3.0604,288.2133],[38.8021,-3.0577,286.1707],[38.8075,-3.0598,277.4907],[38.8099,-3.0566,281.0025],[38.8089,-3.0527,286.3667],[38.7988,-3.0518,285.2277],[38.7891,-3.0476,302.049],[38.7786,-3.0478,293.9763],[38.774,-3.0434,293.2976],[38.7688,-3.0431,298.9069],[38.7585,-3.0467,296.4014],[38.7544,-3.0462,307.2826],[38.7442,-3.0432,311.2943],[38.7333,-3.0422,310.0265],[38.7231,-3.0364,314.0402],[38.7073,-3.0315,320.4915],[38.6943,-3.0356,340.0911],[38.6816,-3.035,351.2504],[38.6652,-3.0393,348.2458],[38.6613,-3.0288,351.704],[38.6538,-3.025,353.6581],[38.6513,-3.0204,351.9821],[38.6427,-3.0127,365.1873],[38.6358,-3.0108,362.6299],[38.6295,-3.0119,359.5702],[38.6251,-3.0099,360.8867],[38.6176,-3.0099,362.194],[38.6133,-3.007,380.5924],[38.6083,-3.0064,361.916],[38.6061,-3.0033,381.5929],[38.6092,-2.9967,370.9499],[38.6085,-2.9947,384.0576],[38.6019,-2.9986,385.5702],[38.594,-2.9991,391.4878],[38.5843,-2.9875,402.5524],[38.5595,-2.986,407.915],[38.5507,-2.9805,406.4836],[38.5439,-2.9796,394.8941],[38.5381,-2.9734,412.3687],[38.5309,-2.9759,416.5619],[38.5257,-2.974,412.8033],[38.5194,-2.9747,410.0339],[38.5143,-2.9789,417.4218],[38.5147,-2.9825,408.5034],[38.5132,-2.9835,421.6902],[38.5083,-2.9824,436.1451],[38.4928,-2.984,421.9268],[38.4885,-2.9776,436.3184],[38.4774,-2.9853,460.3888],[38.4681,-2.985,458.3693],[38.4677,-2.9877,455.2114],[38.4633,-2.9878,458.3545],[38.4599,-2.9922,462.2684],[38.4568,-2.9895,473.4364],[38.4475,-2.971,511.3014],[38.4301,-2.9556,541.0044],[38.4087,-2.927,581.8837],[38.4053,-2.9256,577.1709],[38.3982,-2.9271,591.1759],[38.3929,-2.926,599.5453],[38.3619,-2.898,584.9203],[38.3385,-2.8653,603.2452],[38.3187,-2.8327,620.458],[38.302,-2.8159,632.2194],[38.2791,-2.7824,660.3914],[38.2579,-2.7576,675.8115],[38.2505,-2.752,680.5889],[38.2497,-2.7497,683.3294],[38.1847,-2.7028,746.063],[38.1669,-2.6931,756.7743],[38.1625,-2.693,764.1577],[38.1613,-2.6792,744.239],[38.1573,-2.6881,747.7833],[38.1577,-2.6936,749.2619],[38.1533,-2.6982,761.1472],[38.1287,-2.6981,785.5686],[38.1224,-2.7045,793.6829],[38.1183,-2.7047,801.611],[38.1153,-2.7126,808.6906],[38.1013,-2.7183,833.2986],[38.1001,-2.7207,835.3469],[37.9744,-2.7874,1692.6051],[37.9375,-2.7708,1496.3254],[37.9179,-2.8684,1030.1255],[37.8945,-2.8857,871.4315],[37.8707,-3.0775,846.52],[37.8663,-3.0792,851.5763],[37.8543,-3.0801,867.5574],[37.8527,-3.1799,879.1522],[37.8475,-3.1838,880.5863],[37.8351,-3.1869,889.869],[37.8307,-3.1839,892.823],[37.8281,-3.1795,899.489],[37.8197,-3.1746,906.9152],[37.8159,-3.1703,914.1965],[37.8105,-3.1682,921.0568],[37.8007,-3.1688,941.1642],[37.7955,-3.1729,941.531],[37.7917,-3.1711,943.2328],[37.6904,-3.1751,1051.3989],[37.7114,-3.3055,871.8483],[37.6894,-3.3222,872.5],[37.6856,-3.3236,1071.5316],[37.6856,-3.3512,885.715],[37.6808,-3.3571,862.8142],[37.6643,-3.3589,951.6743],[37.6432,-3.3796,838.488],[37.6411,-3.3781,848.0119],[37.6181,-3.4002,1028.8885],[37.6151,-3.4036,845.425],[37.6164,-3.4056,823.4479],[37.5854,-3.4405,780.6306],[37.5854,-3.4621,714.9408],[37.5927,-3.4612,714.2063],[37.5927,-3.4646,713.3462],[37.6271,-3.4673,708.4393],[37.6256,-3.473,709.4429],[37.6083,-3.4974,705.1878],[37.6047,-3.5064,704.7636],[37.6036,-3.5206,705.7508],[37.6062,-3.5206,706.3445],[37.608,-3.524,706.0746],[37.6134,-3.525,706.2277],[37.6136,-3.5273,705.387],[37.6265,-3.5308,705.7703],[37.6737,-3.509,709.4714],[37.702,-3.5304,710.3306],[37.7441,-3.5441,711.0757],[37.7475,-3.5507,710.4383],[37.7489,-3.565,708.5],[37.768,-3.6333,708.5],[37.7858,-3.6771,709.0171],[38.445,-4.1388,623.1754],[38.8651,-3.9873,405.0933],[38.9461,-3.9595,749.2744],[39.0353,-3.7582,360.0426],[38.9305,-3.6958,409.6035],[38.9685,-3.6336,423.2684],[39.0561,-3.6845,380.2025],[39.0729,-3.625,399.7711],[39.1165,-3.4555,336.864]]]]}
,"properties": {"GID_1": "KEN.39_1","GID_0": "KEN","country": "Kenya","province": "TaitaTaveta","VARNAME_1": "NA","NL_NAME_1": "NA","TYPE_1": "County","ENGTYPE_1": "County","CC_1": "6","HASC_1": "KE.TT","ISO_1": "NA","name": "Taita_Taveta.province","area_km2": 17244.87,"hist_schema_id": "Elevation0-9000","hist_area_km2": {"175": 16.24,"200": 51.17,"225": 83.59,"250": 111.57,"275": 133.29,"300": 180.39,"325": 453.8,"350": 480.28,"375": 518.25,"400": 621.35,"425": 732.63,"450": 604.52,"475": 476.33,"500": 441.04,"525": 414.97,"550": 354.95,"575": 363.81,"600": 446.3,"625": 487.24,"650": 575.15,"675": 646.39,"700": 702.07,"725": 998.48,"750": 842.84,"775": 726.38,"800": 648.55,"825": 550.44,"850": 518.5,"875": 484.38,"900": 516.05,"925": 462.53,"950": 432.1,"975": 437.2,"1000": 366.85,"1025": 339.1,"1050": 257.2,"1075": 166.74,"1100": 109.68,"1125": 68.39,"1150": 41.66,"1175": 30.71,"1200": 26.59,"1225": 26.14,"1250": 22.12,"1275": 20.38,"1300": 20.93,"1325": 19.09,"1350": 17.5,"1375": 15.39,"1400": 15.01,"1425": 15.75,"1450": 15.3,"1475": 14.22,"1500": 13.38,"1525": 13.61,"1550": 12.17,"1575": 13.42,"1600": 12.76,"1625": 12.04,"1650": 10.56,"1675": 8.15,"1700": 4.74,"1725": 4.66,"1750": 3.39,"1775": 3.03,"1800": 2.88,"1825": 2.43,"1850": 1.63,"1875": 0.91,"1900": 0.74,"1925": 0.61,"1950": 0.66,"1975": 0.44,"2000": 0.34,"2025": 0.17}}}