{"type":"Feature","properties":{"GID_3":"KEN.17.5.4_1","GID_0":"KEN","country":"Kenya","GID_1":"KEN.17_1","province":"Kisumu","NL_NAME_1":"NA","GID_2":"KEN.17.5_1","county":"Nyakach","NL_NAME_2":"NA","city":"SouthWestNyakach","VARNAME_3":"NA","NL_NAME_3":"NA","TYPE_3":"Ward","ENGTYPE_3":"Ward","CC_3":"1216","HASC_3":"NA","name":"South_West_Nyakach.city"},
"geometry":{"type": "MultiPolygon","coordinates": [[[[34.9698,-0.4068,1472.7887],[34.9679,-0.3985,1531.6302],[34.9637,-0.3965,1594.131],[34.9603,-0.3886,1618.6736],[34.9563,-0.389,1606.0371],[34.9476,-0.3749,1576.8721],[34.9379,-0.3718,1572.4694],[34.9297,-0.3651,1554.3765],[34.9268,-0.3658,1556.3562],[34.9257,-0.3634,1549.9563],[34.9326,-0.357,1470.022],[34.9317,-0.3521,1422.3044],[34.9336,-0.3532,1453.1812],[34.9349,-0.351,1392.4508],[34.9299,-0.3477,1344.3376],[34.9288,-0.3437,1274.0626],[34.9201,-0.3417,1267.3253],[34.9146,-0.3422,1251.8585],[34.8912,-0.3504,1291.8282],[34.8869,-0.3536,1305.8605],[34.8745,-0.3555,1298.3849],[34.8744,-0.361,1352.9592],[34.8677,-0.3595,1349.1302],[34.8699,-0.3628,1340.6692],[34.8682,-0.3646,1391.2285],[34.8701,-0.3698,1379.9204],[34.8691,-0.3742,1410.1776],[34.8617,-0.3765,1497.1566],[34.8517,-0.3768,1522.5408],[34.8458,-0.3814,1484.6333],[34.8388,-0.3804,1401.3672],[34.8369,-0.3848,1431.3223],[34.8389,-0.387,1420.1901],[34.8593,-0.3864,1408.7621],[34.8584,-0.3888,1411.3696],[34.8623,-0.3914,1422.3292],[34.8645,-0.3912,1434.7838],[34.8669,-0.3882,1466.6464],[34.8779,-0.392,1431.9651],[34.8793,-0.3896,1446.5063],[34.8848,-0.39,1453.8922],[34.887,-0.3913,1464.9161],[34.8885,-0.3955,1429.4878],[34.8944,-0.3878,1458.6814],[34.8975,-0.3886,1451.2247],[34.9007,-0.3855,1427.228],[34.9151,-0.3797,1448.645],[34.9162,-0.3843,1422.6384],[34.9145,-0.3861,1416.0111],[34.9154,-0.3892,1410.4128],[34.9132,-0.3905,1425.1896],[34.914,-0.3972,1414.0504],[34.9214,-0.398,1460.0229],[34.9258,-0.3961,1462.7529],[34.9267,-0.3978,1459.4686],[34.9299,-0.3968,1447.6034],[34.9296,-0.4059,1421.7067],[34.9359,-0.405,1482.0859],[34.9386,-0.4073,1478.0548],[34.9453,-0.4076,1495.6222],[34.9507,-0.4103,1461.8848],[34.9574,-0.4088,1501.3044],[34.9611,-0.4098,1507.3862],[34.9646,-0.4083,1466.6718],[34.9644,-0.4059,1489.4966],[34.9668,-0.406,1481.0715],[34.9679,-0.4078,1471.6949],[34.9698,-0.4068,1472.7887]]]]}}