{"type": "Feature","bbox": [36.8504,-1.2605,36.9111,-1.231],"geometry": {"type": "MultiPolygon","coordinates": [[[[36.8582,-1.2605,1630.181],[36.8641,-1.2549,1620.5905],[36.876,-1.2496,1599.7034],[36.877,-1.2466,1611.9529],[36.8853,-1.2462,1605.8575],[36.8898,-1.252,1601.1927],[36.893,-1.25,1590.9626],[36.8923,-1.2469,1591.734],[36.8959,-1.2431,1579.3433],[36.8957,-1.2411,1593.3438],[36.9017,-1.2397,1571.9042],[36.9016,-1.2374,1583.7888],[36.9032,-1.2363,1582.2012],[36.9096,-1.236,1567.1299],[36.9111,-1.2346,1582.0509],[36.9055,-1.231,1594.1991],[36.9016,-1.2329,1593.7257],[36.897,-1.2319,1599.5021],[36.8936,-1.2354,1592.2849],[36.8855,-1.2342,1617.0692],[36.8808,-1.2369,1615.5863],[36.8761,-1.2364,1613.0991],[36.8748,-1.2382,1603.437],[36.8692,-1.2359,1620.8329],[36.8662,-1.2418,1626.537],[36.8575,-1.2514,1636.6776],[36.8504,-1.2561,1645.9028],[36.8555,-1.2605,1633.9146],[36.8582,-1.2605,1630.181]]]]}
,"properties": {"GID_2": "KEN.30.15_1","GID_0": "KEN","country": "Kenya","GID_1": "KEN.30_1","province": "Nairobi","NL_NAME_1": "NA","county": "Ruaraka","VARNAME_2": "NA","NL_NAME_2": "NA","TYPE_2": "Constituency","ENGTYPE_2": "Constituency","CC_2": "281","HASC_2": "NA","name": "Ruaraka.county","area_km2": 7.334234,"hist_schema_id": "Elevation0-9000","hist_area_km2": {"1550": 0.127184,"1575": 1.420216,"1600": 2.798034,"1625": 2.522463,"1650": 0.466337}}}