{"type":"Feature","properties":{"GID_2":"KEN.28.2_1","GID_0":"KEN","country":"Kenya","GID_1":"KEN.28_1","province":"Mombasa","NL_NAME_1":"NA","county":"Jomvu","VARNAME_2":"NA","NL_NAME_2":"NA","TYPE_2":"Constituency","ENGTYPE_2":"Constituency","CC_2":"2","HASC_2":"NA","name":"Jomvu.county"},
"geometry":{"type": "MultiPolygon","coordinates": [[[[39.5862,-4.03,1.8004],[39.5924,-4.0262,15.5945],[39.5947,-4.0265,41.6525],[39.5982,-4.021,44.9773],[39.5998,-4.0141,51.5988],[39.6017,-4.0149,59.2636],[39.6021,-4.0086,62.4226],[39.5998,-4.0076,64.1598],[39.5998,-4.0052,65.4732],[39.6174,-4.0061,49.298],[39.6297,-4.0096,35.2294],[39.6332,-4.0142,58.5293],[39.6322,-4.0276,51.7847],[39.6507,-4.031,3.7439],[39.6504,-4.0287,0.0],[39.6449,-4.0271,1.3647],[39.6421,-4.0237,0.6372],[39.6435,-4.0215,0.0],[39.6426,-4.0179,0.1728],[39.6437,-4.0163,0.0],[39.6468,-4.0176,0.5497],[39.6499,-4.0229,0.0],[39.6512,-4.0218,0.0],[39.6501,-4.0193,0.0],[39.6537,-4.0188,0.0],[39.6527,-4.0108,0.0],[39.6459,-4.0046,0.4149],[39.6423,-3.9889,1.2899],[39.6369,-3.9875,1.3951],[39.6265,-3.9882,1.608],[39.6249,-3.9925,1.2837],[39.6254,-3.9905,0.5],[39.6264,-3.9882,1.608],[39.6128,-3.9822,0.7976],[39.6142,-3.9691,1.4752],[39.6094,-3.9659,1.5138],[39.6041,-3.9647,18.9755],[39.6088,-3.9566,3.2099],[39.5995,-3.9499,26.5006],[39.5837,-3.9654,71.1387],[39.5827,-3.9699,78.3239],[39.5693,-3.975,45.6807],[39.5689,-3.9795,36.2214],[39.5751,-3.9842,39.0859],[39.5688,-3.9908,51.9749],[39.5699,-3.9913,49.124],[39.5678,-4.0074,11.4306],[39.5642,-4.0125,20.9228],[39.568,-4.02,8.3642],[39.574,-4.0237,9.7671],[39.5835,-4.0257,19.0134],[39.5862,-4.03,1.8004]],
[[39.6223,-3.9971,23.0857],[39.6221,-3.9972,23.0857],[39.6232,-3.9962,13.1641],[39.6229,-3.9967,19.5822],[39.6223,-3.9971,23.0857]],
[[39.6249,-3.9944,10.3757],[39.6243,-3.9952,13.1641],[39.624,-3.9955,13.1641],[39.6249,-3.9937,10.3757],[39.6249,-3.9944,10.3757]]]]}}