{"type":"Feature","properties":{"GID_3":"KEN.1.7.7_1","GID_0":"KEN","country":"Kenya","GID_1":"KEN.1_1","province":"Baringo","NL_NAME_1":"NA","GID_2":"KEN.1.7_1","county":"Tiaty","NL_NAME_2":"NA","city":"Tirioko","VARNAME_3":"NA","NL_NAME_3":"NA","TYPE_3":"Ward","ENGTYPE_3":"Ward","CC_3":"781","HASC_3":"NA","name":"Tirioko.city"},
"geometry":{"type": "MultiPolygon","coordinates": [[[[35.9544,1.2353,1552.2804],[35.9614,1.2278,1572.0426],[35.96,1.2134,1558.4563],[35.9639,1.2024,1453.4958],[35.9641,1.193,1430.084],[35.9696,1.1858,1422.972],[35.9693,1.183,1423.9503],[35.9824,1.18,1450.4355],[35.9851,1.1698,1385.6096],[35.987,1.1679,1398.9406],[36.0531,1.1686,868.6778],[36.0572,1.1664,854.0354],[36.059,1.1687,816.2408],[36.0752,1.166,779.3552],[36.0833,1.1686,774.9985],[36.0915,1.1676,753.6975],[36.0939,1.1709,736.4987],[36.0961,1.171,728.9161],[35.7855,1.6559,816.5282],[35.7865,1.6583,817.61],[35.7811,1.6607,813.9989],[35.7793,1.6556,824.0347],[35.7817,1.6531,824.0797],[35.7775,1.649,837.7333],[35.7775,1.6453,827.7308],[35.7802,1.6432,827.4017],[35.7812,1.6375,862.6423],[35.7865,1.6365,850.1393],[35.7905,1.6307,848.3789],[35.7871,1.6286,827.1529],[35.7809,1.629,839.5063],[35.7802,1.6272,847.4263],[35.7806,1.6208,832.9485],[35.7841,1.6175,831.1504],[35.7845,1.6145,833.5262],[35.7867,1.6135,838.2604],[35.7833,1.6096,836.9404],[35.7791,1.6088,842.5287],[35.7818,1.6052,840.4413],[35.7805,1.6004,844.9136],[35.7824,1.5973,840.4449],[35.7791,1.5931,844.375],[35.7841,1.5841,850.0621],[35.7813,1.584,846.1246],[35.7797,1.5822,847.6797],[35.7798,1.5757,847.1732],[35.7755,1.5758,855.1224],[35.776,1.5658,855.4005],[35.7739,1.5568,869.0745],[35.7706,1.5543,880.9154],[35.7683,1.5471,876.1891],[35.7693,1.5386,858.7098],[35.7635,1.5367,881.1041],[35.7623,1.5335,891.8745],[35.7641,1.5315,872.1558],[35.7608,1.5266,873.4669],[35.7616,1.5233,871.5952],[35.7561,1.5211,889.0126],[35.7539,1.5157,938.1137],[35.751,1.5142,885.1404],[35.7524,1.5104,874.6334],[35.7425,1.5088,899.0597],[35.7416,1.5028,893.3746],[35.7391,1.502,896.7695],[35.7317,1.4922,892.5724],[35.7289,1.4914,896.8184],[35.7302,1.486,888.2234],[35.7269,1.4848,890.3895],[35.7247,1.4796,892.0857],[35.7207,1.4782,894.3514],[35.7192,1.4755,894.5031],[35.7234,1.465,885.6907],[35.7231,1.4621,885.5333],[35.7206,1.4611,889.2313],[35.7209,1.4564,888.6519],[35.7128,1.4519,897.1224],[35.7122,1.4465,890.709],[35.7065,1.4425,905.5082],[35.709,1.4356,890.9725],[35.7057,1.4326,896.751],[35.7082,1.4255,892.374],[35.7065,1.424,892.7402],[35.7067,1.4207,894.0244],[35.7116,1.417,899.3558],[35.7072,1.4138,894.1133],[35.7067,1.4102,896.2332],[35.7103,1.4091,900.8746],[35.7119,1.4063,894.6226],[35.7035,1.4056,899.4049],[35.7029,1.3999,896.7762],[35.6991,1.3941,903.1233],[35.6994,1.3918,904.3346],[35.7024,1.3916,898.9289],[35.7027,1.3899,901.7338],[35.6955,1.3815,911.0125],[35.6957,1.3791,910.142],[35.6933,1.3769,909.0445],[35.6947,1.372,901.4475],[35.6928,1.3732,903.7418],[35.6909,1.3718,905.2115],[35.6919,1.3677,904.0194],[35.6878,1.3626,907.6744],[35.691,1.3571,904.3477],[35.6877,1.3514,911.7729],[35.6891,1.349,907.458],[35.691,1.3496,905.3813],[35.6924,1.348,905.9172],[35.6888,1.3458,906.4067],[35.696,1.3432,909.0754],[35.695,1.3392,910.9883],[35.6982,1.3353,912.9799],[35.6964,1.3333,912.1919],[35.6993,1.3336,911.8139],[35.7002,1.3321,911.8139],[35.6971,1.3281,910.7264],[35.6981,1.3256,911.8419],[35.6969,1.3245,912.7504],[35.6982,1.318,914.7626],[35.6974,1.3111,919.6799],[35.6947,1.3099,917.4985],[35.6951,1.3085,920.5484],[35.6977,1.3099,917.5239],[35.6987,1.3089,917.5239],[35.6964,1.3068,919.6965],[35.6943,1.3,919.5413],[35.6972,1.3004,918.0813],[35.7033,1.2976,921.9001],[35.7102,1.2898,928.389],[35.7173,1.2882,940.6044],[35.7318,1.2941,961.3537],[35.7438,1.293,962.8503],[35.7454,1.2974,957.8018],[35.7495,1.2934,968.6882],[35.7527,1.2977,970.5262],[35.7534,1.2967,970.2108],[35.756,1.2986,973.5524],[35.7605,1.2987,980.9561],[35.762,1.2951,972.5638],[35.7657,1.2948,975.1545],[35.7659,1.2931,974.2925],[35.7706,1.2952,983.2526],[35.7696,1.2914,978.2906],[35.7715,1.2897,979.976],[35.7733,1.2928,984.56],[35.7754,1.2904,983.0809],[35.78,1.2912,992.3684],[35.7807,1.2939,997.3696],[35.7826,1.2914,994.72],[35.788,1.292,1008.4387],[35.7876,1.2895,1006.5974],[35.7918,1.2871,1001.4318],[35.7951,1.2897,1006.0688],[35.7998,1.2884,1013.7626],[35.8027,1.2864,1015.2582],[35.8023,1.2837,1007.1949],[35.8052,1.2811,1011.6554],[35.8044,1.2788,1012.4984],[35.8057,1.2776,1011.3243],[35.8109,1.2756,1020.1206],[35.8117,1.2776,1021.783],[35.8136,1.2744,1025.0458],[35.8211,1.274,1034.8766],[35.8218,1.2727,1038.1528],[35.8324,1.2782,1056.0713],[35.8368,1.2783,1072.6398],[35.8414,1.282,1087.6046],[35.8516,1.2751,1088.9042],[35.8565,1.2762,1098.5144],[35.8606,1.2746,1112.1899],[35.8621,1.2769,1116.9198],[35.8678,1.2769,1146.285],[35.8778,1.2741,1151.7797],[35.9544,1.2353,1552.2804]]]]}}