{"type": "Feature","bbox": [37.6804,-1.9357,37.9187,-1.7702],"geometry": {"type": "MultiPolygon","coordinates": [[[[37.8393,-1.7784,847.8234],[37.8341,-1.7853,869.657],[37.8164,-1.7837,870.249],[37.8151,-1.783,861.7471],[37.8152,-1.7786,887.8582],[37.8075,-1.7806,873.2456],[37.8066,-1.7793,875.7102],[37.8089,-1.7762,889.9922],[37.8017,-1.7748,881.6389],[37.8005,-1.7702,881.2731],[37.7952,-1.773,886.2849],[37.7858,-1.7709,903.4445],[37.7839,-1.774,890.5806],[37.7786,-1.7763,895.7004],[37.7746,-1.7748,894.9109],[37.7722,-1.771,915.9576],[37.7699,-1.7703,912.3726],[37.7615,-1.7749,959.6728],[37.7547,-1.7801,972.1102],[37.7549,-1.7814,957.2868],[37.7531,-1.7814,965.4777],[37.7532,-1.7845,956.8879],[37.7551,-1.7851,967.7882],[37.756,-1.7877,965.6675],[37.7514,-1.788,979.6941],[37.7532,-1.7909,967.5217],[37.7512,-1.7934,975.0801],[37.7519,-1.801,975.197],[37.7483,-1.8077,990.7414],[37.7498,-1.8108,981.9139],[37.7462,-1.8161,1029.8376],[37.7401,-1.8159,1047.561],[37.737,-1.8216,1046.0984],[37.7351,-1.8214,1054.167],[37.7293,-1.8261,1061.1233],[37.7231,-1.8253,1057.9429],[37.7192,-1.8203,1071.8071],[37.7168,-1.8211,1072.8165],[37.7127,-1.8262,1079.0728],[37.701,-1.8265,1090.5939],[37.7044,-1.8338,1098.082],[37.7008,-1.8443,1092.5425],[37.7026,-1.8503,1096.48],[37.6979,-1.8514,1102.4603],[37.6944,-1.8565,1113.079],[37.6863,-1.8562,1129.7384],[37.6849,-1.8636,1131.7017],[37.6836,-1.8648,1143.3599],[37.6811,-1.8635,1147.7749],[37.6804,-1.8655,1148.4257],[37.6838,-1.8675,1142.1998],[37.6881,-1.8734,1119.5825],[37.6935,-1.8756,1106.8445],[37.6955,-1.8803,1096.0253],[37.6947,-1.8835,1103.156],[37.6987,-1.9009,1081.6748],[37.7057,-1.8977,1098.4323],[37.7159,-1.8979,1097.5199],[37.7152,-1.8908,1099.5616],[37.7187,-1.8808,1108.4385],[37.718,-1.8713,1100.4365],[37.7225,-1.873,1096.2783],[37.7279,-1.871,1085.8103],[37.7294,-1.8727,1083.8685],[37.7294,-1.8776,1085.1584],[37.7344,-1.8824,1081.6741],[37.7377,-1.88,1090.1503],[37.7394,-1.8759,1100.3093],[37.7452,-1.873,1113.8291],[37.7498,-1.8757,1106.3667],[37.7646,-1.8713,1096.6991],[37.767,-1.8689,1096.1448],[37.7692,-1.861,1099.9207],[37.7763,-1.8593,1091.8335],[37.7777,-1.862,1081.0479],[37.7868,-1.8658,1093.2068],[37.7887,-1.8682,1092.4368],[37.7961,-1.901,1068.2195],[37.8103,-1.9073,1018.1981],[37.8123,-1.9176,1008.9586],[37.8162,-1.9231,998.4103],[37.8257,-1.9246,984.7148],[37.8332,-1.9231,961.7931],[37.8402,-1.9294,956.0496],[37.845,-1.9311,946.2156],[37.8509,-1.9305,933.0707],[37.8523,-1.9336,918.5167],[37.8628,-1.93,912.6317],[37.874,-1.9357,878.7759],[37.8773,-1.9319,874.4748],[37.8827,-1.9323,856.0575],[37.8843,-1.9282,856.4334],[37.8868,-1.9265,855.6132],[37.9002,-1.9315,827.341],[37.9028,-1.9296,818.0498],[37.9047,-1.9316,810.9911],[37.9047,-1.9299,815.1777],[37.907,-1.9286,818.4944],[37.9099,-1.9302,802.9504],[37.9124,-1.9264,799.3599],[37.9104,-1.9208,814.8213],[37.9131,-1.9167,801.0761],[37.9133,-1.9127,823.8264],[37.9182,-1.9093,809.8035],[37.9187,-1.9029,815.8311],[37.9154,-1.9018,826.1964],[37.908,-1.9036,807.5277],[37.9058,-1.9023,815.8283],[37.9071,-1.8928,809.9781],[37.8991,-1.8685,822.4931],[37.9014,-1.863,813.6615],[37.8934,-1.8586,824.5357],[37.889,-1.8595,823.6364],[37.8873,-1.8584,824.1785],[37.8849,-1.8497,824.7789],[37.887,-1.8438,841.1764],[37.8917,-1.8425,831.3313],[37.8932,-1.8396,821.3228],[37.8877,-1.8334,835.6111],[37.8804,-1.8311,834.1476],[37.8676,-1.8158,836.3621],[37.8489,-1.798,833.8955],[37.8393,-1.7784,847.8234]]]]}
,"properties": {"GID_3": "KEN.23.5.3_1","GID_0": "KEN","country": "Kenya","GID_1": "KEN.23_1","province": "Makueni","NL_NAME_1": "NA","GID_2": "KEN.23.5_1","county": "Makueni","NL_NAME_2": "NA","city": "Mavindini","VARNAME_3": "NA","NL_NAME_3": "NA","TYPE_3": "Ward","ENGTYPE_3": "Ward","CC_3": "426","HASC_3": "NA","name": "Mavindini.city","area_km2": 257.366,"hist_schema_id": "Elevation0-9000","hist_area_km2": {"800": 1.0383,"825": 11.4642,"850": 17.7793,"875": 24.6241,"900": 25.2598,"925": 21.2759,"950": 16.5714,"975": 16.6774,"1000": 16.0841,"1025": 17.3979,"1050": 23.2256,"1075": 31.0239,"1100": 25.4293,"1125": 9.0697,"1150": 0.445}}}