{"type": "Feature","bbox": [37.5475,-0.6408,37.6873,-0.5118],"geometry": {"type": "MultiPolygon","coordinates": [[[[37.5681,-0.5199,1268.5857],[37.5648,-0.5229,1284.0959],[37.5628,-0.5313,1311.0188],[37.557,-0.5345,1318.6562],[37.5501,-0.5345,1378.3203],[37.5475,-0.5388,1344.5376],[37.5528,-0.539,1393.8982],[37.5558,-0.541,1379.8198],[37.5582,-0.5465,1401.7618],[37.5605,-0.5432,1386.1627],[37.5632,-0.5436,1370.3032],[37.5662,-0.5491,1333.5039],[37.5658,-0.5602,1315.6421],[37.5683,-0.5656,1261.4504],[37.5674,-0.569,1249.6331],[37.5648,-0.575,1222.6606],[37.56,-0.5772,1222.9403],[37.5596,-0.5796,1208.8074],[37.5563,-0.5813,1202.0957],[37.5646,-0.5855,1212.7366],[37.5681,-0.5911,1205.3149],[37.5737,-0.5945,1214.8762],[37.5723,-0.5978,1199.4037],[37.5674,-0.6003,1188.3726],[37.5618,-0.6086,1167.6348],[37.5645,-0.6144,1161.1671],[37.5689,-0.6176,1156.5303],[37.5678,-0.6235,1146.02],[37.5697,-0.6239,1147.8169],[37.5706,-0.6206,1151.9242],[37.575,-0.6182,1162.6272],[37.5759,-0.6135,1188.406],[37.578,-0.6117,1180.7444],[37.5824,-0.6099,1189.9009],[37.586,-0.6122,1195.8855],[37.5902,-0.6123,1209.9316],[37.5911,-0.6092,1207.5239],[37.5937,-0.608,1203.0464],[37.5962,-0.6101,1215.3455],[37.6027,-0.61,1245.0887],[37.6107,-0.6158,1251.5],[37.6209,-0.6171,1202.7612],[37.6243,-0.6197,1173.7915],[37.6293,-0.6185,1163.1021],[37.6308,-0.6227,1137.238],[37.6354,-0.6245,1114.5502],[37.64,-0.6238,1095.8855],[37.6466,-0.6289,1097.569],[37.649,-0.6297,1087.5117],[37.6516,-0.6284,1079.8601],[37.6532,-0.6315,1075.8503],[37.6562,-0.6305,1091.8678],[37.6567,-0.6327,1072.8635],[37.6612,-0.6352,1057.4595],[37.6605,-0.6365,1058.5245],[37.6621,-0.6371,1058.9082],[37.6609,-0.6391,1064.9059],[37.6652,-0.6408,1061.0144],[37.6672,-0.6334,1047.1422],[37.664,-0.6325,1047.2069],[37.6653,-0.6312,1046.5037],[37.6638,-0.6255,1063.5092],[37.665,-0.6246,1052.0291],[37.6584,-0.6172,1093.6196],[37.6551,-0.6168,1062.6851],[37.6554,-0.6145,1083.4371],[37.6528,-0.6124,1085.3657],[37.6545,-0.6056,1088.4309],[37.6524,-0.6055,1151.1759],[37.6555,-0.6019,1112.0054],[37.6537,-0.6012,1114.5609],[37.6561,-0.5939,1210.3169],[37.659,-0.5927,1238.6765],[37.6597,-0.5959,1140.4136],[37.6626,-0.5956,1185.3169],[37.6663,-0.5937,1171.8064],[37.6652,-0.5917,1206.7245],[37.6674,-0.5906,1229.4919],[37.67,-0.5917,1181.3137],[37.6724,-0.5873,1230.9857],[37.6743,-0.5877,1211.0277],[37.6771,-0.5849,1215.0862],[37.6783,-0.5812,1230.5292],[37.6772,-0.5774,1274.5669],[37.681,-0.5754,1372.3162],[37.6815,-0.5686,1514.2046],[37.6864,-0.5631,1544.5723],[37.6873,-0.557,1368.1122],[37.6822,-0.5508,1185.8263],[37.6799,-0.5501,1190.6968],[37.6789,-0.5429,1163.6729],[37.6828,-0.5162,1076.178],[37.6782,-0.5138,1132.7748],[37.6726,-0.514,1095.0033],[37.6722,-0.5118,1108.9033],[37.6684,-0.5161,1111.1487],[37.6637,-0.514,1143.1069],[37.663,-0.519,1102.1057],[37.6601,-0.5193,1127.2866],[37.66,-0.5217,1100.1182],[37.6573,-0.5189,1132.3312],[37.6532,-0.5178,1160.4727],[37.6508,-0.5203,1145.1682],[37.6521,-0.5264,1106.6943],[37.6472,-0.5262,1133.8931],[37.6452,-0.5292,1113.9398],[37.6417,-0.5265,1125.1512],[37.6371,-0.5266,1119.6984],[37.6352,-0.5235,1129.5278],[37.6266,-0.5222,1124.3704],[37.6253,-0.5182,1128.1238],[37.6222,-0.5173,1161.0586],[37.6203,-0.5218,1135.6254],[37.6188,-0.5221,1135.6254],[37.6116,-0.52,1158.3149],[37.6047,-0.5205,1161.0015],[37.5998,-0.5159,1152.7061],[37.591,-0.5203,1223.5082],[37.5872,-0.519,1236.364],[37.5852,-0.521,1238.3755],[37.5821,-0.5198,1241.4072],[37.5737,-0.5224,1258.2716],[37.5681,-0.5199,1268.5857]]]]}
,"properties": {"GID_3": "KEN.6.2.3_1","GID_0": "KEN","country": "Kenya","GID_1": "KEN.6_1","province": "Embu","NL_NAME_1": "NA","GID_2": "KEN.6.2_1","county": "MbeereNorth","NL_NAME_2": "NA","city": "Nthawa","VARNAME_3": "NA","NL_NAME_3": "NA","TYPE_3": "Ward","ENGTYPE_3": "Ward","CC_3": "328","HASC_3": "NA","name": "Nthawa.city","area_km2": 134.8182,"hist_schema_id": "Elevation0-9000","hist_area_km2": {"1025": 0.0212,"1050": 0.5088,"1075": 1.7173,"1100": 5.4699,"1125": 11.8091,"1150": 17.279,"1175": 20.7135,"1200": 23.3,"1225": 22.7276,"1250": 11.703,"1275": 6.3816,"1300": 4.2614,"1325": 3.053,"1350": 2.0777,"1375": 1.5265,"1400": 0.7844,"1425": 0.5512,"1450": 0.424,"1475": 0.1696,"1500": 0.212,"1525": 0.1272}}}