{"type": "Feature","bbox": [36.6071,-1.234,36.6639,-1.1506],"geometry": {"type": "MultiPolygon","coordinates": [[[[36.6501,-1.1705,2174.6812],[36.6494,-1.1649,2231.8516],[36.6544,-1.161,2230.4253],[36.6548,-1.1545,2237.7646],[36.6381,-1.1553,2242.8628],[36.6356,-1.1708,2163.6689],[36.6316,-1.1537,2196.7725],[36.6254,-1.1506,2128.3286],[36.6196,-1.1532,2158.9922],[36.6092,-1.1685,2139.2612],[36.6071,-1.1765,2150.1934],[36.6078,-1.1803,2143.8452],[36.6126,-1.1859,2121.8706],[36.6108,-1.1917,2121.6145],[36.6245,-1.1868,2107.6111],[36.6263,-1.1875,2108.4585],[36.6308,-1.1949,2054.9033],[36.6332,-1.2028,2059.0107],[36.6456,-1.2001,2099.6089],[36.6467,-1.2095,2074.4282],[36.6516,-1.2119,2088.6877],[36.6457,-1.2133,2075.6736],[36.6452,-1.2163,2051.9375],[36.6476,-1.2208,2040.6721],[36.6456,-1.2234,2022.6973],[36.6466,-1.2245,2022.6973],[36.6518,-1.2216,2079.8257],[36.6514,-1.234,2009.6326],[36.6587,-1.2331,2068.6096],[36.6584,-1.214,2079.4182],[36.6639,-1.2106,2096.8582],[36.6582,-1.1981,2081.4829],[36.6501,-1.2028,2118.3979],[36.6513,-1.1841,2129.7341],[36.6474,-1.1779,2152.4011],[36.6501,-1.1705,2174.6812]]]]}
,"properties": {"GID_3": "KEN.13.8.5_1","GID_0": "KEN","country": "Kenya","GID_1": "KEN.13_1","province": "Kiambu","NL_NAME_1": "NA","GID_2": "KEN.13.8_1","county": "Kikuyu","NL_NAME_2": "NA","city": "Sigona","VARNAME_3": "NA","NL_NAME_3": "NA","TYPE_3": "Ward","ENGTYPE_3": "Ward","CC_3": "598","HASC_3": "NA","name": "Sigona.city","area_km2": 24.22896,"hist_schema_id": "Elevation0-9000","hist_area_km2": {"2025": 0.27557,"2050": 0.95389,"2075": 3.45519,"2100": 3.45521,"2125": 5.80818,"2150": 5.46902,"2175": 1.27187,"2200": 1.12348,"2225": 1.10229,"2250": 1.31427}}}