{"type":"Feature","properties":{"GID_3":"KEN.12.6.2_1","GID_0":"KEN","country":"Kenya","GID_1":"KEN.12_1","province":"Kericho","NL_NAME_1":"NA","GID_2":"KEN.12.6_1","county":"Sigowet/Soin","NL_NAME_2":"NA","city":"Sigowet","VARNAME_3":"NA","NL_NAME_3":"NA","TYPE_3":"Ward","ENGTYPE_3":"Ward","CC_3":"962","HASC_3":"NA","name":"Sigowet.city"},
"geometry":{"type": "MultiPolygon","coordinates": [[[[35.1172,-0.3833,1818.1844],[35.1143,-0.3805,1800.7247],[35.1101,-0.3714,1739.0602],[35.105,-0.3671,1759.1831],[35.0957,-0.3648,1742.1539],[35.0905,-0.3714,1765.5869],[35.0907,-0.3732,1770.9856],[35.086,-0.3735,1750.5966],[35.0814,-0.3691,1693.7395],[35.0816,-0.3733,1701.4296],[35.0796,-0.3764,1716.1282],[35.071,-0.3803,1764.3193],[35.0556,-0.3829,1737.2797],[35.0502,-0.3726,1674.1943],[35.0453,-0.3766,1733.6686],[35.0439,-0.3743,1746.0487],[35.0401,-0.3752,1744.2649],[35.0319,-0.3826,1634.7131],[35.0326,-0.3857,1756.5591],[35.0305,-0.3909,1664.6318],[35.0339,-0.3942,1771.368],[35.0357,-0.3992,1761.7657],[35.033,-0.4084,1594.0029],[35.0285,-0.4108,1568.5526],[35.0301,-0.4142,1542.8506],[35.0316,-0.4136,1542.8506],[35.0337,-0.4158,1555.6553],[35.0388,-0.425,1559.6221],[35.0384,-0.4318,1525.5131],[35.0451,-0.44,1581.866],[35.0443,-0.4449,1536.4177],[35.0461,-0.449,1540.7135],[35.0421,-0.4511,1563.7131],[35.0427,-0.4594,1567.7739],[35.0395,-0.4786,1665.8623],[35.0346,-0.4782,1694.4094],[35.0334,-0.4794,1699.2593],[35.0332,-0.4929,1578.5533],[35.0371,-0.4921,1604.2883],[35.0466,-0.4944,1704.9017],[35.0491,-0.4923,1697.3265],[35.052,-0.4947,1678.0902],[35.0526,-0.4913,1680.0985],[35.0547,-0.4921,1658.3762],[35.0589,-0.4855,1724.3202],[35.0609,-0.4869,1701.0195],[35.0747,-0.4846,1669.4452],[35.0736,-0.4822,1674.145],[35.0801,-0.4762,1672.55],[35.0801,-0.4718,1702.8472],[35.0829,-0.4709,1668.2094],[35.0843,-0.4677,1676.6611],[35.0842,-0.4586,1711.245],[35.0869,-0.4529,1685.0884],[35.0846,-0.4469,1709.1436],[35.0889,-0.4413,1684.3267],[35.0872,-0.4353,1696.5195],[35.0897,-0.4259,1736.3384],[35.0892,-0.4228,1759.3269],[35.0927,-0.4189,1760.1295],[35.0924,-0.4157,1771.4805],[35.0973,-0.408,1783.6229],[35.1059,-0.3981,1792.2653],[35.1067,-0.3934,1814.9128],[35.1153,-0.3874,1823.6505],[35.1172,-0.3833,1818.1844]]]]}}