{"type":"Feature","properties":{"GID_3":"KEN.19.3.5_1","GID_0":"KEN","country":"Kenya","GID_1":"KEN.19_1","province":"Kwale","NL_NAME_1":"NA","GID_2":"KEN.19.3_1","county":"Matuga","NL_NAME_2":"NA","city":"Waa","VARNAME_3":"NA","NL_NAME_3":"NA","TYPE_3":"Ward","ENGTYPE_3":"Ward","CC_3":"40","HASC_3":"NA","name":"Waa.city"},
"geometry":{"type": "MultiPolygon","coordinates": [[[[39.616,-4.201,12.7612],[39.631,-4.1807,2.6487],[39.6387,-4.1621,9.7556],[39.6446,-4.1531,9.4506],[39.6263,-4.1416,22.7619],[39.6301,-4.1366,24.09],[39.6329,-4.1242,24.5765],[39.6369,-4.1219,20.0435],[39.6377,-4.1182,18.0287],[39.6325,-4.1169,23.3878],[39.6293,-4.1105,25.7539],[39.6121,-4.0924,58.1662],[39.6135,-4.0908,52.5428],[39.6101,-4.0923,56.8521],[39.6083,-4.0873,42.9781],[39.6067,-4.0878,42.9781],[39.6065,-4.094,46.7811],[39.6009,-4.097,58.972],[39.5985,-4.1003,62.7166],[39.6001,-4.108,25.8742],[39.5959,-4.1137,64.5951],[39.5919,-4.1137,18.0936],[39.5869,-4.1181,2.7488],[39.5827,-4.1163,1.6178],[39.5797,-4.1194,1.9229],[39.5751,-4.1199,4.9717],[39.5681,-4.1272,28.9715],[39.5691,-4.1318,11.8384],[39.5669,-4.1329,28.2667],[39.5663,-4.1357,26.6374],[39.5677,-4.14,14.4327],[39.5663,-4.1434,16.349],[39.5601,-4.148,20.7556],[39.5617,-4.151,22.6276],[39.5621,-4.1615,59.257],[39.5547,-4.1767,76.7095],[39.5547,-4.1778,76.7095],[39.5609,-4.1772,101.714],[39.5627,-4.1731,107.8649],[39.5649,-4.1728,90.6911],[39.5675,-4.1783,117.108],[39.5669,-4.1801,123.1884],[39.5609,-4.1831,116.5596],[39.5537,-4.1975,99.0589],[39.5557,-4.1996,77.6502],[39.5679,-4.2028,85.0784],[39.5695,-4.1955,90.6663],[39.5773,-4.1825,70.3706],[39.5881,-4.1848,40.4474],[39.5941,-4.1776,25.4469],[39.6099,-4.185,19.4904],[39.6047,-4.1948,17.9367],[39.616,-4.201,12.7612]]]]}}