{"type":"Feature","properties":{"GID_3":"KEN.5.3.1_1","GID_0":"KEN","country":"Kenya","GID_1":"KEN.5_1","province":"Elgeyo-Marakwet","NL_NAME_1":"NA","GID_2":"KEN.5.3_1","county":"MarakwetEast","NL_NAME_2":"NA","city":"Endo","VARNAME_3":"NA","NL_NAME_3":"NA","TYPE_3":"Ward","ENGTYPE_3":"Ward","CC_3":"733","HASC_3":"NA","name":"Endo.city"},
"geometry":{"type": "MultiPolygon","coordinates": [[[[35.6972,1.3004,918.0813],[35.6942,1.3004,919.5413],[35.6964,1.3068,919.6965],[35.6987,1.3089,917.5239],[35.6947,1.309,917.4985],[35.6975,1.3116,919.6799],[35.6982,1.318,914.7626],[35.6969,1.3241,912.7504],[35.6725,1.3201,942.0013],[35.6317,1.3054,1022.1025],[35.6279,1.3002,1031.3116],[35.624,1.2993,1038.5006],[35.6165,1.2938,1079.2261],[35.6122,1.2854,1134.5586],[35.6061,1.2832,1242.9438],[35.5938,1.2858,1766.8212],[35.5915,1.2824,1771.585],[35.5938,1.2818,1687.4215],[35.5858,1.2695,1624.2146],[35.6038,1.2572,1349.4119],[35.6089,1.263,1258.2792],[35.6122,1.2593,1239.2703],[35.6185,1.2463,1569.1995],[35.6275,1.2328,1491.5226],[35.6269,1.2216,1532.9033],[35.6343,1.2062,1596.6302],[35.6345,1.1984,1654.0604],[35.6306,1.1729,1732.621],[35.632,1.162,1357.2195],[35.622,1.1328,1709.0002],[35.6191,1.1146,1676.2667],[35.6414,1.1094,1085.6385],[35.648,1.1113,1059.9119],[35.6562,1.1055,1031.3787],[35.6707,1.1029,997.2209],[35.6787,1.0996,975.3243],[35.684,1.0952,960.701],[35.6837,1.1003,966.7187],[35.6865,1.0992,962.0426],[35.6864,1.1031,969.9694],[35.6913,1.1042,963.4655],[35.6928,1.1087,961.7702],[35.6953,1.1076,959.3015],[35.6989,1.1092,959.1655],[35.6972,1.1163,958.1826],[35.7022,1.1278,952.8989],[35.7007,1.1331,956.989],[35.7055,1.138,949.603],[35.7053,1.1511,951.6335],[35.7098,1.1541,948.6418],[35.7037,1.1568,944.8322],[35.7059,1.1597,947.3658],[35.7028,1.1621,950.5992],[35.7054,1.1637,947.3245],[35.7038,1.1679,950.8023],[35.7054,1.174,946.024],[35.7043,1.1801,944.5311],[35.7062,1.1803,943.087],[35.7066,1.1823,942.0302],[35.7034,1.1834,942.3692],[35.7045,1.1865,943.3976],[35.7029,1.1891,940.5021],[35.7038,1.1914,943.1376],[35.7027,1.1937,945.2709],[35.7043,1.1955,941.8914],[35.7023,1.2009,942.5725],[35.7031,1.2035,941.1716],[35.6999,1.2067,941.1891],[35.6979,1.205,940.1918],[35.6965,1.2084,939.4728],[35.6983,1.2093,937.2796],[35.6968,1.219,936.9739],[35.7042,1.2311,936.477],[35.7037,1.2363,932.8249],[35.7009,1.237,935.7211],[35.6996,1.24,931.8378],[35.7018,1.2411,930.1661],[35.6996,1.2437,935.0002],[35.7029,1.2462,928.1534],[35.7025,1.2493,928.0529],[35.7011,1.2497,928.0529],[35.7038,1.2515,926.968],[35.7008,1.2518,930.0128],[35.7004,1.256,926.2082],[35.7018,1.2574,927.5728],[35.6997,1.2626,933.3107],[35.7018,1.2645,933.6597],[35.7038,1.2641,927.9594],[35.7031,1.2663,925.3425],[35.7059,1.2689,923.9602],[35.7072,1.2735,926.4744],[35.7068,1.2772,930.213],[35.7027,1.2758,924.2938],[35.7014,1.2817,923.4113],[35.6972,1.2829,920.5363],[35.6982,1.2886,920.692],[35.6954,1.2881,924.0665],[35.6948,1.2926,918.5524],[35.6972,1.3004,918.0813]]]]}}