{"type": "Feature","bbox": [34.1789,-0.7179,34.3082,-0.508],"geometry": {"type": "MultiPolygon","coordinates": [[[[34.2119,-0.5124,1743.2478],[34.2095,-0.5112,1845.8369],[34.2084,-0.508,1836.678],[34.1992,-0.5134,1399.165],[34.1959,-0.5257,1311.9296],[34.1923,-0.526,1285.6519],[34.1865,-0.5299,1214.2653],[34.1789,-0.5423,1154.9105],[34.1878,-0.5455,1176.4705],[34.1921,-0.5451,1187.8445],[34.1988,-0.5486,1196.6716],[34.2043,-0.5571,1203.9861],[34.2176,-0.5649,1383.5833],[34.2194,-0.5676,1483.4774],[34.2149,-0.5837,1573.3059],[34.2115,-0.5852,1517.0248],[34.205,-0.5921,1449.4347],[34.2048,-0.601,1672.8518],[34.2057,-0.6032,1754.947],[34.2195,-0.6084,1543.6449],[34.2232,-0.6124,1632.6694],[34.2266,-0.6221,1638.241],[34.2324,-0.6278,1482.0559],[34.2336,-0.6462,1270.6462],[34.1911,-0.6923,1245.6115],[34.2204,-0.7179,1497.7791],[34.2907,-0.6685,1323.5607],[34.3065,-0.5722,1158.7195],[34.3082,-0.57,1161.3276],[34.3045,-0.5651,1157.218],[34.3039,-0.557,1161.5376],[34.2996,-0.5525,1161.01],[34.297,-0.5452,1162.4877],[34.2918,-0.5425,1153.4843],[34.2937,-0.5381,1154.1101],[34.2919,-0.5322,1150.3229],[34.2845,-0.533,1172.5144],[34.2782,-0.5317,1183.6373],[34.2573,-0.5431,1220.3031],[34.2483,-0.544,1220.6565],[34.2349,-0.5325,1346.6216],[34.2288,-0.5247,1642.9255],[34.2201,-0.5189,1758.9652],[34.2163,-0.513,1593.3778],[34.2119,-0.5124,1743.2478]]]]}
,"properties": {"GID_3": "KEN.8.8.4_1","GID_0": "KEN","country": "Kenya","GID_1": "KEN.8_1","province": "HomaBay","NL_NAME_1": "NA","GID_2": "KEN.8.8_1","county": "Suba","NL_NAME_2": "NA","city": "Ruma-Kaksingri","VARNAME_3": "NA","NL_NAME_3": "NA","TYPE_3": "Ward","ENGTYPE_3": "Ward","CC_3": "1260","HASC_3": "NA","name": "Ruma-Kaksingri.city","area_km2": 177.3888,"hist_schema_id": "Elevation0-9000","hist_area_km2": {"1150": 3.7102,"1175": 26.9466,"1200": 41.787,"1225": 30.9109,"1250": 17.936,"1275": 9.8797,"1300": 7.2508,"1325": 5.5123,"1350": 4.3886,"1375": 3.8586,"1400": 3.2226,"1425": 2.6501,"1450": 2.4805,"1475": 2.1201,"1500": 1.9929,"1525": 1.8657,"1550": 1.4205,"1575": 1.5265,"1600": 1.2721,"1625": 1.2085,"1650": 1.2085,"1675": 1.0601,"1700": 0.8904,"1725": 0.7632,"1750": 0.9329,"1775": 0.2968,"1800": 0.1696,"1825": 0.106,"1850": 0.0212}}}