{"type":"Feature","properties":{"GID_3":"KEN.24.3.6_1","GID_0":"KEN","country":"Kenya","GID_1":"KEN.24_1","province":"Mandera","NL_NAME_1":"NA","GID_2":"KEN.24.3_1","county":"ManderaEast","NL_NAME_2":"NA","city":"Township","VARNAME_3":"NA","NL_NAME_3":"NA","TYPE_3":"Ward","ENGTYPE_3":"Ward","CC_3":"215","HASC_3":"NA","name":"Township.city"},
"geometry":{"type": "MultiPolygon","coordinates": [[[[41.859,3.9867,202.7146],[41.8353,3.9357,209.351],[41.8312,3.9329,213.3225],[41.8529,3.9331,210.8106],[41.8661,3.9391,219.2862],[41.8535,3.9201,219.1989],[41.8579,3.9161,254.1712],[41.8584,3.9103,250.0487],[41.8729,3.9366,217.0121],[41.8991,3.9755,194.9337],[41.9069,3.978,195.5829],[41.9131,3.9908,193.4716],[41.9214,3.9941,193.3619],[41.9262,4.0023,198.3691],[41.9139,3.9964,192.4818],[41.9007,3.9853,195.3165],[41.8836,3.9869,196.1357],[41.859,3.9867,202.7146]]]]}}