{"type":"Feature","properties":{"GID_3":"KEN.41.1.1_1","GID_0":"KEN","country":"Kenya","GID_1":"KEN.41_1","province":"Tharaka-Nithi","NL_NAME_1":"NA","GID_2":"KEN.41.1_1","county":"Chuka/Igambang'Ombe","NL_NAME_2":"NA","city":"Igambang'Ombe","VARNAME_3":"NA","NL_NAME_3":"NA","TYPE_3":"Ward","ENGTYPE_3":"Ward","CC_3":"305","HASC_3":"NA","name":"Igambang'Ombe.city"},
"geometry":{"type": "MultiPolygon","coordinates": [[[[37.8027,-0.3074,846.7051],[37.7907,-0.313,911.3629],[37.7869,-0.3179,870.3613],[37.7885,-0.3256,861.8322],[37.7953,-0.3329,832.6998],[37.7989,-0.3417,841.6638],[37.7915,-0.3428,898.9793],[37.7905,-0.3455,855.6387],[37.7851,-0.3483,936.0471],[37.7805,-0.3549,923.9179],[37.7787,-0.3615,1007.5969],[37.7807,-0.3702,851.7483],[37.7869,-0.376,832.9512],[37.7943,-0.3788,804.4892],[37.7983,-0.3839,796.0606],[37.7857,-0.3884,812.9001],[37.7825,-0.386,826.4597],[37.7746,-0.3878,867.8147],[37.7729,-0.3891,837.5371],[37.7749,-0.3954,837.0612],[37.7663,-0.4026,872.899],[37.7609,-0.4022,884.1093],[37.7571,-0.4049,895.1768],[37.7465,-0.3969,993.3408],[37.7433,-0.3961,1020.9859],[37.7345,-0.397,1060.5835],[37.7279,-0.4011,1039.4583],[37.7213,-0.4115,1103.7834],[37.7131,-0.4113,1114.8701],[37.7084,-0.4083,1156.1423],[37.7089,-0.4101,1140.9751],[37.7039,-0.4107,1143.114],[37.697,-0.407,1184.1259],[37.6945,-0.4135,1203.7125],[37.6989,-0.4184,1185.5675],[37.6981,-0.4215,1182.354],[37.6874,-0.4309,1181.7024],[37.6933,-0.4384,1143.8478],[37.6994,-0.4386,1146.4204],[37.7042,-0.4427,1136.9402],[37.7149,-0.4447,1098.7139],[37.7201,-0.4504,1096.5012],[37.7285,-0.4511,1089.2454],[37.7326,-0.45,1055.4503],[37.7345,-0.4472,1076.059],[37.7434,-0.4459,1053.4077],[37.7555,-0.4472,1030.8594],[37.7606,-0.4495,1024.1637],[37.7671,-0.4494,983.2639],[37.7793,-0.4459,883.5553],[37.7849,-0.4472,854.6387],[37.7881,-0.4435,839.3207],[37.8019,-0.4367,814.3318],[37.8065,-0.4315,808.8163],[37.8146,-0.428,794.5521],[37.8177,-0.4206,792.3324],[37.8281,-0.4126,768.4934],[37.8275,-0.4094,789.3101],[37.8315,-0.406,810.7717],[37.8399,-0.405,768.6425],[37.8455,-0.4025,754.8304],[37.8526,-0.3904,743.8358],[37.8659,-0.3825,716.0785],[37.8651,-0.3714,710.4199],[37.8707,-0.3659,698.8979],[37.8735,-0.3508,687.3575],[37.8805,-0.3479,683.3052],[37.8863,-0.343,684.5106],[37.8937,-0.3507,657.0978],[37.8907,-0.3425,670.0831],[37.8947,-0.3388,668.1093],[37.8879,-0.3343,679.6605],[37.8891,-0.3306,674.0439],[37.8881,-0.3271,681.7636],[37.8913,-0.3227,685.0654],[37.8903,-0.3162,697.8235],[37.8931,-0.3138,692.9774],[37.8917,-0.3111,707.1764],[37.8817,-0.3054,722.4931],[37.8813,-0.3088,701.2047],[37.8781,-0.3094,709.2751],[37.8695,-0.3041,715.6829],[37.8691,-0.3002,733.5403],[37.8669,-0.3018,725.7635],[37.8649,-0.3009,729.8616],[37.8655,-0.2968,725.3107],[37.8623,-0.294,731.2782],[37.8615,-0.2859,743.88],[37.8529,-0.2754,754.9011],[37.8495,-0.2665,765.0745],[37.8455,-0.2661,761.6901],[37.8445,-0.2639,769.2458],[37.8283,-0.2867,791.113],[37.8129,-0.305,813.6414],[37.8165,-0.3082,818.6643],[37.8175,-0.312,804.8955],[37.8027,-0.3074,846.7051]]]]}}