{"type": "Feature","bbox": [35.7387,2.5301,36.3855,3.1652],"geometry": {"type": "MultiPolygon","coordinates": [[[[36.1323,3.015,362.4141],[36.1275,3.0217,365.2873],[36.1259,3.0308,366.184],[36.1122,3.0405,366.7121],[36.1052,3.0575,370.0483],[36.1027,3.0666,372.3757],[36.1027,3.104,379.0195],[36.0969,3.1125,387.635],[36.0895,3.1148,387.4128],[36.0647,3.1162,390.8479],[36.0476,3.1121,392.375],[36.0347,3.1146,396.9322],[36.0166,3.1062,399.8413],[36.0091,3.1071,405.968],[36.0028,3.1057,403.625],[35.9906,3.1141,412.2524],[35.9604,3.119,415.1545],[35.9448,3.1109,420.6955],[35.927,3.1137,424.7667],[35.9195,3.1132,422.901],[35.9165,3.1165,430.1415],[35.9187,3.1288,427.5562],[35.9173,3.1331,426.3458],[35.9137,3.1365,427.8295],[35.905,3.1391,433.5221],[35.8852,3.1385,441.7786],[35.8794,3.1465,434.415],[35.8752,3.1487,438.1866],[35.8584,3.1461,441.729],[35.8535,3.1508,441.2832],[35.8544,3.1596,441.4528],[35.8479,3.1652,441.5],[35.8439,3.1628,447.8898],[35.8403,3.1564,448.6842],[35.8327,3.1519,449.7821],[35.8307,3.1529,450.5197],[35.8292,3.1591,450.8352],[35.823,3.1611,452.8012],[35.8164,3.1588,460.8031],[35.8095,3.1535,455.3966],[35.7962,3.1529,457.6808],[35.7871,3.1497,454.5],[35.7835,3.1427,461.1468],[35.7814,3.1307,485.5698],[35.7848,3.1114,518.0654],[35.7833,3.1011,519.7698],[35.7749,3.0662,503.965],[35.7594,3.0295,489.4281],[35.7495,3.0122,481.5239],[35.7387,2.9992,483.0962],[35.7403,2.9882,483.9976],[35.7482,2.9792,485.119],[35.7555,2.9631,486.9468],[35.7655,2.9296,487.6858],[35.7826,2.9174,486.4362],[35.7909,2.9202,487.4961],[35.7959,2.9201,486.2434],[35.7924,2.9147,484.5135],[35.791,2.9037,484.8699],[35.7932,2.8881,488.8587],[35.8028,2.8692,494.7646],[35.8055,2.8586,497.7542],[35.8117,2.8445,501.9077],[35.831,2.807,512.4071],[35.8376,2.8017,511.0829],[35.8644,2.8058,495.2589],[35.8683,2.8078,492.9153],[35.8722,2.8149,551.163],[35.8733,2.8145,551.163],[35.8739,2.8089,489.8093],[35.8711,2.8032,492.8008],[35.8704,2.7962,497.0536],[35.8722,2.7769,502.38869999999997],[35.8716,2.7601,508.2294],[35.8694,2.7478,512.9825],[35.862,2.7374,518.8907],[35.8616,2.7133,525.3218],[35.8645,2.7126,526.3098],[35.8711,2.7154,529.3005],[35.8931,2.7311,534.6824],[35.9076,2.744,549.5294],[35.923,2.7626,542.5791],[35.9488,2.7992,496.2543],[35.949,2.8034,495.3811],[35.9512,2.8058,490.2392],[35.9564,2.8194,475.7662],[35.9558,2.8254,474.0415],[35.9586,2.8312,469.3901],[35.9626,2.8329,467.3259],[35.9677,2.8318,466.7852],[35.9965,2.8077,468.8742],[36.0208,2.7801,479.0641],[36.0237,2.7717,486.4078],[36.0218,2.7512,508.0479],[36.023,2.7426,501.9279],[36.028,2.7369,495.8188],[36.0453,2.7255,500.8386],[36.0576,2.7104,488.0138],[36.058,2.698,486.4784],[36.0516,2.6815,501.7146],[36.0544,2.6769,494.0744],[36.0657,2.6696,487.3288],[36.0692,2.6654,481.0109],[36.0713,2.647,490.6374],[36.0708,2.618,501.869],[36.0672,2.5998,518.9205],[36.059,2.5797,555.2168],[36.061,2.5727,551.2051],[36.0663,2.5694,538.9359],[36.0716,2.5694,531.611],[36.0791,2.5736,523.8257],[36.0859,2.5744,513.2844],[36.1001,2.5669,509.8129],[36.1091,2.5601,506.8241],[36.1451,2.5415,496.0174],[36.158,2.5324,498.3753],[36.1656,2.5325,491.0923],[36.1782,2.5371,488.8631],[36.1898,2.5381,487.805],[36.1952,2.5364,477.9932],[36.2007,2.538,473.3106],[36.2374,2.5301,460.7046],[36.25,2.5429,455.9393],[36.261,2.5509,462.2004],[36.3203,2.578,481.3874],[36.3278,2.5821,483.0499],[36.3334,2.5882,490.9694],[36.3364,2.5947,489.2407],[36.3367,2.6014,494.63],[36.3367,2.6589,483.0657],[36.3423,2.6925,469.1935],[36.3402,2.6991,464.4525],[36.3321,2.7087,456.3831],[36.3308,2.714,455.1918],[36.339,2.7232,467.7943],[36.3437,2.7322,473.9565],[36.344,2.739,474.2316],[36.3408,2.7537,466.4382],[36.3413,2.7607,471.9888],[36.3471,2.7728,472.5943],[36.3584,2.786,547.323],[36.3593,2.7904,564.038],[36.357,2.7945,557.0979],[36.3603,2.7981,519.6138],[36.3619,2.8069,544.0544],[36.3652,2.8111,587.1091],[36.365,2.8131,551.4271],[36.3734,2.8182,463.3024],[36.3745,2.8283,414.4657],[36.3772,2.8304,395.6731],[36.3777,2.8332,395.9987],[36.3855,2.834,363.8289],[36.3807,2.8431,367.1654],[36.3675,2.856,362.4938],[36.3616,2.8648,362.0],[36.3467,2.8673,362.0],[36.3225,2.8786,362.0],[36.2998,2.8924,362.0],[36.2914,2.8926,363.0583],[36.2827,2.8964,364.9308],[36.2691,2.9148,362.0],[36.2669,2.9264,362.0],[36.2615,2.939,362.0],[36.2582,2.9638,365.3176],[36.2548,2.9704,364.1843],[36.2537,2.9695,365.0359],[36.2556,2.9656,365.123],[36.2549,2.9561,366.4331],[36.2477,2.9507,366.033],[36.2331,2.9585,365.5584],[36.2251,2.9587,366.3838],[36.2249,2.9569,366.2767],[36.2227,2.9563,366.0892],[36.2175,2.9599,365.7874],[36.2031,2.9623,366.2835],[36.1927,2.9691,365.6623],[36.1793,2.9673,366.3845],[36.1703,2.9691,366.3121],[36.1643,2.9677,365.9957],[36.1385,2.9703,365.7007],[36.1341,2.9685,365.5892],[36.1374,2.9843,364.9324],[36.1333,2.9827,368.0411],[36.13,2.9792,367.5696],[36.1296,2.9854,367.2114],[36.1249,2.9841,366.1832],[36.1237,2.9859,365.5807],[36.1273,3.0065,364.4144],[36.1323,3.015,362.4141]]]]}
,"properties": {"GID_3": "KEN.43.2.4_1","GID_0": "KEN","country": "Kenya","GID_1": "KEN.43_1","province": "Turkana","NL_NAME_1": "NA","GID_2": "KEN.43.2_1","county": "TurkanaCentral","NL_NAME_2": "NA","city": "KerioDelta","VARNAME_3": "NA","NL_NAME_3": "NA","TYPE_3": "Ward","ENGTYPE_3": "Ward","CC_3": "624","HASC_3": "NA","name": "Kerio_Delta.city","area_km2": 2688.373,"hist_schema_id": "Elevation0-9000","hist_area_km2": {"350": 4.764,"375": 391.345,"400": 365.587,"425": 433.783,"450": 683.775,"475": 332.567,"500": 291.672,"525": 118.556,"550": 36.466,"575": 14.781,"600": 7.306,"625": 3.917,"650": 2.012,"675": 1.207,"700": 0.36,"725": 0.233,"750": 0.042}}}