{"type": "Feature","bbox": [34.2629,0.0721,34.3639,0.158],"geometry": {"type": "MultiPolygon","coordinates": [[[[34.2639,0.0836,1262.2],[34.2629,0.0812,1265.5066],[34.2642,0.0799,1266.1819],[34.2747,0.0805,1306.1522],[34.2773,0.0767,1312.7612],[34.2805,0.0782,1297.7681],[34.2819,0.0773,1294.5328],[34.2851,0.0806,1294.3103],[34.2863,0.075,1291.5668],[34.2891,0.0782,1292.8483],[34.2911,0.0755,1294.6375],[34.2985,0.0721,1267.0879],[34.3016,0.0743,1287.5906],[34.3073,0.0737,1310.8999],[34.3125,0.0779,1297.1206],[34.3203,0.0793,1294.4419],[34.322,0.0864,1284.443],[34.3248,0.0887,1294.303],[34.3247,0.0919,1302.042],[34.3356,0.0943,1295.9137],[34.3446,0.1002,1317.2976],[34.3639,0.1067,1255.0258],[34.3599,0.1281,1245.9302],[34.3524,0.1338,1227.7283],[34.3487,0.1435,1229.306],[34.345,0.1442,1220.353],[34.3401,0.149,1255.6217],[34.3348,0.1477,1247.303],[34.3287,0.1497,1248.6371],[34.3233,0.1495,1218.3488],[34.3147,0.1556,1217.9187],[34.3046,0.158,1216.9949],[34.3031,0.1479,1217.9153],[34.3048,0.14,1223.4573],[34.299,0.1355,1244.2778],[34.2962,0.1302,1241.3571],[34.2941,0.1304,1220.2244],[34.2903,0.1274,1204.7076],[34.283,0.1162,1259.2324],[34.2806,0.1167,1254.9697],[34.2795,0.1143,1263.0669],[34.2807,0.1137,1273.3373],[34.2738,0.1078,1274.4918],[34.2734,0.105,1293.0259],[34.2678,0.0991,1264.9921],[34.2705,0.0901,1261.813],[34.2681,0.0854,1265.9077],[34.2668,0.0857,1258.9696],[34.267,0.0833,1275.6366],[34.2639,0.0836,1262.2]]]]}
,"properties": {"GID_3": "KEN.38.1.2_1","GID_0": "KEN","country": "Kenya","GID_1": "KEN.38_1","province": "Siaya","NL_NAME_1": "NA","GID_2": "KEN.38.1_1","county": "AlegoUsonga","NL_NAME_2": "NA","city": "NorthAlego","VARNAME_3": "NA","NL_NAME_3": "NA","TYPE_3": "Ward","ENGTYPE_3": "Ward","CC_3": "1167","HASC_3": "NA","name": "North_Alego.city","area_km2": 59.11163,"hist_schema_id": "Elevation0-9000","hist_area_km2": {"1200": 2.33224,"1225": 8.79889,"1250": 12.59408,"1275": 18.42469,"1300": 15.15955,"1325": 1.78098,"1350": 0.0212}}}