{"type":"Feature","properties":{"GID_3":"KEN.26.7.3_1","GID_0":"KEN","country":"Kenya","GID_1":"KEN.26_1","province":"Meru","NL_NAME_1":"NA","GID_2":"KEN.26.7_1","county":"SouthImenti","NL_NAME_2":"NA","city":"IgojiEast","VARNAME_3":"NA","NL_NAME_3":"NA","TYPE_3":"Ward","ENGTYPE_3":"Ward","CC_3":"291","HASC_3":"NA","name":"Igoji_East.city"},
"geometry":{"type": "MultiPolygon","coordinates": [[[[37.6518,-0.1352,1343.8556],[37.648,-0.1359,1360.3105],[37.6451,-0.1437,1548.0156],[37.6397,-0.1493,1605.2297],[37.6421,-0.1595,1466.7856],[37.6457,-0.1642,1396.2827],[37.6387,-0.1741,1563.049],[37.6439,-0.1748,1545.4536],[37.6467,-0.1807,1543.9382],[37.6499,-0.1817,1517.4286],[37.6511,-0.186,1493.761],[37.6547,-0.1856,1480.1924],[37.6563,-0.187,1462.4084],[37.6589,-0.1987,1356.8584],[37.6659,-0.2054,1305.9661],[37.6703,-0.207,1298.3668],[37.6839,-0.2072,1235.7209],[37.6891,-0.2035,1228.5322],[37.7199,-0.2025,1152.5718],[37.7315,-0.1988,1099.4125],[37.7389,-0.1914,1026.9081],[37.7373,-0.1872,1068.4071],[37.7441,-0.1832,1002.9937],[37.7465,-0.184,1008.5903],[37.7526,-0.1782,984.1673],[37.7554,-0.1684,965.1232],[37.758,-0.1664,952.231],[37.7623,-0.158,930.4987],[37.7577,-0.1573,938.0971],[37.7505,-0.1518,949.983],[37.7491,-0.1478,990.916],[37.7457,-0.1464,954.9687],[37.7403,-0.1507,978.4991],[37.7301,-0.1517,1017.7969],[37.7173,-0.1458,1101.0372],[37.7163,-0.1487,1079.8243],[37.7069,-0.1512,1169.9769],[37.7013,-0.1501,1169.1387],[37.6965,-0.1522,1167.3481],[37.6937,-0.1517,1177.9834],[37.6917,-0.149,1185.0959],[37.6873,-0.1488,1212.4062],[37.6807,-0.1524,1225.2258],[37.6755,-0.1481,1214.0558],[37.6595,-0.1441,1301.6882],[37.6518,-0.1352,1343.8556]]]]}}