{"type":"Feature","properties":{"GID_3":"KEN.43.4.5_1","GID_0":"KEN","country":"Kenya","GID_1":"KEN.43_1","province":"Turkana","NL_NAME_1":"NA","GID_2":"KEN.43.4_1","county":"TurkanaNorth","NL_NAME_2":"NA","city":"Lapur","VARNAME_3":"NA","NL_NAME_3":"NA","TYPE_3":"Ward","ENGTYPE_3":"Ward","CC_3":"613","HASC_3":"NA","name":"Lapur.city"},
"geometry":{"type": "MultiPolygon","coordinates": [[[[35.487,4.7455,1351.2583],[35.505,4.7322,1015.1399],[35.5238,4.7248,1276.271],[35.5103,4.7481,1237.667],[35.5056,4.7636,1489.9971],[35.4993,4.7674,1504.9841],[35.487,4.7455,1351.2583]]]]}}