{"type":"Feature","properties":{"GID_3":"KEN.4.2.3_1","GID_0":"KEN","country":"Kenya","GID_1":"KEN.4_1","province":"Busia","NL_NAME_1":"NA","GID_2":"KEN.4.2_1","county":"Butula","NL_NAME_2":"NA","city":"MarachiCentral","VARNAME_3":"NA","NL_NAME_3":"NA","TYPE_3":"Ward","ENGTYPE_3":"Ward","CC_3":"1144","HASC_3":"NA","name":"Marachi_Central.city"},
"geometry":{"type": "MultiPolygon","coordinates": [[[[34.2811,0.4041,1202.8992],[34.2802,0.4051,1197.8854],[34.2705,0.402,1220.489],[34.2521,0.3929,1230.7568],[34.2596,0.3902,1246.958],[34.2624,0.3865,1254.5962],[34.2634,0.3818,1254.572],[34.2586,0.3732,1251.6179],[34.2585,0.3702,1255.9441],[34.2626,0.3585,1266.0007],[34.263,0.3524,1267.4141],[34.2707,0.3395,1283.52],[34.26,0.3414,1280.3491],[34.2539,0.3407,1271.1536],[34.2422,0.3455,1243.5186],[34.2421,0.3367,1232.6304],[34.2399,0.3325,1246.3542],[34.2325,0.3399,1233.7747],[34.2297,0.3392,1241.848],[34.2288,0.3378,1249.8026],[34.2303,0.3322,1250.5437],[34.2253,0.329,1240.1844],[34.2299,0.3243,1259.4591],[34.235,0.315,1293.1318],[34.2374,0.3164,1294.6376],[34.2463,0.3145,1266.1587],[34.2513,0.3176,1258.0415],[34.2562,0.3168,1260.6705],[34.2657,0.3119,1283.8],[34.2765,0.3149,1301.3699],[34.2875,0.3119,1286.7902],[34.2942,0.3134,1273.2672],[34.2922,0.3229,1259.7275],[34.2927,0.332,1252.4427],[34.2888,0.3412,1254.3682],[34.2953,0.3492,1247.8828],[34.3006,0.36,1239.0309],[34.2931,0.3667,1217.105],[34.2908,0.3709,1210.6847],[34.2909,0.3764,1210.7971],[34.2847,0.3868,1205.2924],[34.285,0.3986,1202.4277],[34.2838,0.402,1213.1152],[34.2811,0.4041,1202.8992]]]]}}