{"type":"Feature","properties":{"GID_3":"KEN.4.1.4_1","GID_0":"KEN","country":"Kenya","GID_1":"KEN.4_1","province":"Busia","NL_NAME_1":"NA","GID_2":"KEN.4.1_1","county":"Budalangi","NL_NAME_2":"NA","city":"BunyalaWest","VARNAME_3":"NA","NL_NAME_3":"NA","TYPE_3":"Ward","ENGTYPE_3":"Ward","CC_3":"1154","HASC_3":"NA","name":"Bunyala_West.city"},
"geometry":{"type": "MultiPolygon","coordinates": [[[[33.9559,0.1696,1133.0],[33.912,0.111,1133.0],[33.9101,0.1067,1133.0],[33.9102,0.105,1133.0],[33.9126,0.1035,1249.4406],[33.9233,0.0667,1133.0],[33.9525,0.0702,1133.0],[33.9609,0.0688,1136.9543],[33.9621,0.07,1137.3737],[33.9637,0.0688,1137.3737],[33.9671,0.0739,1136.5051],[33.9698,0.0729,1136.2838],[33.9702,0.0789,1135.9164],[33.9725,0.0775,1136.842],[33.9766,0.0799,1138.001],[33.9781,0.0774,1137.9121],[33.9802,0.0814,1138.4985],[33.9844,0.0794,1137.2692],[33.985,0.0834,1137.745],[33.987,0.0843,1137.9568],[33.9864,0.0923,1141.377],[33.9881,0.0935,1139.9574],[33.9839,0.0954,1155.8809],[33.9867,0.099,1191.1875],[33.9922,0.1008,1152.7589],[33.9937,0.0963,1162.6979],[33.9969,0.0975,1137.906],[34.0069,0.1223,1137.9811],[33.9983,0.1409,1175.2979],[33.9559,0.1696,1133.0]]]]}}