{"type": "Feature","bbox": [38.6407,0.5079,39.4615,1.2107],"geometry": {"type": "MultiPolygon","coordinates": [[[[38.8055,0.5527,371.4511],[38.8161,0.5717,365.9625],[38.8247,0.5811,365.1253],[38.8319,0.5859,360.6061],[38.8387,0.5871,357.8043],[38.8607,0.6005,350.3074],[38.8719,0.6007,347.5701],[38.8759,0.5957,347.5841],[38.8861,0.5973,344.006],[38.8917,0.5961,341.5636],[38.8943,0.5981,340.9479],[38.9013,0.5973,338.9706],[38.9081,0.6003,337.4583],[38.9107,0.5997,336.7538],[38.9255,0.6069,331.9902],[38.9357,0.6251,326.4215],[38.9403,0.6285,324.4035],[38.9487,0.6267,324.0518],[38.9517,0.6285,322.5304],[38.9615,0.6247,321.783],[38.9757,0.6227,319.9932],[38.9803,0.6229,316.0901],[38.9861,0.6263,315.2009],[39.0103,0.6253,322.5645],[39.0123,0.6281,319.2375],[39.0127,0.6389,306.9644],[39.0145,0.6415,307.2634],[39.0209,0.6415,307.3306],[39.0239,0.6467,307.6625],[39.0227,0.6559,301.924],[39.0257,0.6631,300.9971],[39.0275,0.6653,300.6875],[39.0319,0.6653,301.3995],[39.0351,0.6671,299.6536],[39.0377,0.6729,298.063],[39.0461,0.6775,297.9746],[39.0489,0.6837,294.4881],[39.0519,0.6855,292.9003],[39.0581,0.6857,291.2682],[39.0619,0.6831,292.2087],[39.0669,0.6829,290.2513],[39.0723,0.6787,288.4739],[39.0783,0.6791,288.9533],[39.0839,0.6769,288.7395],[39.0895,0.6809,285.3832],[39.0981,0.6811,283.051],[39.0985,0.6867,283.0216],[39.1025,0.6895,281.8701],[39.1143,0.6913,279.7678],[39.1311,0.6883,275.9388],[39.1353,0.6909,274.4815],[39.1423,0.6913,287.4435],[39.1435,0.6979,275.2958],[39.1475,0.7055,270.3701],[39.1643,0.7143,273.6708],[39.1673,0.7187,269.6644],[39.1741,0.7201,271.7933],[39.1779,0.7257,267.6167],[39.1809,0.7231,266.8227],[39.1757,0.7279,263.4065],[39.1777,0.7437,259.4162],[39.1805,0.7519,259.4886],[39.2005,0.7895,251.1594],[39.2153,0.8051,245.381],[39.2247,0.8177,241.3561],[39.2371,0.8443,234.218],[39.2497,0.8597,228.7708],[39.2679,0.8759,223.438],[39.3137,0.9249,207.6092],[39.3359,0.9375,206.2875],[39.3553,0.9511,205.0535],[39.3957,0.9685,204.2806],[39.4545,0.9891,201.1147],[39.4615,0.9955,200.976],[39.4535,1.0035,201.4908],[39.4473,1.0129,202.3559],[39.4373,1.0205,203.4341],[39.4217,1.0293,204.7013],[39.4087,1.0421,207.8248],[39.3961,1.0501,207.7388],[39.3939,1.0531,207.3082],[39.3829,1.0577,207.7616],[39.3759,1.0575,210.4171],[39.3719,1.0621,209.9861],[39.3667,1.0645,209.4572],[39.3559,1.0627,211.0842],[39.3497,1.0637,211.3564],[39.3381,1.0723,214.607],[39.3329,1.0797,213.9942],[39.3271,1.0767,214.1625],[39.3205,1.0837,213.3292],[39.3005,1.0951,214.8509],[39.2973,1.0937,215.3026],[39.2839,1.0967,216.0806],[39.2781,1.0959,216.0911],[39.2709,1.1011,216.8463],[39.2641,1.1035,217.4781],[39.2481,1.1005,219.1506],[39.2387,1.1057,220.1762],[39.2293,1.1049,220.2487],[39.2187,1.1063,222.0787],[39.2109,1.1029,222.055],[39.2075,1.1047,222.0576],[39.1947,1.1051,223.097],[39.1895,1.1095,223.5401],[39.1869,1.1093,224.0549],[39.1799,1.1197,224.8431],[39.1771,1.1243,225.7262],[39.1795,1.1301,225.783],[39.1759,1.1353,226.689],[39.1661,1.1383,227.4448],[39.1601,1.1425,227.267],[39.1449,1.1625,229.9606],[39.1379,1.1667,230.6742],[39.1365,1.1703,230.5126],[39.1237,1.1701,232.3058],[39.1207,1.1713,233.2048],[39.1167,1.1779,231.9074],[39.0935,1.1795,234.5271],[39.0841,1.1863,237.5067],[39.0655,1.1855,237.7735],[39.0567,1.1917,237.3417],[39.0481,1.1965,238.5859],[39.0421,1.1977,239.3535],[39.0407,1.2005,239.6083],[39.0345,1.2029,240.3214],[39.0269,1.2035,243.7919],[39.0203,1.2013,244.4277],[39.0185,1.2037,242.9448],[39.0087,1.2077,244.7102],[39.0021,1.2091,244.6915],[38.9855,1.2069,244.7424],[38.9771,1.2107,245.602],[38.9693,1.2055,246.5078],[38.9673,1.2065,246.4847],[38.9667,1.2037,247.656],[38.9623,1.1987,246.8528],[38.9531,1.1945,247.3845],[38.9403,1.1921,249.0296],[38.9351,1.1959,249.2753],[38.9329,1.1953,252.1151],[38.9251,1.2037,251.5615],[38.9109,1.1905,251.8644],[38.9013,1.1899,254.6078],[38.9001,1.1921,253.2619],[38.8931,1.1939,253.355],[38.8835,1.1991,257.2347],[38.8742,1.1965,256.8983],[38.8614,1.1957,260.881],[38.8589,1.1991,258.3223],[38.8577,1.1929,259.8454],[38.8511,1.1945,260.9655],[38.8513,1.1921,260.6523],[38.8494,1.19,263.554],[38.8413,1.1887,263.0333],[38.8299,1.1797,264.9651],[38.8291,1.1841,263.0402],[38.8217,1.1815,263.0296],[38.8219,1.1779,264.3194],[38.8195,1.1783,263.2102],[38.8151,1.1705,263.7516],[38.8113,1.1695,263.4049],[38.8068,1.1647,263.2803],[38.7977,1.1639,264.637],[38.7963,1.1601,265.6304],[38.7927,1.1611,267.2023],[38.7915,1.1569,267.6777],[38.7875,1.1567,267.5385],[38.7863,1.1543,267.6797],[38.7839,1.1553,267.7128],[38.7825,1.1531,267.8524],[38.7789,1.1533,267.8734],[38.7771,1.1501,268.4963],[38.7777,1.1475,271.1497],[38.7739,1.1439,269.9385],[38.7717,1.1451,270.3713],[38.7717,1.1475,269.3959],[38.7657,1.1441,269.9445],[38.7641,1.1407,270.6151],[38.758,1.1413,270.374],[38.7549,1.1373,270.9667],[38.7565,1.1339,271.6668],[38.7493,1.1321,272.3904],[38.7467,1.1265,273.3989],[38.7443,1.1251,273.1068],[38.7435,1.1073,275.3081],[38.7411,1.1055,275.4454],[38.7367,1.1093,275.6695],[38.7285,1.1049,276.6467],[38.7321,1.0985,277.5686],[38.7289,1.0941,279.0086],[38.7239,1.0925,278.8472],[38.7231,1.0777,281.1922],[38.7191,1.0721,281.9735],[38.7155,1.0707,282.3633],[38.7099,1.0749,283.5233],[38.7025,1.0733,284.6581],[38.6995,1.0709,285.8151],[38.6965,1.0725,288.6806],[38.6941,1.0687,289.6024],[38.6885,1.0652,289.3615],[38.6889,1.0615,288.8915],[38.6875,1.0597,288.86],[38.6701,1.0497,291.0219],[38.6721,1.0439,292.3039],[38.6793,1.0361,292.3113],[38.6979,0.9923,293.8398],[38.7115,0.9645,295.5794],[38.7133,0.9573,295.0421],[38.7157,0.9557,294.4437],[38.7183,0.9249,298.1251],[38.7169,0.9119,303.0485],[38.7187,0.9001,308.6846],[38.7203,0.8921,311.0794],[38.7311,0.8729,316.0844],[38.7317,0.8495,325.6343],[38.7219,0.8305,334.6585],[38.7169,0.8089,344.0884],[38.7171,0.8007,346.4345],[38.7109,0.7819,358.6725],[38.7107,0.7757,360.5888],[38.7059,0.7663,370.447],[38.7085,0.7617,371.774],[38.7123,0.7601,370.569],[38.7461,0.7533,360.3311],[38.7559,0.7493,358.7388],[38.7647,0.7419,356.0049],[38.7737,0.7233,354.818],[38.7655,0.7073,361.4136],[38.7583,0.7051,368.8696],[38.7513,0.6987,370.9701],[38.7295,0.6909,388.7446],[38.7173,0.6765,402.4169],[38.7121,0.6745,405.7552],[38.7079,0.6705,410.8709],[38.7003,0.6681,418.3894],[38.6939,0.6609,425.1786],[38.6711,0.6467,448.0815],[38.6699,0.6437,445.1519],[38.6717,0.6291,455.2275],[38.6639,0.6067,459.7425],[38.6589,0.5839,466.3459],[38.6531,0.5761,482.3829],[38.6491,0.5753,491.3782],[38.6475,0.5725,496.2608],[38.6467,0.5245,443.0414],[38.6407,0.5157,444.9994],[38.6487,0.5153,438.3874],[38.6577,0.5091,430.4924],[38.6639,0.5107,436.3985],[38.6779,0.5097,428.1989],[38.6921,0.5117,417.5066],[38.7035,0.5079,414.291],[38.7081,0.5133,412.8884],[38.7211,0.5134,410.799],[38.7205,0.5241,405.5042],[38.7231,0.5261,414.0244],[38.7351,0.5203,402.6691],[38.7433,0.5249,401.0293],[38.7491,0.5253,398.9505],[38.7543,0.5219,397.4487],[38.7557,0.5167,396.549],[38.7651,0.5133,392.9948],[38.7677,0.5175,390.6144],[38.7755,0.5199,386.7503],[38.7837,0.5271,382.8434],[38.7917,0.5413,377.2418],[38.7991,0.5445,375.2417],[38.8017,0.5505,373.4733],[38.8055,0.5527,371.4511]]]]}
,"properties": {"GID_3": "KEN.9.2.3_1","GID_0": "KEN","country": "Kenya","GID_1": "KEN.9_1","province": "Isiolo","NL_NAME_1": "NA","GID_2": "KEN.9.2_1","county": "IsioloSouth","NL_NAME_2": "NA","city": "Sericho","VARNAME_3": "NA","NL_NAME_3": "NA","TYPE_3": "Ward","ENGTYPE_3": "Ward","CC_3": "250","HASC_3": "NA","name": "Sericho.city","area_km2": 3866.66,"hist_schema_id": "Elevation0-9000","hist_area_km2": {"200": 204.337,"225": 662.971,"250": 777.274,"275": 683.93,"300": 441.995,"325": 378.996,"350": 309.526,"375": 178.913,"400": 107.468,"425": 62.798,"450": 48.784,"475": 9.138,"500": 0.53}}}