{"type": "Feature","bbox": [39.4794,3.1577,39.7865,3.6865],"geometry": {"type": "MultiPolygon","coordinates": [[[[39.5361,3.4002,838.4358],[39.5301,3.3888,761.6937],[39.5122,3.338,693.0383],[39.5083,3.3221,676.7652],[39.4958,3.3233,670.428],[39.4941,3.3161,661.8314],[39.4915,3.2631,628.6458],[39.4794,3.1942,588.967],[39.4837,3.1913,590.5845],[39.5099,3.1847,613.4189],[39.5197,3.1789,614.2871],[39.5223,3.1773,616.7426],[39.5223,3.1703,616.5155],[39.5249,3.1643,616.4523],[39.5399,3.1577,618.4071],[39.5575,3.1587,628.3041],[39.5745,3.1681,639.4784],[39.5903,3.1691,647.7321],[39.5993,3.1605,665.415],[39.6017,3.1615,651.8553],[39.6065,3.1727,659.5731],[39.6185,3.1873,668.1722],[39.6415,3.2349,960.7189],[39.6475,3.2435,832.8079],[39.6773,3.2725,739.9459],[39.6879,3.2869,739.8477],[39.6921,3.2969,745.4702],[39.7477,3.3161,737.2166],[39.7525,3.3215,742.4152],[39.7681,3.3329,771.9917],[39.7781,3.3335,767.5109],[39.7819,3.3361,775.8804],[39.7865,3.3363,777.3726],[39.7853,3.6603,903.973],[39.7826,3.6579,910.9205],[39.7792,3.6865,879.4476],[39.771,3.6684,1173.2533],[39.7064,3.6047,882.382],[39.6165,3.5125,965.2042],[39.609,3.5026,1004.6971],[39.5819,3.4781,953.3156],[39.5786,3.4726,958.2864],[39.5647,3.4261,889.2709],[39.5589,3.4124,940.0661],[39.5439,3.4015,1065.2358],[39.5361,3.4002,838.4358]]]]}
,"properties": {"GID_3": "KEN.46.4.5_1","GID_0": "KEN","country": "Kenya","GID_1": "KEN.46_1","province": "Wajir","NL_NAME_1": "NA","GID_2": "KEN.46.4_1","county": "WajirNorth","NL_NAME_2": "NA","city": "Gurar","VARNAME_3": "NA","NL_NAME_3": "NA","TYPE_3": "Ward","ENGTYPE_3": "Ward","CC_3": "161","HASC_3": "NA","name": "Gurar.city","area_km2": 1041.1524,"hist_schema_id": "Elevation0-9000","hist_area_km2": {"600": 16.5118,"625": 43.3753,"650": 49.1322,"675": 42.569,"700": 36.4084,"725": 26.1417,"750": 52.8543,"775": 59.2454,"800": 122.0785,"825": 154.7489,"850": 145.3068,"875": 102.6856,"900": 73.2477,"925": 47.9785,"950": 23.6826,"975": 10.688,"1000": 7.0901,"1025": 4.5927,"1050": 4.9949,"1075": 4.0423,"1100": 3.7038,"1125": 2.3492,"1150": 2.0952,"1175": 2.201,"1200": 1.6719,"1225": 1.0582,"1250": 0.5715,"1275": 0.0846,"1300": 0.0423}}}