{"type": "Feature","bbox": [39.3325,3.0615,39.5361,3.4662],"geometry": {"type": "MultiPolygon","coordinates": [[[[39.334,3.4662,941.0732],[39.3325,3.4343,727.316],[39.3348,3.3889,679.4928],[39.3823,3.3842,679.2833],[39.3811,3.3755,671.8787],[39.3755,3.3633,661.36],[39.3749,3.3547,650.1932],[39.3768,3.3502,647.6937],[39.3843,3.3429,641.9668],[39.3877,3.3253,632.6464],[39.3815,3.2929,618.2877],[39.3821,3.2639,616.5212],[39.3981,3.2233,618.1495],[39.4159,3.1901,588.981],[39.4243,3.1805,583.905],[39.4273,3.1725,581.0358],[39.4243,3.1691,581.0284],[39.4237,3.1589,578.5497],[39.4183,3.1491,576.0141],[39.4187,3.1363,571.8447],[39.4153,3.1289,571.0209],[39.4177,3.1145,566.535],[39.4223,3.1049,567.0158],[39.4427,3.0829,558.9987],[39.4435,3.0791,559.0104],[39.4497,3.0761,555.9789],[39.4489,3.0725,557.4893],[39.4523,3.0699,554.575],[39.4539,3.0615,555.471],[39.4556,3.0617,553.5159],[39.4539,3.0653,554.5599],[39.4669,3.0648,556.1432],[39.4698,3.0673,557.498],[39.4735,3.0674,563.9614],[39.4793,3.1937,588.8041],[39.4915,3.2631,628.6458],[39.4941,3.3161,661.8314],[39.4958,3.3233,670.428],[39.5083,3.3221,676.7652],[39.5122,3.338,693.0383],[39.5301,3.3888,761.6937],[39.5361,3.4002,838.4358],[39.5274,3.3988,779.5085],[39.5161,3.4044,783.6873],[39.5116,3.4104,1004.4329],[39.4984,3.4538,971.8607],[39.4937,3.4575,973.0873],[39.486,3.4595,1248.587],[39.4675,3.4566,1148.0432],[39.4237,3.4571,880.3988],[39.4156,3.4623,858.1072],[39.4056,3.4646,912.3875],[39.334,3.4662,941.0732]]]]}
,"properties": {"GID_3": "KEN.46.4.2_1","GID_0": "KEN","country": "Kenya","GID_1": "KEN.46_1","province": "Wajir","NL_NAME_1": "NA","GID_2": "KEN.46.4_1","county": "WajirNorth","NL_NAME_2": "NA","city": "Bute","VARNAME_3": "NA","NL_NAME_3": "NA","TYPE_3": "Ward","ENGTYPE_3": "Ward","CC_3": "162","HASC_3": "NA","name": "Bute.city","area_km2": 507.8528,"hist_schema_id": "Elevation0-9000","hist_area_km2": {"550": 10.0988,"575": 60.2508,"600": 66.4061,"625": 61.2165,"650": 50.1649,"675": 43.9827,"700": 48.9762,"725": 40.2976,"750": 25.6091,"775": 12.2121,"800": 8.6353,"825": 8.0638,"850": 7.5135,"875": 7.3442,"900": 6.7516,"925": 7.1748,"950": 6.2647,"975": 5.7568,"1000": 6.5188,"1025": 5.0795,"1050": 3.344,"1075": 3.3864,"1100": 3.217,"1125": 2.2646,"1150": 2.18,"1175": 1.4604,"1200": 1.0371,"1225": 0.6773,"1250": 0.8466,"1275": 0.7196,"1300": 0.1905,"1325": 0.127,"1350": 0.0423,"1375": 0.0423}}}