{"type": "Feature","bbox": [37.144,-0.685,37.2423,-0.5167],"geometry": {"type": "MultiPolygon","coordinates": [[[[37.2368,-0.6351,1224.145],[37.2308,-0.6288,1246.2134],[37.2271,-0.6222,1253.9344],[37.2181,-0.6028,1284.9604],[37.2169,-0.5967,1291.2072],[37.2156,-0.597,1291.2072],[37.2138,-0.5944,1286.0007],[37.212,-0.587,1285.002],[37.2044,-0.5867,1345.7251],[37.1958,-0.5903,1311.5791],[37.1953,-0.5877,1372.1881],[37.1904,-0.5825,1334.566],[37.1892,-0.5773,1351.5698],[37.1855,-0.5739,1347.9622],[37.185,-0.5679,1362.5991],[37.1818,-0.569,1351.1653],[37.1817,-0.5673,1360.9187],[37.1843,-0.5656,1355.3395],[37.184,-0.5633,1359.4548],[37.181,-0.5639,1358.678],[37.1804,-0.5621,1361.6501],[37.1744,-0.5598,1469.3945],[37.1696,-0.554,1551.4688],[37.1644,-0.5526,1524.3749],[37.1637,-0.5489,1579.1675],[37.1666,-0.5415,1559.0452],[37.1598,-0.5328,1549.6354],[37.1603,-0.5261,1614.262],[37.159,-0.526,1624.7961],[37.157,-0.5214,1614.9034],[37.1501,-0.5183,1627.1694],[37.1496,-0.5167,1653.4468],[37.1453,-0.5224,1645.6532],[37.148,-0.5336,1616.407],[37.1462,-0.538,1578.245],[37.1498,-0.549,1517.8862],[37.1484,-0.5587,1463.8206],[37.1447,-0.5573,1480.5527],[37.144,-0.5634,1429.3469],[37.1453,-0.5663,1418.1344],[37.1492,-0.5675,1463.2769],[37.1505,-0.5713,1367.6865],[37.1496,-0.5752,1338.3312],[37.16,-0.587,1404.7621],[37.1662,-0.5886,1343.9004],[37.1682,-0.586,1423.1594],[37.1697,-0.5924,1239.0646],[37.1783,-0.5956,1362.4514],[37.1799,-0.6054,1233.8002],[37.1787,-0.6101,1269.7454],[37.1759,-0.61,1331.2653],[37.174,-0.6118,1276.1382],[37.1766,-0.6148,1225.1206],[37.1733,-0.6162,1260.0271],[37.1713,-0.6228,1238.7081],[37.1751,-0.6267,1247.4308],[37.173,-0.6276,1215.6399],[37.1707,-0.6263,1242.132],[37.1685,-0.633,1241.3184],[37.1707,-0.6363,1209.6478],[37.1724,-0.6364,1240.3064],[37.1703,-0.6379,1209.6478],[37.172,-0.6391,1209.9126],[37.1691,-0.644,1213.8981],[37.175,-0.6455,1239.9177],[37.1772,-0.6498,1230.0911],[37.1768,-0.6522,1220.3851],[37.1793,-0.6537,1214.6934],[37.1808,-0.6603,1206.4144],[37.1786,-0.6619,1205.7517],[37.1827,-0.6616,1205.6754],[37.1833,-0.6592,1206.1627],[37.1849,-0.6621,1205.78],[37.1884,-0.6597,1205.8551],[37.1901,-0.6616,1205.734],[37.197,-0.6582,1210.3969],[37.2012,-0.6588,1204.7576],[37.204,-0.6712,1196.9265],[37.2106,-0.6769,1192.8677],[37.2144,-0.685,1189.1096],[37.2253,-0.6681,1181.2976],[37.2284,-0.6675,1176.6497],[37.2335,-0.6622,1165.5044],[37.2379,-0.6625,1167.286],[37.2362,-0.6636,1165.1797],[37.2379,-0.6665,1162.5978],[37.2367,-0.6725,1159.0712],[37.2386,-0.6749,1155.4087],[37.2423,-0.6678,1164.8989],[37.2423,-0.6636,1167.0836],[37.2326,-0.6453,1208.74],[37.2345,-0.6364,1227.3578],[37.2368,-0.6351,1224.145]]]]}
,"properties": {"GID_3": "KEN.15.4.1_1","GID_0": "KEN","country": "Kenya","GID_1": "KEN.15_1","province": "Kirinyaga","NL_NAME_1": "NA","GID_2": "KEN.15.4_1","county": "Ndia","NL_NAME_2": "NA","city": "Kariti","VARNAME_3": "NA","NL_NAME_3": "NA","TYPE_3": "Ward","ENGTYPE_3": "Ward","CC_3": "511","HASC_3": "NA","name": "Kariti.city","area_km2": 73.10102,"hist_schema_id": "Elevation0-9000","hist_area_km2": {"1150": 0.40281,"1175": 2.26848,"1200": 11.68165,"1225": 12.95374,"1250": 10.85488,"1275": 6.80553,"1300": 3.85858,"1325": 2.52293,"1350": 2.73494,"1375": 2.56533,"1400": 1.50528,"1425": 1.48408,"1450": 1.9293,"1475": 1.92931,"1500": 1.8445,"1525": 1.7173,"1550": 1.84451,"1575": 1.42048,"1600": 1.44169,"1625": 0.84805,"1650": 0.36042,"1675": 0.12721}}}