{"type":"Feature","properties":{"GID_3":"KEN.16.7.6_1","GID_0":"KEN","country":"Kenya","GID_1":"KEN.16_1","province":"Kisii","NL_NAME_1":"NA","GID_2":"KEN.16.7_1","county":"NyaribariChache","NL_NAME_2":"NA","city":"KisiiCentral","VARNAME_3":"NA","NL_NAME_3":"NA","TYPE_3":"Ward","ENGTYPE_3":"Ward","CC_3":"1332","HASC_3":"NA","name":"Kisii_Central.city"},
"geometry":{"type": "MultiPolygon","coordinates": [[[[34.7519,-0.7159,1721.6652],[34.7607,-0.7192,1773.7048],[34.7702,-0.7198,1797.7827],[34.7784,-0.7135,1849.6719],[34.7766,-0.7136,1794.3854],[34.7759,-0.7117,1791.8761],[34.7779,-0.7071,1816.5211],[34.7742,-0.7032,1752.0796],[34.7751,-0.7006,1725.9105],[34.7733,-0.6907,1740.3123],[34.7775,-0.6851,1684.0293],[34.7774,-0.6811,1687.7997],[34.7804,-0.6826,1706.9081],[34.7824,-0.6791,1714.8973],[34.777,-0.6768,1681.6816],[34.7756,-0.6736,1643.3875],[34.7786,-0.6716,1652.4072],[34.7736,-0.6598,1684.9818],[34.7654,-0.6568,1704.9178],[34.7596,-0.6676,1604.55],[34.7626,-0.6712,1622.2662],[34.7602,-0.6737,1670.2272],[34.7568,-0.674,1677.9448],[34.7557,-0.6771,1786.7081],[34.7528,-0.6789,1812.6401],[34.7496,-0.6888,1698.9722],[34.7457,-0.6919,1659.375],[34.7464,-0.7088,1655.1228],[34.7475,-0.7122,1669.6659],[34.7519,-0.7159,1721.6652]]]]}}