{"type": "Feature","bbox": [35.0548,-1.0323,35.1966,-0.9286],"geometry": {"type": "MultiPolygon","coordinates": [[[[35.1164,-0.9286,1778.6221],[35.1137,-0.9303,1775.6709],[35.1102,-0.9294,1780.8013],[35.1078,-0.9341,1776.319],[35.1031,-0.9336,1773.1924],[35.1008,-0.9373,1777.9603],[35.0968,-0.9372,1779.7903],[35.0922,-0.9401,1780.3923],[35.0842,-0.9486,1765.6482],[35.0738,-0.9514,1769.905],[35.0731,-0.9552,1770.219],[35.0694,-0.9595,1765.6578],[35.0585,-0.9647,1768.5521],[35.055,-0.9682,1761.9661],[35.0548,-0.9717,1755.9576],[35.094,-1.002,1810.1334],[35.1209,-1.0134,1835.1261],[35.1231,-1.0161,1827.6381],[35.1287,-1.0174,1816.5872],[35.1335,-1.0212,1824.6693],[35.1421,-1.0235,1815.509],[35.1429,-1.0253,1810.3951],[35.1467,-1.0252,1817.7552],[35.1504,-1.0279,1806.7731],[35.1528,-1.0323,1789.9066],[35.1864,-1.0053,1793.7073],[35.1966,-0.9946,1789.967],[35.1164,-0.9286,1778.6221]]]]}
,"properties": {"GID_3": "KEN.33.1.2_1","GID_0": "KEN","country": "Kenya","GID_1": "KEN.33_1","province": "Narok","NL_NAME_1": "NA","GID_2": "KEN.33.1_1","county": "EmuruaDikirr","NL_NAME_2": "NA","city": "Kapsasian","VARNAME_3": "NA","NL_NAME_3": "NA","TYPE_3": "Ward","ENGTYPE_3": "Ward","CC_3": "890","HASC_3": "NA","name": "Kapsasian.city","area_km2": 91.38933,"hist_schema_id": "Elevation0-9000","hist_area_km2": {"1750": 3.09508,"1775": 22.38635,"1800": 25.31171,"1825": 26.13842,"1850": 14.45777}}}