{"type": "Feature","bbox": [39.7792,3.5773,40.1091,3.9332],"geometry": {"type": "MultiPolygon","coordinates": [[[[39.7792,3.6865,879.4476],[39.7826,3.6579,910.9205],[39.7853,3.6603,903.973],[39.7853,3.6253,851.3494],[39.8137,3.6257,807.6207],[39.8395,3.6299,792.991],[39.8589,3.6289,789.6459],[39.8673,3.6321,793.387],[39.8827,3.6509,858.2872],[39.8859,3.6529,872.0063],[39.8967,3.6565,888.1966],[39.9161,3.6569,817.3684],[39.9143,3.6505,833.1697],[39.9057,3.6353,813.8995],[39.8899,3.6119,765.1047],[39.8827,3.6041,780.3375],[39.8813,3.6009,786.5037],[39.8819,3.5969,803.5655],[39.8903,3.5897,827.9916],[39.9163,3.5783,785.8171],[39.9327,3.5773,769.1757],[39.9371,3.5775,751.6185],[39.9405,3.5819,745.1562],[39.9463,3.5933,728.0569],[39.9473,3.5987,724.3955],[39.9529,3.5949,719.739],[39.9677,3.5891,710.733],[39.9869,3.5851,699.5352],[39.9927,3.5779,694.2786],[39.9911,3.5967,702.2419],[39.9857,3.6161,710.2061],[39.9846,3.6784,744.8569],[40.0025,3.6907,710.4667],[40.0229,3.7085,701.4289],[40.0997,3.7693,686.842],[40.1003,3.7803,692.2907],[40.1065,3.7925,692.439],[40.1091,3.8065,696.7336],[40.1007,3.8169,699.701],[40.0981,3.8291,705.0013],[40.0951,3.8331,704.7589],[40.0881,3.8367,707.5058],[40.0759,3.8359,709.9525],[40.0671,3.8409,715.4036],[40.0651,3.8435,715.64],[40.0535,3.8461,719.6667],[40.0485,3.8525,725.451],[40.0379,3.8549,726.7017],[40.0335,3.8597,723.8767],[40.0335,3.8637,724.0714],[40.0289,3.8673,726.22],[40.0319,3.8683,725.5413],[40.0215,3.8701,733.8867],[40.0191,3.8725,730.0014],[40.0129,3.8815,732.7119],[40.0183,3.8933,737.7958],[40.0175,3.9019,740.904],[40.0161,3.9045,746.155],[40.0097,3.9071,758.1415],[39.99,3.9227,808.447],[39.9914,3.9332,756.5716],[39.8619,3.8641,860.8292],[39.8543,3.8462,821.4185],[39.8366,3.8133,840.4786],[39.7792,3.6865,879.4476]]]]}
,"properties": {"GID_3": "KEN.24.6.2_1","GID_0": "KEN","country": "Kenya","GID_1": "KEN.24_1","province": "Mandera","NL_NAME_1": "NA","GID_2": "KEN.24.6_1","county": "ManderaWest","NL_NAME_2": "NA","city": "Gither","VARNAME_3": "NA","NL_NAME_3": "NA","TYPE_3": "Ward","ENGTYPE_3": "Ward","CC_3": "195","HASC_3": "NA","name": "Gither.city","area_km2": 803.7642,"hist_schema_id": "Elevation0-9000","hist_area_km2": {"675": 0.2116,"700": 77.8573,"725": 174.8363,"750": 148.9002,"775": 131.8893,"800": 152.7954,"825": 78.8519,"850": 18.6825,"875": 10.0712,"900": 5.0143,"925": 2.0311,"950": 1.3751,"975": 0.6346,"1000": 0.4442,"1025": 0.1692}}}