{"type":"Feature","properties":{"GID_3":"KEN.24.5.1_1","GID_0":"KEN","country":"Kenya","GID_1":"KEN.24_1","province":"Mandera","NL_NAME_1":"NA","GID_2":"KEN.24.5_1","county":"ManderaSouth","NL_NAME_2":"NA","city":"ElwakSouth","VARNAME_3":"NA","NL_NAME_3":"NA","TYPE_3":"Ward","ENGTYPE_3":"Ward","CC_3":"208","HASC_3":"NA","name":"Elwak_South.city"},
"geometry":{"type": "MultiPolygon","coordinates": [[[[40.9873,2.7365,385.5009],[40.986,2.8025,382.1128],[40.9763,2.8063,381.5695],[40.9595,2.8061,381.2741],[40.9457,2.8079,381.152],[40.9392,2.8111,381.443],[40.9327,2.8083,381.9849],[40.9309,2.8115,383.098],[40.9297,2.8343,381.6108],[40.9329,2.8445,382.5122],[40.9397,2.856,381.9506],[40.9416,2.901,385.8578],[40.9213,2.8877,388.7009],[40.9133,2.8859,389.6253],[40.9056,2.8757,387.3294],[40.8957,2.8699,385.6249],[40.8878,2.8592,388.222],[40.8788,2.8539,388.2213],[40.8748,2.8389,387.064],[40.8774,2.8215,387.3488],[40.8729,2.8033,387.604],[40.8725,2.7841,387.4676],[40.8849,2.7575,386.9372],[40.9119,2.7311,386.2128],[40.9269,2.7131,387.4417],[40.9827,2.7307,385.1915],[40.9873,2.7365,385.5009]]]]}}