{"type":"Feature","properties":{"GID_3":"KEN.7.2.5_1","GID_0":"KEN","country":"Kenya","GID_1":"KEN.7_1","province":"Garissa","NL_NAME_1":"NA","GID_2":"KEN.7.2_1","county":"Daadab","NL_NAME_2":"NA","city":"Labasigale","VARNAME_3":"NA","NL_NAME_3":"NA","TYPE_3":"Ward","ENGTYPE_3":"Ward","CC_3":"148","HASC_3":"NA","name":"Labasigale.city"},
"geometry":{"type": "MultiPolygon","coordinates": [[[[40.2014,0.1057,134.7278],[40.329,0.104,121.6713],[40.3223,0.1153,123.4165],[40.3301,0.1389,122.287],[40.3221,0.1653,123.7633],[40.322,0.1748,123.4682],[40.3283,0.1874,122.5983],[40.3425,0.1987,122.0435],[40.3394,0.1987,122.4285],[40.3432,0.2027,122.7847],[40.3289,0.2042,126.1684],[40.2998,0.2236,124.4075],[40.2596,0.2413,126.7861],[40.2382,0.2536,128.1127],[40.2144,0.2734,131.9995],[40.1766,0.3159,144.7666],[40.1752,0.3132,140.8767],[40.1766,0.3119,136.133],[40.1563,0.2714,135.4902],[40.0597,0.1075,169.7875],[40.2014,0.1057,134.7278]]]]}}