{"type": "Feature","bbox": [34.4398,-1.1249,34.5082,-1.0425],"geometry": {"type": "MultiPolygon","coordinates": [[[[34.5062,-1.101,1398.2664],[34.4969,-1.1007,1392.2299],[34.4962,-1.0986,1397.511],[34.4877,-1.0976,1375.5281],[34.4824,-1.0912,1385.1504],[34.4782,-1.09,1377.9364],[34.4786,-1.088,1378.6212],[34.4717,-1.0906,1364.9606],[34.4733,-1.0855,1368.0228],[34.4716,-1.0859,1375.1499],[34.4695,-1.0833,1388.7139],[34.4734,-1.0803,1362.6289],[34.4752,-1.0816,1372.1476],[34.4764,-1.0787,1385.5255],[34.4757,-1.077,1383.6733],[34.4732,-1.0773,1378.5515],[34.4731,-1.074,1373.6284],[34.4695,-1.0712,1364.9656],[34.4717,-1.0611,1370.6062],[34.468,-1.0599,1355.9032],[34.4669,-1.057,1378.7593],[34.4644,-1.0559,1357.8167],[34.4633,-1.0521,1365.767],[34.4643,-1.0498,1394.0015],[34.4604,-1.0457,1406.6204],[34.4601,-1.0494,1384.4634],[34.4572,-1.0514,1369.623],[34.4502,-1.0465,1391.6965],[34.4476,-1.0471,1368.3284],[34.446,-1.0436,1383.6587],[34.4415,-1.0425,1360.2823],[34.4398,-1.0543,1366.1907],[34.4405,-1.0691,1422.4377],[34.4434,-1.0773,1386.4722],[34.449,-1.0858,1396.885],[34.4536,-1.0879,1396.2412],[34.4519,-1.0966,1397.0492],[34.4543,-1.1065,1405.0319],[34.4525,-1.1109,1404.491],[34.4423,-1.1166,1413.6947],[34.4424,-1.1227,1433.4603],[34.4489,-1.1194,1412.0874],[34.4632,-1.1183,1388.5127],[34.4735,-1.1193,1395.5507],[34.4765,-1.1212,1395.3071],[34.4766,-1.1249,1394.1539],[34.4799,-1.1249,1389.49],[34.4811,-1.1239,1401.2441],[34.4801,-1.1213,1390.1594],[34.4846,-1.1161,1402.2703],[34.4897,-1.1155,1391.922],[34.5082,-1.1057,1387.5988],[34.5062,-1.101,1398.2664]]]]}
,"properties": {"GID_3": "KEN.27.7.1_1","GID_0": "KEN","country": "Kenya","GID_1": "KEN.27_1","province": "Migori","NL_NAME_1": "NA","GID_2": "KEN.27.7_1","county": "SunaWest","NL_NAME_2": "NA","city": "Ragana-Oruba","VARNAME_3": "NA","NL_NAME_3": "NA","TYPE_3": "Ward","ENGTYPE_3": "Ward","CC_3": "1275","HASC_3": "NA","name": "Ragana-Oruba.city","area_km2": 30.35608,"hist_schema_id": "Elevation0-9000","hist_area_km2": {"1325": 0.44517,"1350": 2.62862,"1375": 12.54943,"1400": 11.4047,"1425": 2.94658,"1450": 0.38157}}}