{"type": "Feature","bbox": [34.2306,0.0271,34.3312,0.0848],"geometry": {"type": "MultiPolygon","coordinates": [[[[34.2331,0.0379,1258.369],[34.2391,0.0389,1266.3113],[34.2523,0.0463,1267.7913],[34.2553,0.0436,1258.4922],[34.2585,0.0366,1229.6758],[34.2609,0.0375,1233.2084],[34.2682,0.0358,1221.0111],[34.277,0.0309,1275.0842],[34.2832,0.0319,1293.8125],[34.2846,0.0271,1298.4106],[34.2864,0.0296,1301.0494],[34.2921,0.0279,1308.4312],[34.296,0.0322,1319.1469],[34.2968,0.0369,1300.5977],[34.2898,0.0422,1267.7982],[34.2909,0.0456,1280.2222],[34.2889,0.0487,1295.6382],[34.2923,0.0522,1315.4258],[34.3006,0.051,1311.7295],[34.3023,0.0542,1321.6559],[34.3051,0.0546,1326.5547],[34.3107,0.0504,1329.677],[34.3112,0.0475,1328.5824],[34.315,0.0466,1332.4523],[34.3186,0.0508,1305.6807],[34.327,0.052,1335.911],[34.3312,0.061,1321.5769],[34.3273,0.0629,1307.5469],[34.3299,0.0648,1302.0171],[34.3267,0.0692,1324.4958],[34.3235,0.0709,1322.0321],[34.3121,0.0685,1314.1506],[34.3093,0.0726,1314.7478],[34.3066,0.0739,1309.9452],[34.3016,0.0743,1287.5906],[34.2979,0.0722,1267.0879],[34.2978,0.0734,1267.0879],[34.2911,0.0755,1294.6375],[34.2891,0.0782,1292.8483],[34.2863,0.075,1291.5668],[34.2851,0.0806,1294.3103],[34.2819,0.0773,1294.5328],[34.2805,0.0782,1297.7681],[34.2776,0.0766,1312.7612],[34.2747,0.0805,1306.1522],[34.2635,0.0803,1266.1819],[34.2634,0.0848,1257.1875],[34.256,0.0824,1240.1064],[34.2517,0.0831,1235.3567],[34.2429,0.0797,1245.7258],[34.2433,0.0718,1230.2073],[34.2396,0.0661,1244.6597],[34.2402,0.059,1245.0818],[34.2317,0.0567,1224.114],[34.2325,0.0546,1219.2866],[34.2306,0.0498,1204.1465],[34.2343,0.0427,1242.8932],[34.2331,0.0379,1258.369]]]]}
,"properties": {"GID_3": "KEN.38.1.3_1","GID_0": "KEN","country": "Kenya","GID_1": "KEN.38_1","province": "Siaya","NL_NAME_1": "NA","GID_2": "KEN.38.1_1","county": "AlegoUsonga","NL_NAME_2": "NA","city": "SiayaTownship","VARNAME_3": "NA","NL_NAME_3": "NA","TYPE_3": "Ward","ENGTYPE_3": "Ward","CC_3": "1166","HASC_3": "NA","name": "Siaya_Township.city","area_km2": 39.07565,"hist_schema_id": "Elevation0-9000","hist_area_km2": {"1200": 0.33924,"1225": 4.91891,"1250": 9.03214,"1275": 8.58689,"1300": 11.00394,"1325": 5.02492,"1350": 0.10601,"1375": 0.06361}}}