{"type": "Feature","bbox": [34.3489,0.0778,34.4845,0.1619],"geometry": {"type": "MultiPolygon","coordinates": [[[[34.4247,0.1564,1296.1013],[34.4203,0.1577,1300.5735],[34.4169,0.1486,1308.0282],[34.4166,0.1422,1320.306],[34.4141,0.14,1328.5222],[34.4065,0.1471,1313.4465],[34.3893,0.1581,1308.8003],[34.3866,0.1577,1299.4125],[34.3821,0.1523,1321.4019],[34.3669,0.1494,1261.8936],[34.3619,0.1459,1279.9058],[34.3489,0.1431,1241.7593],[34.3524,0.1338,1227.7283],[34.3576,0.131,1255.4075],[34.3611,0.1252,1246.486],[34.3644,0.0997,1256.4449],[34.369,0.0931,1280.8489],[34.3787,0.0849,1307.8365],[34.3778,0.0808,1289.9102],[34.3792,0.0778,1287.902],[34.3839,0.0783,1327.1299],[34.384,0.0805,1345.4675],[34.3949,0.0807,1345.332],[34.3968,0.0852,1357.3486],[34.4104,0.0975,1389.6936],[34.414,0.0974,1392.8773],[34.4152,0.0932,1370.228],[34.4203,0.0939,1412.8484],[34.4223,0.0893,1402.4886],[34.4216,0.0862,1382.2433],[34.445,0.0989,1436.6667],[34.4507,0.0971,1429.7979],[34.4608,0.1016,1407.7589],[34.4642,0.0975,1391.6305],[34.4699,0.1049,1414.1526],[34.474,0.1072,1431.2174],[34.4741,0.1171,1405.8099],[34.4788,0.1174,1433.8237],[34.4788,0.1198,1440.3311],[34.4753,0.1228,1423.8208],[34.4641,0.127,1384.5453],[34.4575,0.1276,1342.1648],[34.4562,0.1347,1378.2759],[34.4726,0.1351,1415.0609],[34.4789,0.1411,1372.5249],[34.4832,0.1428,1374.9839],[34.4845,0.1453,1371.9802],[34.4823,0.1495,1336.0964],[34.4818,0.1557,1361.6765],[34.4749,0.1608,1355.0128],[34.4673,0.1619,1336.4971],[34.4627,0.1584,1346.661],[34.4529,0.1578,1354.9089],[34.4458,0.1547,1342.0374],[34.4432,0.1518,1338.3215],[34.4339,0.1496,1314.1724],[34.4247,0.1564,1296.1013]]]]}
,"properties": {"GID_3": "KEN.38.3.3_1","GID_0": "KEN","country": "Kenya","GID_1": "KEN.38_1","province": "Siaya","NL_NAME_1": "NA","GID_2": "KEN.38.3_1","county": "Gem","NL_NAME_2": "NA","city": "NorthGem","VARNAME_3": "NA","NL_NAME_3": "NA","TYPE_3": "Ward","ENGTYPE_3": "Ward","CC_3": "1169","HASC_3": "NA","name": "North_Gem.city","area_km2": 86.03835,"hist_schema_id": "Elevation0-9000","hist_area_km2": {"1225": 0.36044,"1250": 3.87999,"1275": 8.48086,"1300": 15.58358,"1325": 18.33986,"1350": 13.14534,"1375": 12.42447,"1400": 8.03562,"1425": 5.55497,"1450": 0.21202,"1475": 0.0212}}}