{"type":"Feature","properties":{"GID_3":"KEN.31.6.2_1","GID_0":"KEN","country":"Kenya","GID_1":"KEN.31_1","province":"Nakuru","NL_NAME_1":"NA","GID_2":"KEN.31.6_1","county":"Naivasha","NL_NAME_2":"NA","city":"HellsGate","VARNAME_3":"NA","NL_NAME_3":"NA","TYPE_3":"Ward","ENGTYPE_3":"Ward","CC_3":"837","HASC_3":"NA","name":"Hells_Gate.city"},
"geometry":{"type": "MultiPolygon","coordinates": [[[[36.3944,-0.734,1882.0],[36.3521,-0.7343,1882.0],[36.3792,-0.8127,1882.0],[36.3831,-0.8175,1896.8597],[36.3848,-0.8241,1900.0281],[36.3955,-0.8428,1962.2544],[36.4079,-0.8515,2013.0283],[36.4286,-0.8902,2125.1143],[36.4575,-0.8783,2133.5718],[36.4756,-0.857,2129.7644],[36.461,-0.8469,2080.5884],[36.4544,-0.8296,2057.0583],[36.4973,-0.8152,2209.5],[36.5135,-0.8291,2314.0115],[36.5174,-0.808,2307.5845],[36.5114,-0.7732,2219.1401],[36.4807,-0.7553,2111.6606],[36.4674,-0.7454,2065.635],[36.4606,-0.7379,2018.2233],[36.4558,-0.7398,2012.1052],[36.4283,-0.7434,1893.304],[36.3945,-0.7434,1882.0],[36.3944,-0.734,1882.0]]]]}}