{"type":"Feature","properties":{"GID_3":"KEN.14.6.4_1","GID_0":"KEN","country":"Kenya","GID_1":"KEN.14_1","province":"Kilifi","NL_NAME_1":"NA","GID_2":"KEN.14.6_1","county":"Malindi","NL_NAME_2":"NA","city":"MalindiTown","VARNAME_3":"NA","NL_NAME_3":"NA","TYPE_3":"Ward","ENGTYPE_3":"Ward","CC_3":"78","HASC_3":"NA","name":"Malindi_Town.city"},
"geometry":{"type": "MultiPolygon","coordinates": [[[[40.0973,-3.2335,28.4146],[40.1179,-3.2146,6.2996],[40.1232,-3.2139,1.2635],[40.1218,-3.2104,1.7675],[40.1099,-3.208,12.5393],[40.1049,-3.2024,18.642],[40.0945,-3.1985,28.6071],[40.0751,-3.188,53.4764],[40.0711,-3.1885,24.2098],[40.0693,-3.1949,41.624],[40.0689,-3.2058,38.9643],[40.0657,-3.2117,43.7066],[40.0653,-3.2186,45.1097],[40.0695,-3.2316,36.6131],[40.0735,-3.2301,37.5991],[40.0795,-3.2438,30.615],[40.0933,-3.2371,30.4275],[40.0973,-3.2335,28.4146]]]]}}