{"type":"Feature","properties":{"GID_2":"KEN.27.3_1","GID_0":"KEN","country":"Kenya","GID_1":"KEN.27_1","province":"Migori","NL_NAME_1":"NA","county":"KuriaWest","VARNAME_2":"NA","NL_NAME_2":"NA","TYPE_2":"Constituency","ENGTYPE_2":"Constituency","CC_2":"259","HASC_2":"NA","name":"Kuria_West.county"},
"geometry":{"type": "MultiPolygon","coordinates": [[[[34.4781,-1.2461,1665.7622],[34.498,-1.2573,1570.6494],[34.4992,-1.2521,1564.5321],[34.5142,-1.2606,1577.0056],[34.5267,-1.2512,1518.8838],[34.5296,-1.238,1508.114],[34.5289,-1.2296,1507.2939],[34.5315,-1.2295,1535.0732],[34.5329,-1.2224,1518.6125],[34.5363,-1.22,1499.5542],[34.5364,-1.2169,1502.9436],[34.5419,-1.2125,1493.9271],[34.5554,-1.2182,1501.7281],[34.5725,-1.2226,1502.6879],[34.5789,-1.2256,1527.3065],[34.588,-1.233,1550.4379],[34.5954,-1.234,1503.3965],[34.5976,-1.2373,1515.3824],[34.5975,-1.2462,1519.4352],[34.6018,-1.2519,1542.4634],[34.6087,-1.2478,1591.1852],[34.6027,-1.2443,1527.693],[34.6034,-1.2422,1521.4188],[34.6114,-1.2398,1548.9633],[34.611,-1.2294,1489.2439],[34.6082,-1.2249,1526.3115],[34.6136,-1.2179,1521.2081],[34.6203,-1.2126,1485.0701],[34.6241,-1.2051,1481.228],[34.6295,-1.2002,1457.1267],[34.6333,-1.1914,1436.9272],[34.6318,-1.1783,1443.0422],[34.6343,-1.1729,1425.1951],[34.6374,-1.1709,1418.4165],[34.6377,-1.1649,1414.2322],[34.6395,-1.1633,1420.1007],[34.6375,-1.1619,1421.4866],[34.6369,-1.1579,1429.8662],[34.6316,-1.1574,1416.3455],[34.6312,-1.1548,1414.0073],[34.6282,-1.1534,1410.7092],[34.6256,-1.1488,1427.3176],[34.6213,-1.1516,1413.9644],[34.618,-1.1513,1406.166],[34.6117,-1.1422,1424.781],[34.608,-1.1426,1403.2073],[34.6059,-1.1348,1413.7079],[34.6039,-1.0991,1449.9723],[34.6021,-1.0948,1455.3547],[34.5784,-1.0974,1464.571],[34.5742,-1.0965,1545.1543],[34.5667,-1.0917,1567.7643],[34.5614,-1.0917,1597.5581],[34.5515,-1.0938,1439.4392],[34.5376,-1.102,1410.3624],[34.5272,-1.0992,1421.8164],[34.5196,-1.1008,1407.9847],[34.5179,-1.0991,1419.1235],[34.5123,-1.0982,1390.1145],[34.51,-1.1036,1390.3196],[34.5062,-1.101,1398.2664],[34.5082,-1.1057,1387.5988],[34.4897,-1.1155,1391.922],[34.4846,-1.1161,1402.2703],[34.4801,-1.1213,1390.1594],[34.4811,-1.1239,1401.2441],[34.4799,-1.1249,1389.49],[34.4766,-1.1249,1394.1539],[34.4765,-1.1212,1395.3071],[34.4735,-1.1193,1395.5507],[34.4632,-1.1183,1388.5127],[34.4489,-1.1194,1412.0874],[34.4431,-1.1227,1433.4603],[34.4249,-1.1215,1390.6163],[34.4218,-1.1228,1384.9431],[34.4217,-1.1281,1407.9109],[34.4129,-1.1241,1376.1595],[34.4094,-1.1243,1376.0668],[34.3923,-1.1362,1365.954],[34.3866,-1.1552,1395.3439],[34.3839,-1.1577,1389.9049],[34.3851,-1.1599,1387.4193],[34.3829,-1.1627,1375.4207],[34.3795,-1.1757,1409.7529],[34.3753,-1.1817,1442.7659],[34.3791,-1.184,1447.6968],[34.3733,-1.1909,1439.8512],[34.4457,-1.2321,1611.0497],[34.4467,-1.2283,1587.3734],[34.4781,-1.2461,1665.7622]]]]}}