{"type": "Feature","bbox": [34.5909,-1.2519,34.6395,-1.1419],"geometry": {"type": "MultiPolygon","coordinates": [[[[34.6018,-1.2519,1542.4634],[34.6087,-1.2478,1591.1852],[34.6027,-1.2443,1527.693],[34.6034,-1.2422,1521.4188],[34.6114,-1.2398,1548.9633],[34.611,-1.2294,1489.2439],[34.6082,-1.2249,1526.3115],[34.6136,-1.2179,1521.2081],[34.6204,-1.2125,1485.0701],[34.6241,-1.2051,1481.228],[34.6295,-1.2002,1457.1267],[34.6333,-1.1915,1436.9272],[34.6318,-1.1783,1443.0422],[34.6343,-1.1729,1425.1951],[34.6374,-1.1709,1418.4165],[34.6377,-1.1649,1414.2322],[34.6395,-1.1633,1420.1007],[34.6375,-1.1619,1421.4866],[34.6369,-1.1579,1429.8662],[34.6316,-1.1574,1416.3455],[34.6312,-1.1548,1414.0073],[34.6282,-1.1534,1410.7092],[34.6258,-1.1489,1427.3176],[34.6211,-1.1517,1413.9644],[34.618,-1.1513,1406.166],[34.6177,-1.1492,1419.7134],[34.6108,-1.1419,1424.781],[34.6082,-1.1428,1413.4617],[34.6049,-1.1485,1410.5812],[34.6053,-1.1535,1412.8845],[34.6012,-1.1605,1436.255],[34.5988,-1.1685,1437.6614],[34.597,-1.1933,1453.4623],[34.5938,-1.1952,1474.0059],[34.5946,-1.1963,1470.8037],[34.5909,-1.2001,1478.2954],[34.5926,-1.2092,1467.4102],[34.5943,-1.2108,1486.828],[34.5928,-1.2145,1476.8782],[34.5934,-1.2288,1517.6843],[34.5976,-1.2373,1515.3824],[34.5975,-1.2462,1519.4352],[34.6018,-1.2519,1542.4634]]]]}
,"properties": {"GID_3": "KEN.27.3.2_1","GID_0": "KEN","country": "Kenya","GID_1": "KEN.27_1","province": "Migori","NL_NAME_1": "NA","GID_2": "KEN.27.3_1","county": "KuriaWest","NL_NAME_2": "NA","city": "BukiraEast","VARNAME_3": "NA","NL_NAME_3": "NA","TYPE_3": "Ward","ENGTYPE_3": "Ward","CC_3": "1289","HASC_3": "NA","name": "Bukira_East.city","area_km2": 33.83142,"hist_schema_id": "Elevation0-9000","hist_area_km2": {"1400": 2.18338,"1425": 7.71601,"1450": 8.35189,"1475": 7.31316,"1500": 3.73075,"1525": 3.13721,"1550": 1.29303,"1575": 0.10599}}}