{"type":"Feature","properties":{"GID_2":"KEN.8.2_1","GID_0":"KEN","country":"Kenya","GID_1":"KEN.8_1","province":"HomaBay","NL_NAME_1":"NA","county":"KabondoKasipul","VARNAME_2":"NA","NL_NAME_2":"NA","TYPE_2":"Constituency","ENGTYPE_2":"Constituency","CC_2":"246","HASC_2":"NA","name":"Kabondo_Kasipul.county"},
"geometry":{"type": "MultiPolygon","coordinates": [[[[34.8808,-0.4826,1524.8994],[34.9062,-0.476,1539.5342],[34.9403,-0.459,1531.8364],[34.9667,-0.4366,1580.781],[34.9996,-0.4232,1589.9897],[35.0197,-0.4065,1510.488],[35.0216,-0.3999,1512.7218],[35.0176,-0.3964,1500.0621],[35.0178,-0.3913,1529.3865],[35.0103,-0.3855,1521.734],[35.007,-0.3894,1558.8523],[35.0072,-0.3932,1514.7974],[35.0046,-0.3945,1540.8073],[35.003,-0.3993,1505.7142],[34.9979,-0.3993,1532.4521],[34.9881,-0.4034,1530.5],[34.9867,-0.4083,1502.2928],[34.9837,-0.4071,1520.7988],[34.9813,-0.4085,1501.4194],[34.9752,-0.4039,1522.3809],[34.9682,-0.4077,1471.6949],[34.9668,-0.406,1481.0715],[34.9638,-0.406,1496.7494],[34.9645,-0.4084,1466.6718],[34.9593,-0.4103,1495.726],[34.9574,-0.4088,1501.3044],[34.95,-0.4103,1461.8848],[34.9453,-0.4076,1495.6222],[34.9386,-0.4073,1478.0548],[34.9359,-0.405,1482.0859],[34.9296,-0.4059,1421.7067],[34.9299,-0.3968,1447.6034],[34.9141,-0.3974,1414.0504],[34.9132,-0.3905,1425.1896],[34.9154,-0.3892,1410.4128],[34.9145,-0.3861,1416.0111],[34.9162,-0.3843,1422.6384],[34.9151,-0.3797,1448.645],[34.9007,-0.3855,1427.228],[34.8975,-0.3886,1451.2247],[34.8944,-0.3878,1458.6814],[34.8885,-0.3955,1429.4878],[34.887,-0.3913,1464.9161],[34.8848,-0.39,1453.8922],[34.8793,-0.3896,1446.5063],[34.8779,-0.392,1431.9651],[34.8669,-0.3882,1466.6464],[34.8645,-0.3912,1434.7838],[34.8623,-0.3914,1422.3292],[34.8584,-0.3888,1411.3696],[34.8593,-0.3864,1408.7621],[34.8389,-0.387,1420.1901],[34.8333,-0.3822,1363.6516],[34.8248,-0.3824,1285.4584],[34.822,-0.3804,1355.8662],[34.8246,-0.3798,1337.8884],[34.8252,-0.3779,1327.2103],[34.8249,-0.3755,1263.955],[34.8213,-0.3731,1353.928],[34.8229,-0.3657,1381.3743],[34.8203,-0.3648,1232.0569],[34.8193,-0.3622,1269.9954],[34.806,-0.3716,1404.0312],[34.7958,-0.3842,1430.4623],[34.7811,-0.3861,1434.1707],[34.7644,-0.3955,1371.6746],[34.7571,-0.3945,1336.2065],[34.7536,-0.3968,1354.6299],[34.7499,-0.3965,1346.7317],[34.747,-0.4067,1354.4722],[34.7477,-0.4123,1322.4561],[34.7569,-0.4175,1339.4453],[34.7581,-0.4161,1338.6268],[34.7629,-0.4181,1322.5314],[34.7679,-0.4256,1320.6814],[34.7727,-0.4287,1329.8333],[34.7766,-0.4385,1318.5549],[34.7866,-0.4462,1357.8246],[34.787,-0.461,1369.8289],[34.7945,-0.471,1426.1349],[34.7962,-0.4829,1461.4452],[34.7878,-0.4897,1423.85],[34.7899,-0.4923,1429.5438],[34.7862,-0.5008,1475.0344],[34.7829,-0.5044,1467.9591],[34.7857,-0.5121,1599.8596],[34.7798,-0.5147,1480.9839],[34.7887,-0.5197,1545.2709],[34.7919,-0.5236,1569.226],[34.7932,-0.5217,1584.5338],[34.7993,-0.522,1571.7188],[34.8208,-0.5126,1604.5956],[34.8307,-0.5112,1552.3641],[34.8498,-0.505,1542.7119],[34.851,-0.5062,1548.3513],[34.8559,-0.5003,1610.5247],[34.8557,-0.4983,1608.6377],[34.8591,-0.4984,1629.3823],[34.8808,-0.4826,1524.8994]]]]}}