{"type": "Feature","bbox": [39.2987,3.0589,39.4533,3.4782],"geometry": {"type": "MultiPolygon","coordinates": [[[[39.3082,3.4773,790.8105],[39.3077,3.4696,766.2805],[39.3143,3.4688,775.0115],[39.303,3.4556,753.0121],[39.2987,3.4399,734.6737],[39.3005,3.4274,726.3284],[39.3126,3.4079,689.0561],[39.328,3.2886,631.5157],[39.337,3.2809,633.1202],[39.3395,3.2712,628.0391],[39.342,3.2508,653.4286],[39.3437,3.1693,632.5048],[39.3613,3.1645,626.1223],[39.3677,3.1557,611.0048],[39.3709,3.1443,609.6108],[39.3851,3.1349,589.4819],[39.3939,3.1335,583.0686],[39.3743,3.1009,597.5077],[39.3869,3.0921,589.0808],[39.4009,3.0907,577.3821],[39.4069,3.0795,575.326],[39.4133,3.0763,570.1735],[39.4187,3.0693,564.9525],[39.4309,3.0591,554.0516],[39.4441,3.0589,555.7418],[39.4533,3.0613,555.471],[39.4523,3.0699,554.575],[39.4489,3.0725,557.4893],[39.4497,3.0761,555.9789],[39.4435,3.0791,559.0104],[39.4427,3.0829,558.9987],[39.4223,3.1049,567.0158],[39.4177,3.1145,566.535],[39.4153,3.1289,571.0209],[39.4187,3.1363,571.8447],[39.4183,3.1491,576.0141],[39.4237,3.1589,578.5497],[39.4243,3.1691,581.0284],[39.4273,3.1725,581.0358],[39.4243,3.1805,583.905],[39.4159,3.1901,588.981],[39.3981,3.2233,618.1495],[39.3821,3.2639,616.5212],[39.3815,3.2929,618.2877],[39.3877,3.3253,632.6464],[39.3843,3.3429,641.9668],[39.3768,3.3502,647.6937],[39.3749,3.3547,650.1932],[39.3755,3.3633,661.36],[39.3811,3.3755,671.8787],[39.3823,3.3842,679.2833],[39.3348,3.3889,679.4928],[39.3325,3.4343,727.316],[39.334,3.4662,941.0732],[39.3326,3.4662,948.6226],[39.3291,3.4725,916.5613],[39.3284,3.4782,835.7527],[39.3082,3.4773,790.8105]]]]}
,"properties": {"GID_3": "KEN.46.4.4_1","GID_0": "KEN","country": "Kenya","GID_1": "KEN.46_1","province": "Wajir","NL_NAME_1": "NA","GID_2": "KEN.46.4_1","county": "WajirNorth","NL_NAME_2": "NA","city": "Godoma","VARNAME_3": "NA","NL_NAME_3": "NA","TYPE_3": "Ward","ENGTYPE_3": "Ward","CC_3": "167","HASC_3": "NA","name": "Godoma.city","area_km2": 242.8379,"hist_schema_id": "Elevation0-9000","hist_area_km2": {"550": 8.7863,"575": 26.7809,"600": 49.1349,"625": 76.5856,"650": 30.8395,"675": 21.1866,"700": 8.2331,"725": 5.7144,"750": 4.8466,"775": 4.0634,"800": 1.8836,"825": 1.4603,"850": 0.7407,"875": 0.6137,"900": 0.6984,"925": 0.4233,"950": 0.3598,"975": 0.2116,"1000": 0.1481,"1025": 0.1058,"1050": 0.0212}}}