{"type": "Feature","bbox": [40.0077,-3.0614,40.2415,-2.8905],"geometry": {"type": "MultiPolygon","coordinates": [[[[40.234,-3.0,0.0],[40.2357,-3.0004,0.0],[40.2363,-2.9965,0.0],[40.2349,-2.9974,0.0],[40.234,-3.0,0.0]]],
[[[40.1979,-2.9885,0.4728],[40.1943,-2.9882,1.1032],[40.1935,-2.9907,0.4485],[40.1976,-2.9899,0.0],[40.1979,-2.9885,0.4728]]],
[[[40.1712,-3.0613,1.7408],[40.1712,-3.0612,0.0],[40.171,-3.0613,1.7408],[40.1711,-3.0614,1.7408],[40.1712,-3.0613,1.7408]]],
[[[40.1918,-2.981,0.0],[40.1907,-2.9796,0.0],[40.1929,-2.9854,0.0],[40.194,-2.9829,0.0],[40.1918,-2.981,0.0]]],
[[[40.0181,-2.9347,143.7249],[40.0179,-2.9381,139.7662],[40.0155,-2.9405,134.6851],[40.0107,-2.9411,137.8869],[40.0099,-2.9498,137.8966],[40.0077,-2.9542,136.4575],[40.0251,-2.9701,120.8822],[40.0251,-2.9745,124.4677],[40.0229,-2.9789,120.2307],[40.0321,-2.9861,104.2394],[40.0477,-2.9911,83.4286],[40.0497,-2.9967,71.6262],[40.0562,-3.0022,68.6376],[40.0649,-2.9999,67.6909],[40.0698,-3.0031,58.1788],[40.0785,-3.0028,53.1689],[40.0845,-3.005,46.2089],[40.0891,-3.009,77.2427],[40.0913,-3.0134,67.4452],[40.1157,-3.0425,38.2681],[40.1187,-3.0518,35.5461],[40.1267,-3.0506,22.9295],[40.1287,-3.054,28.1012],[40.1351,-3.0566,11.976],[40.1413,-3.0563,2.5128],[40.1423,-3.0549,2.1754],[40.1475,-3.0592,1.9545],[40.1521,-3.0574,1.3311],[40.1583,-3.0587,8.322],[40.1643,-3.0569,7.3717],[40.1673,-3.0573,7.0229],[40.171,-3.0613,1.7408],[40.1696,-3.0526,8.8057],[40.174,-3.0415,8.5451],[40.1846,-3.0329,8.5791],[40.1954,-3.0307,2.37],[40.1968,-3.0268,9.3013],[40.1965,-3.019,9.7285],[40.2015,-3.0104,3.7155],[40.2121,-3.0032,1.4206],[40.2238,-3.0015,0.0],[40.2315,-2.9935,8.7992],[40.2349,-2.9932,2.3443],[40.2382,-2.9963,0.0],[40.2415,-2.9896,2.6409],[40.2407,-2.979,0.0],[40.2376,-2.9779,0.0],[40.2299,-2.9801,0.0],[40.2221,-2.9887,0.3793],[40.2124,-2.9938,0.6589],[40.2007,-2.9926,0.0],[40.1937,-2.9954,2.1833],[40.1879,-2.9954,0.0],[40.1851,-2.9899,0.0],[40.1801,-2.9871,0.0],[40.1743,-2.9904,0.0],[40.1729,-2.9929,1.7416],[40.1735,-2.9974,0.0],[40.1721,-2.999,1.0277],[40.1696,-2.9988,3.9029],[40.171,-2.9949,0.0],[40.1685,-2.9926,1.3963],[40.1771,-2.9807,1.6408],[40.1829,-2.9812,0.0],[40.1843,-2.9799,0.0],[40.1868,-2.986,3.5115],[40.1882,-2.9871,0.0],[40.1904,-2.9862,0.6803],[40.1843,-2.974,0.0],[40.1804,-2.9707,3.5667],[40.1749,-2.9601,0.0],[40.174,-2.9618,2.7147],[40.1721,-2.9587,2.4034],[40.1685,-2.9601,0.7052],[40.1682,-2.9629,2.4365],[40.1707,-2.9643,5.378],[40.1696,-2.9649,5.1061],[40.1615,-2.956,5.4763],[40.1621,-2.9551,6.5369],[40.1668,-2.9576,0.0],[40.1657,-2.9546,4.0662],[40.1665,-2.9479,0.0],[40.1651,-2.9474,2.6247],[40.1665,-2.9432,0.9365],[40.164,-2.9365,1.8307],[40.1646,-2.9246,0.7709],[40.1668,-2.9132,1.4903],[40.1724,-2.9018,0.0],[40.1726,-2.8905,0.0],[40.1711,-2.8971,3.5073],[40.1639,-2.9042,3.276],[40.1605,-2.9059,1.6945],[40.1563,-2.8998,1.0],[40.1507,-2.8993,1.0],[40.1493,-2.9062,1.2571],[40.1467,-2.9081,2.0],[40.1365,-2.9094,11.304],[40.1345,-2.9073,15.8235],[40.1233,-2.9097,21.8163],[40.1199,-2.9076,25.2978],[40.1197,-2.9039,27.1293],[40.1159,-2.9027,25.4536],[40.1116,-2.9044,27.1697],[40.1073,-2.904,28.4854],[40.1031,-2.8971,28.9484],[40.0999,-2.8954,30.9427],[40.0941,-2.8952,37.3788],[40.0901,-2.8974,56.5153],[40.0881,-2.9006,70.9208],[40.0781,-2.9024,88.4632],[40.0731,-2.9061,110.3816],[40.0733,-2.9084,118.0093],[40.0559,-2.9157,124.4496],[40.0527,-2.9201,128.6818],[40.0541,-2.9268,135.4706],[40.0433,-2.9356,136.9631],[40.0375,-2.9336,130.6992],[40.0181,-2.9347,143.7249]]]]}
,"properties": {"GID_3": "KEN.14.5.3_1","GID_0": "KEN","country": "Kenya","GID_1": "KEN.14_1","province": "Kilifi","NL_NAME_1": "NA","GID_2": "KEN.14.5_1","county": "Magarini","NL_NAME_2": "NA","city": "Gongoni","VARNAME_3": "NA","NL_NAME_3": "NA","TYPE_3": "Ward","ENGTYPE_3": "Ward","CC_3": "82","HASC_3": "NA","name": "Gongoni.city","area_km2": 231.8092,"hist_schema_id": "Elevation0-9000","hist_area_km2": {"0": 82.8091,"25": 62.2082,"50": 22.91,"75": 22.2961,"100": 25.5358,"125": 14.462,"150": 1.5881}}}