{"type":"Feature","properties":{"GID_2":"KEN.40.3_1","GID_0":"KEN","country":"Kenya","GID_1":"KEN.40_1","province":"TanaRiver","NL_NAME_1":"NA","county":"Garsen","VARNAME_2":"NA","NL_NAME_2":"NA","TYPE_2":"Constituency","ENGTYPE_2":"Constituency","CC_2":"18","HASC_2":"NA","name":"Garsen.county"},
"geometry":{"type": "MultiPolygon","coordinates": [[[[40.1892,-2.7308,6.394],[40.1876,-2.7314,0.0],[40.1882,-2.734,0.0],[40.1932,-2.7368,0.0],[40.1963,-2.7365,0.0],[40.2001,-2.7332,1.017],[40.2032,-2.7251,5.7444],[40.216,-2.7054,2.6253],[40.2324,-2.6846,0.0],[40.2601,-2.656,3.0789],[40.2604,-2.6479,6.3234],[40.2685,-2.6432,1.0646],[40.2693,-2.6388,2.1056],[40.2696,-2.6424,4.2173],[40.2668,-2.6463,0.0],[40.2679,-2.6476,3.1317],[40.2721,-2.6457,1.8869],[40.3054,-2.6182,2.6775],[40.339,-2.5968,0.0],[40.3426,-2.5924,0.4327],[40.344,-2.5865,0.0],[40.3476,-2.5846,0.0],[40.3496,-2.5785,0.0],[40.3524,-2.576,1.0653],[40.3507,-2.5732,3.1749],[40.3543,-2.5771,0.4902],[40.3512,-2.579,0.0],[40.351,-2.5815,0.0],[40.3524,-2.5824,0.3961],[40.3462,-2.589,0.0],[40.3468,-2.5915,0.0],[40.3537,-2.5896,0.0],[40.3843,-2.571,21.0845],[40.4351,-2.5493,10.6392],[40.4571,-2.5418,3.9575],[40.486,-2.5351,5.2584],[40.5051,-2.5329,10.6764],[40.5238,-2.5329,3.7745],[40.5304,-2.5365,0.0],[40.5299,-2.5418,0.0],[40.5326,-2.5393,0.0],[40.5301,-2.534,0.0],[40.5185,-2.5287,2.9243],[40.5015,-2.5174,5.7788],[40.4965,-2.516,2.5541],[40.4813,-2.5215,11.7794],[40.4821,-2.5201,0.7256],[40.496,-2.5151,2.5541],[40.5024,-2.5162,6.3758],[40.5187,-2.5265,0.0],[40.5382,-2.534,1.0106],[40.5407,-2.5368,3.8559],[40.5407,-2.5399,4.5801],[40.5432,-2.541,4.8795],[40.5599,-2.5429,10.8472],[40.5654,-2.5449,18.2659],[40.5665,-2.5474,7.1727],[40.5735,-2.5521,0.0],[40.5935,-2.5554,2.5008],[40.599,-2.559,2.1943],[40.6099,-2.561,7.4425],[40.6182,-2.5546,2.7165],[40.6207,-2.5549,0.0],[40.6301,-2.549,0.0],[40.6493,-2.5332,0.0],[40.6679,-2.5082,18.2369],[40.6868,-2.4901,2.5731],[40.7062,-2.4757,5.8033],[40.7374,-2.4574,13.9166],[40.7346,-2.4562,11.5229],[40.6625,-2.4662,17.5202],[40.5321,-2.4262,14.9175],[40.5285,-2.4249,16.1069],[40.5291,-2.4216,18.8456],[40.5273,-2.4246,17.2356],[40.5235,-2.4237,19.107],[40.4473,-2.4005,8.5015],[40.4431,-2.4,4.5796],[40.4457,-2.4034,3.7067],[40.4437,-2.4079,9.3524],[40.4331,-2.4166,3.2119],[40.4271,-2.4177,8.9011],[40.4249,-2.4213,7.0229],[40.4107,-2.4254,5.7101],[40.4064,-2.4338,1.8025],[40.4059,-2.4299,2.0365],[40.3969,-2.4302,1.9478],[40.3839,-2.4256,2.4507],[40.3811,-2.4218,2.2943],[40.3705,-2.4223,3.3141],[40.3655,-2.417,3.9029],[40.3577,-2.4146,3.1059],[40.3546,-2.4121,3.2895],[40.3483,-2.405,4.1312],[40.3489,-2.401,3.4762],[40.3453,-2.3986,3.9092],[40.2993,-2.3992,7.9435],[40.2509,-2.3976,7.8335],[40.2503,-2.2475,16.3947],[40.2113,-2.0314,31.2066],[40.2045,-2.0129,34.0242],[40.1961,-1.9996,33.4895],[40.1975,-1.9827,34.2987],[40.1867,-1.9608,34.2096],[40.1863,-1.9505,34.555],[40.1897,-1.9296,33.5764],[40.1871,-1.8938,42.1552],[40.0729,-1.8968,35.2566],[40.0621,-1.8429,41.8251],[40.0463,-1.8017,45.8482],[40.0383,-1.7958,47.4087],[40.0367,-1.7925,47.6095],[39.9455,-1.7854,57.7177],[39.8139,-1.7846,85.6222],[39.8057,-1.7972,87.2903],[39.8137,-1.7844,86.0602],[39.7667,-1.7837,100.7503],[39.7597,-1.7943,100.2946],[39.7017,-1.7932,116.6043],[39.6089,-1.7948,143.1317],[39.3357,-1.7924,211.4946],[39.3287,-1.7992,212.6198],[39.3105,-1.8262,214.0003],[39.2915,-1.8435,216.8189],[39.2873,-1.8508,217.6017],[39.2828,-1.8549,219.793],[39.2629,-1.8674,222.003],[39.2495,-1.8712,227.1679],[39.2485,-1.8752,226.6424],[39.2501,-1.8828,225.5243],[39.2467,-1.8868,225.2671],[39.2419,-1.8974,225.9818],[39.2353,-1.9003,227.647],[39.1179,-1.9771,245.0056],[39.0641,-1.9517,257.731],[39.0523,-1.9421,261.9799],[39.0499,-1.938,263.3492],[39.0391,-1.9311,267.8632],[39.0341,-1.9255,269.1001],[39.0229,-1.9212,272.438],[39.0177,-1.9151,273.4714],[39.0137,-1.915,276.1539],[38.9996,-1.9458,281.0056],[38.7964,-2.3408,322.9826],[38.7899,-2.3429,324.5354],[38.7885,-2.3497,325.8772],[38.7839,-2.3547,329.4781],[38.7703,-2.353,331.0677],[38.7625,-2.3553,332.1041],[38.7559,-2.3618,335.4078],[38.7537,-2.3612,337.2489],[38.7465,-2.3642,339.304],[38.7384,-2.3642,346.2719],[38.7333,-2.378,344.5273],[38.7237,-2.3854,346.5034],[38.7223,-2.3883,347.326],[38.7169,-2.3907,347.8654],[38.7153,-2.3957,350.2991],[38.7039,-2.4007,353.4288],[38.7038,-2.4045,354.234],[38.6955,-2.4094,353.5181],[38.6613,-2.418,368.7276],[38.6438,-2.4181,374.6329],[38.6379,-2.4156,375.1607],[38.6343,-2.4162,377.4305],[38.6329,-2.4133,377.7422],[38.6272,-2.4111,383.8773],[38.6235,-2.4126,379.5774],[39.0761,-3.041,201.7604],[39.0793,-3.0425,199.9925],[39.0819,-3.0518,191.869],[39.0855,-3.0532,194.8419],[39.0888,-3.0507,192.9288],[39.0885,-3.0446,193.7453],[39.0899,-3.0427,202.9798],[39.1025,-3.0377,191.9913],[39.1063,-3.0346,190.7834],[39.1131,-3.0245,189.5616],[39.1257,-3.0195,192.2784],[39.1297,-3.0199,189.0061],[39.1343,-3.0357,179.3579],[39.1337,-3.0396,183.6561],[39.1355,-3.042,180.1871],[39.1415,-3.0414,194.3651],[39.1435,-3.0485,180.1207],[39.1509,-3.0443,182.5815],[39.1527,-3.0447,179.9678],[39.1635,-3.0595,178.0856],[39.1643,-3.0651,173.5067],[39.1671,-3.0663,177.1346],[39.1705,-3.0649,175.8297],[39.1741,-3.0582,177.2299],[39.1777,-3.057,181.2611],[39.1835,-3.0632,172.7616],[39.1959,-3.0613,171.1736],[39.2075,-3.0661,170.5072],[39.2181,-3.0655,166.3116],[39.2199,-3.0667,166.5234],[39.2195,-3.0686,163.2261],[39.2229,-3.0658,168.7779],[39.2795,-3.0006,231.7575],[39.5055,-2.7482,172.1313],[39.8923,-2.3092,91.0009],[40.1892,-2.7308,6.394]]]]}}