{"type": "Feature","bbox": [34.3431,0.0933,34.9785,0.6557],"geometry": {"type": "MultiPolygon","coordinates": [[[[34.6776,0.1345,1531.0021],[34.6813,0.1287,1548.5486],[34.6871,0.1291,1524.9377],[34.6954,0.1386,1493.4414],[34.6963,0.1372,1493.4414],[34.7041,0.1361,1490.6099],[34.7036,0.1442,1512.8931],[34.7094,0.1433,1534.1277],[34.7178,0.1477,1495.7759],[34.7227,0.1453,1521.3323],[34.7254,0.1493,1486.2948],[34.7294,0.1492,1466.5909],[34.7377,0.154,1450.187],[34.7383,0.1502,1458.9475],[34.7367,0.1484,1478.4803],[34.7387,0.1463,1466.8303],[34.7402,0.147,1476.1841],[34.7453,0.1436,1511.8774],[34.7516,0.1433,1514.7592],[34.7554,0.1454,1476.0725],[34.7569,0.1435,1504.0088],[34.7604,0.1431,1509.8555],[34.7669,0.1502,1501.9897],[34.7659,0.1548,1468.8276],[34.77,0.1573,1447.511],[34.7764,0.1533,1489.783],[34.781,0.1579,1469.1423],[34.7811,0.1613,1483.8933],[34.7877,0.1643,1476.9308],[34.7879,0.1624,1472.0786],[34.7905,0.1616,1488.3428],[34.7939,0.1632,1518.9729],[34.797,0.1675,1523.3337],[34.8039,0.167,1517.6796],[34.8061,0.1649,1512.7644],[34.8076,0.1595,1515.0748],[34.8114,0.1568,1535.0887],[34.8162,0.158,1515.5701],[34.8173,0.1621,1527.0825],[34.8154,0.1697,1507.2551],[34.8155,0.1812,1463.1101],[34.8127,0.1868,1499.0232],[34.8107,0.1876,1475.5581],[34.8117,0.189,1482.4882],[34.8252,0.1919,1465.8286],[34.8274,0.1899,1500.2421],[34.8292,0.1906,1480.0679],[34.8337,0.1886,1518.1902],[34.8388,0.1901,1533.5934],[34.8436,0.1891,1514.724],[34.8441,0.1873,1504.0784],[34.8466,0.1877,1504.9484],[34.8473,0.1894,1515.0203],[34.8522,0.19,1488.5193],[34.8518,0.1942,1497.4722],[34.8558,0.1978,1504.6018],[34.8601,0.1975,1483.8984],[34.8591,0.1994,1506.2649],[34.8613,0.2042,1560.2139],[34.8679,0.1999,1548.0159],[34.8711,0.2005,1539.8755],[34.8709,0.204,1564.1946],[34.8728,0.2054,1563.0728],[34.8762,0.2049,1534.1473],[34.8781,0.2026,1543.3245],[34.8787,0.2041,1547.24],[34.8855,0.2024,1551.0845],[34.887,0.2055,1533.9995],[34.8848,0.2069,1540.5006],[34.8871,0.2079,1536.1533],[34.8868,0.2096,1541.679],[34.8905,0.2096,1534.12],[34.8933,0.2126,1564.9167],[34.8973,0.212,1539.5076],[34.8963,0.2096,1531.4518],[34.8991,0.2083,1543.475],[34.8992,0.2064,1540.6522],[34.9044,0.2007,1552.4326],[34.9066,0.2017,1586.6184],[34.9087,0.1997,1601.9817],[34.914,0.2037,1589.9746],[34.9162,0.1997,1561.4592],[34.9118,0.1892,1582.2594],[34.9162,0.1862,1573.2435],[34.9167,0.1837,1563.7764],[34.9187,0.184,1577.9928],[34.929,0.2136,1597.5612],[34.9432,0.2131,1645.4448],[34.9565,0.2458,1664.1973],[34.9785,0.2459,2071.3569],[34.9773,0.253,1990.1921],[34.9421,0.3281,1795.394],[34.9373,0.362,1826.6249],[34.9371,0.3648,1747.6464],[34.9487,0.3583,1758.9662],[34.9553,0.3759,1757.7709],[34.9566,0.42,1999.1484],[34.9457,0.4428,2043.0891],[34.9241,0.4813,1839.1554],[34.9084,0.4959,1734.1519],[34.907,0.5097,1926.1656],[34.8883,0.526,1902.0785],[34.8759,0.5326,1713.9316],[34.8707,0.5381,1689.1979],[34.8521,0.5518,1699.1522],[34.8976,0.6055,1733.4739],[34.8415,0.6557,1540.5151],[34.8326,0.6514,1555.5028],[34.836,0.6421,1537.177],[34.833,0.6387,1538.1925],[34.8323,0.6309,1537.4924],[34.823,0.6232,1529.8126],[34.8197,0.6238,1551.1146],[34.8147,0.6209,1559.0161],[34.8086,0.6115,1530.2689],[34.8029,0.6111,1538.4795],[34.8023,0.6072,1532.6876],[34.7994,0.6043,1525.7078],[34.8101,0.5943,1509.9724],[34.8101,0.5921,1496.1399],[34.8011,0.5914,1525.7252],[34.7913,0.5851,1457.6821],[34.7881,0.5813,1452.2517],[34.7831,0.5819,1452.4739],[34.7782,0.5786,1457.6023],[34.7702,0.5697,1458.8877],[34.764,0.5689,1474.4941],[34.7631,0.5657,1460.4518],[34.7656,0.5624,1435.824],[34.7595,0.5568,1464.0424],[34.7598,0.5526,1449.7188],[34.7545,0.5493,1443.3397],[34.7542,0.5463,1440.5491],[34.7505,0.5455,1440.0483],[34.7483,0.5408,1435.1367],[34.7453,0.5427,1454.7092],[34.7418,0.5421,1463.6799],[34.7413,0.5394,1448.551],[34.7372,0.5362,1439.4983],[34.734,0.5241,1428.3345],[34.7285,0.5213,1447.7056],[34.7273,0.517,1430.7483],[34.7209,0.5126,1426.7202],[34.7177,0.5157,1434.2385],[34.715,0.5151,1435.6604],[34.7089,0.5091,1425.5811],[34.7013,0.5125,1427.1898],[34.6958,0.5072,1419.8284],[34.6937,0.5033,1409.0089],[34.6938,0.4998,1404.9211],[34.6894,0.4955,1407.1178],[34.6891,0.4912,1400.7241],[34.6839,0.4912,1412.6742],[34.6836,0.4888,1407.6019],[34.6791,0.4902,1415.2979],[34.676,0.4893,1413.2581],[34.6786,0.4781,1390.4233],[34.6738,0.4765,1409.7249],[34.6665,0.4654,1389.7522],[34.6634,0.4646,1380.975],[34.6606,0.466,1399.116],[34.6571,0.4596,1380.7593],[34.6541,0.4584,1365.4225],[34.6504,0.4607,1384.0757],[34.6452,0.4558,1366.0933],[34.6428,0.4555,1360.0571],[34.632,0.4578,1328.4458],[34.6303,0.4613,1328.5831],[34.6315,0.4653,1345.3989],[34.6271,0.4687,1353.8269],[34.6273,0.4655,1350.7715],[34.6181,0.4621,1354.0316],[34.6151,0.4528,1325.658],[34.6164,0.4484,1323.8798],[34.6129,0.4481,1319.312],[34.6044,0.4561,1345.8342],[34.5984,0.4502,1323.6302],[34.5954,0.4492,1324.1501],[34.592,0.451,1323.9418],[34.59,0.4414,1313.2502],[34.5929,0.438,1308.3143],[34.5927,0.4348,1306.4603],[34.5901,0.4315,1302.5999],[34.5894,0.4252,1307.5441],[34.5873,0.4311,1306.0178],[34.5807,0.4368,1308.292],[34.5815,0.4446,1313.0151],[34.5797,0.4455,1310.0165],[34.5809,0.4497,1314.3845],[34.5797,0.4524,1313.4001],[34.5812,0.4574,1326.3759],[34.5774,0.4621,1363.3545],[34.5631,0.4629,1362.0745],[34.5508,0.4751,1345.3396],[34.5444,0.4724,1358.9174],[34.5405,0.4675,1341.1609],[34.5376,0.4671,1361.4495],[34.5364,0.4563,1321.5441],[34.5313,0.4481,1334.6094],[34.5263,0.4522,1358.7811],[34.5156,0.4549,1367.96],[34.5078,0.4632,1349.8235],[34.5003,0.4622,1330.1538],[34.4954,0.4634,1307.9362],[34.4954,0.4709,1313.0891],[34.493899999999996,0.4739,1303.703],[34.4905,0.4777,1287.9121],[34.487,0.4859,1281.1282],[34.4822,0.4893,1299.0554],[34.4692,0.4831,1295.2701],[34.4678,0.4794,1288.9529],[34.4648,0.4783,1286.3596],[34.4619,0.4739,1281.1809],[34.4583,0.4726,1277.209],[34.4465,0.473,1278.41],[34.4422,0.4703,1271.218],[34.4418,0.4685,1268.0399],[34.4364,0.4677,1264.3862],[34.4298,0.4702,1249.4814],[34.4192,0.4796,1246.6599],[34.4047,0.4804,1255.8806],[34.4015,0.4771,1252.1261],[34.3981,0.4771,1254.7595],[34.3953,0.4733,1242.7185],[34.3912,0.4725,1250.1804],[34.3895,0.4656,1238.4647],[34.3868,0.4664,1242.939],[34.3822,0.4628,1235.735],[34.3761,0.4649,1231.6055],[34.3682,0.4614,1224.5898],[34.3644,0.4451,1240.0814],[34.3564,0.4407,1236.8932],[34.3431,0.429,1230.8187],[34.3505,0.4226,1225.7955],[34.3598,0.4098,1225.6517],[34.3661,0.4077,1245.0913],[34.3685,0.409,1250.4543],[34.3779,0.4092,1257.922],[34.3847,0.4013,1247.6248],[34.3922,0.3996,1264.145],[34.4078,0.3895,1267.2798],[34.4129,0.3833,1276.4164],[34.4225,0.3756,1285.9565],[34.4153,0.3703,1291.1162],[34.4,0.3659,1281.9211],[34.3858,0.3565,1298.0581],[34.3856,0.3391,1269.9937],[34.3832,0.3227,1267.9523],[34.3794,0.3164,1270.6769],[34.3731,0.3122,1264.882],[34.3796,0.3097,1250.6412],[34.3822,0.304,1276.9579],[34.3946,0.2926,1269.1154],[34.3958,0.2865,1244.8118],[34.3884,0.2786,1229.7695],[34.3903,0.2748,1224.0956],[34.4009,0.2661,1241.2435],[34.3975,0.254,1258.3723],[34.3976,0.248,1261.8704],[34.3998,0.2441,1273.0747],[34.3976,0.2378,1277.4335],[34.3836,0.2328,1262.3621],[34.3905,0.2209,1255.2723],[34.3921,0.2115,1276.0063],[34.3899,0.2042,1298.4425],[34.3904,0.1974,1311.8063],[34.3847,0.1852,1265.8374],[34.3853,0.1832,1265.6672],[34.3975,0.1878,1291.0726],[34.4013,0.1912,1290.623],[34.404,0.1912,1286.7449],[34.4079,0.1956,1277.4006],[34.4111,0.2031,1293.8313],[34.4208,0.2081,1305.1567],[34.428,0.2166,1319.238],[34.4433,0.2222,1342.0007],[34.4462,0.2202,1346.3571],[34.451,0.2113,1329.5173],[34.4505,0.2098,1322.4164],[34.4455,0.2071,1330.7365],[34.4357,0.2059,1325.8082],[34.4316,0.2002,1318.7069],[34.4303,0.195,1312.9954],[34.4258,0.1901,1309.9591],[34.4292,0.1869,1301.5508],[34.4296,0.1819,1300.2905],[34.4376,0.1768,1332.2742],[34.4413,0.1698,1343.2416],[34.4351,0.1614,1335.4866],[34.4314,0.1581,1327.77],[34.4247,0.1564,1296.1013],[34.4252,0.1551,1311.7251],[34.4333,0.1497,1314.1724],[34.4378,0.1502,1329.5135],[34.4413,0.1523,1331.6523],[34.4432,0.1518,1338.3215],[34.4458,0.1547,1342.0374],[34.4529,0.1578,1354.9089],[34.4626,0.1584,1346.661],[34.4675,0.1619,1336.4971],[34.4749,0.1608,1355.0128],[34.4818,0.1557,1361.6765],[34.4823,0.1495,1336.0964],[34.4845,0.1453,1371.9802],[34.4832,0.1428,1374.9839],[34.4789,0.1411,1372.5249],[34.4726,0.1351,1415.0609],[34.4562,0.1347,1378.2759],[34.4575,0.1276,1342.1648],[34.4641,0.127,1384.5453],[34.4753,0.1228,1423.8208],[34.4788,0.1198,1440.3311],[34.4788,0.1174,1433.8237],[34.4741,0.1171,1405.8099],[34.474,0.1072,1431.2174],[34.4795,0.1094,1436.3574],[34.4865,0.1091,1444.3251],[34.494,0.1056,1441.9081],[34.4964,0.1111,1419.7782],[34.4957,0.1153,1412.5082],[34.5019,0.1171,1439.887],[34.5033,0.1199,1439.0172],[34.4963,0.1258,1430.042],[34.4977,0.1274,1429.6422],[34.5003,0.1265,1421.3051],[34.5002,0.1304,1429.4907],[34.5081,0.1216,1418.3296],[34.5123,0.1261,1392.2639],[34.5129,0.1322,1402.6906],[34.5253,0.1292,1438.3696],[34.5297,0.1321,1449.6372],[34.5337,0.1405,1457.9763],[34.5452,0.1429,1442.5231],[34.5489,0.1361,1434.3364],[34.5538,0.1335,1420.0248],[34.5547,0.1314,1416.1848],[34.5539,0.1283,1398.5106],[34.5516,0.1269,1400.1616],[34.5525,0.1225,1406.0187],[34.5469,0.1218,1422.6504],[34.5472,0.1205,1422.6504],[34.5438,0.1184,1428.8152],[34.5508,0.1177,1401.1659],[34.5537,0.113,1405.7749],[34.5583,0.1121,1415.2352],[34.5574,0.108,1423.0266],[34.555,0.1061,1413.245],[34.5569,0.0961,1433.3342],[34.5538,0.0933,1425.1946],[34.5585,0.0959,1433.3342],[34.5618,0.1009,1442.5175],[34.5675,0.1026,1442.7736],[34.5711,0.1017,1436.9609],[34.5715,0.0998,1431.8894],[34.574,0.1031,1443.7305],[34.5762,0.1026,1433.696],[34.5777,0.1069,1451.9309],[34.5862,0.1084,1452.0483],[34.5847,0.1121,1478.3147],[34.5859,0.1192,1455.1132],[34.5953,0.1212,1463.4294],[34.6021,0.1256,1432.9353],[34.6327,0.1329,1475.6968],[34.6636,0.1307,1473.1096],[34.6649,0.1323,1479.6515],[34.6776,0.1345,1531.0021]]]]}
,"properties": {"GID_1": "KEN.11_1","GID_0": "KEN","country": "Kenya","province": "Kakamega","VARNAME_1": "NA","NL_NAME_1": "NA","TYPE_1": "County","ENGTYPE_1": "County","CC_1": "37","HASC_1": "KE.KK","ISO_1": "KE-11","name": "Kakamega.province","area_km2": 2452.539,"hist_schema_id": "Elevation0-9000","hist_area_km2": {"1225": 16.834,"1250": 59.937,"1275": 117.861,"1300": 161.218,"1325": 181.403,"1350": 155.473,"1375": 135.714,"1400": 131.198,"1425": 147.947,"1450": 178.329,"1475": 181.869,"1500": 170.992,"1525": 149.96,"1550": 168.045,"1575": 171.225,"1600": 143.515,"1625": 87.669,"1650": 37.93,"1675": 16.877,"1700": 12.255,"1725": 7.442,"1750": 4.77,"1775": 3.265,"1800": 2.417,"1825": 1.442,"1850": 1.145,"1875": 1.039,"1900": 1.442,"1925": 1.208,"1950": 0.89,"1975": 0.551,"2000": 0.36,"2025": 0.212,"2050": 0.021,"2075": 0.021,"2100": 0.064}}}