{"type": "Feature","bbox": [36.6284,-1.441,36.8203,-1.2984],"geometry": {"type": "MultiPolygon","coordinates": [[[[36.7679,-1.3864,1709.7682],[36.7661,-1.3862,1712.9362],[36.7642,-1.3833,1729.1477],[36.7489,-1.3824,1743.4344],[36.7442,-1.3785,1761.3521],[36.7415,-1.3794,1763.8975],[36.7336,-1.3758,1784.7555],[36.7208,-1.3667,1798.4501],[36.7022,-1.3495,1852.8745],[36.6928,-1.3506,1852.5566],[36.6894,-1.3471,1864.1313],[36.6849,-1.3348,1879.4216],[36.6826,-1.3349,1872.6783],[36.6789,-1.326,1886.8342],[36.6749,-1.3278,1883.8958],[36.6691,-1.3236,1888.7355],[36.6728,-1.3219,1896.0309],[36.6635,-1.3173,1894.7708],[36.6662,-1.3125,1905.9366],[36.6625,-1.3072,1896.4973],[36.6618,-1.3027,1949.4597],[36.6597,-1.3005,1946.2251],[36.6484,-1.2984,2006.5254],[36.6479,-1.3198,1996.2451],[36.6422,-1.3202,2004.417],[36.6432,-1.329,1994.2538],[36.639,-1.3327,2003.9006],[36.6426,-1.3407,1964.4604],[36.6512,-1.3485,1949.165],[36.6529,-1.3561,1949.2229],[36.6467,-1.3562,1983.2178],[36.6467,-1.3647,2011.568],[36.6284,-1.3675,1968.5665],[36.6307,-1.3792,2032.613],[36.6355,-1.3822,2239.1519],[36.6376,-1.3854,2290.8828],[36.6346,-1.3976,2150.8018],[36.6359,-1.4056,2278.1741],[36.6459,-1.4001,2216.8057],[36.6529,-1.3985,2140.2095],[36.6633,-1.3974,2000.5858],[36.6868,-1.3988,1878.0369],[36.6871,-1.4112,1873.905],[36.6845,-1.4217,1848.6351],[36.6866,-1.4277,1832.6035],[36.6838,-1.434,1825.4518],[36.6886,-1.4362,1807.9585],[36.6894,-1.441,1823.2805],[36.6946,-1.4379,1799.0349],[36.697,-1.4341,1832.6584],[36.7038,-1.4369,1790.2283],[36.7091,-1.43,1822.0057],[36.7129,-1.431,1800.1572],[36.7183,-1.4298,1756.6626],[36.7202,-1.4246,1759.2957],[36.7224,-1.4228,1771.896],[36.7329,-1.4207,1755.1655],[36.7348,-1.4215,1744.0216],[36.7395,-1.4191,1760.4747],[36.7451,-1.4196,1743.3324],[36.7477,-1.4177,1744.1489],[36.7476,-1.4158,1751.8206],[36.7508,-1.4165,1733.1887],[36.7582,-1.4113,1738.0692],[36.7611,-1.4122,1731.3809],[36.7659,-1.4105,1716.5908],[36.7661,-1.4059,1717.5325],[36.7681,-1.4075,1715.7123],[36.773,-1.4055,1718.4115],[36.7724,-1.4078,1712.7939],[36.7743,-1.4094,1706.5347],[36.7747,-1.4069,1710.5947],[36.7784,-1.4053,1713.1774],[36.7775,-1.4037,1716.6245],[36.785,-1.4051,1715.1294],[36.7854,-1.4027,1710.5581],[36.7908,-1.4015,1705.5399],[36.7938,-1.397,1693.3005],[36.8027,-1.3897,1671.0452],[36.82,-1.388,1655.9966],[36.8203,-1.3796,1636.4421],[36.8148,-1.3797,1659.7058],[36.8116,-1.3843,1667.2456],[36.8094,-1.383,1669.6899],[36.8088,-1.3857,1657.3032],[36.8059,-1.387,1666.7089],[36.8051,-1.3844,1676.1184],[36.8026,-1.3864,1675.0571],[36.8002,-1.385,1683.152],[36.796,-1.3859,1684.3677],[36.7954,-1.3834,1686.698],[36.7937,-1.3829,1686.9253],[36.7896,-1.3858,1685.7479],[36.7868,-1.3848,1690.5618],[36.7829,-1.3868,1691.3035],[36.7801,-1.3839,1705.3407],[36.7725,-1.3865,1713.7686],[36.7679,-1.3864,1709.7682]]]]}
,"properties": {"GID_2": "KEN.10.3_1","GID_0": "KEN","country": "Kenya","GID_1": "KEN.10_1","province": "Kajiado","NL_NAME_1": "NA","county": "KajiadoNorth","VARNAME_2": "NA","NL_NAME_2": "NA","TYPE_2": "Constituency","ENGTYPE_2": "Constituency","CC_2": "183","HASC_2": "NA","name": "Kajiado_North.county","area_km2": 112.55106,"hist_schema_id": "Elevation0-9000","hist_area_km2": {"1625": 0.08478,"1650": 0.82664,"1675": 1.46252,"1700": 4.49354,"1725": 6.10442,"1750": 9.91967,"1775": 10.7887,"1800": 6.42236,"1825": 7.01584,"1850": 9.79256,"1875": 14.30739,"1900": 9.11439,"1925": 6.04094,"1950": 6.21051,"1975": 5.34147,"2000": 4.45122,"2025": 1.75928,"2050": 1.6321,"2075": 1.20818,"2100": 1.10219,"2125": 0.80545,"2150": 0.59349,"2175": 0.48751,"2200": 0.61468,"2225": 0.46631,"2250": 0.31794,"2275": 0.19076,"2300": 0.36033,"2325": 0.29674,"2350": 0.14837,"2375": 0.16957,"2400": 0.0212}}}