{"type": "Feature","bbox": [35.088,0.0248,35.2643,0.0959],"geometry": {"type": "MultiPolygon","coordinates": [[[[35.088,0.0508,1818.7537],[35.0906,0.0439,1775.2242],[35.0892,0.0408,1741.7012],[35.0924,0.0376,1750.3291],[35.0914,0.0358,1728.5562],[35.0944,0.0347,1814.4795],[35.0948,0.0328,1786.3158],[35.0966,0.0333,1826.3733],[35.0964,0.0314,1770.0803],[35.1168,0.0316,1551.915],[35.1127,0.0248,1653.584],[35.1556,0.0313,1633.045],[35.159,0.0453,2071.312],[35.1996,0.0319,1505.5752],[35.2016,0.037,1530.7657],[35.1993,0.0447,1565.1812],[35.2038,0.0433,1702.3302],[35.2082,0.0449,1627.6617],[35.2103,0.0468,1639.1946],[35.2103,0.0494,1667.2183],[35.2152,0.0542,1723.7964],[35.2226,0.0549,1827.6121],[35.232,0.0527,1993.587],[35.2535,0.0591,2152.4922],[35.2583,0.0555,2167.3523],[35.2643,0.063,2162.6399],[35.2586,0.0639,2159.9297],[35.2488,0.0687,2109.0769],[35.2367,0.079,2061.4167],[35.2321,0.0761,2102.4436],[35.2278,0.0765,2084.6384],[35.2184,0.0815,2132.1719],[35.2177,0.0834,2159.3132],[35.2143,0.084,2057.2837],[35.2106,0.0772,1992.3218],[35.2105,0.069,1933.5211],[35.2048,0.063,1785.0984],[35.2012,0.067,1805.0953],[35.2009,0.0712,1906.2925],[35.1987,0.0695,1850.8912],[35.194,0.0712,1864.4056],[35.1852,0.0709,1870.2845],[35.1803,0.068,1832.5211],[35.1775,0.0733,1871.3506],[35.1662,0.0741,2025.6362],[35.1639,0.0791,2042.6443],[35.1596,0.0808,2069.8232],[35.1552,0.0864,2087.532],[35.1508,0.0863,2085.679],[35.1467,0.0889,2051.3276],[35.1427,0.0959,2043.9064],[35.1358,0.0851,2082.2444],[35.1082,0.0914,1906.2047],[35.1069,0.0861,1881.4983],[35.1079,0.0795,1869.5914],[35.1063,0.0752,1880.5883],[35.1015,0.071,1882.481],[35.1004,0.0672,1877.269],[35.1017,0.0635,1842.121],[35.0963,0.0568,1867.1803],[35.0892,0.0541,1831.1749],[35.088,0.0508,1818.7537]]]]}
,"properties": {"GID_3": "KEN.32.6.2_1","GID_0": "KEN","country": "Kenya","GID_1": "KEN.32_1","province": "Nandi","NL_NAME_1": "NA","GID_2": "KEN.32.6_1","county": "Tinderet","NL_NAME_2": "NA","city": "Kapsimotwo","VARNAME_3": "NA","NL_NAME_3": "NA","TYPE_3": "Ward","ENGTYPE_3": "Ward","CC_3": "754","HASC_3": "NA","name": "Kapsimotwo.city","area_km2": 77.04878,"hist_schema_id": "Elevation0-9000","hist_area_km2": {"1475": 0.0424,"1500": 0.25443,"1525": 0.25443,"1550": 0.48765,"1575": 0.53006,"1600": 0.74208,"1625": 1.10251,"1650": 1.20853,"1675": 1.52656,"1700": 1.39935,"1725": 1.71738,"1750": 2.52306,"1775": 2.84109,"1800": 3.32875,"1825": 3.37115,"1850": 5.25814,"1875": 6.7211,"1900": 4.74929,"1925": 3.73159,"1950": 3.26514,"1975": 4.26164,"2000": 4.62208,"2025": 5.51257,"2050": 6.33946,"2075": 6.02142,"2100": 3.22273,"2125": 1.14492,"2150": 0.33924,"2175": 0.40284,"2200": 0.10601,"2225": 0.0212}}}