{"type": "Feature","bbox": [34.8657,0.6907,34.9409,0.8518],"geometry": {"type": "MultiPolygon","coordinates": [[[[34.9222,0.7295,1633.4272],[34.9229,0.7341,1634.1875],[34.9295,0.7465,1652.2454],[34.934,0.7441,1633.9208],[34.9357,0.747,1631.4939],[34.9377,0.7472,1631.5377],[34.94,0.7447,1629.896],[34.9396,0.7515,1633.9128],[34.9409,0.7527,1639.2239],[34.9394,0.7533,1632.8601],[34.9394,0.758,1638.4966],[34.9374,0.7597,1637.3375],[34.939,0.7603,1637.3375],[34.9367,0.7622,1639.1664],[34.9374,0.7676,1664.6488],[34.9354,0.7689,1665.1113],[34.935,0.7717,1659.9851],[34.9328,0.7745,1671.7334],[34.9291,0.7743,1662.8098],[34.9286,0.7763,1664.7954],[34.9261,0.7768,1653.3975],[34.9264,0.7795,1669.3864],[34.9215,0.7807,1672.432],[34.9225,0.7819,1672.432],[34.9214,0.784,1682.5112],[34.9173,0.7837,1662.3835],[34.9143,0.7879,1654.4044],[34.9127,0.8008,1668.2075],[34.9166,0.8064,1673.2787],[34.9157,0.8088,1673.082],[34.9173,0.8095,1668.0629],[34.9173,0.8157,1666.9048],[34.9192,0.8183,1687.7017],[34.9168,0.8191,1669.8308],[34.9184,0.8235,1669.5812],[34.9169,0.8238,1673.2185],[34.9148,0.8279,1691.2993],[34.9198,0.8342,1678.8396],[34.9179,0.8353,1681.6816],[34.9173,0.8397,1678.9736],[34.9188,0.8419,1684.0769],[34.9175,0.8437,1689.7272],[34.9162,0.8422,1680.7241],[34.9158,0.8485,1692.4802],[34.9135,0.8518,1712.6454],[34.8705,0.8303,1766.3058],[34.8709,0.8276,1768.2019],[34.8657,0.8109,1751.2043],[34.8718,0.7939,1723.7747],[34.8852,0.7763,1731.4495],[34.8897,0.7643,1744.3195],[34.8954,0.7613,1721.778],[34.8969,0.7436,1740.4592],[34.8896,0.7359,1709.4086],[34.8861,0.7268,1734.3429],[34.8856,0.6966,1619.2471],[34.8875,0.6919,1606.6873],[34.8925,0.6957,1612.6785],[34.8994,0.6907,1626.5671],[34.9097,0.691,1610.0924],[34.9127,0.6969,1631.5958],[34.9179,0.6989,1622.801],[34.9198,0.7045,1642.3538],[34.9263,0.7064,1618.746],[34.9294,0.7129,1620.1948],[34.9291,0.716,1617.0352],[34.9223,0.7269,1627.72],[34.9222,0.7295,1633.4272]]]]}
,"properties": {"GID_3": "KEN.3.9.3_1","GID_0": "KEN","country": "Kenya","GID_1": "KEN.3_1","province": "Bungoma","NL_NAME_1": "NA","GID_2": "KEN.3.9_1","county": "Tongaren","NL_NAME_2": "NA","city": "Naitiri/Kabuyefwe","VARNAME_3": "NA","NL_NAME_3": "NA","TYPE_3": "Ward","ENGTYPE_3": "Ward","CC_3": "1116","HASC_3": "NA","name": "Naitiri_Kabuyefwe.city","area_km2": 77.23261,"hist_schema_id": "Elevation0-9000","hist_area_km2": {"1600": 0.25441,"1625": 4.40972,"1650": 11.08783,"1675": 15.85784,"1700": 17.72339,"1725": 14.64935,"1750": 10.09127,"1775": 3.1588}}}