{"type": "Feature","bbox": [34.428,-0.0884,34.5651,-0.01],"geometry": {"type": "MultiPolygon","coordinates": [[[[34.5208,-0.0758,1330.6367],[34.5225,-0.0674,1345.4003],[34.5326,-0.0689,1347.519],[34.5393,-0.0659,1306.6313],[34.546,-0.0685,1272.1028],[34.5455,-0.0572,1418.1069],[34.5475,-0.0513,1468.5881],[34.5501,-0.0488,1478.3489],[34.5559,-0.0478,1382.5325],[34.5584,-0.0415,1469.7773],[34.562,-0.0407,1452.702],[34.5651,-0.0374,1447.1858],[34.5608,-0.0298,1511.5537],[34.5617,-0.0268,1519.3313],[34.5606,-0.0253,1518.1758],[34.5639,-0.0224,1522.2135],[34.564,-0.0192,1503.9432],[34.5611,-0.0165,1493.7297],[34.5643,-0.014,1463.4623],[34.5555,-0.013,1461.2399],[34.5513,-0.017,1456.1553],[34.5477,-0.0179,1407.2084],[34.5421,-0.0137,1403.7296],[34.5383,-0.0136,1352.9438],[34.533,-0.01,1342.5981],[34.5296,-0.0156,1360.5476],[34.5266,-0.0151,1367.2859],[34.5072,-0.0222,1356.9646],[34.4854,-0.0266,1355.9642],[34.472,-0.0355,1312.6591],[34.4617,-0.0385,1327.4204],[34.4573,-0.0424,1350.5168],[34.4547,-0.0422,1354.4183],[34.4396,-0.0541,1345.7484],[34.4312,-0.0571,1328.7782],[34.4319,-0.0586,1339.478],[34.428,-0.0626,1324.9761],[34.4337,-0.0674,1341.3661],[34.4433,-0.07,1326.7471],[34.4431,-0.0728,1324.3525],[34.4465,-0.0735,1329.4194],[34.4468,-0.0765,1302.6519],[34.4486,-0.0779,1301.5822],[34.4499,-0.077,1294.5276],[34.4545,-0.0785,1299.7335],[34.4581,-0.0805,1279.5593],[34.46,-0.0841,1244.8063],[34.4634,-0.0848,1237.601],[34.4627,-0.0864,1230.4963],[34.4684,-0.0884,1236.8126],[34.4724,-0.0852,1216.6711],[34.4797,-0.083,1208.2059],[34.486,-0.0837,1260.681],[34.4947,-0.0716,1290.9847],[34.506,-0.0733,1323.7122],[34.5098,-0.0771,1339.8466],[34.5208,-0.0758,1330.6367]]]]}
,"properties": {"GID_3": "KEN.17.7.3_1","GID_0": "KEN","country": "Kenya","GID_1": "KEN.17_1","province": "Kisumu","NL_NAME_1": "NA","GID_2": "KEN.17.7_1","county": "Seme","NL_NAME_2": "NA","city": "NorthSeme","VARNAME_3": "NA","NL_NAME_3": "NA","TYPE_3": "Ward","ENGTYPE_3": "Ward","CC_3": "1205","HASC_3": "NA","name": "North_Seme.city","area_km2": 71.45141,"hist_schema_id": "Elevation0-9000","hist_area_km2": {"1200": 0.12721,"1225": 2.62907,"1250": 4.11323,"1275": 5.85181,"1300": 10.00744,"1325": 13.10296,"1350": 13.01815,"1375": 9.35017,"1400": 3.18033,"1425": 2.67148,"1450": 2.62907,"1475": 3.45596,"1500": 0.89049,"1525": 0.42404}}}