{"type": "Feature","bbox": [37.8678,-1.578,38.0056,-1.3293],"geometry": {"type": "MultiPolygon","coordinates": [[[[37.9806,-1.3293,1178.8794],[37.9705,-1.3353,1160.5891],[37.9705,-1.3375,1164.0035],[37.9682,-1.3392,1167.3276],[37.9639,-1.3399,1145.4963],[37.9615,-1.3373,1149.7466],[37.9581,-1.3364,1153.9545],[37.9573,-1.3387,1153.623],[37.952,-1.3413,1145.1807],[37.9513,-1.3431,1139.5092],[37.953,-1.344,1138.0598],[37.9511,-1.3447,1139.8151],[37.9485,-1.3445,1135.0383],[37.949,-1.3411,1150.3896],[37.9456,-1.3414,1137.957],[37.9451,-1.3398,1151.3716],[37.9402,-1.3448,1106.8073],[37.939,-1.3436,1131.7268],[37.9402,-1.3412,1148.129],[37.9346,-1.344,1096.6367],[37.9296,-1.3399,1122.0359],[37.9266,-1.3404,1104.4435],[37.928,-1.3426,1103.4629],[37.924,-1.3435,1118.316],[37.9248,-1.346,1108.1068],[37.921,-1.3438,1121.2789],[37.9202,-1.3457,1106.095],[37.9173,-1.3456,1120.5601],[37.9162,-1.347,1090.4679],[37.9131,-1.3461,1092.8406],[37.9113,-1.3492,1094.7949],[37.9076,-1.3483,1076.6353],[37.9089,-1.3459,1110.113],[37.9062,-1.3447,1094.6703],[37.906,-1.3478,1092.0212],[37.9024,-1.3485,1097.1128],[37.9046,-1.3504,1072.0769],[37.9018,-1.3515,1081.8112],[37.9022,-1.3551,1068.7986],[37.8999,-1.3492,1117.1744],[37.8974,-1.3522,1075.8077],[37.8867,-1.3528,1065.0281],[37.8853,-1.3513,1076.6727],[37.8839,-1.3523,1058.3127],[37.881,-1.3505,1083.8777],[37.8801,-1.3516,1059.8167],[37.8761,-1.3504,1096.5706],[37.8711,-1.3525,1051.9578],[37.8733,-1.3544,1031.788],[37.8724,-1.3582,1045.5295],[37.8742,-1.3608,1042.0789],[37.8707,-1.3605,1039.1482],[37.8702,-1.3589,1055.2898],[37.8678,-1.3606,1041.2112],[37.8687,-1.3701,1022.8582],[37.8716,-1.3705,1021.9497],[37.8713,-1.3738,1015.407],[37.8739,-1.3778,1029.1555],[37.8721,-1.3803,1017.4271],[37.8762,-1.3859,1020.8074],[37.8769,-1.3951,1009.5978],[37.8757,-1.3965,1007.1513],[37.8781,-1.4008,1016.9645],[37.8789,-1.407,1000.2767],[37.8785,-1.425,999.0513],[37.8789,-1.4264,997.2041],[37.8813,-1.4259,1003.1882],[37.882,-1.4353,1008.8372],[37.8807,-1.4379,1003.3422],[37.8817,-1.4426,1002.8873],[37.8788,-1.4456,996.4349],[37.8818,-1.4487,986.5463],[37.8789,-1.4521,1004.791],[37.8818,-1.4604,985.4091],[37.8798,-1.4609,991.9879],[37.8794,-1.464,993.3949],[37.8819,-1.4693,980.3962],[37.8812,-1.4756,985.6871],[37.8835,-1.4761,983.4622],[37.883,-1.4785,976.5223],[37.8874,-1.4798,984.8713],[37.8844,-1.4827,975.8657],[37.8854,-1.485,973.4854],[37.8837,-1.4873,979.6336],[37.8873,-1.4942,972.1407],[37.8855,-1.4985,975.6781],[37.8873,-1.4987,969.5029],[37.8863,-1.5016,966.5386],[37.8887,-1.5034,967.4025],[37.9002,-1.5049,962.2753],[37.8974,-1.5073,963.8539],[37.8984,-1.5122,972.4272],[37.9003,-1.5135,961.5739],[37.8978,-1.5171,963.3246],[37.8998,-1.5205,958.3804],[37.8966,-1.5228,962.8949],[37.8928,-1.5222,964.4755],[37.8928,-1.5248,953.9976],[37.8902,-1.5248,955.8873],[37.8893,-1.5278,954.3864],[37.8882,-1.5261,955.8873],[37.8866,-1.5265,957.3022],[37.8833,-1.532,952.7576],[37.8848,-1.5337,949.4285],[37.8837,-1.5369,947.973],[37.8847,-1.5407,944.1515],[37.8803,-1.5426,948.6595],[37.8814,-1.546,947.5428],[37.8792,-1.5478,953.8785],[37.8818,-1.5498,939.6357],[37.8792,-1.553,945.2798],[37.8813,-1.5558,937.4243],[37.8797,-1.5731,950.8877],[37.882,-1.578,934.5077],[37.8832,-1.5753,935.371],[37.8858,-1.5767,935.197],[37.889,-1.5739,949.7104],[37.8901,-1.576,942.9323],[37.8926,-1.5756,939.1718],[37.8927,-1.5686,942.5844],[37.8945,-1.5665,941.1849],[37.8936,-1.564,945.357],[37.8965,-1.5614,949.5855],[37.8938,-1.5615,952.077],[37.8946,-1.5581,956.4949],[37.8967,-1.5572,952.894],[37.8976,-1.5538,959.3204],[37.8999,-1.5542,959.7375],[37.9007,-1.5513,956.3642],[37.9026,-1.5517,956.3642],[37.9005,-1.5483,976.276],[37.9055,-1.5473,959.4487],[37.9018,-1.5448,959.0264],[37.9016,-1.5416,969.3588],[37.9039,-1.5406,965.9506],[37.9039,-1.5377,971.3019],[37.9058,-1.5376,967.3315],[37.9081,-1.5266,989.7468],[37.9123,-1.5261,986.2383],[37.916,-1.5238,974.4483],[37.9156,-1.5223,975.1368],[37.9201,-1.5207,971.5642],[37.92,-1.5176,974.9088],[37.9183,-1.5161,983.1067],[37.9208,-1.5155,982.2836],[37.9205,-1.5137,984.6434],[37.9228,-1.5124,982.3854],[37.9224,-1.5108,995.3436],[37.919,-1.5102,980.8997],[37.9191,-1.5081,993.2343],[37.9164,-1.5076,986.8568],[37.9176,-1.5065,986.0673],[37.9163,-1.5012,1005.0159],[37.9183,-1.5016,987.1454],[37.9208,-1.4981,998.6943],[37.9228,-1.4983,992.5958],[37.9251,-1.4954,991.629],[37.9245,-1.4921,1001.2361],[37.9268,-1.4922,990.9379],[37.9276,-1.4895,996.8281],[37.9264,-1.4888,995.4069],[37.9284,-1.4886,996.8281],[37.928,-1.4874,1006.9838],[37.9327,-1.488,1000.3348],[37.9338,-1.4843,999.5321],[37.9356,-1.4843,1003.7148],[37.9355,-1.4826,1003.7853],[37.9383,-1.4812,1017.6188],[37.9401,-1.4825,1005.6476],[37.9453,-1.4797,1018.2642],[37.946,-1.4825,1004.887],[37.9479,-1.4808,1005.3843],[37.9477,-1.4742,1027.0637],[37.9508,-1.4727,1009.1578],[37.9483,-1.4667,1013.422],[37.9519,-1.4621,1020.2995],[37.9497,-1.4579,1029.021],[37.9522,-1.455,1030.6282],[37.9496,-1.4541,1023.2262],[37.9498,-1.4502,1029.915],[37.9594,-1.4502,1025.6982],[37.9635,-1.4452,1049.5686],[37.9652,-1.4454,1039.48],[37.9649,-1.4431,1044.6174],[37.9491,-1.4312,1042.7784],[37.9585,-1.4172,1050.6914],[37.9579,-1.4142,1062.0845],[37.9542,-1.4127,1054.7745],[37.9538,-1.409,1066.2869],[37.9556,-1.4066,1073.4905],[37.9671,-1.4013,1098.3788],[37.9809,-1.3897,1096.5046],[37.9848,-1.3898,1094.4299],[37.9857,-1.3912,1099.9443],[37.9864,-1.3883,1118.0057],[37.9879,-1.3897,1084.5876],[37.9892,-1.3888,1085.8787],[37.9917,-1.3836,1088.0137],[37.99,-1.3828,1103.6794],[37.9921,-1.3819,1095.5386],[37.9893,-1.3749,1103.0865],[37.9916,-1.3678,1114.7236],[37.993899999999996,-1.3654,1133.2593],[37.9988,-1.366,1128.9983],[37.9986,-1.3638,1137.7061],[38.0027,-1.3624,1126.5905],[38.0056,-1.3576,1127.4255],[38.005,-1.353,1132.8904],[37.997,-1.349,1164.6071],[37.994,-1.3388,1169.314],[37.9806,-1.3293,1178.8794]]]]}
,"properties": {"GID_3": "KEN.18.1.2_1","GID_0": "KEN","country": "Kenya","GID_1": "KEN.18_1","province": "Kitui","NL_NAME_1": "NA","GID_2": "KEN.18.1_1","county": "KituiCentral","NL_NAME_2": "NA","city": "KyangwithyaWest","VARNAME_3": "NA","NL_NAME_3": "NA","TYPE_3": "Ward","ENGTYPE_3": "Ward","CC_3": "356","HASC_3": "NA","name": "Kyangwithya_West.city","area_km2": 186.4584,"hist_schema_id": "Elevation0-9000","hist_area_km2": {"925": 0.657,"950": 6.7822,"975": 11.6571,"1000": 16.3839,"1025": 24.0993,"1050": 27.9146,"1075": 24.8627,"1100": 25.1172,"1125": 25.4565,"1150": 18.1228,"1175": 5.3627,"1200": 0.0424}}}