{"type":"Feature","properties":{"GID_3":"KEN.33.6.1_1","GID_0":"KEN","country":"Kenya","GID_1":"KEN.33_1","province":"Narok","NL_NAME_1":"NA","GID_2":"KEN.33.6_1","county":"NarokWest","NL_NAME_2":"NA","city":"Ilmotiok","VARNAME_3":"NA","NL_NAME_3":"NA","TYPE_3":"Ward","ENGTYPE_3":"Ward","CC_3":"907","HASC_3":"NA","name":"Ilmotiok.city"},
"geometry":{"type": "MultiPolygon","coordinates": [[[[35.463,-0.8583,1905.6682],[35.4609,-0.8588,1928.3793],[35.4624,-0.8626,1883.7985],[35.4608,-0.8635,1901.3281],[35.4609,-0.8666,1885.021],[35.4621,-0.8674,1885.021],[35.46,-0.8675,1881.299],[35.4594,-0.8698,1906.9041],[35.4577,-0.8683,1901.3617],[35.4551,-0.872,1913.2391],[35.4565,-0.8752,1886.2513],[35.4545,-0.8777,1892.8027],[35.4557,-0.879,1877.5138],[35.4532,-0.8782,1884.4949],[35.4536,-0.8759,1912.8494],[35.4503,-0.8791,1885.4453],[35.4485,-0.8765,1899.2404],[35.4455,-0.8774,1883.5007],[35.4458,-0.8802,1874.3809],[35.4433,-0.8803,1892.5251],[35.4426,-0.8844,1879.0],[35.4424,-0.8823,1887.7571],[35.439,-0.8816,1892.3481],[35.4392,-0.8848,1874.5381],[35.4411,-0.8863,1867.2993],[35.4404,-0.8896,1854.8567],[35.4375,-0.8898,1866.5039],[35.4358,-0.8928,1871.7131],[35.4318,-0.8921,1849.5405],[35.4308,-0.8894,1852.4807],[35.4294,-0.8942,1846.0133],[35.4309,-0.8971,1846.7117],[35.429,-0.8999,1849.9097],[35.4271,-0.8989,1846.0751],[35.4238,-0.9003,1852.1548],[35.4282,-0.9123,1841.6592],[35.4248,-0.9128,1846.3076],[35.4224,-0.9166,1852.7991],[35.4255,-0.9187,1832.7469],[35.425,-0.9299,1816.1813],[35.4284,-0.9321,1837.2837],[35.4311,-0.9369,1833.188],[35.4284,-0.943,1812.5791],[35.4324,-0.9503,1831.7245],[35.4324,-0.9632,1838.853],[35.4438,-0.9726,1855.1597],[35.4532,-0.9832,1883.5286],[35.4578,-1.0033,1938.1584],[35.4601,-1.0067,1917.7059],[35.4694,-1.0078,1921.1604],[35.4817,-1.0129,1940.038],[35.4908,-1.0334,1971.868],[35.4911,-1.0371,1975.3353],[35.5006,-1.0385,1993.0746],[35.5111,-1.0428,1999.5857],[35.5669,-1.1213,1934.6003],[35.5798,-1.1091,1925.1581],[35.57,-1.1022,1924.5109],[35.5679,-1.0946,1934.751],[35.5608,-1.0917,1930.667],[35.5538,-1.0718,1945.736],[35.5494,-1.0645,1948.3955],[35.5488,-1.0556,1954.2135],[35.5509,-1.0457,1959.6073],[35.556399999999996,-1.0342,1965.1586],[35.5642,-1.0281,1975.512],[35.5659,-1.0239,1974.1747],[35.5664,-1.0192,1976.6279],[35.5625,-1.0089,1993.1207],[35.567,-0.9977,1997.4993],[35.5678,-0.9934,2005.8262],[35.5663,-0.9899,2009.2507],[35.5588,-0.9825,2028.5275],[35.5375,-0.9712,1975.8567],[35.5338,-0.9637,1992.4348],[35.53,-0.9608,1980.5156],[35.5206,-0.962,1992.3445],[35.5077,-0.9601,1975.9237],[35.5034,-0.958,1976.3062],[35.5025,-0.9596,1970.868],[35.4976,-0.9597,1957.8202],[35.4955,-0.9582,1973.1062],[35.4841,-0.9581,1939.6062],[35.5084,-0.911,1979.7792],[35.5131,-0.9056,1969.4979],[35.5144,-0.9061,1981.2856],[35.5197,-0.9021,1985.3665],[35.5212,-0.8975,1963.8833],[35.5251,-0.8955,1995.444],[35.5317,-0.8952,2000.5386],[35.532,-0.8933,2006.2693],[35.5339,-0.8931,1996.8566],[35.5338,-0.8898,1996.4329],[35.5363,-0.888,2004.869],[35.539,-0.8821,2026.9563],[35.5441,-0.8791,2020.5331],[35.5561,-0.8617,2027.0503],[35.5553,-0.8542,2068.2114],[35.5511,-0.8484,2066.7129],[35.5417,-0.8414,2139.3716],[35.5319,-0.8307,2113.5669],[35.5291,-0.8324,2111.9626],[35.5245,-0.8315,2048.7585],[35.5109,-0.8341,1998.9222],[35.4983,-0.8272,1942.9529],[35.4966,-0.8299,1926.6617],[35.4928,-0.8299,1920.3945],[35.4886,-0.833,1914.4177],[35.4864,-0.8286,1951.6825],[35.4845,-0.8282,1965.7921],[35.4844,-0.8311,1954.4412],[35.4816,-0.8317,1965.1226],[35.4815,-0.8337,1946.7234],[35.4791,-0.8349,1943.2976],[35.4798,-0.8371,1930.8752],[35.4777,-0.8384,1950.3909],[35.4772,-0.8409,1943.8615],[35.4797,-0.843,1901.1533],[35.4784,-0.844,1942.0377],[35.4792,-0.8461,1915.53],[35.4774,-0.8456,1911.4606],[35.476,-0.8487,1906.6023],[35.4774,-0.8491,1903.0334],[35.4714,-0.851,1919.7509],[35.4728,-0.8544,1909.1531],[35.4717,-0.8556,1920.2635],[35.4717,-0.8544,1923.0115],[35.4695,-0.8547,1933.8787],[35.4681,-0.8582,1910.6693],[35.4666,-0.857,1914.1462],[35.463,-0.8583,1905.6682]]]]}}