{"type":"Feature","properties":{"GID_2":"KEN.17.7_1","GID_0":"KEN","country":"Kenya","GID_1":"KEN.17_1","province":"Kisumu","NL_NAME_1":"NA","county":"Seme","VARNAME_2":"NA","NL_NAME_2":"NA","TYPE_2":"Constituency","ENGTYPE_2":"Constituency","CC_2":"241","HASC_2":"NA","name":"Seme.county"},
"geometry":{"type": "MultiPolygon","coordinates": [[[[34.4804,-0.2867,1133.0],[34.483,-0.2947,1133.0],[34.6676,-0.1853,1133.0],[34.5813,-0.1861,1133.0],[34.5734,-0.1372,1150.9875],[34.5819,-0.1063,1241.9529],[34.5899,-0.0984,1251.4702],[34.5921,-0.0872,1292.6764],[34.5964,-0.0839,1270.0225],[34.6008,-0.0698,1277.1377],[34.5965,-0.0572,1351.4507],[34.5924,-0.0524,1407.4055],[34.5854,-0.0392,1412.4111],[34.5829,-0.0276,1460.08],[34.5765,-0.0318,1481.2241],[34.5701,-0.0324,1477.2432],[34.5651,-0.0362,1458.6235],[34.564,-0.0348,1460.009],[34.5608,-0.0298,1511.5537],[34.5617,-0.0268,1519.3313],[34.5606,-0.0253,1518.1758],[34.5639,-0.0224,1522.2135],[34.564,-0.0192,1503.9432],[34.5611,-0.0165,1493.7297],[34.5643,-0.014,1463.4623],[34.5633,-0.0134,1463.4623],[34.5555,-0.013,1461.2399],[34.5513,-0.017,1456.1553],[34.5477,-0.0179,1407.2084],[34.5421,-0.0137,1403.7296],[34.5383,-0.0136,1352.9438],[34.533,-0.01,1342.5981],[34.5296,-0.0156,1360.5476],[34.5266,-0.0151,1367.2859],[34.5072,-0.0222,1356.9646],[34.4854,-0.0266,1355.9642],[34.472,-0.0355,1312.6591],[34.4617,-0.0385,1327.4204],[34.4573,-0.0424,1350.5168],[34.4547,-0.0422,1354.4183],[34.4396,-0.0541,1345.7484],[34.4312,-0.0571,1328.7782],[34.4319,-0.0586,1339.478],[34.4251,-0.0627,1316.3547],[34.4158,-0.0744,1326.2239],[34.4164,-0.0846,1318.1733],[34.4151,-0.089,1311.151],[34.426,-0.1162,1206.0948],[34.4318,-0.141,1177.7903],[34.4804,-0.2867,1133.0]]]]}}