{"type":"Feature","properties":{"GID_2":"KEN.30.2_1","GID_0":"KEN","country":"Kenya","GID_1":"KEN.30_1","province":"Nairobi","NL_NAME_1":"NA","county":"DagorettiSouth","VARNAME_2":"NA","NL_NAME_2":"NA","TYPE_2":"Constituency","ENGTYPE_2":"Constituency","CC_2":"276","HASC_2":"NA","name":"Dagoretti_South.county"},
"geometry":{"type": "MultiPolygon","coordinates": [[[[36.7538,-1.2918,1797.4084],[36.7513,-1.289,1804.0986],[36.7539,-1.2861,1795.7454],[36.7537,-1.2825,1798.1399],[36.7492,-1.2717,1814.9172],[36.7373,-1.2754,1838.843],[36.7184,-1.2606,1905.4829],[36.7255,-1.2485,1849.1442],[36.7252,-1.2447,1836.7117],[36.7184,-1.2566,1898.3409],[36.7156,-1.2543,1888.8634],[36.7026,-1.2518,1929.8831],[36.7005,-1.2559,1942.2856],[36.6964,-1.2536,1946.537],[36.6937,-1.2539,1945.0756],[36.6949,-1.2558,1950.7432],[36.6931,-1.2578,1942.8165],[36.6966,-1.262,1890.639],[36.6931,-1.2622,1899.3191],[36.6947,-1.2643,1892.6509],[36.6901,-1.2652,1885.8762],[36.6915,-1.2731,1885.9768],[36.6893,-1.273,1889.6384],[36.6894,-1.2789,1888.9059],[36.6863,-1.2824,1886.2297],[36.6807,-1.2965,1891.275],[36.678,-1.2984,1930.7959],[36.6846,-1.2982,1889.6331],[36.6868,-1.2936,1883.2726],[36.6892,-1.2951,1880.6415],[36.6941,-1.295,1886.5312],[36.7067,-1.3027,1880.6842],[36.7085,-1.2951,1871.1245],[36.7234,-1.3008,1841.4011],[36.7267,-1.2943,1834.939],[36.7362,-1.2942,1823.4496],[36.737,-1.298,1815.2406],[36.7303,-1.2996,1828.9092],[36.7312,-1.3061,1845.6091],[36.7606,-1.2961,1777.3312],[36.7564,-1.2953,1800.7284],[36.7538,-1.2918,1797.4084]]]]}}