{"type":"Feature","properties":{"GID_3":"KEN.3.7.2_1","GID_0":"KEN","country":"Kenya","GID_1":"KEN.3_1","province":"Bungoma","NL_NAME_1":"NA","GID_2":"KEN.3.7_1","county":"Mt.Elgon","NL_NAME_2":"NA","city":"Chepyuk","VARNAME_3":"NA","NL_NAME_3":"NA","TYPE_3":"Ward","ENGTYPE_3":"Ward","CC_3":"1078","HASC_3":"NA","name":"Chepyuk.city"},
"geometry":{"type": "MultiPolygon","coordinates": [[[[34.5308,0.8349,2154.5896],[34.5661,0.8266,2154.7095],[34.5739,0.8206,2113.8328],[34.615,0.8429,2076.4661],[34.6207,0.8438,2029.9427],[34.6196,0.8487,2108.1138],[34.6226,0.8547,2144.0386],[34.6206,0.8615,2160.5786],[34.6146,0.8642,2211.3054],[34.6127,0.8686,2197.4888],[34.6133,0.8865,2294.8857],[34.611,0.8911,2270.9331],[34.6102,0.8992,2383.0908],[34.6005,0.9075,2444.8167],[34.603,0.9121,2451.625],[34.6007,0.9156,2481.575],[34.6017,0.9188,2528.5015],[34.5977,0.9336,2643.2014],[34.5996,0.9357,2654.0903],[34.5965,0.947,2867.2883],[34.5983,0.9499,2868.5547],[34.5979,0.9602,2942.3855],[34.6009,0.9638,2915.1348],[34.6019,0.9687,2922.1301],[34.5839,1.0037,3136.9675],[34.5755,1.043,3435.1484],[34.5615,1.0724,3860.3054],[34.5591,1.1038,4184.3467],[34.5408,1.1056,4164.7754],[34.5355,1.0923,4015.2234],[34.5286,1.0846,3874.8237],[34.5217,1.0621,3632.677],[34.5239,1.0505,3425.6953],[34.5315,1.0372,3289.3901],[34.533,1.027,3199.864],[34.5369,1.0212,3185.4875],[34.5366,0.9968,2995.3091],[34.5401,0.9862,2934.1313],[34.5365,0.9776,2991.7859],[34.5371,0.9713,2768.4336],[34.5337,0.9552,2672.8313],[34.5257,0.9413,2601.7903],[34.5251,0.9351,2454.6394],[34.5194,0.9256,2502.1409],[34.5186,0.9188,2368.3877],[34.5098,0.8984,2289.6978],[34.5127,0.8933,2203.4297],[34.5112,0.8652,2128.595],[34.5171,0.8577,2142.4685],[34.5225,0.8541,2134.3584],[34.5256,0.8481,2093.4233],[34.5206,0.8368,2031.7694],[34.5308,0.8349,2154.5896]]]]}}