{"type": "Feature","bbox": [35.0474,-0.6166,35.1344,-0.4993],"geometry": {"type": "MultiPolygon","coordinates": [[[[35.084,-0.594,1708.135],[35.0846,-0.593,1708.135],[35.0824,-0.5928,1730.6708],[35.081,-0.5907,1736.8657],[35.0853,-0.5888,1687.2352],[35.0857,-0.5872,1735.1196],[35.0943,-0.5859,1755.9542],[35.1053,-0.5712,1747.6438],[35.1069,-0.5652,1768.4836],[35.0998,-0.5561,1724.626],[35.0989,-0.5526,1711.6942],[35.1001,-0.543,1732.4945],[35.1127,-0.5472,1789.2251],[35.1187,-0.5434,1798.7172],[35.1203,-0.5394,1748.0889],[35.1145,-0.5251,1736.3623],[35.1153,-0.5198,1724.1207],[35.1231,-0.5195,1717.3347],[35.13,-0.5238,1789.0056],[35.1344,-0.5163,1757.3813],[35.126,-0.5108,1697.1301],[35.1179,-0.5024,1678.6555],[35.1108,-0.4993,1703.3372],[35.0962,-0.502,1733.7656],[35.0889,-0.5051,1673.2327],[35.0801,-0.503,1718.7844],[35.0782,-0.5047,1699.1064],[35.0743,-0.5034,1694.0872],[35.0735,-0.5058,1693.2844],[35.067,-0.5058,1656.9852],[35.0633,-0.5028,1691.4746],[35.0571,-0.502,1635.7941],[35.0529,-0.5069,1635.4878],[35.0522,-0.5136,1648.2943],[35.0506,-0.5131,1648.2943],[35.0479,-0.5164,1654.7964],[35.048,-0.5195,1646.7039],[35.0517,-0.5231,1732.7512],[35.053,-0.53,1762.613],[35.0491,-0.5325,1770.7833],[35.0528,-0.5397,1934.0085],[35.0496,-0.5411,1815.5972],[35.0513,-0.5482,1926.4882],[35.0497,-0.5504,1885.5505],[35.0508,-0.5598,1946.842],[35.0474,-0.5661,1862.8287],[35.0498,-0.5673,1892.1428],[35.0509,-0.5793,1930.3699],[35.0548,-0.5849,1823.6306],[35.0566,-0.5914,1864.2819],[35.0618,-0.5972,1814.1072],[35.0626,-0.6015,1821.8586],[35.0606,-0.6067,1903.5774],[35.0572,-0.6092,1881.4355],[35.0572,-0.6145,1805.0702],[35.0592,-0.6166,1807.1024],[35.0632,-0.6166,1816.9602],[35.067,-0.5992,1783.7878],[35.0696,-0.5949,1757.2377],[35.0726,-0.5931,1765.824],[35.084,-0.594,1708.135]]]]}
,"properties": {"GID_3": "KEN.12.3.7_1","GID_0": "KEN","country": "Kenya","GID_1": "KEN.12_1","province": "Kericho","NL_NAME_1": "NA","GID_2": "KEN.12.3_1","county": "Bureti","NL_NAME_2": "NA","city": "Tebesonik","VARNAME_3": "NA","NL_NAME_3": "NA","TYPE_3": "Ward","ENGTYPE_3": "Ward","CC_3": "951","HASC_3": "NA","name": "Tebesonik.city","area_km2": 66.72033,"hist_schema_id": "Elevation0-9000","hist_area_km2": {"1575": 0.12721,"1600": 0.69964,"1625": 1.90812,"1650": 3.56182,"1675": 7.56887,"1700": 11.3851,"1725": 11.15186,"1750": 10.26138,"1775": 6.89038,"1800": 3.6466,"1825": 1.95051,"1850": 1.52649,"1875": 1.16607,"1900": 1.03886,"1925": 1.44168,"1950": 1.18727,"1975": 0.80565,"2000": 0.36042,"2025": 0.0424}}}