{"type": "Feature","bbox": [36.7896,-1.3116,36.7943,-1.3071],"geometry": {"type": "MultiPolygon","coordinates": [[[[36.794,-1.3116,1710.5356],[36.7943,-1.3075,1730.5204],[36.7896,-1.3071,1736.7894],[36.7923,-1.3109,1722.6191],[36.794,-1.3116,1710.5356]]]]}
,"properties": {"GID_3": "KEN.30.10.1_1","GID_0": "KEN","country": "Kenya","GID_1": "KEN.30_1","province": "Nairobi","NL_NAME_1": "NA","GID_2": "KEN.30.10_1","county": "Kibra","NL_NAME_2": "NA","city": "LainiSaba","VARNAME_3": "NA","NL_NAME_3": "NA","TYPE_3": "Ward","ENGTYPE_3": "Ward","CC_3": "1386","HASC_3": "NA","name": "Laini_Saba.city","area_km2": 0.12718005,"hist_schema_id": "Elevation0-9000","hist_area_km2": {"1725": 0.10598336,"1750": 0.02119669}}}