{"type": "Feature","bbox": [39.6451,-4.0843,39.661,-4.0751],"geometry": {"type": "MultiPolygon","coordinates": [[[[39.6493,-4.0756,4.854],[39.6451,-4.0813,15.5697],[39.649,-4.0838,12.6214],[39.652,-4.0843,15.2086],[39.6528,-4.0829,15.2223],[39.661,-4.081,0.0],[39.6546,-4.0751,0.0],[39.6493,-4.0756,4.854]]]]}
,"properties": {"GID_3": "KEN.28.4.1_1","GID_0": "KEN","country": "Kenya","GID_1": "KEN.28_1","province": "Mombasa","NL_NAME_1": "NA","GID_2": "KEN.28.4_1","county": "Likoni","NL_NAME_2": "NA","city": "Bofu","VARNAME_3": "NA","NL_NAME_3": "NA","TYPE_3": "Ward","ENGTYPE_3": "Ward","CC_3": "23","HASC_3": "NA","name": "Bofu.city","area_km2": 1.0151273,"hist_schema_id": "Elevation0-9000","hist_area_km2": {"0": 0.4441184,"25": 0.5710089}}}