{"type":"Feature","properties":{"GID_3":"KEN.8.3.1_1","GID_0":"KEN","country":"Kenya","GID_1":"KEN.8_1","province":"HomaBay","NL_NAME_1":"NA","GID_2":"KEN.8.3_1","county":"Karachuonyo","NL_NAME_2":"NA","city":"Central","VARNAME_3":"NA","NL_NAME_3":"NA","TYPE_3":"Ward","ENGTYPE_3":"Ward","CC_3":"1232","HASC_3":"NA","name":"Central.city"},
"geometry":{"type": "MultiPolygon","coordinates": [[[[34.67,-0.4282,1230.1423],[34.6681,-0.4238,1223.3032],[34.6691,-0.4183,1245.8909],[34.6621,-0.4171,1222.6548],[34.6596,-0.4151,1217.1506],[34.6516,-0.4023,1180.1012],[34.6433,-0.3969,1175.2421],[34.6392,-0.3896,1176.823],[34.633,-0.3845,1160.0044],[34.6285,-0.3754,1148.8429],[34.6355,-0.3481,1135.5725],[34.6354,-0.2583,1133.0],[34.5837,-0.2625,1133.0],[34.5842,-0.3474,1140.3566],[34.573,-0.3597,1166.0001],[34.5727,-0.3792,1170.9695],[34.5712,-0.3871,1171.304],[34.5774,-0.394,1169.2461],[34.579,-0.404,1162.2721],[34.5808,-0.4068,1166.6229],[34.5861,-0.4095,1164.2167],[34.6004,-0.4109,1166.5665],[34.6085,-0.4095,1154.9529],[34.6136,-0.4114,1160.823],[34.6182,-0.4096,1164.4365],[34.623,-0.4028,1212.9175],[34.627,-0.4035,1209.4604],[34.6313,-0.4018,1210.0349],[34.6349,-0.4049,1207.8507],[34.6416,-0.407,1210.0815],[34.6537,-0.4186,1214.7906],[34.6567,-0.4244,1232.5605],[34.6606,-0.4249,1220.093],[34.6648,-0.4309,1245.6863],[34.67,-0.4282,1230.1423]]]]}}