{"type":"Feature","properties":{"GID_3":"KEN.35.1.6_1","GID_0":"KEN","country":"Kenya","GID_1":"KEN.35_1","province":"Nyandarua","NL_NAME_1":"NA","GID_2":"KEN.35.1_1","county":"Kinangop","NL_NAME_2":"NA","city":"Njabini\\Kiburu","VARNAME_3":"NA","NL_NAME_3":"NA","TYPE_3":"Ward","ENGTYPE_3":"Ward","CC_3":"445","HASC_3":"NA","name":"Njabini_Kiburu.city"},
"geometry":{"type": "MultiPolygon","coordinates": [[[[36.7223,-0.8006,2325.4111],[36.7241,-0.7853,2453.5359],[36.7205,-0.7805,2458.4084],[36.7194,-0.7731,2428.6245],[36.7237,-0.7777,2415.5547],[36.7278,-0.7741,2476.0051],[36.7367,-0.7738,2407.6609],[36.7232,-0.7603,2543.1616],[36.7193,-0.7517,2644.0381],[36.7163,-0.7286,2877.0078],[36.7133,-0.7202,2927.134],[36.7134,-0.7091,2928.9617],[36.7066,-0.6912,3011.8198],[36.6718,-0.6545,3088.3313],[36.6731,-0.6444,3065.1387],[36.667,-0.6496,3257.6577],[36.6553,-0.6666,2891.9409],[36.6532,-0.6744,2758.5737],[36.6543,-0.6798,2724.1812],[36.6424,-0.669,2712.3008],[36.6422,-0.6939,2595.3413],[36.6369,-0.6995,2572.5913],[36.6202,-0.7068,2550.4607],[36.6248,-0.7276,2542.3735],[36.6194,-0.7306,2545.1357],[36.6298,-0.7316,2537.6958],[36.6297,-0.7348,2533.9121],[36.6367,-0.7454,2525.6443],[36.6467,-0.7491,2519.355],[36.6537,-0.754,2527.813],[36.6651,-0.7569,2520.5403],[36.6718,-0.7526,2500.3152],[36.6872,-0.758,2504.4692],[36.701,-0.7754,2401.0569],[36.7048,-0.7782,2372.3135],[36.7071,-0.7778,2424.7266],[36.7103,-0.7839,2347.6858],[36.7119,-0.7843,2408.251],[36.7114,-0.7867,2358.3579],[36.7153,-0.7892,2400.2468],[36.7147,-0.7908,2324.5132],[36.7193,-0.7953,2360.9963],[36.7185,-0.797,2320.2368],[36.7223,-0.8006,2325.4111]]]]}}