{"type": "Feature","bbox": [36.4385,-0.2933,36.6621,-0.0914],"geometry": {"type": "MultiPolygon","coordinates": [[[[36.6209,-0.2933,3709.1055],[36.6493,-0.243,3040.8545],[36.6517,-0.2375,2889.7065],[36.6514,-0.2257,2973.1292],[36.6579,-0.2206,2889.4951],[36.6621,-0.2127,2714.9995],[36.6611,-0.201,2753.1267],[36.6505,-0.1906,2527.9368],[36.6498,-0.1854,2504.8677],[36.6523,-0.1802,2467.9216],[36.6509,-0.1769,2572.8674],[36.6545,-0.1687,2404.2629],[36.651,-0.1593,2412.626],[36.6448,-0.1728,2533.6033],[36.5732,-0.1325,2497.3408],[36.5578,-0.1255,2476.3303],[36.5476,-0.1234,2625.3457],[36.5401,-0.0992,2484.0024],[36.5315,-0.0914,2478.7549],[36.525,-0.0993,2440.1953],[36.5038,-0.1092,2512.114],[36.5051,-0.0999,2482.252],[36.4987,-0.1004,2494.1494],[36.4988,-0.1167,2576.6763],[36.5005,-0.1234,2546.7295],[36.4586,-0.1088,2559.5469],[36.4513,-0.1097,2506.9353],[36.46,-0.1307,2554.3428],[36.4385,-0.1381,2331.1052],[36.4498,-0.1768,2330.5],[36.4434,-0.1737,2330.5],[36.4479,-0.1884,2330.5],[36.4482,-0.194,2330.5],[36.4598,-0.2108,2333.9612],[36.4624,-0.2204,2337.2715],[36.4692,-0.2179,2337.2866],[36.4782,-0.2313,2342.3076],[36.5016,-0.2173,2699.1172],[36.5273,-0.2193,2855.3323],[36.5347,-0.244,2927.416],[36.5384,-0.2454,2944.2302],[36.5464,-0.2572,2918.4839],[36.5532,-0.2586,3037.6484],[36.5612,-0.2634,3095.2158],[36.5705,-0.2633,3190.6953],[36.5792,-0.2709,3249.4363],[36.5877,-0.2734,3414.2437],[36.5914,-0.2772,3447.5789],[36.6029,-0.2784,3605.5291],[36.609,-0.2892,3672.2134],[36.6142,-0.2899,3748.958],[36.6209,-0.2933,3709.1055]]]]}
,"properties": {"GID_3": "KEN.35.3.4_1","GID_0": "KEN","country": "Kenya","GID_1": "KEN.35_1","province": "Nyandarua","NL_NAME_1": "NA","GID_2": "KEN.35.3_1","county": "Ndaragwa","NL_NAME_2": "NA","city": "Shamata","VARNAME_3": "NA","NL_NAME_3": "NA","TYPE_3": "Ward","ENGTYPE_3": "Ward","CC_3": "465","HASC_3": "NA","name": "Shamata.city","area_km2": 303.8683,"hist_schema_id": "Elevation0-9000","hist_area_km2": {"2325": 19.3575,"2350": 9.2441,"2375": 2.8835,"2400": 2.9259,"2425": 2.7139,"2450": 4.3888,"2475": 5.8094,"2500": 8.0568,"2525": 10.2406,"2550": 12.6153,"2575": 17.7038,"2600": 14.4387,"2625": 14.0146,"2650": 10.8767,"2675": 10.0922,"2700": 9.965,"2725": 8.9261,"2750": 7.5479,"2775": 7.76,"2800": 6.7423,"2825": 6.9967,"2850": 7.5479,"2875": 7.3147,"2900": 7.2935,"2925": 7.0391,"2950": 6.085,"2975": 6.4666,"3000": 5.8094,"3025": 5.6397,"3050": 5.0673,"3075": 4.3888,"3100": 3.9436,"3125": 4.0072,"3150": 2.9047,"3175": 3.1167,"3200": 2.3746,"3225": 2.6715,"3250": 2.1202,"3275": 2.205,"3300": 2.2474,"3325": 2.1414,"3350": 1.887,"3375": 1.7174,"3400": 1.3993,"3425": 1.5477,"3450": 1.3569,"3475": 1.5053,"3500": 1.0177,"3525": 1.3357,"3550": 1.3357,"3575": 1.3781,"3600": 0.9117,"3625": 1.3781,"3650": 1.1449,"3675": 0.8481,"3700": 0.9541,"3725": 0.2968,"3750": 0.1696}}}