{"type":"Feature","properties":{"GID_3":"KEN.12.1.5_1","GID_0":"KEN","country":"Kenya","GID_1":"KEN.12_1","province":"Kericho","NL_NAME_1":"NA","GID_2":"KEN.12.1_1","county":"Ainamoi","NL_NAME_2":"NA","city":"Kipchebor","VARNAME_3":"NA","NL_NAME_3":"NA","TYPE_3":"Ward","ENGTYPE_3":"Ward","CC_3":"947","HASC_3":"NA","name":"Kipchebor.city"},
"geometry":{"type": "MultiPolygon","coordinates": [[[[35.28,-0.3487,1979.7799],[35.2744,-0.3536,1985.5653],[35.2682,-0.3473,2035.0024],[35.2581,-0.3417,2010.6556],[35.2443,-0.3458,2039.0665],[35.2386,-0.3559,1998.1692],[35.231,-0.3623,1961.6084],[35.234,-0.3669,1992.3533],[35.2422,-0.3694,2020.6407],[35.245,-0.3771,1990.3401],[35.2327,-0.3922,1931.0775],[35.2382,-0.4,1966.9706],[35.2457,-0.405,1927.6255],[35.254,-0.402,1935.0033],[35.2562,-0.3998,1941.6552],[35.2619,-0.398,1958.2296],[35.2648,-0.3988,1946.5497],[35.2671,-0.3961,1950.4937],[35.2668,-0.3938,1942.5978],[35.272,-0.3908,1945.2126],[35.281,-0.3946,1983.7562],[35.2921,-0.3931,2081.74],[35.2829,-0.3845,1981.3311],[35.3051,-0.3655,2042.8644],[35.2859,-0.3437,1979.4535],[35.28,-0.3487,1979.7799]]]]}}