{"type":"Feature","properties":{"GID_2":"KEN.34.3_1","GID_0":"KEN","country":"Kenya","GID_1":"KEN.34_1","province":"Nyamira","NL_NAME_1":"NA","county":"NorthMugirango","VARNAME_2":"NA","NL_NAME_2":"NA","TYPE_2":"Constituency","ENGTYPE_2":"Constituency","CC_2":"272","HASC_2":"NA","name":"North_Mugirango.county"},
"geometry":{"type": "MultiPolygon","coordinates": [[[[35.0316,-0.5868,1844.6196],[35.0334,-0.4797,1676.7886],[35.0344,-0.4782,1694.4094],[35.0395,-0.4786,1665.8623],[35.0427,-0.4594,1567.7739],[35.0421,-0.4511,1563.7131],[35.0461,-0.4487,1540.7135],[35.0443,-0.4449,1536.4177],[35.0451,-0.44,1581.866],[35.0384,-0.4321,1525.5131],[35.0388,-0.425,1559.6221],[35.0338,-0.4161,1555.6553],[35.0316,-0.4136,1542.8506],[35.0301,-0.4142,1542.8506],[35.0269,-0.4088,1581.9255],[35.0206,-0.4082,1507.4869],[35.0197,-0.4065,1510.488],[34.9996,-0.4232,1589.9897],[34.9667,-0.4366,1580.781],[34.942,-0.4578,1540.4849],[34.9308,-0.4637,1539.5085],[34.9328,-0.4674,1531.0148],[34.9409,-0.4721,1558.5499],[34.9397,-0.4808,1548.8951],[34.9336,-0.4873,1600.4768],[34.931399999999996,-0.4963,1746.7371],[34.9326,-0.4996,1730.8481],[34.9294,-0.5042,1694.8942],[34.9312,-0.5099,1788.6447],[34.9289,-0.519,1807.3005],[34.9319,-0.5203,1815.0739],[34.9318,-0.5273,1864.4434],[34.9336,-0.5295,1885.0955],[34.9327,-0.5321,1925.5996],[34.9356,-0.5349,1877.1697],[34.9413,-0.5355,1860.6995],[34.94,-0.5395,1855.7252],[34.9416,-0.5458,1980.8738],[34.9478,-0.5417,1807.1938],[34.9568,-0.546,1939.9425],[34.9614,-0.5352,1784.2504],[34.9685,-0.5407,1953.369],[34.9693,-0.5467,1945.907],[34.9739,-0.5532,1934.8387],[34.9771,-0.5528,1917.8521],[34.9769,-0.559,2035.1005],[34.9804,-0.56,2064.6738],[34.9828,-0.5689,2095.959],[34.9877,-0.5776,2073.7366],[34.9933,-0.5769,2078.2737],[35.001,-0.5877,2026.5872],[35.0097,-0.5941,1999.4253],[35.0316,-0.5868,1844.6196]]]]}}