{"type":"Feature","properties":{"GID_3":"KEN.3.1.2_1","GID_0":"KEN","country":"Kenya","GID_1":"KEN.3_1","province":"Bungoma","NL_NAME_1":"NA","GID_2":"KEN.3.1_1","county":"Bumula","NL_NAME_2":"NA","city":"Kabula","VARNAME_3":"NA","NL_NAME_3":"NA","TYPE_3":"Ward","ENGTYPE_3":"Ward","CC_3":"1092","HASC_3":"NA","name":"Kabula.city"},
"geometry":{"type": "MultiPolygon","coordinates": [[[[34.4838,0.4889,1297.7278],[34.487,0.4859,1281.1282],[34.4954,0.4709,1313.0891],[34.4954,0.4634,1307.9362],[34.5003,0.4622,1330.1538],[34.5078,0.4632,1349.8235],[34.5156,0.4549,1367.96],[34.5263,0.4522,1358.7811],[34.5313,0.4481,1334.6094],[34.5364,0.4563,1321.5441],[34.5376,0.4671,1361.4495],[34.5405,0.4675,1341.1609],[34.5444,0.4724,1358.9174],[34.5508,0.4751,1345.3396],[34.5522,0.4797,1350.0842],[34.5639,0.4907,1365.5409],[34.5667,0.5004,1354.0364],[34.5648,0.5053,1363.627],[34.5551,0.5059,1393.3159],[34.5477,0.5087,1400.444],[34.5452,0.5077,1395.7936],[34.5404,0.5128,1391.0609],[34.535,0.5133,1367.0649],[34.5311,0.5155,1378.2537],[34.5256,0.5151,1364.9863],[34.5113,0.5212,1338.7452],[34.5063,0.5154,1334.2029],[34.5026,0.5052,1319.436],[34.4956,0.4993,1305.6176],[34.4894,0.4981,1309.9358],[34.4838,0.4889,1297.7278]]]]}}