{"type":"Feature","properties":{"GID_1":"KEN.9_1","GID_0":"KEN","country":"Kenya","province":"Isiolo","VARNAME_1":"NA","NL_NAME_1":"NA","TYPE_1":"County","ENGTYPE_1":"County","CC_1":"11","HASC_1":"KE.IS","ISO_1":"KE-09","name":"Isiolo.province"},
"geometry":{"type": "MultiPolygon","coordinates": [[[[37.573,0.3288,1153.3024],[37.5817,0.3289,1168.2654],[37.5929,0.3403,1132.1313],[37.5953,0.3389,1134.0109],[37.5931,0.3403,1132.1313],[37.6049,0.3539,1092.0042],[37.5983,0.4029,1025.2749],[37.5851,0.4021,1020.6481],[37.5823,0.4115,1012.6233],[37.5817,0.4607,974.3992],[37.5859,0.4717,963.9242],[37.5867,0.4805,958.2546],[37.8263,0.5631,1510.2189],[37.9017,0.5965,870.434],[37.9025,0.5921,872.4823],[37.9017,0.5967,870.434],[38.0625,0.6711,766.2913],[38.0945,0.5641,1151.7196],[38.1623,0.3687,787.4919],[38.1583,0.3695,793.1785],[38.1621,0.3685,787.4919],[38.1765,0.3309,766.0425],[38.1957,0.3221,707.2935],[38.1921,0.2345,658.7382],[38.1991,0.2257,645.9843],[38.2011,0.2269,644.143],[38.2127,0.2227,631.9658],[38.2203,0.2177,622.2155],[38.2297,0.2163,611.9393],[38.2355,0.2121,606.5999],[38.2389,0.2071,600.3678],[38.2447,0.2067,593.698],[38.2589,0.1935,575.3792],[38.2619,0.1923,574.8823],[38.2637,0.1851,569.6163],[38.2665,0.1819,566.6837],[38.2813,0.1731,549.127],[38.2875,0.1649,538.9232],[38.2963,0.1597,528.6635],[38.3043,0.1371,511.8186],[38.3057,0.1293,503.9803],[38.3047,0.1199,496.2657],[38.3085,0.1101,488.6781],[38.3181,0.1069,484.1439],[38.3205,0.0985,480.3519],[38.3275,0.0957,475.3999],[38.3281,0.0917,470.3965],[38.3231,0.0789,465.0814],[38.3249,0.0745,459.3342],[38.3393,0.0681,454.3789],[38.3405,0.0653,449.7806],[38.3381,0.0625,453.2012],[38.3469,0.0613,447.2601],[38.3491,0.0594,446.2049],[38.3457,0.0539,444.2746],[38.3465,0.0505,440.5957],[38.3441,0.0465,442.1236],[38.3451,0.0433,434.9527],[38.3487,0.0431,435.8916],[38.3575,0.0369,430.6248],[38.3535,0.0305,426.7793],[38.3565,0.0203,420.6059],[38.3659,0.0137,404.1644],[38.3697,0.0067,392.9441],[38.3763,0.0049,384.9949],[38.3801,-0.0032,374.1136],[38.3873,-0.0053,366.5062],[38.3939,-0.0099,358.5984],[38.3939,-0.0134,358.6311],[38.4011,-0.017,353.0609],[38.4001,-0.0236,357.1967],[38.4055,-0.0292,351.032],[38.4065,-0.0436,343.6541],[38.4109,-0.0478,344.7954],[38.4103,-0.0509,341.2094],[38.4131,-0.0514,341.3253],[38.4105,-0.0575,343.1794],[38.4119,-0.0599,340.6875],[38.4107,-0.0637,335.4671],[38.4135,-0.0664,333.8456],[38.4197,-0.0686,338.7437],[38.4263,-0.075,333.9718],[38.4329,-0.0769,337.7289],[38.4361,-0.0729,337.5638],[38.4383,-0.0724,328.886],[38.4527,-0.0849,319.8935],[38.4605,-0.0858,318.702],[38.4719,-0.0792,327.196],[38.4829,-0.076,316.792],[38.4877,-0.0701,311.5],[38.4893,-0.0609,311.7332],[38.4929,-0.0595,316.292],[38.5021,-0.0634,313.0493],[38.5119,-0.0597,309.8106],[38.5189,-0.063,309.2863],[38.5219,-0.062,307.6555],[38.5263,-0.057,310.4695],[38.5303,-0.0556,311.9484],[38.5299,-0.0451,330.7079],[38.5405,-0.0434,330.0762],[38.5421,-0.0328,324.7051],[38.5485,-0.0197,321.9008],[38.5549,-0.0174,309.3225],[38.5611,-0.0196,299.9216],[38.5693,-0.0184,295.7402],[38.5696,-0.0151,297.3884],[38.5705,-0.0198,293.0],[38.5803,-0.025,296.9048],[38.5887,-0.0265,299.6721],[38.5922,-0.0305,302.8604],[38.5977,-0.0334,295.8663],[38.6009,-0.0342,306.4731],[38.6085,-0.0296,290.8169],[38.6117,-0.0303,299.877],[38.6259,-0.0418,287.0731],[38.6361,-0.0534,285.2562],[38.6391,-0.0547,286.6234],[38.6477,-0.0538,290.9931],[38.6551,-0.0466,286.2987],[38.6753,-0.0547,279.9308],[38.6811,-0.0554,283.7968],[38.6847,-0.0521,274.125],[38.6843,-0.0474,283.3304],[38.6877,-0.0411,280.9601],[38.6905,-0.042,275.757],[38.6975,-0.0513,277.121],[38.7136,-0.0624,276.7505],[38.7277,-0.0647,261.3297],[38.7379,-0.0707,260.5172],[38.7443,-0.0706,258.9044],[38.7489,-0.0724,258.3328],[38.7579,-0.0733,257.0734],[38.7659,-0.0691,257.0828],[38.7607,-0.0647,261.1656],[38.7597,-0.0621,262.5216],[38.7647,-0.0554,267.8352],[38.7637,-0.053,269.7542],[38.7513,-0.0467,278.8251],[38.7527,-0.0385,289.8421],[38.7489,-0.0305,293.8348],[38.7485,-0.0203,299.5032],[38.7423,-0.0129,308.9535],[38.7429,-0.0022,324.231],[38.7379,0.0039,332.2375],[38.7401,0.0139,357.2498],[38.7323,0.0397,385.3143],[38.7291,0.0671,402.7976],[38.7301,0.0761,416.9135],[38.7287,0.0855,418.6893],[38.7319,0.0979,432.3105],[38.7301,0.1185,449.252],[38.7321,0.1249,458.589],[38.7341,0.1469,453.6774],[38.7351,0.1495,461.2346],[38.7557,0.17,440.0434],[38.7573,0.1743,445.4322],[38.7573,0.1841,453.5194],[38.7131,0.3559,477.9789],[38.7122,0.3657,476.6095],[38.7073,0.3789,477.1125],[38.6903,0.4475,488.2749],[38.6799,0.4739,454.9406],[38.6769,0.4955,436.1609],[38.6699,0.5015,431.2599],[38.6661,0.5015,431.9475],[38.6577,0.5091,430.4924],[38.6639,0.5107,436.3985],[38.6779,0.5097,428.1989],[38.6921,0.5117,417.5066],[38.7035,0.5079,414.291],[38.7081,0.5133,412.8884],[38.7211,0.5134,410.799],[38.7205,0.5241,405.5042],[38.7231,0.5261,414.0244],[38.7351,0.5203,402.6691],[38.7433,0.5249,401.0293],[38.7491,0.5253,398.9505],[38.7543,0.5219,397.4487],[38.7557,0.5167,396.549],[38.7651,0.5133,392.9948],[38.7677,0.5175,390.6144],[38.7755,0.5199,386.7503],[38.7837,0.5271,382.8434],[38.7917,0.5413,377.2418],[38.7991,0.5445,375.2417],[38.8017,0.5505,373.4733],[38.8077,0.5553,371.0986],[38.8161,0.5717,365.9625],[38.8247,0.5811,365.1253],[38.8319,0.5859,360.6061],[38.8387,0.5871,357.8043],[38.8567,0.5989,350.7908],[38.8607,0.6005,350.3074],[38.8719,0.6007,347.5701],[38.8759,0.5957,347.5841],[38.8861,0.5973,344.006],[38.8917,0.5961,341.5636],[38.8943,0.5981,340.9479],[38.9013,0.5973,338.9706],[38.9081,0.6003,337.4583],[38.9107,0.5997,336.7538],[38.9255,0.6069,331.9902],[38.9357,0.6251,326.4215],[38.9403,0.6285,324.4035],[38.9487,0.6267,324.0518],[38.9517,0.6285,322.5304],[38.9615,0.6247,321.783],[38.9757,0.6227,319.9932],[38.9803,0.6229,316.0901],[38.9861,0.6263,315.2009],[39.0103,0.6253,322.5645],[39.0123,0.6281,319.2375],[39.0127,0.6389,306.9644],[39.0145,0.6415,307.2634],[39.0209,0.6415,307.3306],[39.0239,0.6467,307.6625],[39.0227,0.6559,301.924],[39.0257,0.6631,300.9971],[39.0275,0.6653,300.6875],[39.0319,0.6653,301.3995],[39.0351,0.6671,299.6536],[39.0377,0.6729,298.063],[39.0461,0.6775,297.9746],[39.0489,0.6837,294.4881],[39.0519,0.6855,292.9003],[39.0581,0.6857,291.2682],[39.0619,0.6831,292.2087],[39.0669,0.6829,290.2513],[39.0723,0.6787,288.4739],[39.0783,0.6791,288.9533],[39.0839,0.6769,288.7395],[39.0895,0.6809,285.3832],[39.0981,0.6811,283.051],[39.0985,0.6867,283.0216],[39.1025,0.6895,281.8701],[39.1143,0.6913,279.7678],[39.1311,0.6883,275.9388],[39.1353,0.6909,274.4815],[39.1423,0.6913,287.4435],[39.1435,0.6979,275.2958],[39.1475,0.7055,270.3701],[39.1643,0.7143,273.6708],[39.1673,0.7187,269.6644],[39.1741,0.7201,271.7933],[39.1779,0.7257,267.6167],[39.1809,0.7231,266.8227],[39.1757,0.7279,263.4065],[39.1777,0.7437,259.4162],[39.1805,0.7519,259.4886],[39.2005,0.7895,251.1594],[39.2153,0.8051,245.381],[39.2247,0.8177,241.3561],[39.2371,0.8443,234.218],[39.2497,0.8597,228.7708],[39.2679,0.8759,223.438],[39.3137,0.9249,207.6092],[39.3613,0.9539,204.3978],[39.3957,0.9685,204.2806],[39.4545,0.9891,201.1147],[39.4621,0.9949,200.8953],[39.4625,0.9935,200.4441],[39.4593,1.0051,201.7326],[39.4435,1.0472,206.4427],[39.4349,1.0647,209.1953],[39.2769,1.4733,305.6353],[39.3705,1.5093,286.9207],[39.4483,1.5357,260.905],[39.4391,1.5379,262.0088],[39.4125,1.5601,264.1133],[39.4037,1.5591,265.0871],[39.3971,1.5643,265.5372],[39.3939,1.5741,266.5009],[39.3873,1.5737,267.09],[39.3851,1.5817,267.6772],[39.3827,1.5847,267.853],[39.3769,1.5875,268.6249],[39.3669,1.6039,270.2316],[39.3583,1.6133,271.6616],[39.3515,1.6253,272.6123],[39.3459,1.6283,273.5032],[39.3411,1.6403,274.4613],[39.3373,1.6393,274.7786],[39.3313,1.6479,276.5865],[39.3215,1.6499,276.7745],[39.3157,1.6603,278.5557],[39.3107,1.6577,277.8365],[39.3085,1.6611,277.6413],[39.3073,1.6681,279.8203],[39.2981,1.6687,279.7437],[39.2843,1.6767,280.8875],[39.2835,1.6803,280.9778],[39.2713,1.6895,284.0323],[39.2607,1.6885,284.6733],[39.2471,1.6992,286.2265],[39.2305,1.7033,288.3308],[39.2265,1.7071,288.9583],[39.2225,1.7084,289.4144],[39.2137,1.7093,290.4506],[39.2037,1.7161,291.9543],[39.1895,1.7449,296.0508],[39.1801,1.7577,298.1255],[39.1719,1.7887,301.0207],[39.1679,1.7981,302.2221],[39.1649,1.8005,302.5677],[39.1618,1.8067,303.5083],[39.1603,1.8133,304.4513],[39.1515,1.8223,305.8716],[39.1479,1.8313,306.7864],[39.1417,1.8376,307.1476],[39.1433,1.8533,309.7596],[39.1391,1.8555,309.8682],[39.1293,1.8737,313.9984],[39.1181,1.886,315.0993],[39.1029,1.8931,317.4124],[39.0955,1.9018,318.9198],[39.0879,1.9039,320.626],[39.0821,1.9105,320.8712],[39.0732,1.9148,321.824],[39.0599,1.9273,323.7227],[39.0577,1.9407,325.1601],[39.0469,1.9485,326.4786],[39.0437,1.9569,327.2316],[39.0336,1.9696,329.3301],[39.0305,1.9776,330.6347],[39.0248,1.9837,331.469],[39.0131,1.9917,333.1749],[39.0041,2.0029,335.3511],[38.9945,2.0067,336.4465],[38.9897,2.0297,339.4507],[38.9927,2.0397,340.5348],[38.9897,2.0463,341.2514],[38.9847,2.0507,342.346],[38.9847,2.0706,344.1497],[38.9612,2.0998,349.567],[38.8355,2.0261,344.6694],[38.7887,1.9949,341.1783],[38.3847,1.7619,349.9947],[38.3415,1.5787,359.62],[37.9464,1.2636,651.3433],[37.9492,1.1982,652.1949],[38.0003,1.1336,652.4604],[38.0327,1.0895,624.424],[38.0468,0.8095,732.5514],[38.0799,0.7875,635.1898],[38.0705,0.7877,680.7184],[38.0599,0.7834,698.46],[38.0533,0.7833,695.9692],[38.0466,0.788,663.9481],[38.0455,0.7918,685.8794],[38.0311,0.7963,720.4065],[38.0226,0.8034,685.2628],[38.0154,0.8013,670.3807],[38.0162,0.8085,669.5549],[38.0135,0.8099,683.2064],[38.0081,0.8062,674.7784],[38.0085,0.797,663.9248],[38.0052,0.7933,677.6267],[37.9999,0.7927,680.9118],[37.9945,0.7833,687.6431],[37.9859,0.7822,694.444],[37.9853,0.7794,687.8027],[37.9731,0.7642,700.6268],[37.9722,0.7595,690.7771],[37.9595,0.7561,703.2321],[37.9553,0.7498,706.8232],[37.9459,0.7491,715.5803],[37.9296,0.7272,839.957],[37.9248,0.724,820.0012],[37.9191,0.7241,797.0275],[37.9149,0.7178,741.908],[37.9115,0.7189,733.0684],[37.9114,0.723,751.5845],[37.9092,0.7264,772.8729],[37.9053,0.7251,734.4619],[37.9018,0.7268,726.5566],[37.9035,0.7314,742.717],[37.9023,0.7336,749.7739],[37.896,0.7323,733.4233],[37.8935,0.7347,732.2243],[37.8909,0.7422,757.5023],[37.8783,0.7486,741.4291],[37.874,0.7412,731.0377],[37.8765,0.7377,729.0669],[37.8743,0.7338,729.0224],[37.8673,0.7317,741.9989],[37.8595,0.7245,739.2955],[37.8571,0.7246,743.5143],[37.8482,0.7192,750.2205],[37.844,0.7108,759.3631],[37.8426,0.7027,759.3024],[37.8449,0.6963,745.3847],[37.8343,0.6844,771.8007],[37.8226,0.6843,783.3306],[37.8161,0.6807,787.1378],[37.8022,0.6804,888.1506],[37.7928,0.676,831.6157],[37.7845,0.6818,972.7471],[37.7767,0.6822,871.2375],[37.7688,0.6784,799.5586],[37.7595,0.6768,788.04],[37.7501,0.6815,876.4676],[37.7446,0.6792,796.6178],[37.741,0.6718,784.9744],[37.7377,0.6706,789.5637],[37.7359,0.6665,790.612],[37.7304,0.6664,798.4745],[37.7259,0.6595,796.1289],[37.7145,0.6648,801.4866],[37.7125,0.67,806.5784],[37.7094,0.6723,807.6321],[37.7047,0.6724,801.4296],[37.6974,0.6683,809.3909],[37.6922,0.6691,819.5382],[37.6851,0.6618,818.0088],[37.6826,0.6556,819.8743],[37.6833,0.6508,812.0795],[37.6818,0.6474,819.3735],[37.678,0.6471,836.3531],[37.6764,0.644,840.4532],[37.6747,0.6463,841.5389],[37.6662,0.6386,838.5831],[37.6611,0.6388,845.6454],[37.6566,0.6364,842.0969],[37.6507,0.6367,852.5417],[37.6464,0.6327,842.9556],[37.6442,0.6271,844.2445],[37.6395,0.6271,846.4777],[37.6379,0.6194,839.3961],[37.6421,0.6195,840.7578],[37.6428,0.6182,841.9487],[37.6369,0.6131,844.3047],[37.6367,0.6063,850.0281],[37.6331,0.602,854.1494],[37.6305,0.6017,897.9117],[37.6269,0.6055,895.278],[37.623,0.6031,846.3987],[37.618,0.6051,848.5228],[37.6042,0.5956,850.6893],[37.5963,0.5967,854.1285],[37.5899,0.5928,857.4078],[37.5824,0.5928,862.0342],[37.5814,0.5891,857.4557],[37.5825,0.5815,854.6331],[37.5802,0.5781,857.5386],[37.5737,0.5796,860.4336],[37.5661,0.5757,870.7157],[37.5637,0.5773,876.6411],[37.557,0.5756,876.1219],[37.5448,0.5829,879.6575],[37.538,0.5785,876.7781],[37.5345,0.5719,872.037],[37.5322,0.5707,877.4167],[37.5236,0.5755,914.0399],[37.5198,0.5751,889.149],[37.5154,0.5717,884.6816],[37.5076,0.5745,893.1863],[37.5035,0.5796,883.6528],[37.4907,0.5837,881.2695],[37.4925,0.5888,883.3662],[37.4915,0.5901,883.3662],[37.4777,0.5895,885.0518],[37.4711,0.5941,894.7452],[37.4667,0.5937,892.2197],[37.4605,0.5869,889.976],[37.4465,0.5817,891.7775],[37.4423,0.5837,893.4969],[37.4367,0.5809,894.3553],[37.4307,0.5843,898.3035],[37.4279,0.5843,899.5728],[37.4223,0.5805,905.5051],[37.4155,0.5815,904.9474],[37.3983,0.5799,903.9689],[37.3935,0.5773,903.387],[37.3941,0.5739,901.093],[37.3933,0.5773,903.387],[37.3731,0.5891,918.9632],[37.3655,0.5883,908.0466],[37.3637,0.5915,908.9177],[37.3637,0.5997,916.0695],[37.3567,0.6011,923.1378],[37.3541,0.6035,915.5941],[37.3523,0.6245,919.1702],[37.3483,0.6295,918.2401],[37.3469,0.6361,918.625],[37.3437,0.6395,920.4564],[37.3421,0.6473,929.8469],[37.3317,0.6519,922.6847],[37.3261,0.6603,928.5819],[37.3255,0.6721,937.03],[37.3198,0.683,935.8926],[37.3133,0.6912,935.699],[37.3081,0.7061,946.3977],[37.3046,0.709,940.1215],[37.2997,0.726,953.23],[37.29,0.7365,943.8652],[37.2883,0.7422,958.1479],[37.2737,0.7497,953.8186],[37.271,0.7551,980.779],[37.2567,0.7686,958.0878],[37.2448,0.767,964.3492],[37.2353,0.7563,965.8181],[37.2299,0.7543,979.1355],[37.2259,0.7491,969.531],[37.2189,0.7444,1003.3089],[37.2056,0.7462,992.0214],[37.2042,0.75,1013.4065],[37.2021,0.751,1028.0454],[37.1947,0.7509,1045.7279],[37.1799,0.7471,1053.4677],[37.1759,0.7499,1060.3354],[37.1728,0.75,1066.2361],[37.1706,0.7478,1071.2502],[37.1656,0.7475,1048.4321],[37.1623,0.7519,1053.024],[37.1615,0.7562,1079.2045],[37.1514,0.7575,1044.2183],[37.1502,0.765,1071.1248],[37.1343,0.7638,1076.3374],[37.1261,0.7714,1063.3193],[37.1235,0.7815,1089.7548],[37.116,0.7873,1107.447],[37.1094,0.7847,1087.3071],[37.1065,0.7905,1102.2002],[37.1016,0.7917,1106.3497],[37.0943,0.7895,1108.4525],[37.0913,0.787,1114.604],[37.0859,0.787,1119.6787],[37.0706,0.7828,1123.5078],[37.0689,0.7705,1106.8413],[37.0606,0.7723,1123.8976],[37.0581,0.777,1147.1196],[37.0417,0.7686,1139.6465],[37.0083,0.7567,1194.0618],[37.0014,0.7549,1197.9603],[36.9946,0.7555,1269.2723],[36.9924,0.7529,1160.4082],[36.9806,0.7496,1191.1846],[36.977,0.7493,1251.9177],[36.9735,0.7523,1398.5787],[36.9709,0.7488,1274.3237],[36.9685,0.749,1299.0535],[36.9669,0.7471,1225.4731],[36.9483,0.7483,1347.8113],[36.9407,0.7524,1271.3203],[36.9366,0.7576,1385.0679],[36.9338,0.7571,1214.3335],[36.9309,0.7504,1333.9559],[36.9307,0.7341,1272.4695],[36.9273,0.7303,1263.4626],[36.9265,0.7261,1385.2534],[36.9255,0.6857,1322.8906],[36.9265,0.6761,1361.3489],[36.9235,0.6703,1384.3876],[36.9235,0.6669,1354.6619],[36.9217,0.6621,1438.0317],[36.9139,0.6623,1477.6472],[36.9123,0.6525,1389.1266],[36.9083,0.6453,1503.1738],[36.9089,0.6343,1405.3676],[36.9059,0.6319,1473.9629],[36.8973,0.6309,1480.2631],[36.8939,0.6235,1492.8525],[36.8909,0.6233,1508.9918],[36.8873,0.6107,1504.4158],[36.8841,0.6129,1515.085],[36.8791,0.6059,1555.8152],[36.8757,0.6055,1536.5909],[36.8721,0.5999,1544.4978],[36.8675,0.5967,1544.5322],[36.8661,0.5931,1540.7418],[36.8681,0.5873,1537.2639],[36.8673,0.5785,1550.3849],[36.8645,0.5737,1571.6699],[36.8677,0.5713,1558.3634],[37.1135,0.5417,1331.7113],[37.1375,0.5401,1199.4443],[37.1387,0.5387,1189.7021],[37.2581,0.5245,1867.3419],[37.3513,0.5147,1002.9828],[37.3683,0.5143,959.0195],[37.3687,0.5093,960.7164],[37.3598,0.5019,972.1604],[37.3602,0.4951,974.6637],[37.3623,0.4922,975.2228],[37.3597,0.4893,977.8667],[37.3601,0.4777,983.4423],[37.3579,0.4747,993.1411],[37.3575,0.4697,990.781],[37.3499,0.4617,1011.6677],[37.3505,0.4567,1004.4777],[37.3483,0.452,1013.0804],[37.3517,0.4398,1027.8317],[37.3533,0.4145,1036.3313],[37.3633,0.4093,1060.1281],[37.3691,0.3989,1065.5154],[37.3701,0.3847,1074.759],[37.3786,0.381,1096.0151],[37.3776,0.3739,1085.2841],[37.3791,0.3685,1092.8021],[37.3824,0.3678,1110.2832],[37.3837,0.3623,1112.6473],[37.3908,0.3613,1133.9374],[37.3921,0.3588,1132.931],[37.3913,0.3489,1115.8953],[37.3934,0.3405,1126.1675],[37.3917,0.3275,1147.01],[37.3941,0.3191,1156.8075],[37.3919,0.3159,1166.7102],[37.3956,0.3063,1187.0923],[37.3942,0.3047,1186.3682],[37.3953,0.3017,1197.7778],[37.3923,0.2977,1220.2437],[37.3947,0.2951,1278.2876],[37.3931,0.2915,1280.5251],[37.3881,0.2881,1394.1532],[37.3882,0.2852,1302.1643],[37.3865,0.2837,1337.4023],[37.3879,0.2819,1331.9578],[37.3857,0.2775,1465.2329],[37.3743,0.2733,1536.7391],[37.3737,0.2721,1581.4302],[37.3777,0.2707,1486.0497],[37.3795,0.2705,1494.0547],[37.3999,0.2849,1452.1748],[37.4009,0.2963,1426.2998],[37.4301,0.2981,1449.2837],[37.4657,0.2837,1525.7478],[37.5362,0.2643,1393.601],[37.5372,0.2678,1370.3943],[37.5415,0.271,1338.795],[37.5471,0.2799,1292.4144],[37.5475,0.2849,1266.6365],[37.5459,0.2861,1267.9298],[37.5496,0.2958,1235.7173],[37.5491,0.3073,1218.2413],[37.5474,0.3078,1208.5908],[37.5467,0.3113,1197.6147],[37.5505,0.3209,1184.4851],[37.5543,0.3253,1171.6121],[37.5553,0.3289,1160.9639],[37.573,0.3288,1153.3024]]]]}}