{"type":"Feature","properties":{"GID_3":"KEN.10.5.1_1","GID_0":"KEN","country":"Kenya","GID_1":"KEN.10_1","province":"Kajiado","NL_NAME_1":"NA","GID_2":"KEN.10.5_1","county":"KajiadoWest","NL_NAME_2":"NA","city":"EwuasoOonkidong'I","VARNAME_3":"NA","NL_NAME_3":"NA","TYPE_3":"Ward","ENGTYPE_3":"Ward","CC_3":"929","HASC_3":"NA","name":"Ewuaso_Oonkidong'I.city"},
"geometry":{"type": "MultiPolygon","coordinates": [[[[36.6479,-1.3198,1996.2451],[36.6484,-1.2984,2006.5254],[36.6597,-1.3005,1946.2251],[36.6658,-1.3118,1872.8633],[36.6702,-1.3036,1913.1359],[36.6747,-1.3048,1874.1666],[36.6785,-1.2976,1924.9678],[36.6807,-1.2965,1891.275],[36.6892,-1.2769,1886.8789],[36.6863,-1.2783,1880.4956],[36.6807,-1.2925,1925.2043],[36.6785,-1.2936,1947.1544],[36.6747,-1.3008,1922.4249],[36.6702,-1.2996,1950.1144],[36.6658,-1.3078,1908.9231],[36.6597,-1.2965,1974.3386],[36.4908,-1.264,1414.0088],[36.5136,-1.236,1443.8049],[36.5349,-1.1612,1548.8884],[36.537,-1.1488,1741.6729],[36.4935,-1.1151,1547.3367],[36.3356,-1.0408,1609.3704],[36.3477,-1.1685,1866.6031],[36.2474,-1.2772,1525.9703],[36.0492,-1.4859,1511.3372],[36.0588,-1.4922,1421.627],[36.0614,-1.5023,1350.3531],[36.1638,-1.4929,1356.8218],[36.2813,-1.486,1077.6122],[36.4095,-1.4856,1175.3771],[36.4075,-1.4919,1198.8903],[36.4089,-1.498,1064.6653],[36.4076,-1.5067,1190.579],[36.5077,-1.5099,1177.1282],[36.5387,-1.5085,1662.5347],[36.5893,-1.4951,1736.2463],[36.6025,-1.4897,1632.0559],[36.6243,-1.4712,1725.2432],[36.629,-1.4481,1825.5908],[36.6376,-1.4449,2016.606],[36.6396,-1.4283,2342.8174],[36.6346,-1.3976,2150.8018],[36.6376,-1.3854,2290.8828],[36.6355,-1.3822,2239.1519],[36.6307,-1.3792,2032.613],[36.6284,-1.3675,1968.5665],[36.6467,-1.3647,2011.568],[36.6467,-1.3562,1983.2178],[36.6529,-1.3561,1949.2229],[36.6512,-1.3485,1949.165],[36.6426,-1.3407,1964.4604],[36.639,-1.3327,2003.9006],[36.6432,-1.329,1994.2538],[36.6422,-1.3202,2004.417],[36.6479,-1.3198,1996.2451]]]]}}