{"type": "Feature","bbox": [36.9012,-1.2925,36.9119,-1.2774],"geometry": {"type": "MultiPolygon","coordinates": [[[[36.906,-1.2774,1611.8253],[36.9012,-1.2801,1613.2253],[36.9068,-1.2925,1604.7987],[36.909,-1.2898,1603.5492],[36.9112,-1.2903,1596.2474],[36.9119,-1.2884,1605.4526],[36.906,-1.2774,1611.8253]]]]}
,"properties": {"GID_3": "KEN.30.4.2_1","GID_0": "KEN","country": "Kenya","GID_1": "KEN.30_1","province": "Nairobi","NL_NAME_1": "NA","GID_2": "KEN.30.4_1","county": "EmbakasiEast","NL_NAME_2": "NA","city": "LowerSavannah","VARNAME_3": "NA","NL_NAME_3": "NA","TYPE_3": "Ward","ENGTYPE_3": "Ward","CC_3": "1422","HASC_3": "NA","name": "Lower_Savannah.city","area_km2": 0.9114658,"hist_schema_id": "Elevation0-9000","hist_area_km2": {"1600": 0.5087249,"1625": 0.4027408}}}