{"type": "Feature","bbox": [35.6917,-0.2533,35.8229,-0.1764],"geometry": {"type": "MultiPolygon","coordinates": [[[[35.772,-0.1882,2249.3992],[35.7243,-0.1989,2482.8264],[35.7168,-0.2014,2458.8481],[35.716,-0.2029,2458.8481],[35.7141,-0.2015,2490.332],[35.7167,-0.1992,2468.6436],[35.7128,-0.1991,2505.0447],[35.7007,-0.2056,2519.9248],[35.6999,-0.2111,2531.1951],[35.6917,-0.2196,2608.9714],[35.6923,-0.2219,2620.5432],[35.6952,-0.2227,2660.4077],[35.702,-0.2387,2583.5627],[35.7082,-0.2355,2535.5491],[35.7098,-0.2359,2524.511],[35.7097,-0.24,2562.7031],[35.7123,-0.2377,2524.0334],[35.7183,-0.2394,2522.272],[35.7173,-0.2421,2504.9229],[35.7183,-0.2426,2504.9229],[35.7246,-0.2344,2515.1272],[35.7291,-0.2434,2474.876],[35.7408,-0.2523,2460.0869],[35.745,-0.2533,2456.8176],[35.75,-0.2492,2446.4929],[35.7607,-0.2499,2404.479],[35.7785,-0.2409,2259.4292],[35.7786,-0.2359,2286.3584],[35.784,-0.2303,2209.5188],[35.7881,-0.221,2162.4087],[35.7932,-0.2143,2119.1094],[35.7999,-0.2113,2059.5991],[35.8029,-0.2128,2048.5452],[35.8108,-0.209,2038.1932],[35.8202,-0.2029,1953.7031],[35.8229,-0.1987,1938.8167],[35.779,-0.1764,2264.8291],[35.772,-0.1882,2249.3992]]]]}
,"properties": {"GID_3": "KEN.31.5.3_1","GID_0": "KEN","country": "Kenya","GID_1": "KEN.31_1","province": "Nakuru","NL_NAME_1": "NA","GID_2": "KEN.31.5_1","county": "Molo","NL_NAME_2": "NA","city": "Molo","VARNAME_3": "NA","NL_NAME_3": "NA","TYPE_3": "Ward","ENGTYPE_3": "Ward","CC_3": "829","HASC_3": "NA","name": "Molo.city","area_km2": 63.73338,"hist_schema_id": "Elevation0-9000","hist_area_km2": {"1950": 0.25442,"1975": 0.55125,"2000": 0.50885,"2025": 0.74207,"2050": 1.0389,"2075": 1.54775,"2100": 1.10251,"2125": 1.46294,"2150": 1.73857,"2175": 1.71737,"2200": 2.84108,"2225": 2.90468,"2250": 2.65026,"2275": 2.54425,"2300": 2.86228,"2325": 2.73506,"2350": 3.54074,"2375": 4.38882,"2400": 6.33941,"2425": 5.25811,"2450": 4.55844,"2475": 4.1132,"2500": 2.77747,"2525": 2.75627,"2550": 1.16611,"2575": 0.65726,"2600": 0.38164,"2625": 0.31803,"2650": 0.14841,"2675": 0.12721}}}