{"type": "Feature","bbox": [36.4908,-1.3078,36.7082,-1.1506],"geometry": {"type": "MultiPolygon","coordinates": [[[[36.6805,-1.2354,1977.9263],[36.6754,-1.2414,1987.7052],[36.6674,-1.2429,2007.0383],[36.6665,-1.2161,2071.1226],[36.6582,-1.1981,2081.4829],[36.6501,-1.2028,2118.3979],[36.6513,-1.1841,2129.7341],[36.6474,-1.1779,2152.4011],[36.6497,-1.1739,2156.0576],[36.6494,-1.1649,2231.8516],[36.6544,-1.161,2230.4253],[36.6548,-1.1545,2237.7646],[36.6381,-1.1553,2242.8628],[36.6356,-1.1708,2163.6689],[36.6316,-1.1537,2196.7725],[36.6254,-1.1506,2128.3286],[36.6196,-1.1532,2158.9922],[36.6092,-1.1685,2139.2612],[36.6071,-1.1765,2150.1934],[36.6078,-1.1803,2143.8452],[36.6126,-1.1859,2121.8706],[36.609,-1.1994,2099.7734],[36.6111,-1.2033,2091.041],[36.6158,-1.2041,2066.3345],[36.6161,-1.2105,2086.1929],[36.6127,-1.2163,2099.105],[36.5907,-1.2211,2087.7886],[36.5735,-1.2211,2061.5806],[36.5395,-1.2288,1622.489],[36.5166,-1.2362,1451.8516],[36.5126,-1.2358,1443.8049],[36.4908,-1.264,1414.0088],[36.6597,-1.2965,1974.3386],[36.6658,-1.3078,1908.9231],[36.6702,-1.2996,1950.1144],[36.6747,-1.3008,1922.4249],[36.6785,-1.2936,1947.1544],[36.6807,-1.2925,1925.2043],[36.6893,-1.273,1889.6384],[36.6915,-1.2731,1885.9768],[36.6901,-1.2652,1885.8762],[36.6947,-1.2643,1892.6509],[36.6931,-1.2622,1899.3191],[36.6968,-1.2614,1877.8447],[36.6931,-1.2578,1942.8165],[36.6949,-1.2558,1950.7432],[36.6937,-1.2539,1945.0756],[36.7008,-1.2557,1942.2856],[36.7082,-1.2419,1885.0033],[36.7038,-1.2388,1905.8822],[36.694,-1.2391,1937.0605],[36.6878,-1.2332,1950.4844],[36.6829,-1.2365,1955.1853],[36.6805,-1.2354,1977.9263]]]]}
,"properties": {"GID_2": "KEN.13.8_1","GID_0": "KEN","country": "Kenya","GID_1": "KEN.13_1","province": "Kiambu","NL_NAME_1": "NA","county": "Kikuyu","VARNAME_2": "NA","NL_NAME_2": "NA","TYPE_2": "Constituency","ENGTYPE_2": "Constituency","CC_2": "120","HASC_2": "NA","name": "Kikuyu.county","area_km2": 171.9943,"hist_schema_id": "Elevation0-9000","hist_area_km2": {"1400": 0.1272,"1425": 1.2294,"1450": 0.9327,"1475": 1.0599,"1500": 0.4875,"1525": 0.4875,"1550": 0.5299,"1575": 0.3604,"1600": 0.5299,"1625": 0.6995,"1650": 0.3815,"1675": 0.3815,"1700": 0.3604,"1725": 0.7207,"1750": 0.6571,"1775": 1.8229,"1800": 3.1796,"1825": 5.5536,"1850": 4.6846,"1875": 3.3279,"1900": 4.4514,"1925": 8.0125,"1950": 13.9265,"1975": 19.2257,"2000": 21.0063,"2025": 20.9852,"2050": 16.1099,"2075": 14.2659,"2100": 8.7122,"2125": 7.4828,"2150": 5.4902,"2175": 1.2719,"2200": 1.1235,"2225": 1.1023,"2250": 1.3143}}}