{"type":"Feature","properties":{"GID_3":"KEN.12.1.3_1","GID_0":"KEN","country":"Kenya","GID_1":"KEN.12_1","province":"Kericho","NL_NAME_1":"NA","GID_2":"KEN.12.1_1","county":"Ainamoi","NL_NAME_2":"NA","city":"Kapsaos","VARNAME_3":"NA","NL_NAME_3":"NA","TYPE_3":"Ward","ENGTYPE_3":"Ward","CC_3":"949","HASC_3":"NA","name":"Kapsaos.city"},
"geometry":{"type": "MultiPolygon","coordinates": [[[[35.3127,-0.311,2118.9507],[35.309,-0.3183,2135.009],[35.3217,-0.3238,2059.9473],[35.3248,-0.3278,2052.4785],[35.3276,-0.3271,2058.1553],[35.3508,-0.3026,1978.8644],[35.3637,-0.3006,1982.2284],[35.3625,-0.2967,1968.4304],[35.3692,-0.2936,1997.765],[35.3689,-0.29,1989.7426],[35.373,-0.2883,1984.8284],[35.3746,-0.2856,1955.9878],[35.3848,-0.2812,2039.3077],[35.3877,-0.2787,2031.3545],[35.3879,-0.2757,2002.0543],[35.3933,-0.271,2004.8746],[35.3957,-0.2715,2009.6111],[35.4011,-0.2673,2029.5876],[35.4041,-0.2669,2000.569],[35.4061,-0.2615,1970.8817],[35.4085,-0.2611,1956.3707],[35.4076,-0.2576,1974.5079],[35.4089,-0.2546,1978.2778],[35.4157,-0.251,2050.5918],[35.4146,-0.248,2057.3777],[35.4099,-0.2489,2017.0538],[35.4054,-0.2538,2033.7084],[35.4008,-0.2531,2070.7346],[35.3966,-0.2557,2043.6442],[35.3969,-0.2568,2027.0576],[35.3882,-0.2587,1999.2671],[35.385,-0.2617,1952.8809],[35.3773,-0.2609,1934.271],[35.3747,-0.2625,1936.616],[35.3723,-0.2613,1918.0837],[35.3713,-0.2631,1917.1195],[35.3684,-0.262,1894.0908],[35.3654,-0.263,1792.0287],[35.3629,-0.2621,1777.9517],[35.3618,-0.2548,1916.2705],[35.3561,-0.2571,1779.8954],[35.3546,-0.2542,1853.2673],[35.3503,-0.2539,1846.8074],[35.3481,-0.251,1750.934],[35.3428,-0.2508,1747.3822],[35.3401,-0.2474,1776.532],[35.3396,-0.249,1796.7056],[35.3382,-0.2476,1786.1427],[35.3372,-0.2491,1794.9977],[35.3352,-0.2495,1792.7866],[35.334,-0.248,1784.6582],[35.33,-0.2495,1659.6616],[35.3239,-0.2462,1606.8748],[35.3212,-0.2417,1669.0386],[35.3159,-0.2434,1626.5581],[35.3127,-0.2419,1591.4277],[35.3079,-0.2454,1471.3708],[35.3076,-0.2479,1551.2532],[35.3096,-0.2513,1530.1084],[35.3123,-0.2512,1496.1764],[35.3147,-0.2632,1695.6404],[35.3204,-0.2647,1802.4458],[35.3247,-0.2738,1766.1542],[35.323,-0.2776,1739.7173],[35.3181,-0.2815,1952.6726],[35.3152,-0.2879,2027.0977],[35.3151,-0.2925,2070.8164],[35.3174,-0.2924,2050.3027],[35.3182,-0.2957,1992.8965],[35.3153,-0.3006,2094.7717],[35.3128,-0.3014,2117.6953],[35.3163,-0.3028,2092.814],[35.3127,-0.311,2118.9507]]]]}}