{"type": "Feature","bbox": [34.3431,0.4077,34.4637,0.4808],"geometry": {"type": "MultiPolygon","coordinates": [[[[34.3911,0.4724,1250.1804],[34.3895,0.4656,1238.4647],[34.3868,0.4664,1242.939],[34.3822,0.4628,1235.735],[34.3761,0.4649,1231.6055],[34.3682,0.4614,1224.5898],[34.3644,0.4451,1240.0814],[34.3564,0.4407,1236.8932],[34.3431,0.429,1230.8187],[34.3505,0.4226,1225.7955],[34.3599,0.4097,1225.6517],[34.3661,0.4077,1245.0913],[34.3695,0.4091,1251.849],[34.3765,0.4084,1251.5022],[34.3921,0.4182,1263.8832],[34.3965,0.4238,1279.0602],[34.409,0.4262,1277.6736],[34.4099,0.4277,1272.3008],[34.4084,0.4321,1261.1918],[34.4105,0.4366,1250.1877],[34.4096,0.4435,1248.2471],[34.4291,0.4368,1282.9236],[34.4363,0.4293,1302.114],[34.4442,0.4271,1313.3147],[34.451,0.4276,1314.729],[34.4544,0.4247,1340.6472],[34.4637,0.4373,1303.5535],[34.4596,0.4581,1282.9216],[34.4616,0.4613,1275.9363],[34.4578,0.461,1275.14],[34.4548,0.4729,1265.8771],[34.4465,0.473,1278.41],[34.4422,0.4703,1271.218],[34.4418,0.4685,1268.0399],[34.4348,0.4679,1259.2891],[34.4241,0.4746,1248.5167],[34.421,0.4787,1252.3827],[34.4114,0.4808,1263.3407],[34.4047,0.4804,1255.8806],[34.4015,0.4771,1252.1261],[34.3981,0.4771,1254.7595],[34.3953,0.4733,1242.7185],[34.3911,0.4724,1250.1804]]]]}
,"properties": {"GID_3": "KEN.11.7.5_1","GID_0": "KEN","country": "Kenya","GID_1": "KEN.11_1","province": "Kakamega","NL_NAME_1": "NA","GID_2": "KEN.11.7_1","county": "Matungu","NL_NAME_2": "NA","city": "Namamali","VARNAME_3": "NA","NL_NAME_3": "NA","TYPE_3": "Ward","ENGTYPE_3": "Ward","CC_3": "1031","HASC_3": "NA","name": "Namamali.city","area_km2": 59.6612,"hist_schema_id": "Elevation0-9000","hist_area_km2": {"1225": 10.68558,"1250": 25.8659,"1275": 17.5973,"1300": 4.32512,"1325": 1.18729}}}