{"type":"Feature","properties":{"GID_3":"KEN.26.9.3_1","GID_0":"KEN","country":"Kenya","GID_1":"KEN.26_1","province":"Meru","NL_NAME_1":"NA","GID_2":"KEN.26.9_1","county":"TiganiaWest","NL_NAME_2":"NA","city":"Kianjai","VARNAME_3":"NA","NL_NAME_3":"NA","TYPE_3":"Ward","ENGTYPE_3":"Ward","CC_3":"268","HASC_3":"NA","name":"Kianjai.city"},
"geometry":{"type": "MultiPolygon","coordinates": [[[[37.573,0.3288,1153.3024],[37.6187,0.2467,1324.9736],[37.6485,0.1835,1451.7793],[37.6572,0.1792,1448.9854],[37.6743,0.1531,1449.5594],[37.6783,0.1499,1455.8389],[37.6864,0.1565,1423.3225],[37.6997,0.1633,1391.9667],[37.7093,0.1581,1390.0938],[37.7141,0.1647,1383.5487],[37.7189,0.1665,1380.5969],[37.7221,0.1621,1375.6997],[37.7341,0.1563,1391.4908],[37.7571,0.1537,1388.3206],[37.7605,0.1457,1392.6445],[37.7587,0.1421,1397.7216],[37.7719,0.1305,1388.0688],[37.7909,0.1185,1301.2852],[37.7925,0.1081,1223.6782],[37.7979,0.1055,1244.5785],[37.8071,0.1095,1301.5425],[37.8109,0.1163,1361.1345],[37.8107,0.1225,1315.6614],[37.8229,0.1283,1327.2018],[37.8235,0.1369,1355.1985],[37.8037,0.1413,1374.0372],[37.7977,0.1443,1408.7528],[37.794,0.1502,1415.2534],[37.7967,0.1545,1460.7754],[37.7741,0.1781,1459.0546],[37.7643,0.1851,1403.052],[37.7435,0.1867,1390.5344],[37.7295,0.1913,1389.6337],[37.7055,0.1961,1352.6802],[37.6821,0.2059,1373.6537],[37.6591,0.2211,1340.0852],[37.6565,0.2251,1328.8708],[37.6563,0.2313,1318.6981],[37.6529,0.2359,1330.3],[37.6513,0.2455,1301.8085],[37.6453,0.2523,1279.8405],[37.6467,0.2573,1261.7952],[37.6445,0.2645,1244.2155],[37.6491,0.2679,1236.4393],[37.6455,0.2671,1231.8804],[37.6421,0.2763,1216.8231],[37.6431,0.2801,1211.3998],[37.6421,0.2821,1205.7782],[37.6217,0.3031,1179.3907],[37.619,0.3113,1169.2888],[37.6163,0.3149,1163.9695],[37.6141,0.3271,1144.2476],[37.5929,0.3403,1132.1313],[37.5817,0.3289,1168.2654],[37.573,0.3288,1153.3024]]]]}}