{"type":"Feature","properties":{"GID_3":"KEN.42.3.1_1","GID_0":"KEN","country":"Kenya","GID_1":"KEN.42_1","province":"TransNzoia","NL_NAME_1":"NA","GID_2":"KEN.42.3_1","county":"Kiminini","NL_NAME_2":"NA","city":"Hospital","VARNAME_3":"NA","NL_NAME_3":"NA","TYPE_3":"Ward","ENGTYPE_3":"Ward","CC_3":"691","HASC_3":"NA","name":"Hospital.city"},
"geometry":{"type": "MultiPolygon","coordinates": [[[[35.0694,1.0299,1820.8167],[35.0662,1.0401,1821.0696],[35.0578,1.0459,1805.7975],[35.0561,1.0528,1815.7838],[35.0576,1.0593,1815.1052],[35.0559,1.0631,1820.2238],[35.0527,1.0657,1827.3055],[35.0323,1.0448,1835.5675],[35.0182,1.0278,1866.8024],[35.0069,1.0247,1895.7833],[35.002,1.0256,1889.0801],[35.0082,1.0164,1905.8947],[35.0075,1.0088,1890.3097],[35.0044,1.0011,1888.3881],[35.0079,0.9951,1871.7618],[35.0166,0.9897,1872.8997],[35.0371,0.989,1857.4324],[35.0357,0.9925,1873.1952],[35.0377,0.9919,1863.5034],[35.0371,0.9946,1876.1377],[35.0487,1.0014,1832.8295],[35.0501,1.0099,1839.4052],[35.0702,1.0196,1804.3804],[35.0708,1.0279,1815.1221],[35.0694,1.0299,1820.8167]]]]}}