{"type":"Feature","properties":{"GID_3":"KEN.32.4.4_1","GID_0":"KEN","country":"Kenya","GID_1":"KEN.32_1","province":"Nandi","NL_NAME_1":"NA","GID_2":"KEN.32.4_1","county":"Mosop","NL_NAME_2":"NA","city":"Kipkaren","VARNAME_3":"NA","NL_NAME_3":"NA","TYPE_3":"Ward","ENGTYPE_3":"Ward","CC_3":"775","HASC_3":"NA","name":"Kipkaren.city"},
"geometry":{"type": "MultiPolygon","coordinates": [[[[34.9886,0.5086,1887.9624],[34.9862,0.5067,1899.0271],[34.9872,0.504,1869.0011],[34.9856,0.5008,1870.3032],[34.9861,0.4985,1885.9226],[34.989,0.4968,1896.8202],[34.986,0.4924,1873.7719],[34.9955,0.484,1875.2931],[34.9969,0.4859,1872.0872],[35.0042,0.4704,1888.2876],[35.0031,0.4654,1926.4727],[34.9965,0.4559,1991.715],[34.9947,0.4481,2010.6659],[34.9973,0.4453,2018.1592],[35.0042,0.4427,2036.4838],[35.0278,0.4433,1956.2322],[35.0351,0.4489,1906.819],[35.0366,0.4548,1938.3428],[35.0314,0.4601,1968.9403],[35.0356,0.4675,1890.9542],[35.0385,0.4705,1888.939],[35.0442,0.4652,1896.8792],[35.0727,0.5556,1879.959],[35.0454,0.5672,1990.8585],[34.9832,0.562,1775.5011],[34.982,0.5455,1825.1327],[34.9775,0.5262,2022.8777],[34.9825,0.5217,1950.8009],[34.9955,0.515,1858.7595],[34.9886,0.5086,1887.9624]]]]}}