{"type":"Feature","properties":{"GID_3":"KEN.8.5.2_1","GID_0":"KEN","country":"Kenya","GID_1":"KEN.8_1","province":"HomaBay","NL_NAME_1":"NA","GID_2":"KEN.8.5_1","county":"Mbita","NL_NAME_2":"NA","city":"Kasgunga","VARNAME_3":"NA","NL_NAME_3":"NA","TYPE_3":"Ward","ENGTYPE_3":"Ward","CC_3":"1254","HASC_3":"NA","name":"Kasgunga.city"},
"geometry":{"type": "MultiPolygon","coordinates": [[[[34.2941,-0.4243,1133.0],[34.2816,-0.4209,1133.0],[34.2711,-0.4121,1133.0],[34.256,-0.3747,1133.0],[34.204,-0.4121,1157.6301],[34.1501,-0.4659,1133.0],[34.2021,-0.4994,1432.4392],[34.2043,-0.5028,1471.9231],[34.2099,-0.5028,1686.5403],[34.2082,-0.5092,1836.678],[34.2119,-0.5124,1743.2478],[34.213,-0.5086,1800.7457],[34.2187,-0.5023,1711.7844],[34.2263,-0.4999,1516.5592],[34.2368,-0.493,1422.4752],[34.2435,-0.4936,1335.5483],[34.2475,-0.4909,1301.5005],[34.2497,-0.487,1312.7036],[34.2746,-0.4825,1186.4717],[34.2804,-0.4768,1163.7572],[34.294,-0.4679,1133.0],[34.2941,-0.4243,1133.0]]]]}}