{"type":"Feature","properties":{"GID_3":"KEN.14.1.4_1","GID_0":"KEN","country":"Kenya","GID_1":"KEN.14_1","province":"Kilifi","NL_NAME_1":"NA","GID_2":"KEN.14.1_1","county":"Ganze","NL_NAME_2":"NA","city":"Sokoke","VARNAME_3":"NA","NL_NAME_3":"NA","TYPE_3":"Ward","ENGTYPE_3":"Ward","CC_3":"74","HASC_3":"NA","name":"Sokoke.city"},
"geometry":{"type": "MultiPolygon","coordinates": [[[[39.8085,-3.445,118.5982],[39.8103,-3.3756,154.9703],[39.8001,-3.3453,140.8534],[39.8061,-3.3309,126.659],[39.8075,-3.3159,126.9281],[39.8099,-3.3135,132.6179],[39.8085,-3.2905,136.3766],[39.8045,-3.2835,139.0713],[39.8047,-3.2802,139.6788],[39.8097,-3.2726,130.9142],[39.8101,-3.2667,121.1175],[39.8151,-3.258,113.3661],[39.8193,-3.2372,75.6431],[39.8247,-3.2317,71.4153],[39.8153,-3.2077,110.7837],[39.7691,-3.2463,169.1757],[39.7577,-3.2463,172.7867],[39.7419,-3.2513,175.8187],[39.7593,-3.2064,117.7169],[39.7301,-3.1977,153.0267],[39.7159,-3.1912,157.8233],[39.7153,-3.1872,157.3187],[39.7157,-3.1913,159.1843],[39.6899,-3.1857,129.7455],[39.5059,-3.2571,154.4919],[39.4477,-3.2566,178.3937],[39.4339,-3.3496,169.4374],[39.5207,-3.3488,152.453],[39.5233,-3.3523,147.0339],[39.5404,-3.3523,155.6408],[39.5613,-3.3588,170.0231],[39.5721,-3.3598,176.9556],[39.5751,-3.362,174.7816],[39.5541,-3.3988,237.9901],[39.5537,-3.4014,232.9478],[39.5555,-3.4035,227.3097],[39.6013,-3.4239,161.6594],[39.6053,-3.4168,145.3748],[39.6285,-3.4242,146.5579],[39.6365,-3.4292,133.7937],[39.6427,-3.436,128.4031],[39.6535,-3.4342,119.1547],[39.6589,-3.4402,113.4197],[39.662,-3.4391,106.1009],[39.6643,-3.4353,121.2498],[39.6831,-3.4352,150.0782],[39.6937,-3.437,138.3188],[39.7039,-3.4315,123.4983],[39.7223,-3.4282,81.0655],[39.7295,-3.4341,81.1447],[39.7305,-3.4372,75.2101],[39.7307,-3.445,81.4926],[39.7271,-3.4474,85.594],[39.7313,-3.4533,74.3034],[39.7377,-3.4521,89.603],[39.7349,-3.4612,84.2785],[39.7402,-3.4602,83.2445],[39.7413,-3.4558,107.661],[39.7519,-3.454,104.0171],[39.7561,-3.4561,90.4481],[39.7653,-3.4553,75.0209],[39.7702,-3.4585,49.0777],[39.7753,-3.4581,47.3205],[39.7839,-3.4622,53.5246],[39.7871,-3.4622,47.5272],[39.7971,-3.4557,89.1292],[39.8039,-3.4465,98.4191],[39.8085,-3.445,118.5982]]]]}}