{"type":"Feature","properties":{"GID_2":"KEN.27.5_1","GID_0":"KEN","country":"Kenya","GID_1":"KEN.27_1","province":"Migori","NL_NAME_1":"NA","county":"Rongo","VARNAME_2":"NA","NL_NAME_2":"NA","TYPE_2":"Constituency","ENGTYPE_2":"Constituency","CC_2":"253","HASC_2":"NA","name":"Rongo.county"},
"geometry":{"type": "MultiPolygon","coordinates": [[[[34.6231,-0.7972,1507.5027],[34.6256,-0.7511,1467.7886],[34.6287,-0.7465,1500.8835],[34.6282,-0.7411,1507.6085],[34.6303,-0.7348,1493.2804],[34.6282,-0.7253,1454.9529],[34.6419,-0.6993,1424.2556],[34.6398,-0.6953,1413.3899],[34.6389,-0.6807,1402.5289],[34.6361,-0.6756,1396.3553],[34.6377,-0.672,1398.2018],[34.6346,-0.6621,1402.3046],[34.6366,-0.657,1434.4404],[34.6303,-0.6548,1401.2656],[34.6267,-0.6506,1395.3641],[34.6199,-0.6498,1390.8406],[34.6083,-0.6453,1377.3042],[34.6059,-0.6473,1377.1038],[34.5987,-0.6453,1385.5642],[34.5892,-0.6452,1368.2554],[34.5823,-0.6479,1360.6562],[34.5818,-0.6537,1362.3098],[34.5799,-0.6549,1359.7871],[34.5693,-0.6569,1350.9977],[34.565,-0.6597,1349.7338],[34.5606,-0.6592,1355.49],[34.5568,-0.6622,1348.484],[34.5599,-0.6675,1341.2183],[34.5529,-0.6708,1339.6293],[34.5523,-0.6761,1335.6829],[34.5479,-0.682,1332.8256],[34.5454,-0.6823,1331.0709],[34.5416,-0.6863,1330.4065],[34.5374,-0.6927,1332.2896],[34.537,-0.6971,1337.5208],[34.5341,-0.698,1335.5319],[34.5337,-0.7153,1339.9072],[34.535,-0.7177,1345.8784],[34.5307,-0.7212,1336.684],[34.5379,-0.7259,1314.2334],[34.5409,-0.7333,1356.6135],[34.5409,-0.7389,1351.6731],[34.5453,-0.743,1385.406],[34.5474,-0.7476,1391.7023],[34.5508,-0.7467,1370.2847],[34.5576,-0.7523,1410.173],[34.5628,-0.75,1418.29],[34.5704,-0.7511,1401.3009],[34.5697,-0.7678,1411.3749],[34.5714,-0.7691,1390.1864],[34.5744,-0.7788,1408.9208],[34.5676,-0.7869,1421.8033],[34.5676,-0.7929,1429.7372],[34.5625,-0.7945,1390.9313],[34.5654,-0.7967,1364.0044],[34.5655,-0.7994,1347.6918],[34.5709,-0.8023,1378.1982],[34.5706,-0.8085,1347.0126],[34.5724,-0.8091,1339.2749],[34.5765,-0.8162,1382.4899],[34.5766,-0.8196,1368.361],[34.5793,-0.8218,1357.1467],[34.5828,-0.8206,1371.0348],[34.581,-0.8238,1369.9019],[34.5854,-0.826,1371.9657],[34.5865,-0.8293,1402.9492],[34.5805,-0.8338,1454.2935],[34.5799,-0.8366,1428.6445],[34.5738,-0.8389,1468.114],[34.5721,-0.8421,1457.387],[34.5731,-0.8506,1442.0068],[34.571,-0.852,1464.1509],[34.5724,-0.8551,1463.7445],[34.5755,-0.8568,1476.5142],[34.5738,-0.8597,1489.4736],[34.5747,-0.8649,1484.4563],[34.5785,-0.8627,1447.5939],[34.581,-0.8649,1478.6616],[34.5801,-0.8712,1470.9617],[34.5826,-0.8752,1477.5186],[34.5798,-0.8816,1458.205],[34.5847,-0.9004,1464.0518],[34.5846,-0.9112,1476.376],[34.5876,-0.9218,1504.0704],[34.5842,-0.9293,1484.1008],[34.5895,-0.9305,1484.4998],[34.5942,-0.9287,1507.5436],[34.5992,-0.9429,1489.3373],[34.6027,-0.9455,1497.5227],[34.6054,-0.9534,1502.2964],[34.6102,-0.9586,1504.2042],[34.604,-0.9615,1483.8705],[34.6071,-0.965,1476.5659],[34.6152,-0.9676,1489.5986],[34.618,-0.973,1479.25],[34.6179,-0.9776,1486.5789],[34.6222,-0.982,1507.1737],[34.642,-0.9627,1526.858],[34.6355,-0.9592,1520.332],[34.6316,-0.9591,1527.3623],[34.6314,-0.955,1534.9667],[34.6272,-0.9507,1534.3516],[34.6266,-0.9464,1543.3098],[34.6231,-0.9406,1549.4634],[34.6218,-0.9324,1556.0573],[34.6236,-0.9188,1574.0853],[34.6167,-0.8931,1481.2065],[34.6173,-0.8885,1492.7115],[34.6148,-0.8862,1472.2148],[34.6143,-0.8833,1488.9182],[34.6143,-0.8771,1499.429],[34.6174,-0.8669,1470.8168],[34.6103,-0.8529,1430.8468],[34.6102,-0.8364,1407.9431],[34.6169,-0.8353,1474.2661],[34.6208,-0.8366,1417.3267],[34.6219,-0.83,1476.2803],[34.6252,-0.8238,1481.3181],[34.6247,-0.82,1488.6925],[34.6216,-0.8177,1468.0933],[34.6231,-0.7972,1507.5027]]]]}}