{"type": "Feature","bbox": [34.0442,0.012,34.1541,0.1404],"geometry": {"type": "MultiPolygon","coordinates": [[[[34.0497,0.032,1140.5825],[34.0442,0.012,1140.8296],[34.1113,0.0453,1145.0364],[34.1126,0.0431,1144.4459],[34.1107,0.0416,1144.9182],[34.1112,0.0402,1144.1368],[34.1171,0.0357,1146.3986],[34.1191,0.0301,1143.4312],[34.1184,0.0278,1144.2114],[34.1222,0.0238,1145.7343],[34.1541,0.019,1146.1301],[34.154,0.0328,1149.2334],[34.152,0.0375,1146.5234],[34.1493,0.0365,1147.448],[34.1468,0.0398,1143.8213],[34.1474,0.0442,1143.1349],[34.151,0.0498,1144.9287],[34.149,0.0575,1144.5],[34.1425,0.0605,1144.5736],[34.1405,0.0719,1167.8661],[34.1268,0.0761,1155.7324],[34.1238,0.0789,1148.3407],[34.1252,0.0877,1151.1191],[34.1293,0.0916,1173.9265],[34.127,0.0968,1162.1094],[34.1298,0.1006,1165.761],[34.1269,0.1047,1183.8575],[34.1276,0.1087,1186.3372],[34.1189,0.1205,1149.6418],[34.1126,0.125,1147.5814],[34.102,0.1287,1205.3361],[34.1027,0.1354,1206.9655],[34.1051,0.1401,1172.1664],[34.0994,0.1404,1154.6055],[34.0933,0.1349,1145.6224],[34.09,0.1293,1147.5798],[34.0859,0.1308,1144.7473],[34.0842,0.1267,1143.5826],[34.0809,0.1271,1145.4202],[34.0751,0.1243,1144.5123],[34.0719,0.1244,1144.4453],[34.0735,0.1163,1143.8606],[34.0732,0.1068,1142.9718],[34.066,0.095,1140.6893],[34.0497,0.032,1140.5825]]]]}
,"properties": {"GID_3": "KEN.38.1.5_1","GID_0": "KEN","country": "Kenya","GID_1": "KEN.38_1","province": "Siaya","NL_NAME_1": "NA","GID_2": "KEN.38.1_1","county": "AlegoUsonga","NL_NAME_2": "NA","city": "Usonga","VARNAME_3": "NA","NL_NAME_3": "NA","TYPE_3": "Ward","ENGTYPE_3": "Ward","CC_3": "1163","HASC_3": "NA","name": "Usonga.city","area_km2": 91.82668,"hist_schema_id": "Elevation0-9000","hist_area_km2": {"1150": 90.04569,"1175": 1.56896,"1200": 0.16962,"1225": 0.0424}}}