{"type": "Feature","bbox": [40.0039,1.6871,40.9938,2.3253],"geometry": {"type": "MultiPolygon","coordinates": [[[[40.1239,1.7403,255.8107],[40.1233,1.7427,256.3323],[40.2265,1.7343,251.5865],[40.2761,1.7325,250.2825],[40.3817,1.7253,229.3522],[40.4835,1.7159,219.3128],[40.4959,1.7185,217.9477],[40.5033,1.7181,217.4832],[40.5803,1.7405,213.2828],[40.9299,1.6945,183.5753],[40.9401,1.6919,180.2571],[40.9914,1.6968,183.9346],[40.9915,1.7928,200.6022],[40.9938,1.8239,205.3688],[40.9913,1.8317,206.3796],[40.9905,1.9547,227.0235],[40.9786,2.1784,285.2245],[40.9651,2.1761,278.71],[40.9437,2.1773,275.6816],[40.9203,2.1881,279.7213],[40.9003,2.2029,280.2935],[40.8843,2.2165,283.9925],[40.8673,2.2357,288.4095],[40.8645,2.2409,290.1148],[40.8627,2.2531,291.4996],[40.8573,2.2627,294.6177],[40.8329,2.2881,299.2281],[40.8233,2.2923,301.6747],[40.8011,2.2917,304.0665],[40.7745,2.3141,311.7426],[40.7561,2.3163,310.7867],[40.7409,2.3133,312.2569],[40.7225,2.3253,316.1779],[40.5421,2.2393,352.5938],[40.5473,2.2137,350.0121],[40.5467,2.2001,348.6489],[40.5437,2.1949,348.1132],[40.5433,2.1895,346.7317],[40.5481,2.1829,344.5658],[40.5531,2.1557,336.3445],[40.5617,2.1387,330.7324],[40.5617,2.1253,326.7325],[40.5553,2.1149,325.8369],[40.5277,2.0859,338.9856],[40.5051,2.0707,335.4707],[40.4981,2.0601,332.8098],[40.4933,2.0577,332.8712],[40.4773,2.0439,332.5535],[40.4663,2.0377,332.7182],[40.4589,2.0307,332.9004],[40.4521,2.0169,332.8469],[40.4411,2.0123,332.0909],[40.4313,2.0107,330.9092],[40.4219,2.0027,331.9939],[40.4156,1.9998,332.0771],[40.3935,1.9981,332.6212],[40.3833,1.9923,333.3638],[40.3727,1.9929,332.3859],[40.3619,1.9963,330.8975],[40.3561,2.0001,329.7331],[40.3497,1.9997,327.7016],[40.3381,1.9929,326.1967],[40.3241,1.9815,322.662],[40.3211,1.9767,321.8052],[40.3147,1.9549,315.553],[40.2957,1.9319,305.0017],[40.2771,1.9043,296.3772],[40.2693,1.8879,291.6392],[40.2643,1.8813,291.0544],[40.2495,1.8707,289.7747],[40.2409,1.8601,286.9677],[40.2301,1.8529,285.783],[40.2163,1.8521,286.5735],[40.2045,1.8443,284.0264],[40.1985,1.8443,284.8615],[40.1925,1.8483,285.0164],[40.1907,1.8479,285.1224],[40.1835,1.8389,282.9994],[40.1719,1.8337,280.099],[40.1461,1.8125,273.8444],[40.1225,1.7897,267.7664],[40.1123,1.7829,265.9186],[40.1077,1.8017,270.0921],[40.1031,1.8081,272.0559],[40.0959,1.8093,273.8999],[40.0755,1.8059,274.2246],[40.0269,1.7929,268.4311],[40.0241,1.7933,270.4671],[40.0218,1.7999,268.6581],[40.0226,1.796,271.5446],[40.0244,1.7923,269.2692],[40.0163,1.7895,268.4325],[40.0101,1.7829,267.712],[40.0039,1.7719,265.3619],[40.0045,1.7561,262.4461],[40.0235,1.6945,250.1689],[40.0745,1.6871,247.6394],[40.0797,1.688,247.6185],[40.1177,1.7205,252.4361],[40.1229,1.7335,254.2398],[40.1239,1.7403,255.8107]]]]}
,"properties": {"GID_2": "KEN.46.3_1","GID_0": "KEN","country": "Kenya","GID_1": "KEN.46_1","province": "Wajir","NL_NAME_1": "NA","county": "WajirEast","VARNAME_2": "NA","NL_NAME_2": "NA","TYPE_2": "Constituency","ENGTYPE_2": "Constituency","CC_2": "34","HASC_2": "NA","name": "Wajir_East.county","area_km2": 4279.236,"hist_schema_id": "Elevation0-9000","hist_area_km2": {"175": 18.84,"200": 388.558,"225": 700.754,"250": 839.472,"275": 948.002,"300": 685.524,"325": 576.296,"350": 121.79}}}