{"type":"Feature","properties":{"GID_3":"KEN.3.1.3_1","GID_0":"KEN","country":"Kenya","GID_1":"KEN.3_1","province":"Bungoma","NL_NAME_1":"NA","GID_2":"KEN.3.1_1","county":"Bumula","NL_NAME_2":"NA","city":"Khasoko","VARNAME_3":"NA","NL_NAME_3":"NA","TYPE_3":"Ward","ENGTYPE_3":"Ward","CC_3":"1091","HASC_3":"NA","name":"Khasoko.city"},
"geometry":{"type": "MultiPolygon","coordinates": [[[[34.4071,0.5078,1255.0847],[34.4011,0.5041,1254.4824],[34.3896,0.5034,1247.6338],[34.3859,0.4989,1227.4417],[34.3859,0.4892,1253.1514],[34.3902,0.473,1250.1804],[34.3953,0.4733,1242.7185],[34.3981,0.4771,1254.7595],[34.4015,0.4771,1252.1261],[34.4047,0.4804,1255.8806],[34.4114,0.4808,1263.3407],[34.421,0.4787,1252.3827],[34.4241,0.4746,1248.5167],[34.4348,0.4679,1259.2891],[34.4418,0.4685,1268.0399],[34.4422,0.4703,1271.218],[34.4465,0.473,1278.41],[34.4548,0.4729,1265.8771],[34.4503,0.5028,1314.6793],[34.4444,0.5039,1292.5739],[34.4428,0.5064,1301.4272],[34.4342,0.5079,1283.8799],[34.4122,0.5063,1247.3223],[34.4071,0.5078,1255.0847]]]]}}