{"type": "Feature","bbox": [35.3368,1.229,35.7905,1.9319],"geometry": {"type": "MultiPolygon","coordinates": [[[[35.7029,1.3999,896.7762],[35.7022,1.4027,901.2918],[35.7039,1.4061,899.4049],[35.7119,1.4063,894.6226],[35.7103,1.4091,900.8746],[35.7067,1.4102,896.2332],[35.7072,1.4138,894.1133],[35.7116,1.417,899.3558],[35.7067,1.4207,894.0244],[35.7065,1.424,892.7402],[35.7082,1.4255,892.374],[35.7057,1.4326,896.751],[35.709,1.4356,890.9725],[35.7086,1.4397,893.2101],[35.7064,1.442,903.0413],[35.7122,1.4465,890.709],[35.7128,1.4519,897.1224],[35.7203,1.4555,888.6519],[35.7206,1.4611,889.2313],[35.7233,1.4625,885.5333],[35.7232,1.4664,886.1136],[35.7193,1.4727,892.7887],[35.7195,1.4766,891.8107],[35.7247,1.4796,892.0857],[35.7269,1.4848,890.3895],[35.7302,1.486,888.2234],[35.7289,1.4914,896.8184],[35.7317,1.4922,892.5724],[35.7391,1.502,896.7695],[35.7416,1.5028,893.3746],[35.7425,1.5088,899.0597],[35.7516,1.5098,879.9579],[35.7526,1.5111,875.3452],[35.751,1.5142,885.1404],[35.7539,1.5157,938.1137],[35.7561,1.5211,889.0126],[35.7613,1.5228,871.5952],[35.7608,1.5266,873.4669],[35.7641,1.5315,872.1558],[35.7623,1.5335,891.8745],[35.7635,1.5367,881.1041],[35.7693,1.5386,858.7098],[35.7683,1.5471,876.1891],[35.7706,1.5543,880.9154],[35.7739,1.5568,869.0745],[35.776,1.5658,855.4005],[35.7755,1.5758,855.1224],[35.7798,1.5757,847.1732],[35.7797,1.5822,847.6797],[35.7813,1.584,846.1246],[35.7841,1.5841,850.0621],[35.7791,1.5931,844.375],[35.7824,1.5973,840.4449],[35.7805,1.6004,844.9136],[35.7818,1.6052,840.4413],[35.7791,1.6088,842.5287],[35.7833,1.6096,836.9404],[35.7867,1.6135,838.2604],[35.7845,1.6145,833.5262],[35.7841,1.6175,831.1504],[35.7806,1.6208,832.9485],[35.7802,1.6272,847.4263],[35.7809,1.629,839.5063],[35.7871,1.6286,827.1529],[35.7905,1.6313,848.3789],[35.7855,1.6372,869.9114],[35.7812,1.6375,862.6423],[35.7802,1.6432,827.4017],[35.7773,1.6462,826.8022],[35.7775,1.649,837.7333],[35.7817,1.6531,824.0797],[35.7794,1.6551,827.1894],[35.7798,1.6594,819.0242],[35.7811,1.6607,813.9989],[35.785,1.6595,816.3916],[35.7858,1.6618,832.1498],[35.7817,1.6683,818.7714],[35.771,1.6705,846.8458],[35.762,1.6746,869.0703],[35.7588,1.6779,873.8986],[35.7532,1.6784,890.4336],[35.7509,1.6804,898.2944],[35.7414,1.6833,914.9456],[35.7386,1.683,918.0436],[35.7254,1.6929,965.6559],[35.7198,1.6944,961.9298],[35.7188,1.6973,975.077],[35.7021,1.711,1016.7814],[35.6851,1.72,1027.072],[35.679,1.7255,1011.239],[35.6736,1.7272,997.529],[35.6694,1.7352,992.4767],[35.6577,1.7378,975.9067],[35.6485,1.7461,965.7783],[35.6407,1.7466,954.1579],[35.6384,1.7493,951.3638],[35.6289,1.751,941.0392],[35.6203,1.7547,921.4823],[35.6185,1.7538,919.1806],[35.6135,1.7559,913.2917],[35.6084,1.7554,913.867],[35.6076,1.7574,908.7625],[35.6037,1.7586,903.7451],[35.5984,1.7666,902.4776],[35.5956,1.7666,898.9219],[35.5938,1.7685,896.6733],[35.5858,1.7643,891.0879],[35.5771,1.765,882.7141],[35.5744,1.7668,880.0739],[35.5695,1.7664,876.7292],[35.5676,1.764,876.1694],[35.5621,1.7672,869.122],[35.5596,1.7662,865.8906],[35.5493,1.7705,857.3815],[35.5453,1.7684,854.8149],[35.5373,1.7699,847.5944],[35.5327,1.7677,844.405],[35.528,1.7682,838.5217],[35.5159,1.7744,826.5217],[35.5036,1.7708,815.3007],[35.5,1.7729,819.2669],[35.498,1.7709,811.981],[35.4985,1.7733,817.1849],[35.4948,1.774,809.6361],[35.4972,1.7804,813.9979],[35.4953,1.7811,811.2124],[35.495,1.7832,808.7424],[35.4925,1.7832,806.9921],[35.4915,1.7849,806.7422],[35.4928,1.787,809.5607],[35.4897,1.7862,806.5897],[35.4879,1.7904,804.0391],[35.4853,1.7917,803.7554],[35.4858,1.7953,806.2277],[35.4827,1.7966,803.9141],[35.4825,1.8019,805.728],[35.4759,1.8043,799.5735],[35.4746,1.8085,799.3602],[35.4709,1.8083,801.1033],[35.4715,1.8102,800.3643],[35.4742,1.8108,797.8784],[35.4745,1.8145,796.8123],[35.4776,1.8179,796.9229],[35.473,1.8186,795.5965],[35.4726,1.822,795.23],[35.4769,1.8267,792.8335],[35.4747,1.8284,794.2233],[35.4767,1.8311,795.5881],[35.4743,1.8333,794.9249],[35.4732,1.8411,796.1616],[35.4691,1.8436,795.1755],[35.4675,1.8474,795.7098],[35.4608,1.8455,790.796],[35.4575,1.8516,788.1899],[35.4527,1.8506,787.4351],[35.4518,1.8554,787.3915],[35.3718,1.9319,774.3716],[35.3749,1.9187,782.3984],[35.3741,1.9152,785.1078],[35.3708,1.9116,795.4381],[35.3727,1.9015,805.1891],[35.3713,1.8964,828.637],[35.3579,1.8798,1223.3357],[35.3453,1.8526,1229.0215],[35.3414,1.836,1656.1926],[35.3368,1.8289,1456.7677],[35.34,1.8244,1580.797],[35.3408,1.8198,1450.4392],[35.3386,1.8045,1485.1829],[35.3431,1.7882,1586.8207],[35.3399,1.782,1616.6304],[35.3421,1.773,1799.7395],[35.3457,1.7641,1704.4373],[35.3485,1.7628,1707.3215],[35.3503,1.7592,1712.9561],[35.3537,1.7589,1741.0535],[35.3574,1.7522,1753.3535],[35.3584,1.74,2072.1768],[35.3666,1.723,2288.7197],[35.3541,1.6698,1929.845],[35.3535,1.6547,2190.7397],[35.3713,1.6431,2529.9692],[35.3706,1.6265,2421.0115],[35.3749,1.6198,2536.7476],[35.3824,1.6014,2559.9707],[35.38,1.5938,2400.3071],[35.384,1.5907,2430.0991],[35.3895,1.5822,2262.5435],[35.39,1.5748,1829.6654],[35.3988,1.5681,1833.9695],[35.3974,1.5652,1562.8787],[35.3993,1.5616,1477.4753],[35.4023,1.5609,1599.7428],[35.402,1.5569,1370.0822],[35.4047,1.556,1524.3804],[35.4067,1.5531,1499.2239],[35.4107,1.5535,1298.2346],[35.4117,1.5523,1298.2346],[35.4109,1.5497,1233.5415],[35.4135,1.5469,1228.9515],[35.4118,1.5437,1155.3153],[35.4134,1.5435,1177.4718],[35.4125,1.5416,1163.5745],[35.4143,1.5386,1117.946],[35.412,1.5391,1183.9033],[35.4123,1.535,1199.0767],[35.4104,1.5342,1283.9852],[35.4022,1.5423,1537.0197],[35.4002,1.5416,1323.3947],[35.3972,1.5437,1316.7185],[35.3965,1.5423,1316.7185],[35.3923,1.5419,1344.4998],[35.3712,1.5258,1424.9994],[35.3421,1.5108,1416.51],[35.34,1.5081,1351.6125],[35.3443,1.5035,1413.2853],[35.3528,1.5009,1571.8103],[35.3546,1.4964,1620.163],[35.3584,1.4944,1825.5459],[35.3701,1.4829,1496.9288],[35.3725,1.4823,1473.1412],[35.3745,1.4855,1586.733],[35.376,1.4854,1508.647],[35.3757,1.484,1508.647],[35.3795,1.4807,1297.3318],[35.3826,1.4739,1479.1885],[35.3861,1.4716,1421.511],[35.3925,1.4567,1744.3481],[35.4025,1.4485,2273.6143],[35.4082,1.4399,2542.9558],[35.4427,1.4332,1692.6541],[35.4652,1.4326,1097.5045],[35.4613,1.4264,1139.215],[35.4444,1.4231,1781.1279],[35.4361,1.4104,2243.0488],[35.4377,1.3996,2247.1187],[35.4478,1.3665,1812.8767],[35.4498,1.3328,2174.116],[35.4352,1.2847,3115.3174],[35.4475,1.2791,2903.2893],[35.4498,1.2711,2979.2642],[35.4674,1.2361,3161.0635],[35.467,1.229,3140.9016],[35.5002,1.257,3441.6199],[35.5443,1.2911,2987.1001],[35.5588,1.2905,2910.9331],[35.5598,1.2936,2721.8794],[35.5681,1.2964,2602.3098],[35.5794,1.2963,2380.1477],[35.5889,1.2871,1799.822],[35.6065,1.2832,1172.4205],[35.6122,1.2854,1134.5586],[35.6165,1.2938,1079.2261],[35.624,1.2993,1038.5006],[35.6279,1.3002,1031.3116],[35.6317,1.3054,1022.1025],[35.6725,1.3201,942.0013],[35.6969,1.3241,912.7504],[35.6981,1.3256,911.8419],[35.6971,1.3286,910.7264],[35.7,1.3307,910.254],[35.7001,1.3328,911.8139],[35.6964,1.3333,912.1919],[35.6982,1.3353,912.9799],[35.695,1.3392,910.9883],[35.696,1.3432,909.0754],[35.6888,1.3458,906.4067],[35.6924,1.348,905.9172],[35.691,1.3496,905.3813],[35.6891,1.349,907.458],[35.6877,1.3514,911.7729],[35.691,1.3571,904.3477],[35.6878,1.3626,907.6744],[35.6919,1.3677,904.0194],[35.6909,1.3718,905.2115],[35.6928,1.3732,903.7418],[35.6947,1.372,901.4475],[35.6933,1.3769,909.0445],[35.6957,1.3791,910.142],[35.6955,1.3815,911.0125],[35.7027,1.3899,901.7338],[35.7024,1.3916,898.9289],[35.6994,1.3918,904.3346],[35.6991,1.3941,903.1233],[35.7029,1.3999,896.7762]]]]}
,"properties": {"GID_2": "KEN.47.4_1","GID_0": "KEN","country": "Kenya","GID_1": "KEN.47_1","province": "WestPokot","NL_NAME_1": "NA","county": "Sigor","VARNAME_2": "NA","NL_NAME_2": "NA","TYPE_2": "Constituency","ENGTYPE_2": "Constituency","CC_2": "130","HASC_2": "NA","name": "Sigor.county","area_km2": 2160.685,"hist_schema_id": "Elevation0-9000","hist_area_km2": {"775": 2.204,"800": 42.509,"825": 63.491,"850": 97.168,"875": 124.468,"900": 183.455,"925": 231.211,"950": 234.564,"975": 146.646,"1000": 97.769,"1025": 63.01,"1050": 40.205,"1075": 30.413,"1100": 26.408,"1125": 22.656,"1150": 22.508,"1175": 22.974,"1200": 21.215,"1225": 18.015,"1250": 19.562,"1275": 18.142,"1300": 17.294,"1325": 16.934,"1350": 18.439,"1375": 18.608,"1400": 18.863,"1425": 18.29,"1450": 16.722,"1475": 15.853,"1500": 15.514,"1525": 14.116,"1550": 14.264,"1575": 12.335,"1600": 11.487,"1625": 10.788,"1650": 9.622,"1675": 10.322,"1700": 9.093,"1725": 10.343,"1750": 9.601,"1775": 11.148,"1800": 13.84,"1825": 14.455,"1850": 13.48,"1875": 12.42,"1900": 12.653,"1925": 11.424,"1950": 11.17,"1975": 10.746,"2000": 10.555,"2025": 9.538,"2050": 9.411,"2075": 9.389,"2100": 9.241,"2125": 7.99,"2150": 8.054,"2175": 7.439,"2200": 7.037,"2225": 7.27,"2250": 6.888,"2275": 7.249,"2300": 7.164,"2325": 6.613,"2350": 5.871,"2375": 6.867,"2400": 6.761,"2425": 6.062,"2450": 6.274,"2475": 5.066,"2500": 5.998,"2525": 5.913,"2550": 5.278,"2575": 5.32,"2600": 4.536,"2625": 4.684,"2650": 4.769,"2675": 4.069,"2700": 3.603,"2725": 4.006,"2750": 3.328,"2775": 3.858,"2800": 3.624,"2825": 3.391,"2850": 2.543,"2875": 2.607,"2900": 2.48,"2925": 2.014,"2950": 1.844,"2975": 1.759,"3000": 2.12,"3025": 1.505,"3050": 1.378,"3075": 2.374,"3100": 2.734,"3125": 2.374,"3150": 1.781,"3175": 1.335,"3200": 0.848,"3225": 1.039,"3250": 0.657,"3275": 0.827,"3300": 0.721,"3325": 1.145,"3350": 0.996,"3375": 0.975,"3400": 0.827,"3425": 0.911,"3450": 0.615,"3475": 0.36,"3500": 0.339,"3525": 0.042}}}