{"type": "Feature","bbox": [35.9962,-2.2332,36.4259,-1.5977],"geometry": {"type": "MultiPolygon","coordinates": [[[[36.3461,-1.6436,960.1892],[36.0997,-1.6067,951.2886],[36.0854,-1.6035,1085.0505],[36.0695,-1.5977,1405.5171],[36.0667,-1.6062,1419.2437],[36.0651,-1.608,1415.3887],[36.063,-1.6071,1417.0908],[36.0652,-1.6126,1346.9657],[36.0635,-1.6145,1411.1786],[36.06,-1.6147,1411.7061],[36.0565,-1.6292,1423.3115],[36.0534,-1.634,1424.1692],[36.0511,-1.6346,1420.3604],[36.0529,-1.6376,1379.7913],[36.0524,-1.6452,1409.9541],[36.0487,-1.6455,1414.1135],[36.0465,-1.6477,1456.6006],[36.0488,-1.649,1372.0862],[36.0477,-1.6519,1439.8939],[36.0506,-1.6526,1317.071],[36.0537,-1.659,1317.804],[36.0524,-1.6641,1436.4595],[36.0541,-1.6636,1338.1143],[36.0583,-1.6694,1330.9353],[36.0574,-1.675,1459.8221],[36.0588,-1.6769,1458.9612],[36.0573,-1.6789,1450.0564],[36.0588,-1.6809,1397.7103],[36.0571,-1.6838,1442.6964],[36.062,-1.6863,1279.38],[36.0642,-1.6924,1371.0674],[36.0617,-1.6926,1430.9426],[36.0579,-1.6963,1513.3414],[36.0558,-1.7037,1432.126],[36.0522,-1.6998,1419.7996],[36.0477,-1.6983,1402.5806],[36.0457,-1.7031,1411.655],[36.043,-1.7045,1434.3345],[36.0429,-1.7097,1395.2848],[36.0445,-1.7148,1339.3582],[36.0476,-1.717,1299.8367],[36.0485,-1.7253,1465.7412],[36.046,-1.727,1465.8496],[36.0429,-1.7239,1470.9762],[36.0411,-1.7332,1418.0197],[36.0357,-1.7362,1474.3345],[36.0353,-1.7482,1419.5636],[36.0323,-1.7526,1421.7969],[36.0355,-1.7571,1353.3584],[36.0358,-1.7606,1422.6577],[36.0313,-1.7582,1397.8469],[36.031,-1.7659,1420.828],[36.0233,-1.7729,1419.6176],[36.0301,-1.7747,1082.9736],[36.0275,-1.7764,1163.0264],[36.0274,-1.7888,1377.9397],[36.0226,-1.7896,1428.0551],[36.0228,-1.7919,1420.6643],[36.018,-1.7947,1473.5809],[36.0159,-1.7989,1477.3557],[36.0166,-1.802,1417.7917],[36.0224,-1.8006,1315.1763],[36.028,-1.8041,1079.3164],[36.0298,-1.8153,1393.6365],[36.0278,-1.8169,1389.1971],[36.0286,-1.8237,1311.2029],[36.0381,-1.8188,1089.2936],[36.0395,-1.823,1296.1937],[36.0431,-1.824,1053.3074],[36.0432,-1.8267,1120.9261],[36.0404,-1.8284,1234.4973],[36.0488,-1.836,1014.5469],[36.0471,-1.8429,1221.2311],[36.0499,-1.8522,1070.2656],[36.0481,-1.8593,1213.8503],[36.0514,-1.8652,902.1035],[36.0448,-1.8741,1156.7479],[36.0413,-1.8723,1082.5118],[36.0366,-1.8735,1147.8357],[36.0368,-1.8864,1129.288],[36.0347,-1.89,1136.8867],[36.031,-1.8857,1133.963],[36.0258,-1.8893,1021.7487],[36.0311,-1.896,1016.3391],[36.0319,-1.9014,1091.9332],[36.0354,-1.902,929.6606],[36.0402,-1.9053,859.3879],[36.0433,-1.9044,807.7805],[36.0425,-1.909,896.2426],[36.033,-1.9127,1034.1921],[36.037,-1.9129,1012.0144],[36.0366,-1.9235,1042.6208],[36.0396,-1.9249,983.4468],[36.0425,-1.9319,927.5263],[36.042,-1.9394,1036.1575],[36.0386,-1.9458,1017.5306],[36.0411,-1.9577,885.6744],[36.0384,-1.9654,977.0073],[36.0395,-1.9716,809.0621],[36.0364,-1.9791,914.9965],[36.0355,-1.9995,818.9371],[36.0338,-1.9982,823.0887],[36.0319,-1.999,803.9553],[36.0346,-2.0029,762.5122],[36.0313,-2.0085,779.9422],[36.0286,-2.007,788.8587],[36.0274,-2.0195,735.3365],[36.0245,-2.017,760.2695],[36.0213,-2.0251,729.6538],[36.0225,-2.0354,707.4838],[36.0267,-2.0372,681.9096],[36.0267,-2.0821,606.3483],[36.0001,-2.0819,626.6421],[36.0001,-2.1006,601.6305],[35.9962,-2.0983,602.082],[35.9962,-2.1027,601.7281],[36.1046,-2.1654,692.298],[36.2035,-2.2275,761.3281],[36.2105,-2.2332,774.4952],[36.2283,-2.2179,626.8138],[36.2742,-2.1889,842.6111],[36.2885,-2.1774,850.4976],[36.312,-2.1627,827.6587],[36.3831,-2.1126,1016.1353],[36.4073,-2.0528,1069.4021],[36.4025,-2.0321,1008.946],[36.4025,-2.0247,1016.4812],[36.4259,-1.9496,1059.4443],[36.4224,-1.8954,890.5443],[36.3465,-1.8371,785.3506],[36.3853,-1.7939,842.282],[36.3603,-1.7042,922.8998],[36.3461,-1.6436,960.1892]]]]}
,"properties": {"GID_3": "KEN.10.5.4_1","GID_0": "KEN","country": "Kenya","GID_1": "KEN.10_1","province": "Kajiado","NL_NAME_1": "NA","GID_2": "KEN.10.5_1","county": "KajiadoWest","NL_NAME_2": "NA","city": "Magadi","VARNAME_3": "NA","NL_NAME_3": "NA","TYPE_3": "Ward","ENGTYPE_3": "Ward","CC_3": "928","HASC_3": "NA","name": "Magadi.city","area_km2": 2393.153,"hist_schema_id": "Elevation0-9000","hist_area_km2": {"600": 242.898,"625": 312.819,"650": 281.236,"675": 207.647,"700": 185.415,"725": 159.351,"750": 137.95,"775": 119.725,"800": 94.594,"825": 99.829,"850": 90.315,"875": 70.503,"900": 67.324,"925": 57.175,"950": 53.614,"975": 47.129,"1000": 45.284,"1025": 34.138,"1050": 20.831,"1075": 11.613,"1100": 10.151,"1125": 7.438,"1150": 4.175,"1175": 3.984,"1200": 3.857,"1225": 2.967,"1250": 2.374,"1275": 2.14,"1300": 2.077,"1325": 1.865,"1350": 1.589,"1375": 1.589,"1400": 2.458,"1425": 2.861,"1450": 1.865,"1475": 1.165,"1500": 0.72,"1525": 0.297,"1550": 0.191}}}