{"type":"Feature","properties":{"GID_2":"KEN.6.1_1","GID_0":"KEN","country":"Kenya","GID_1":"KEN.6_1","province":"Embu","NL_NAME_1":"NA","county":"Manyatta","VARNAME_2":"NA","NL_NAME_2":"NA","TYPE_2":"Constituency","ENGTYPE_2":"Constituency","CC_2":"63","HASC_2":"NA","name":"Manyatta.county"},
"geometry":{"type": "MultiPolygon","coordinates": [[[[37.568,-0.5201,1268.5857],[37.5737,-0.5224,1258.2716],[37.5821,-0.5198,1241.4072],[37.5852,-0.521,1238.3755],[37.5872,-0.519,1236.364],[37.591,-0.5203,1223.5082],[37.5998,-0.5157,1152.7061],[37.5989,-0.5127,1184.067],[37.5819,-0.5077,1230.9266],[37.5771,-0.5078,1255.8345],[37.5708,-0.5049,1244.634],[37.569,-0.5014,1287.3525],[37.5661,-0.5004,1317.147],[37.5625,-0.5017,1311.7443],[37.5576,-0.5002,1283.717],[37.5575,-0.4955,1348.4589],[37.5537,-0.4929,1325.7537],[37.5531,-0.4878,1369.5197],[37.5488,-0.4855,1368.5857],[37.5487,-0.4833,1363.5288],[37.5466,-0.4821,1383.6345],[37.5509,-0.4776,1363.4344],[37.5495,-0.476,1364.9395],[37.5503,-0.4742,1368.3157],[37.5477,-0.4739,1359.2131],[37.547,-0.4719,1365.5146],[37.5491,-0.4669,1372.6245],[37.5473,-0.463,1370.6748],[37.5475,-0.4571,1375.8334],[37.5448,-0.4555,1379.2245],[37.5432,-0.4484,1385.401],[37.5448,-0.4421,1415.1034],[37.543,-0.4352,1456.2488],[37.5442,-0.4318,1471.0422],[37.5423,-0.4306,1481.0645],[37.5421,-0.4262,1591.5807],[37.5314,-0.4188,1755.0851],[37.527,-0.4131,1726.1201],[37.5237,-0.4128,1716.9635],[37.5179,-0.4079,1783.306],[37.5135,-0.4068,1784.986],[37.5084,-0.4004,1803.09],[37.5023,-0.396,1821.5154],[37.4977,-0.3839,1817.3545],[37.4958,-0.3831,1812.0988],[37.4966,-0.3777,1839.506],[37.4915,-0.3745,1825.1863],[37.4931,-0.3655,1864.584],[37.4906,-0.3596,1889.8297],[37.4865,-0.3559,1910.1262],[37.4857,-0.3517,1946.5248],[37.4804,-0.3488,1972.9114],[37.4795,-0.3461,2014.9806],[37.474,-0.3415,2064.5688],[37.3081,-0.146,4524.6895],[37.4251,-0.4171,1739.5187],[37.4245,-0.4208,1720.9817],[37.4263,-0.4273,1675.4875],[37.4259,-0.4297,1689.3529],[37.424,-0.4305,1708.4921],[37.4252,-0.4331,1696.4204],[37.4232,-0.4336,1696.4204],[37.4245,-0.4354,1690.7654],[37.4224,-0.4365,1675.8145],[37.4226,-0.4395,1652.34],[37.4256,-0.4418,1641.9934],[37.4281,-0.4412,1665.4166],[37.4263,-0.4588,1619.7815],[37.4287,-0.4605,1579.4348],[37.4269,-0.4624,1612.2097],[37.4256,-0.4689,1578.2839],[37.427,-0.4704,1563.1666],[37.4238,-0.481,1513.538],[37.428,-0.4923,1512.2396],[37.4304,-0.4944,1503.8407],[37.4255,-0.4976,1491.5978],[37.427,-0.4996,1491.3469],[37.4254,-0.5029,1493.4417],[37.4271,-0.5095,1481.91],[37.4336,-0.5195,1413.9187],[37.4372,-0.5207,1435.5605],[37.4457,-0.5292,1332.8099],[37.4455,-0.5341,1369.6521],[37.4478,-0.5384,1318.9966],[37.4473,-0.5432,1320.8293],[37.4501,-0.5464,1296.235],[37.4528,-0.549,1300.6633],[37.461,-0.5496,1288.0111],[37.4629,-0.5553,1279.8378],[37.4717,-0.5553,1302.4955],[37.474,-0.5582,1240.427],[37.4769,-0.5668,1229.3582],[37.4758,-0.5694,1256.8438],[37.479,-0.576,1226.8075],[37.4839,-0.5789,1223.4363],[37.4853,-0.5818,1205.696],[37.4827,-0.5887,1218.618],[37.4796,-0.589,1226.6982],[37.478,-0.5942,1209.1122],[37.5109,-0.566,1247.0081],[37.5151,-0.5651,1226.8461],[37.5209,-0.5679,1207.7349],[37.5408,-0.5567,1260.6581],[37.5431,-0.5502,1279.1805],[37.5417,-0.5412,1313.7981],[37.5464,-0.5402,1326.6166],[37.5507,-0.5343,1378.3203],[37.557,-0.5345,1318.6562],[37.561,-0.5329,1330.8892],[37.5643,-0.5281,1295.0343],[37.5648,-0.5229,1284.0959],[37.568,-0.5201,1268.5857]]],
[[[37.6873,-0.2631,1282.9352],[37.6847,-0.2617,1327.6075],[37.6749,-0.2643,1351.2426],[37.6635,-0.2637,1412.4341],[37.6573,-0.265,1421.1235],[37.6421,-0.2587,1484.2249],[37.6343,-0.2573,1514.126],[37.6279,-0.2609,1511.7106],[37.6153,-0.2595,1583.0586],[37.6129,-0.2661,1603.3809],[37.6101,-0.2692,1626.9457],[37.6059,-0.2703,1656.6903],[37.5357,-0.2447,2106.4868],[37.3155,-0.1528,4739.4697],[37.4895,-0.2342,2331.5659],[37.5881,-0.2725,1773.9185],[37.5967,-0.2733,1658.8544],[37.6039,-0.2763,1523.937],[37.6125,-0.2831,1509.7627],[37.6447,-0.2845,1416.2466],[37.6519,-0.2822,1358.4878],[37.6625,-0.2851,1257.9977],[37.6887,-0.2831,1242.6394],[37.7051,-0.2894,1187.2428],[37.7115,-0.2962,1183.5654],[37.7175,-0.2973,1142.4387],[37.7308,-0.2902,1097.5546],[37.7455,-0.2896,1082.994],[37.7701,-0.2849,990.6946],[37.7757,-0.2873,953.8079],[37.7803,-0.2937,919.6022],[37.7855,-0.2962,933.3044],[37.7931,-0.3035,860.1897],[37.8077,-0.3097,841.1096],[37.8175,-0.312,804.8955],[37.8165,-0.3082,818.6643],[37.8129,-0.305,813.6414],[37.8091,-0.2936,827.4529],[37.8007,-0.2844,853.5132],[37.7967,-0.284,896.9886],[37.7857,-0.2732,914.2225],[37.7769,-0.2761,984.1505],[37.7717,-0.2758,982.8668],[37.7669,-0.2727,995.0126],[37.7505,-0.2743,1065.1641],[37.7475,-0.2704,1059.0522],[37.7381,-0.2727,1078.1667],[37.7241,-0.27,1135.4344],[37.6983,-0.2716,1149.6971],[37.6925,-0.2658,1290.4723],[37.6873,-0.2631,1282.9352]]]]}}