{"type":"Feature","properties":{"GID_2":"KEN.39.3_1","GID_0":"KEN","country":"Kenya","GID_1":"KEN.39_1","province":"TaitaTaveta","NL_NAME_1":"NA","county":"Voi","VARNAME_2":"NA","NL_NAME_2":"NA","TYPE_2":"Constituency","ENGTYPE_2":"Constituency","CC_2":"26","HASC_2":"NA","name":"Voi.county"},
"geometry":{"type": "MultiPolygon","coordinates": [[[[38.9443,-3.6738,438.8513],[38.9685,-3.6336,423.2684],[39.0561,-3.6845,380.2025],[39.0729,-3.625,399.7711],[39.1221,-3.4328,313.0865],[39.2195,-3.0661,166.3116],[39.2041,-3.0654,171.6356],[39.1997,-3.062,176.9288],[39.1959,-3.0613,171.1736],[39.1835,-3.0632,172.7616],[39.1777,-3.057,181.2611],[39.1741,-3.0582,177.2299],[39.1705,-3.0649,175.8297],[39.1671,-3.0663,177.1346],[39.1643,-3.0651,173.5067],[39.1635,-3.0595,178.0856],[39.1527,-3.0447,179.9678],[39.1509,-3.0443,182.5815],[39.1435,-3.0485,180.1207],[39.1415,-3.0414,194.3651],[39.1355,-3.042,180.1871],[39.1337,-3.0396,183.6561],[39.1343,-3.0357,179.3579],[39.1297,-3.0199,189.0061],[39.1257,-3.0195,192.2784],[39.1131,-3.0245,189.5616],[39.1063,-3.0346,190.7834],[39.1025,-3.0377,191.9913],[39.0899,-3.0427,202.9798],[39.0885,-3.0446,193.7453],[39.0888,-3.0507,192.9288],[39.0855,-3.0532,194.8419],[39.0805,-3.0496,192.0626],[39.0789,-3.042,199.9925],[39.0726,-3.0403,198.303],[39.062,-3.0409,200.1744],[39.0535,-3.033,202.1681],[39.0458,-3.0313,196.5003],[39.0445,-3.0281,203.6537],[39.0453,-3.021,204.4247],[39.0367,-3.025,207.4483],[39.0256,-3.0206,211.9991],[39.0139,-3.0253,209.4052],[38.9919,-3.0257,215.9826],[38.9893,-3.0272,214.7808],[38.9863,-3.033,213.5188],[38.9767,-3.0393,217.8118],[38.9529,-3.0385,225.2087],[38.9371,-3.0343,229.3637],[38.9316,-3.0402,226.4984],[38.9255,-3.0397,227.7087],[38.9175,-3.0427,229.7489],[38.9115,-3.0429,244.4325],[38.9029,-3.0422,237.7596],[38.8988,-3.0381,256.5393],[38.8933,-3.0377,260.7443],[38.8623,-3.0575,261.0004],[38.8477,-3.0609,267.3569],[38.8449,-3.0548,260.6871],[38.8415,-3.0534,266.3549],[38.8362,-3.0592,269.9228],[38.8259,-3.0608,281.3194],[38.8195,-3.0672,270.9017],[38.8053,-3.0684,277.0445],[38.7989,-3.0663,269.9129],[38.7981,-3.0604,288.2133],[38.8021,-3.0577,286.1707],[38.8075,-3.0598,277.4907],[38.8099,-3.0566,281.0025],[38.8089,-3.0527,286.3667],[38.7988,-3.0518,285.2277],[38.7891,-3.0476,302.049],[38.7786,-3.0478,293.9763],[38.774,-3.0434,293.2976],[38.7688,-3.0431,298.9069],[38.7585,-3.0467,296.4014],[38.7544,-3.0462,307.2826],[38.7442,-3.0432,311.2943],[38.7333,-3.0422,310.0265],[38.7231,-3.0364,314.0402],[38.7073,-3.0315,320.4915],[38.6943,-3.0356,340.0911],[38.6816,-3.035,351.2504],[38.6652,-3.0393,348.2458],[38.6613,-3.0288,351.704],[38.6538,-3.025,353.6581],[38.6513,-3.0204,351.9821],[38.6427,-3.0127,365.1873],[38.6358,-3.0108,362.6299],[38.6295,-3.0119,359.5702],[38.6251,-3.0099,360.8867],[38.6176,-3.0099,362.194],[38.6133,-3.007,380.5924],[38.6083,-3.0064,361.916],[38.6061,-3.0033,381.5929],[38.6092,-2.9967,370.9499],[38.6085,-2.9947,384.0576],[38.6019,-2.9986,385.5702],[38.594,-2.9991,391.4878],[38.5843,-2.9875,402.5524],[38.5595,-2.986,407.915],[38.5507,-2.9805,406.4836],[38.5439,-2.9796,394.8941],[38.5381,-2.9734,412.3687],[38.5309,-2.9759,416.5619],[38.5257,-2.974,412.8033],[38.5194,-2.9747,410.0339],[38.5143,-2.9789,417.4218],[38.5147,-2.9825,408.5034],[38.5132,-2.9835,421.6902],[38.5083,-2.9824,436.1451],[38.4928,-2.984,421.9268],[38.4885,-2.9776,436.3184],[38.4774,-2.9853,460.3888],[38.4681,-2.985,458.3693],[38.4677,-2.9877,455.2114],[38.4633,-2.9878,458.3545],[38.4599,-2.9922,462.2684],[38.4568,-2.9895,473.4364],[38.4475,-2.971,511.3014],[38.4301,-2.9556,541.0044],[38.4087,-2.927,581.8837],[38.4053,-2.9256,577.1709],[38.3982,-2.9271,591.1759],[38.3929,-2.926,599.5453],[38.3619,-2.898,584.9203],[38.3385,-2.8653,603.2452],[38.3187,-2.8327,620.458],[38.302,-2.8159,632.2194],[38.2791,-2.7824,660.3914],[38.2579,-2.7576,675.8115],[38.2505,-2.752,680.5889],[38.2497,-2.7497,683.3294],[38.1847,-2.7028,746.063],[38.1669,-2.6931,756.7743],[38.1625,-2.693,764.1577],[38.1613,-2.6792,744.239],[38.1573,-2.6881,747.7833],[38.1577,-2.6936,749.2619],[38.1533,-2.6982,761.1472],[38.1287,-2.6981,785.5686],[38.1224,-2.7045,793.6829],[38.1183,-2.7047,801.611],[38.1153,-2.7126,808.6906],[38.1013,-2.7183,833.2986],[38.1001,-2.7207,835.3469],[37.9744,-2.7874,1692.6051],[37.9375,-2.7708,1496.3254],[37.9179,-2.8684,1030.1255],[37.8945,-2.8857,871.4315],[37.8707,-3.0775,846.52],[37.8663,-3.0792,851.5763],[37.8543,-3.0801,867.5574],[37.8535,-3.1692,876.6569],[37.8557,-3.1694,870.0385],[37.8589,-3.165,870.5781],[37.8665,-3.1601,861.9606],[37.8719,-3.151,854.9244],[37.8713,-3.1488,854.97],[37.8733,-3.1447,853.5226],[37.8843,-3.1381,839.2659],[37.8891,-3.1319,835.8413],[37.8945,-3.1316,831.653],[37.8939,-3.1198,826.3398],[37.8961,-3.1086,828.8845],[37.9003,-3.1052,823.8339],[37.9025,-3.0964,807.7444],[37.9031,-3.0847,794.1102],[37.9001,-3.0733,799.541],[37.9011,-3.0714,785.5826],[37.9051,-3.0703,776.4055],[37.9133,-3.0587,766.8514],[37.9107,-3.051,760.061],[37.9135,-3.0412,759.453],[37.9195,-3.0389,748.6982],[37.9237,-3.0294,739.4147],[37.9273,-3.029,738.0289],[37.9335,-3.0147,727.9602],[37.9397,-3.0103,725.7012],[37.9389,-3.0065,724.7648],[37.9433,-2.9995,727.998],[37.9459,-2.999,720.9926],[37.9493,-3.0012,719.0298],[37.9521,-3.0002,718.978],[37.9549,-3.0037,713.974],[37.9589,-3.0042,714.1665],[37.9601,-3.0066,712.2861],[37.9613,-3.0056,712.749],[37.9667,-3.0107,708.517],[37.9747,-3.0068,710.7516],[37.9769,-3.0071,711.2592],[37.9783,-3.0121,704.6185],[37.9853,-3.0169,696.1659],[37.9907,-3.0175,693.6628],[38.0001,-3.0134,696.5028],[38.0043,-3.0133,691.8414],[38.0065,-3.0113,683.8963],[38.0173,-3.0155,677.8099],[38.0211,-3.0199,670.9948],[38.0263,-3.0223,663.47],[38.0303,-3.0211,659.1885],[38.0307,-3.0183,659.3229],[38.0353,-3.0198,651.6166],[38.0361,-3.0228,650.79],[38.0383,-3.0241,647.9681],[38.0397,-3.0225,645.3986],[38.0477,-3.0224,640.5913],[38.0513,-3.0198,639.174],[38.0539,-3.0201,639.0378],[38.0571,-3.0284,643.5665],[38.0659,-3.0364,636.4703],[38.0679,-3.0349,630.461],[38.0741,-3.036,629.3535],[38.0743,-3.039,631.8184],[38.0761,-3.0362,634.5019],[38.0835,-3.0371,625.4923],[38.0809,-3.0337,648.4171],[38.0895,-3.034,642.0624],[38.0917,-3.0367,625.1107],[38.0953,-3.0373,629.3591],[38.0953,-3.041,622.3209],[38.1001,-3.0404,627.144],[38.1049,-3.0469,636.6459],[38.1113,-3.046,628.5615],[38.1163,-3.0507,618.2039],[38.1273,-3.0487,617.1371],[38.1297,-3.0541,615.1586],[38.1345,-3.0525,622.2853],[38.1379,-3.0534,612.7467],[38.1379,-3.0548,610.297],[38.1329,-3.057,613.2565],[38.1339,-3.0602,606.9621],[38.1373,-3.0597,606.0185],[38.1397,-3.057,613.0837],[38.1471,-3.0621,605.7488],[38.1495,-3.0586,605.788],[38.1525,-3.0632,601.0975],[38.1565,-3.0647,603.0896],[38.1589,-3.0678,602.6468],[38.1673,-3.0678,603.8434],[38.1717,-3.0583,602.8197],[38.1755,-3.0612,599.0024],[38.1869,-3.0649,591.998],[38.1889,-3.0598,594.1586],[38.1957,-3.0614,589.4004],[38.1985,-3.0571,598.0908],[38.2018,-3.0597,588.0133],[38.2015,-3.0615,586.4133],[38.2065,-3.064,586.662],[38.2107,-3.063,587.743],[38.2197,-3.0683,581.5327],[38.2201,-3.0656,597.8888],[38.2231,-3.0665,588.6502],[38.2249,-3.0697,581.8672],[38.2239,-3.0719,580.2197],[38.2275,-3.0763,576.0497],[38.2289,-3.0759,574.1639],[38.2309,-3.0707,621.1569],[38.2319,-3.0757,573.1441],[38.2375,-3.075,574.7014],[38.2403,-3.0728,586.7401],[38.2413,-3.0755,573.4066],[38.243899999999996,-3.0753,581.0289],[38.2459,-3.0789,569.8156],[38.2529,-3.0796,576.0358],[38.2555,-3.0778,563.8036],[38.2553,-3.0746,568.0119],[38.2509,-3.0718,562.7422],[38.2551,-3.0656,559.0997],[38.2523,-3.0632,570.3154],[38.2531,-3.0615,563.7175],[38.2579,-3.0605,570.9992],[38.2601,-3.0631,558.6155],[38.2587,-3.0669,556.6782],[38.2649,-3.0691,556.0597],[38.2663,-3.0668,554.636],[38.2645,-3.0646,569.329],[38.2675,-3.0609,569.0759],[38.2703,-3.0633,554.0828],[38.2697,-3.0661,551.7119],[38.2711,-3.067,560.6788],[38.2783,-3.0635,548.4736],[38.2761,-3.06,550.4594],[38.2768,-3.0587,560.4554],[38.2811,-3.0584,557.0607],[38.2847,-3.0613,543.6236],[38.2881,-3.0592,563.4873],[38.2883,-3.0629,541.4607],[38.2933,-3.0612,553.6455],[38.2941,-3.0562,569.4468],[38.2999,-3.059,563.8992],[38.3029,-3.0567,577.9714],[38.3049,-3.0642,555.5571],[38.3075,-3.0676,568.8502],[38.3085,-3.0743,579.2933],[38.3143,-3.0783,595.8054],[38.3107,-3.0796,596.8629],[38.3099,-3.0861,596.542],[38.3081,-3.0871,601.5057],[38.3101,-3.0907,596.701],[38.3047,-3.0927,611.9843],[38.3035,-3.0964,611.5466],[38.2997,-3.0977,621.9009],[38.2991,-3.1038,613.0386],[38.2945,-3.1068,622.3371],[38.2909,-3.1068,640.943],[38.2861,-3.1122,639.4448],[38.2871,-3.1143,633.2641],[38.2839,-3.1175,643.131],[38.2885,-3.1208,655.0514],[38.2873,-3.1229,645.4846],[38.2893,-3.1263,650.5968],[38.2849,-3.1414,672.5118],[38.2854,-3.1446,674.1972],[38.2881,-3.1467,677.2312],[38.2869,-3.151,683.4917],[38.2911,-3.1547,684.9263],[38.2917,-3.1594,686.5411],[38.2957,-3.1612,709.1525],[38.2977,-3.1665,699.1096],[38.4417,-3.1665,754.3201],[38.4405,-3.174,912.105],[38.4421,-3.1967,912.1265],[38.4349,-3.2204,941.9696],[38.4325,-3.2528,655.6646],[38.4251,-3.2519,660.5981],[38.4161,-3.2541,668.28],[38.4269,-3.2812,657.0974],[38.4283,-3.2918,672.4745],[38.4251,-3.295,730.6177],[38.4055,-3.2968,851.7258],[38.4053,-3.3011,854.2466],[38.4079,-3.3037,891.9692],[38.4091,-3.3103,836.6022],[38.4151,-3.3177,1179.3945],[38.4125,-3.3233,1178.9053],[38.4177,-3.3317,1283.4016],[38.4245,-3.3314,1308.3495],[38.4267,-3.3363,1281.0793],[38.4411,-3.3365,1362.1025],[38.4385,-3.3424,1344.2761],[38.4387,-3.3493,1382.949],[38.4409,-3.3543,1324.6318],[38.4383,-3.3544,1348.2155],[38.4367,-3.3644,1268.7729],[38.4445,-3.3661,1033.6271],[38.4443,-3.3687,1006.1633],[38.4651,-3.382,902.9048],[38.4681,-3.3883,1053.1841],[38.4729,-3.3908,1229.3015],[38.4835,-3.4043,782.5844],[38.5029,-3.4106,769.2818],[38.511,-3.4313,679.6249],[38.539,-3.439,591.6916],[38.5401,-3.4353,596.1075],[38.5486,-3.4351,589.2151],[38.5507,-3.4311,577.1655],[38.5501,-3.4223,574.9521],[38.5525,-3.4166,568.3805],[38.5509,-3.4257,573.6173],[38.5521,-3.435,578.4272],[38.5503,-3.4367,580.3171],[38.5455,-3.4389,584.1927],[38.5426,-3.4385,585.422],[38.5367,-3.4438,594.1299],[38.5292,-3.4429,611.1136],[38.5265,-3.4462,601.006],[38.5273,-3.4485,595.9676],[38.5216,-3.4492,617.2192],[38.5207,-3.4507,612.064],[38.5165,-3.4508,623.8044],[38.5145,-3.4485,633.8021],[38.5114,-3.4494,613.1495],[38.5087,-3.4468,616.2231],[38.5045,-3.4465,622.4288],[38.5037,-3.4517,623.2205],[38.4991,-3.4545,622.7715],[38.4991,-3.4517,627.1315],[38.4961,-3.4481,646.3735],[38.4931,-3.4515,627.1897],[38.4913,-3.4485,645.7628],[38.4896,-3.4486,652.7499],[38.4883,-3.451,642.6849],[38.4905,-3.4531,631.8705],[38.4827,-3.4528,638.4524],[38.4823,-3.445,652.9034],[38.4775,-3.4505,657.1307],[38.4697,-3.4533,678.228],[38.4639,-3.4583,700.0945],[38.4645,-3.4663,708.4263],[38.4611,-3.4722,705.3639],[38.4467,-3.4801,749.6049],[38.4755,-3.5573,835.0571],[38.5701,-3.5578,686.419],[38.5981,-3.6065,633.5887],[38.5343,-3.6485,828.3126],[38.5189,-3.6546,754.7684],[38.4339,-3.7141,713.8787],[38.4385,-3.7222,707.6055],[38.4425,-3.7257,704.9458],[38.4433,-3.7288,702.7782],[38.4481,-3.7314,698.2839],[38.4561,-3.743,689.5724],[38.4607,-3.7471,685.0695],[38.4643,-3.7459,684.8744],[38.4665,-3.7468,684.221],[38.4703,-3.7592,677.5475],[38.4683,-3.7685,673.2059],[38.4697,-3.7739,670.3027],[38.4841,-3.7874,658.4459],[38.4807,-3.8021,651.9327],[38.4831,-3.8083,646.58],[38.5003,-3.8111,639.5607],[38.5509,-3.9389,605.969],[38.4846,-4.0717,697.9943],[38.4457,-4.1379,631.1355],[38.9461,-3.9595,749.2744],[39.0353,-3.7582,360.0426],[38.9305,-3.6958,409.6035],[38.9443,-3.6738,438.8513]]]]}}