{"type":"Feature","properties":{"GID_3":"KEN.33.6.3_1","GID_0":"KEN","country":"Kenya","GID_1":"KEN.33_1","province":"Narok","NL_NAME_1":"NA","GID_2":"KEN.33.6_1","county":"NarokWest","NL_NAME_2":"NA","city":"Naikarra","VARNAME_3":"NA","NL_NAME_3":"NA","TYPE_3":"Ward","ENGTYPE_3":"Ward","CC_3":"910","HASC_3":"NA","name":"Naikarra.city"},
"geometry":{"type": "MultiPolygon","coordinates": [[[[35.7593,-1.6473,2421.6616],[35.7441,-1.619,2346.3254],[35.7429,-1.6064,2426.5676],[35.7443,-1.5908,2332.835],[35.7435,-1.576,2432.0493],[35.7376,-1.536,2217.6165],[35.733,-1.5247,2149.0847],[35.7236,-1.5091,2227.0195],[35.7146,-1.4959,2096.2185],[35.7115,-1.4938,2100.9023],[35.7106,-1.4869,2230.2219],[35.6995,-1.4777,2235.3145],[35.6937,-1.4752,2208.7607],[35.6887,-1.4755,2268.1169],[35.6858,-1.4792,2178.2271],[35.5666,-1.5697,1937.834],[35.5656,-1.5739,1940.8279],[35.5607,-1.5774,1987.238],[35.5526,-1.5879,2076.3899],[35.5487,-1.591,2040.1263],[35.5462,-1.5909,1998.5198],[35.545,-1.6037,1982.313],[35.5349,-1.6302,1972.4159],[35.5347,-1.6355,1954.1459],[35.5371,-1.6393,1973.1538],[35.5336,-1.6429,1943.6581],[35.5243,-1.6436,1988.0662],[35.517,-1.6473,2133.2017],[35.5089,-1.6647,2143.0046],[35.506,-1.6646,2126.6934],[35.5039,-1.6674,2132.9148],[35.5009,-1.6683,2089.0901],[35.4813,-1.6867,1966.1373],[35.4743,-1.6908,1949.2278],[35.4636,-1.7057,1834.7584],[35.4577,-1.7102,1820.9312],[35.4479,-1.6985,1957.1105],[35.4434,-1.6992,1920.5175],[35.4405,-1.7029,1834.8528],[35.4379,-1.7021,1829.0973],[35.4385,-1.7046,1797.6528],[35.4355,-1.7055,1786.6166],[35.4355,-1.6985,1848.1726],[35.4342,-1.6964,1809.8044],[35.4245,-1.6942,1778.6222],[35.4256,-1.689,1785.4476],[35.4229,-1.6861,1770.3054],[35.4207,-1.6792,1793.6984],[35.4174,-1.6828,1789.1929],[35.4093,-1.6799,1795.5598],[35.4036,-1.6808,1762.5066],[35.4012,-1.6839,1767.4829],[35.3971,-1.6762,1774.3052],[35.3896,-1.6796,1740.1177],[35.3898,-1.6773,1757.7419],[35.3865,-1.6729,1757.6292],[35.3798,-1.6728,1737.6621],[35.3761,-1.6695,1738.6858],[35.3718,-1.6696,1744.9506],[35.3694,-1.6654,1734.8506],[35.3656,-1.6652,1727.1407],[35.368,-1.6615,1751.384],[35.3631,-1.6569,1747.4812],[35.362,-1.6601,1738.7175],[35.3582,-1.6622,1742.1572],[35.3574,-1.6647,1734.1299],[35.3556,-1.6603,1723.23],[35.3451,-1.6595,1823.5063],[35.3439,-1.6642,1755.2673],[35.342,-1.6632,1773.969],[35.3422,-1.6613,1816.0382],[35.3353,-1.6586,1766.1775],[35.3313,-1.6613,1733.4209],[35.3286,-1.6609,1726.8328],[35.3194,-1.653,1717.2888],[35.3182,-1.6562,1708.6057],[35.3166,-1.6527,1732.3051],[35.3153,-1.6554,1721.1689],[35.3082,-1.6543,1687.4124],[35.3076,-1.6507,1694.1891],[35.3039,-1.6482,1675.6875],[35.3006,-1.6426,1754.7949],[35.2967,-1.642,1715.6606],[35.2949,-1.6452,1664.9216],[35.2874,-1.6473,1631.5005],[35.2883,-1.6425,1652.7273],[35.2867,-1.6399,1638.7314],[35.2856,-1.6417,1639.5911],[35.2778,-1.6398,1660.6891],[35.2755,-1.6412,1646.0708],[35.2734,-1.6379,1666.954],[35.2683,-1.6388,1666.1322],[35.2693,-1.6448,1623.9409],[35.266,-1.6444,1664.9288],[35.2646,-1.6472,1727.3794],[35.2629,-1.6453,1757.515],[35.2607,-1.646,1776.1758],[35.2586,-1.6431,1746.2256],[35.2525,-1.6488,1644.3501],[35.2492,-1.6462,1689.8313],[35.2478,-1.6486,1628.278],[35.2462,-1.6462,1682.5149],[35.2446,-1.6502,1622.9572],[35.2425,-1.6459,1688.0457],[35.2385,-1.6487,1630.5253],[35.2354,-1.645,1687.884],[35.2349,-1.6485,1628.51],[35.2287,-1.6468,1615.6345],[35.2272,-1.6491,1619.2689],[35.2214,-1.6508,1615.7957],[35.2192,-1.6474,1617.0616],[35.2052,-1.6444,1586.629],[35.2048,-1.6414,1582.5342],[35.2005,-1.6377,1586.4904],[35.1958,-1.639,1574.4341],[35.1865,-1.6327,1590.5758],[35.1826,-1.6322,1581.4242],[35.1816,-1.635,1577.0107],[35.1755,-1.6354,1562.8569],[35.1777,-1.6367,1571.2939],[35.1712,-1.6439,1571.6029],[35.3177,-1.7288,1833.1558],[35.4206,-1.7781,1993.2263],[35.53,-1.8399,2125.5303],[35.5359,-1.8371,2089.426],[35.5329,-1.8353,2095.3584],[35.6977,-1.7496,2028.4847],[35.7128,-1.7453,2056.5071],[35.7163,-1.7429,2063.0996],[35.7196,-1.737,2056.0952],[35.7221,-1.7368,2057.0083],[35.7283,-1.7319,2071.1562],[35.73,-1.71,2115.1421],[35.7376,-1.705,2145.4673],[35.7498,-1.6884,2218.0552],[35.7593,-1.6473,2421.6616]]]]}}