{"type": "Feature","bbox": [36.8645,0.2643,39.4625,2.0998],"geometry": {"type": "MultiPolygon","coordinates": [[[[37.573,0.3289,1153.3024],[37.5817,0.3289,1168.2654],[37.5929,0.3403,1132.1313],[37.5953,0.3389,1134.0109],[37.5931,0.3403,1132.1313],[37.6049,0.3539,1092.0042],[37.5983,0.4029,1025.2749],[37.5851,0.4021,1020.6481],[37.5823,0.4115,1012.6233],[37.5817,0.4607,974.3992],[37.5859,0.4717,963.9242],[37.5867,0.4805,958.2546],[37.8263,0.5631,1510.2189],[37.9017,0.5965,870.434],[37.9025,0.5921,872.4823],[37.9017,0.5967,870.434],[38.0625,0.6711,766.2913],[38.0667,0.6575,771.4078],[38.0631,0.6723,766.1016],[38.0657,0.6783,773.4156],[38.0643,0.6888,761.5594],[38.0655,0.7034,714.4667],[38.0707,0.7163,701.4684],[38.0779,0.7251,693.6335],[38.0815,0.7401,683.6761],[38.0847,0.7457,677.1113],[38.0805,0.7625,667.0544],[38.0822,0.7751,654.5137],[38.0785,0.7818,638.5741],[38.0845,0.7911,621.6705],[38.0833,0.7951,637.5578],[38.0861,0.8029,623.5412],[38.0885,0.8045,618.9331],[38.0957,0.8051,615.4525],[38.1069,0.8143,612.3389],[38.1169,0.8163,602.11],[38.1191,0.8193,610.3214],[38.1333,0.8169,596.9688],[38.1353,0.8143,598.3305],[38.1395,0.8157,601.6164],[38.1399,0.8109,595.376],[38.1501,0.8107,598.5735],[38.1558,0.8165,581.8402],[38.1601,0.8253,583.6911],[38.1707,0.8283,571.2804],[38.1747,0.8271,561.9185],[38.1789,0.8291,582.4587],[38.1939,0.8251,553.4141],[38.2029,0.8285,541.5076],[38.2105,0.8337,542.0736],[38.2157,0.8333,540.7141],[38.2205,0.8295,534.4163],[38.2323,0.8293,519.9274],[38.2355,0.8315,522.4089],[38.2449,0.8331,518.7734],[38.2519,0.8257,515.1841],[38.2575,0.8249,507.9238],[38.2601,0.8255,503.2555],[38.2639,0.8303,504.942],[38.2671,0.8311,500.1782],[38.2715,0.8293,496.9524],[38.2783,0.8293,493.6208],[38.2865,0.8239,488.1709],[38.3038,0.8271,479.3917],[38.3111,0.8265,468.4711],[38.3127,0.8309,463.9656],[38.3237,0.8431,436.1419],[38.3313,0.8369,418.8799],[38.3343,0.8367,416.8105],[38.3379,0.8407,408.1242],[38.3409,0.8417,411.3131],[38.3447,0.8405,408.9976],[38.3584,0.8302,400.8241],[38.3609,0.8311,398.392],[38.3627,0.8339,392.6668],[38.3643,0.8427,391.3142],[38.3703,0.8549,386.0582],[38.3761,0.8555,389.044],[38.3827,0.8459,385.749],[38.3871,0.8469,386.4192],[38.3929,0.8515,379.2681],[38.3943,0.8547,379.6408],[38.3931,0.8643,376.5408],[38.3953,0.8655,373.0],[38.4007,0.8621,378.9125],[38.4085,0.8685,377.0559],[38.4113,0.8679,375.7604],[38.4129,0.8655,371.3953],[38.4235,0.8681,366.0],[38.4295,0.8659,370.3598],[38.4365,0.8685,365.6501],[38.4401,0.8683,369.5877],[38.4437,0.8677,365.6949],[38.4477,0.8645,363.1683],[38.4509,0.8655,363.9045],[38.4531,0.8699,362.3829],[38.4719,0.8653,359.8996],[38.4751,0.8657,360.4307],[38.4761,0.8685,354.6404],[38.4747,0.8712,360.7602],[38.4845,0.8779,354.386],[38.4911,0.8759,352.2047],[38.4973,0.8693,352.0704],[38.4997,0.8711,371.1586],[38.5073,0.8655,347.9275],[38.5111,0.8649,350.2611],[38.5147,0.8741,341.4156],[38.5143,0.8815,344.9645],[38.5195,0.8841,337.4321],[38.5241,0.8905,340.5314],[38.5245,0.9005,338.8899],[38.5279,0.9053,336.7237],[38.5305,0.9145,337.0178],[38.5337,0.9169,336.502],[38.5449,0.9195,333.0006],[38.5587,0.9393,325.7638],[38.5587,0.9507,328.519],[38.5633,0.9533,324.4672],[38.5639,0.9557,324.2281],[38.5621,0.9583,326.4472],[38.5661,0.9633,324.3663],[38.5613,0.9709,321.9052],[38.5621,0.9739,320.7612],[38.5653,0.9759,318.647],[38.5617,0.9835,320.7974],[38.5651,0.9859,319.1768],[38.5657,0.9889,316.7367],[38.5641,0.9925,316.0182],[38.5683,0.9975,315.0931],[38.5681,1.0081,313.3913],[38.5779,1.0245,314.1539],[38.5835,1.0245,310.9324],[38.5867,1.0279,311.7777],[38.5943,1.0239,310.515],[38.6043,1.0235,306.718],[38.6079,1.0201,307.9608],[38.6097,1.0217,306.7041],[38.6133,1.0165,306.8878],[38.6165,1.0155,305.3741],[38.6201,1.0175,304.3208],[38.6255,1.0151,304.2551],[38.6297,1.0193,304.2302],[38.6311,1.0165,303.5068],[38.6349,1.0173,303.8758],[38.6351,1.0205,303.4712],[38.6409,1.0219,301.7025],[38.6453,1.0207,300.2155],[38.651,1.0255,299.0024],[38.6537,1.0241,299.5905],[38.6559,1.0303,298.8267],[38.6597,1.0275,300.3389],[38.6605,1.0305,294.2104],[38.6573,1.0341,297.0941],[38.6571,1.0369,299.623],[38.6605,1.0383,295.0387],[38.6641,1.0451,294.473],[38.6697,1.0467,291.3789],[38.6718,1.0446,292.3039],[38.6701,1.0497,291.0219],[38.6875,1.0597,288.86],[38.6889,1.0615,288.8915],[38.6885,1.0652,289.3615],[38.6941,1.0687,289.6024],[38.6965,1.0725,288.6806],[38.6995,1.0709,285.8151],[38.7025,1.0733,284.6581],[38.7099,1.0749,283.5233],[38.7155,1.0707,282.3633],[38.7191,1.0721,281.9735],[38.7231,1.0777,281.1922],[38.7239,1.0925,278.8472],[38.7289,1.0941,279.0086],[38.7321,1.0985,277.5686],[38.7285,1.1049,276.6467],[38.7367,1.1093,275.6695],[38.7411,1.1055,275.4454],[38.7435,1.1073,275.3081],[38.7443,1.1251,273.1068],[38.7467,1.1265,273.3989],[38.7493,1.1321,272.3904],[38.7565,1.1339,271.6668],[38.7549,1.1373,270.9667],[38.758,1.1413,270.374],[38.7641,1.1407,270.6151],[38.7657,1.1441,269.9445],[38.7717,1.1475,269.3959],[38.7717,1.1451,270.3713],[38.7739,1.1439,269.9385],[38.7777,1.1475,271.1497],[38.7771,1.1501,268.4963],[38.7789,1.1533,267.8734],[38.7825,1.1531,267.8524],[38.7839,1.1553,267.7128],[38.7863,1.1543,267.6797],[38.7875,1.1567,267.5385],[38.7915,1.1569,267.6777],[38.7927,1.1611,267.2023],[38.7963,1.1601,265.6304],[38.7977,1.1639,264.637],[38.8068,1.1647,263.2803],[38.8113,1.1695,263.4049],[38.8151,1.1705,263.7516],[38.8195,1.1783,263.2102],[38.8219,1.1779,264.3194],[38.8217,1.1815,263.0296],[38.8291,1.1841,263.0402],[38.8299,1.1797,264.9651],[38.8413,1.1887,263.0333],[38.8494,1.19,263.554],[38.8513,1.1921,260.6523],[38.8511,1.1945,260.9655],[38.8577,1.1929,259.8454],[38.8589,1.1991,258.3223],[38.8614,1.1957,260.881],[38.8742,1.1965,256.8983],[38.8835,1.1991,257.2347],[38.8931,1.1939,253.355],[38.9001,1.1921,253.2619],[38.9013,1.1899,254.6078],[38.9069,1.1901,252.0312],[38.9143,1.1927,251.8234],[38.9251,1.2037,251.5615],[38.9329,1.1953,252.1151],[38.9351,1.1959,249.2753],[38.9403,1.1921,249.0296],[38.9591,1.1967,246.5323],[38.9667,1.2037,247.656],[38.9673,1.2065,246.4847],[38.9693,1.2055,246.5078],[38.9771,1.2107,245.602],[38.9855,1.2069,244.7424],[39.0021,1.2091,244.6915],[39.0121,1.2069,245.0737],[39.0203,1.2013,244.4277],[39.0269,1.2035,243.7919],[39.0366,1.2024,239.8923],[39.0407,1.2005,239.6083],[39.0421,1.1977,239.3535],[39.0481,1.1965,238.5859],[39.0655,1.1855,237.7735],[39.0841,1.1863,237.5067],[39.0935,1.1795,234.5271],[39.1167,1.1779,231.9074],[39.1207,1.1713,233.2048],[39.1237,1.1701,232.3058],[39.1365,1.1703,230.5126],[39.1379,1.1667,230.6742],[39.1449,1.1625,229.9606],[39.1601,1.1425,227.267],[39.1661,1.1383,227.4448],[39.1759,1.1353,226.689],[39.1795,1.1301,225.783],[39.1771,1.1243,225.7262],[39.1799,1.1197,224.8431],[39.1869,1.1093,224.0549],[39.1895,1.1095,223.5401],[39.1947,1.1051,223.097],[39.2075,1.1047,222.0576],[39.2109,1.1029,222.055],[39.2187,1.1063,222.0787],[39.2293,1.1049,220.2487],[39.2387,1.1057,220.1762],[39.2481,1.1005,219.1506],[39.2641,1.1035,217.4781],[39.2709,1.1011,216.8463],[39.2781,1.0959,216.0911],[39.2839,1.0967,216.0806],[39.2973,1.0937,215.3026],[39.3005,1.0951,214.8509],[39.3205,1.0837,213.3292],[39.3271,1.0767,214.1625],[39.3329,1.0797,213.9942],[39.3381,1.0723,214.607],[39.3497,1.0637,211.3564],[39.3559,1.0627,211.0842],[39.3667,1.0645,209.4572],[39.3719,1.0621,209.9861],[39.3759,1.0575,210.4171],[39.3829,1.0577,207.7616],[39.3939,1.0531,207.3082],[39.3961,1.0501,207.7388],[39.4087,1.0421,207.8248],[39.4217,1.0293,204.7013],[39.4373,1.0205,203.4341],[39.4473,1.0129,202.3559],[39.4535,1.0035,201.4908],[39.4615,0.9955,200.976],[39.4595,0.9927,201.0969],[39.4621,0.9949,200.8953],[39.4625,0.9935,200.4441],[39.4593,1.0051,201.7326],[39.4435,1.0472,206.4427],[39.4349,1.0647,209.1953],[39.2769,1.4733,305.6353],[39.3705,1.5093,286.9207],[39.4483,1.5357,260.905],[39.4391,1.5379,262.0088],[39.4125,1.5601,264.1133],[39.4037,1.5591,265.0871],[39.3971,1.5643,265.5372],[39.3939,1.5741,266.5009],[39.3873,1.5737,267.09],[39.3851,1.5817,267.6772],[39.3827,1.5847,267.853],[39.3769,1.5875,268.6249],[39.3669,1.6039,270.2316],[39.3583,1.6133,271.6616],[39.3515,1.6253,272.6123],[39.3459,1.6283,273.5032],[39.3411,1.6403,274.4613],[39.3373,1.6393,274.7786],[39.3313,1.6479,276.5865],[39.3215,1.6499,276.7745],[39.3157,1.6603,278.5557],[39.3107,1.6577,277.8365],[39.3085,1.6611,277.6413],[39.3073,1.6681,279.8203],[39.2981,1.6687,279.7437],[39.2843,1.6767,280.8875],[39.2835,1.6803,280.9778],[39.2713,1.6895,284.0323],[39.2607,1.6885,284.6733],[39.2471,1.6992,286.2265],[39.2305,1.7033,288.3308],[39.2265,1.7071,288.9583],[39.2225,1.7084,289.4144],[39.2137,1.7093,290.4506],[39.2037,1.7161,291.9543],[39.1895,1.7449,296.0508],[39.1801,1.7577,298.1255],[39.1719,1.7887,301.0207],[39.1679,1.7981,302.2221],[39.1649,1.8005,302.5677],[39.1618,1.8067,303.5083],[39.1603,1.8133,304.4513],[39.1515,1.8223,305.8716],[39.1479,1.8313,306.7864],[39.1417,1.8376,307.1476],[39.1433,1.8533,309.7596],[39.1391,1.8555,309.8682],[39.1293,1.8737,313.9984],[39.1181,1.886,315.0993],[39.1029,1.8931,317.4124],[39.0955,1.9018,318.9198],[39.0879,1.9039,320.626],[39.0821,1.9105,320.8712],[39.0732,1.9148,321.824],[39.0599,1.9273,323.7227],[39.0577,1.9407,325.1601],[39.0469,1.9485,326.4786],[39.0437,1.9569,327.2316],[39.0336,1.9696,329.3301],[39.0305,1.9776,330.6347],[39.0248,1.9837,331.469],[39.0131,1.9917,333.1749],[39.0041,2.0029,335.3511],[38.9945,2.0067,336.4465],[38.9897,2.0297,339.4507],[38.9927,2.0397,340.5348],[38.9897,2.0463,341.2514],[38.9847,2.0507,342.346],[38.9847,2.0706,344.1497],[38.9612,2.0998,349.567],[38.8355,2.0261,344.6694],[38.7887,1.9949,341.1783],[38.3847,1.7619,349.9947],[38.3415,1.5787,359.62],[37.9464,1.2636,651.3433],[37.9492,1.1982,652.1949],[38.0003,1.1336,652.4604],[38.0327,1.0895,624.424],[38.0468,0.8095,732.5514],[38.0799,0.7875,635.1898],[38.0705,0.7877,680.7184],[38.0599,0.7834,698.46],[38.0533,0.7833,695.9692],[38.0466,0.788,663.9481],[38.0455,0.7918,685.8794],[38.0311,0.7963,720.4065],[38.0226,0.8034,685.2628],[38.0154,0.8013,670.3807],[38.0162,0.8085,669.5549],[38.0135,0.8099,683.2064],[38.0081,0.8062,674.7784],[38.0085,0.797,663.9248],[38.0052,0.7933,677.6267],[37.9999,0.7927,680.9118],[37.9945,0.7833,687.6431],[37.9859,0.7822,694.444],[37.9853,0.7794,687.8027],[37.9731,0.7642,700.6268],[37.9722,0.7595,690.7771],[37.9595,0.7561,703.2321],[37.9553,0.7498,706.8232],[37.9459,0.7491,715.5803],[37.9296,0.7272,839.957],[37.9248,0.724,820.0012],[37.9191,0.7241,797.0275],[37.9149,0.7178,741.908],[37.9115,0.7189,733.0684],[37.9114,0.723,751.5845],[37.9092,0.7264,772.8729],[37.9053,0.7251,734.4619],[37.9018,0.7268,726.5566],[37.9035,0.7314,742.717],[37.9023,0.7336,749.7739],[37.896,0.7323,733.4233],[37.8935,0.7347,732.2243],[37.8909,0.7422,757.5023],[37.8783,0.7486,741.4291],[37.874,0.7412,731.0377],[37.8765,0.7377,729.0669],[37.8743,0.7338,729.0224],[37.8673,0.7317,741.9989],[37.8595,0.7245,739.2955],[37.8571,0.7246,743.5143],[37.8482,0.7192,750.2205],[37.844,0.7108,759.3631],[37.8426,0.7027,759.3024],[37.8449,0.6963,745.3847],[37.8343,0.6844,771.8007],[37.8226,0.6843,783.3306],[37.8161,0.6807,787.1378],[37.8022,0.6804,888.1506],[37.7928,0.676,831.6157],[37.7845,0.6818,972.7471],[37.7767,0.6822,871.2375],[37.7688,0.6784,799.5586],[37.7595,0.6768,788.04],[37.7501,0.6815,876.4676],[37.7446,0.6792,796.6178],[37.741,0.6718,784.9744],[37.7377,0.6706,789.5637],[37.7359,0.6665,790.612],[37.7304,0.6664,798.4745],[37.7259,0.6595,796.1289],[37.7145,0.6648,801.4866],[37.7125,0.67,806.5784],[37.7094,0.6723,807.6321],[37.7047,0.6724,801.4296],[37.6974,0.6683,809.3909],[37.6922,0.6691,819.5382],[37.6851,0.6618,818.0088],[37.6826,0.6556,819.8743],[37.6833,0.6508,812.0795],[37.6818,0.6474,819.3735],[37.678,0.6471,836.3531],[37.6764,0.644,840.4532],[37.6747,0.6463,841.5389],[37.6662,0.6386,838.5831],[37.6611,0.6388,845.6454],[37.6566,0.6364,842.0969],[37.6507,0.6367,852.5417],[37.6464,0.6327,842.9556],[37.6442,0.6271,844.2445],[37.6395,0.6271,846.4777],[37.6379,0.6194,839.3961],[37.6421,0.6195,840.7578],[37.6428,0.6182,841.9487],[37.6369,0.6131,844.3047],[37.6367,0.6063,850.0281],[37.6331,0.602,854.1494],[37.6305,0.6017,897.9117],[37.6269,0.6055,895.278],[37.623,0.6031,846.3987],[37.618,0.6051,848.5228],[37.6042,0.5956,850.6893],[37.5963,0.5967,854.1285],[37.5899,0.5928,857.4078],[37.5824,0.5928,862.0342],[37.5814,0.5891,857.4557],[37.5825,0.5815,854.6331],[37.5802,0.5781,857.5386],[37.5737,0.5796,860.4336],[37.5661,0.5757,870.7157],[37.5637,0.5773,876.6411],[37.557,0.5756,876.1219],[37.5448,0.5829,879.6575],[37.538,0.5785,876.7781],[37.5345,0.5719,872.037],[37.5322,0.5707,877.4167],[37.5236,0.5755,914.0399],[37.5198,0.5751,889.149],[37.5154,0.5717,884.6816],[37.5076,0.5745,893.1863],[37.5035,0.5796,883.6528],[37.4907,0.5837,881.2695],[37.4925,0.5888,883.3662],[37.4915,0.5901,883.3662],[37.4777,0.5895,885.0518],[37.4711,0.5941,894.7452],[37.4667,0.5937,892.2197],[37.4605,0.5869,889.976],[37.4465,0.5817,891.7775],[37.4423,0.5837,893.4969],[37.4367,0.5809,894.3553],[37.4307,0.5843,898.3035],[37.4279,0.5843,899.5728],[37.4223,0.5805,905.5051],[37.4155,0.5815,904.9474],[37.3983,0.5799,903.9689],[37.3935,0.5773,903.387],[37.3941,0.5739,901.093],[37.3933,0.5773,903.387],[37.3731,0.5891,918.9632],[37.3655,0.5883,908.0466],[37.3637,0.5915,908.9177],[37.3637,0.5997,916.0695],[37.3567,0.6011,923.1378],[37.3541,0.6035,915.5941],[37.3523,0.6245,919.1702],[37.3483,0.6295,918.2401],[37.3469,0.6361,918.625],[37.3437,0.6395,920.4564],[37.3421,0.6473,929.8469],[37.3317,0.6519,922.6847],[37.3261,0.6603,928.5819],[37.3255,0.6721,937.03],[37.3198,0.683,935.8926],[37.3133,0.6912,935.699],[37.3081,0.7061,946.3977],[37.3046,0.709,940.1215],[37.2997,0.726,953.23],[37.29,0.7365,943.8652],[37.2883,0.7422,958.1479],[37.2737,0.7497,953.8186],[37.271,0.7551,980.779],[37.2567,0.7686,958.0878],[37.2448,0.767,964.3492],[37.2353,0.7563,965.8181],[37.2299,0.7543,979.1355],[37.2259,0.7491,969.531],[37.2189,0.7444,1003.3089],[37.2056,0.7462,992.0214],[37.2042,0.75,1013.4065],[37.2021,0.751,1028.0454],[37.1947,0.7509,1045.7279],[37.1799,0.7471,1053.4677],[37.1759,0.7499,1060.3354],[37.1728,0.75,1066.2361],[37.1706,0.7478,1071.2502],[37.1656,0.7475,1048.4321],[37.1623,0.7519,1053.024],[37.1615,0.7562,1079.2045],[37.1514,0.7575,1044.2183],[37.1502,0.765,1071.1248],[37.1343,0.7638,1076.3374],[37.1261,0.7714,1063.3193],[37.1235,0.7815,1089.7548],[37.116,0.7873,1107.447],[37.1094,0.7847,1087.3071],[37.1065,0.7905,1102.2002],[37.1016,0.7917,1106.3497],[37.0943,0.7895,1108.4525],[37.0913,0.787,1114.604],[37.0859,0.787,1119.6787],[37.0706,0.7828,1123.5078],[37.0689,0.7705,1106.8413],[37.0606,0.7723,1123.8976],[37.0581,0.777,1147.1196],[37.0417,0.7686,1139.6465],[37.0083,0.7567,1194.0618],[37.0014,0.7549,1197.9603],[36.9946,0.7555,1269.2723],[36.9924,0.7529,1160.4082],[36.9806,0.7496,1191.1846],[36.977,0.7493,1251.9177],[36.9735,0.7523,1398.5787],[36.9709,0.7488,1274.3237],[36.9685,0.749,1299.0535],[36.9669,0.7471,1225.4731],[36.9483,0.7483,1347.8113],[36.9407,0.7524,1271.3203],[36.9366,0.7576,1385.0679],[36.9338,0.7571,1214.3335],[36.9309,0.7504,1333.9559],[36.9307,0.7341,1272.4695],[36.9273,0.7303,1263.4626],[36.9265,0.7261,1385.2534],[36.9255,0.6857,1322.8906],[36.9265,0.6761,1361.3489],[36.9235,0.6703,1384.3876],[36.9235,0.6669,1354.6619],[36.9217,0.6621,1438.0317],[36.9139,0.6623,1477.6472],[36.9123,0.6525,1389.1266],[36.9083,0.6453,1503.1738],[36.9089,0.6343,1405.3676],[36.9059,0.6319,1473.9629],[36.8973,0.6309,1480.2631],[36.8939,0.6235,1492.8525],[36.8909,0.6233,1508.9918],[36.8873,0.6107,1504.4158],[36.8841,0.6129,1515.085],[36.8791,0.6059,1555.8152],[36.8757,0.6055,1536.5909],[36.8721,0.5999,1544.4978],[36.8675,0.5967,1544.5322],[36.8661,0.5931,1540.7418],[36.8681,0.5873,1537.2639],[36.8673,0.5785,1550.3849],[36.8645,0.5737,1571.6699],[36.8677,0.5713,1558.3634],[37.1135,0.5417,1331.7113],[37.1375,0.5401,1199.4443],[37.1387,0.5387,1189.7021],[37.2581,0.5245,1867.3419],[37.3513,0.5147,1002.9828],[37.3683,0.5143,959.0195],[37.3687,0.5093,960.7164],[37.3598,0.5019,972.1604],[37.3602,0.4951,974.6637],[37.3623,0.4922,975.2228],[37.3597,0.4893,977.8667],[37.3601,0.4777,983.4423],[37.3579,0.4747,993.1411],[37.3575,0.4697,990.781],[37.3499,0.4617,1011.6677],[37.3505,0.4567,1004.4777],[37.3483,0.452,1013.0804],[37.3517,0.4398,1027.8317],[37.3533,0.4145,1036.3313],[37.3633,0.4093,1060.1281],[37.3691,0.3989,1065.5154],[37.3701,0.3847,1074.759],[37.3786,0.381,1096.0151],[37.3776,0.3739,1085.2841],[37.3791,0.3685,1092.8021],[37.3824,0.3678,1110.2832],[37.3837,0.3623,1112.6473],[37.3908,0.3613,1133.9374],[37.3921,0.3588,1132.931],[37.3913,0.3489,1115.8953],[37.3934,0.3405,1126.1675],[37.3917,0.3275,1147.01],[37.3941,0.3191,1156.8075],[37.3919,0.3159,1166.7102],[37.3956,0.3063,1187.0923],[37.3942,0.3047,1186.3682],[37.3953,0.3017,1197.7778],[37.3923,0.2977,1220.2437],[37.3947,0.2951,1278.2876],[37.3931,0.2915,1280.5251],[37.3881,0.2881,1394.1532],[37.3882,0.2852,1302.1643],[37.3865,0.2837,1337.4023],[37.3879,0.2819,1331.9578],[37.3857,0.2775,1465.2329],[37.3743,0.2733,1536.7391],[37.3737,0.2721,1581.4302],[37.3777,0.2707,1486.0497],[37.3795,0.2705,1494.0547],[37.3999,0.2849,1452.1748],[37.4009,0.2963,1426.2998],[37.4301,0.2981,1449.2837],[37.4657,0.2837,1525.7478],[37.5362,0.2643,1393.601],[37.5372,0.2678,1370.3943],[37.5415,0.271,1338.795],[37.5471,0.2799,1292.4144],[37.5475,0.2849,1266.6365],[37.5459,0.2861,1267.9298],[37.5496,0.2958,1235.7173],[37.5491,0.3073,1218.2413],[37.5474,0.3078,1208.5908],[37.5467,0.3113,1197.6147],[37.5505,0.3209,1184.4851],[37.5543,0.3253,1171.6121],[37.5553,0.3289,1160.9639],[37.573,0.3289,1153.3024]]]]}
,"properties": {"GID_2": "KEN.9.1_1","GID_0": "KEN","country": "Kenya","GID_1": "KEN.9_1","province": "Isiolo","NL_NAME_1": "NA","county": "IsioloNorth","VARNAME_2": "NA","NL_NAME_2": "NA","TYPE_2": "Constituency","ENGTYPE_2": "Constituency","CC_2": "49","HASC_2": "NA","name": "Isiolo_North.county","area_km2": 15426.83,"hist_schema_id": "Elevation0-9000","hist_area_km2": {"200": 77.25,"225": 866.33,"250": 1210.05,"275": 1419.47,"300": 1907.87,"325": 2809.9,"350": 1127.26,"375": 407.63,"400": 340.77,"425": 326.89,"450": 301.65,"475": 244.12,"500": 220.02,"525": 223.16,"550": 215.68,"575": 213.26,"600": 201.66,"625": 225.64,"650": 181.48,"675": 107.29,"700": 86.13,"725": 95.27,"750": 91.21,"775": 82.98,"800": 72.29,"825": 60.15,"850": 72.8,"875": 85.57,"900": 103.61,"925": 129.31,"950": 115.44,"975": 99.09,"1000": 114.42,"1025": 114.4,"1050": 116.86,"1075": 125.47,"1100": 130.87,"1125": 125.64,"1150": 109.82,"1175": 101.32,"1200": 88.11,"1225": 77.41,"1250": 71.24,"1275": 57.65,"1300": 51.14,"1325": 42.89,"1350": 38.59,"1375": 33.58,"1400": 27.99,"1425": 24.66,"1450": 22.88,"1475": 24.42,"1500": 24.21,"1525": 22.9,"1550": 22.85,"1575": 24.74,"1600": 29.36,"1625": 24.55,"1650": 17.72,"1675": 14.33,"1700": 9.12,"1725": 6.57,"1750": 5.09,"1775": 2.61,"1800": 1.04,"1825": 0.57,"1850": 0.21,"1875": 0.17,"1925": 0.13}}}