{"type": "Feature","bbox": [34.5304,-0.2924,34.8928,-0.1731],"geometry": {"type": "MultiPolygon","coordinates": [[[[34.6354,-0.2583,1133.0],[34.7402,-0.2508,1133.0],[34.7602,-0.2516,1133.0],[34.7838,-0.2578,1133.0],[34.8286,-0.2878,1133.0],[34.836,-0.2907,1133.0],[34.8522,-0.2924,1133.0],[34.8591,-0.2892,1136.608],[34.8624,-0.2897,1136.595],[34.8672,-0.288,1136.1685],[34.8766,-0.2762,1135.6919],[34.8768,-0.2727,1136.3489],[34.8737,-0.2662,1135.906],[34.8763,-0.265,1137.1173],[34.8763,-0.2507,1137.0165],[34.8752,-0.2486,1137.3064],[34.8719,-0.2475,1137.6466],[34.8719,-0.2405,1137.7993],[34.8747,-0.2398,1138.234],[34.8747,-0.2384,1138.9125],[34.8786,-0.2382,1138.3276],[34.8775,-0.2344,1138.7677],[34.88,-0.2279,1139.0122],[34.8893,-0.2157,1140.4507],[34.8928,-0.204,1142.4368],[34.8882,-0.2039,1141.7417],[34.8864,-0.2009,1141.6731],[34.88,-0.2009,1142.8605],[34.8761,-0.1992,1144.0128],[34.8747,-0.2007,1142.4697],[34.8703,-0.2005,1142.3372],[34.8694,-0.1979,1144.4503],[34.8665,-0.1986,1143.0284],[34.8646,-0.1954,1142.6464],[34.8655,-0.1928,1143.6156],[34.8634,-0.1912,1143.0493],[34.8642,-0.1864,1142.5135],[34.8538,-0.1805,1142.1685],[34.8532,-0.178,1142.436],[34.8511,-0.1768,1142.8309],[34.848,-0.176,1142.4506],[34.844,-0.1776,1140.5845],[34.8409,-0.1744,1139.8696],[34.8367,-0.1731,1139.616],[34.8205,-0.1736,1137.6865],[34.8171,-0.1752,1137.6125],[34.8176,-0.179,1136.9614],[34.8144,-0.1823,1136.6316],[34.8153,-0.1907,1135.9714],[34.8126,-0.1906,1135.9095],[34.8102,-0.1927,1135.6176],[34.5304,-0.2666,1133.0],[34.6354,-0.2583,1133.0]]]]}
,"properties": {"GID_3": "KEN.17.6.4_1","GID_0": "KEN","country": "Kenya","GID_1": "KEN.17_1","province": "Kisumu","NL_NAME_1": "NA","GID_2": "KEN.17.6_1","county": "Nyando","NL_NAME_2": "NA","city": "Kabonyo/Kanyagwal","VARNAME_3": "NA","NL_NAME_3": "NA","TYPE_3": "Ward","ENGTYPE_3": "Ward","CC_3": "1209","HASC_3": "NA","name": "Kabonyo_Kanyagwal.city","area_km2": 188.698,"hist_schema_id": "Elevation0-9000","hist_area_km2": {"1125": 151.5732,"1150": 37.1248}}}