{"type":"Feature","properties":{"GID_3":"KEN.28.5.3_1","GID_0":"KEN","country":"Kenya","GID_1":"KEN.28_1","province":"Mombasa","NL_NAME_1":"NA","GID_2":"KEN.28.5_1","county":"Mvita","NL_NAME_2":"NA","city":"Shimanzi/Ganjoni","VARNAME_3":"NA","NL_NAME_3":"NA","TYPE_3":"Ward","ENGTYPE_3":"Ward","CC_3":"29","HASC_3":"NA","name":"Shimanzi_Ganjoni.city"},
"geometry":{"type": "MultiPolygon","coordinates": [[[[39.6407,-4.0426,0.0],[39.6465,-4.0515,2.1375],[39.6476,-4.0613,0.0],[39.651,-4.0624,0.0],[39.6629,-4.0768,1.1986],[39.6705,-4.0603,24.7651],[39.6569,-4.058,19.9399],[39.6569,-4.0551,22.4491],[39.6619,-4.0566,19.6241],[39.6627,-4.0545,22.4939],[39.6569,-4.0537,22.5429],[39.6571,-4.0492,24.8058],[39.6557,-4.049,25.1889],[39.6531,-4.0402,24.3081],[39.6525,-4.0372,9.5482],[39.6541,-4.0359,14.4293],[39.6529,-4.0339,0.0],[39.6496,-4.0382,3.27],[39.6415,-4.0388,2.9323],[39.6407,-4.0426,0.0]]]]}}