{"type": "Feature","bbox": [34.6676,-0.1853,34.7863,-0.0418],"geometry": {"type": "MultiPolygon","coordinates": [[[[34.7669,-0.121,1138.613],[34.7693,-0.1182,1139.4731],[34.7815,-0.1156,1141.0576],[34.7863,-0.1091,1145.8173],[34.784,-0.1064,1145.7156],[34.7747,-0.1033,1144.811],[34.7749,-0.0945,1166.458],[34.7825,-0.0913,1160.9773],[34.7855,-0.0862,1159.3228],[34.7854,-0.0809,1160.5823],[34.7807,-0.0668,1175.4023],[34.7832,-0.0566,1204.891],[34.7735,-0.0496,1315.7971],[34.7709,-0.0444,1358.1553],[34.7659,-0.0418,1388.9626],[34.7629,-0.0437,1371.7347],[34.7611,-0.0493,1340.2467],[34.759,-0.0481,1362.8716],[34.7497,-0.0546,1375.1963],[34.7521,-0.0596,1294.5282],[34.7506,-0.0695,1174.2235],[34.7524,-0.0737,1153.4985],[34.7511,-0.0768,1144.7986],[34.7386,-0.0721,1172.9227],[34.723,-0.0697,1189.2261],[34.7216,-0.0803,1160.6223],[34.7382,-0.0838,1150.6841],[34.6676,-0.1853,1133.0],[34.765,-0.1353,1136.7881],[34.7673,-0.1309,1137.5474],[34.7669,-0.121,1138.613]]]]}
,"properties": {"GID_2": "KEN.17.1_1","GID_0": "KEN","country": "Kenya","GID_1": "KEN.17_1","province": "Kisumu","NL_NAME_1": "NA","county": "KisumuCentral","VARNAME_2": "NA","NL_NAME_2": "NA","TYPE_2": "Constituency","ENGTYPE_2": "Constituency","CC_2": "240","HASC_2": "NA","name": "Kisumu_Central.county","area_km2": 72.10856,"hist_schema_id": "Elevation0-9000","hist_area_km2": {"1125": 34.87753,"1150": 17.53419,"1175": 12.6153,"1200": 2.20503,"1225": 0.84809,"1250": 0.42404,"1275": 0.57246,"1300": 0.80568,"1325": 0.69967,"1350": 0.74208,"1375": 0.67847,"1400": 0.10601}}}