{"type": "Feature","bbox": [40.2874,3.0913,41.2793,4.1057],"geometry": {"type": "MultiPolygon","coordinates": [[[[40.9961,3.6039,561.5464],[40.9987,3.6063,556.1541],[40.9887,3.6399,531.5712],[41.0417,3.7079,503.284],[41.0557,3.7203,500.2287],[41.0667,3.7263,481.8333],[41.0813,3.7321,466.0263],[41.0947,3.7343,453.7993],[41.1157,3.7353,438.3383],[41.1183,3.7193,440.648],[41.1201,3.7161,440.3265],[41.1299,3.7307,433.7495],[41.1449,3.7441,426.3061],[41.1487,3.7551,422.2135],[41.1619,3.7649,422.2535],[41.1765,3.7801,399.0135],[41.1811,3.7829,394.6466],[41.1923,3.7963,385.0019],[41.1923,3.8001,383.7401],[41.2035,3.8199,371.2186],[41.2077,3.8315,364.5293],[41.2161,3.8415,355.7734],[41.2193,3.8503,349.8476],[41.2239,3.8513,347.3161],[41.2333,3.8755,320.31],[41.2355,3.8765,320.6043],[41.2375,3.8751,317.0849],[41.2421,3.8753,310.9462],[41.2461,3.8789,308.8702],[41.2503,3.8965,291.6208],[41.2455,3.9139,279.3849],[41.2461,3.9217,281.1773],[41.2485,3.9277,277.9309],[41.2517,3.9313,275.3719],[41.2559,3.9331,275.6645],[41.2685,3.9359,264.5875],[41.2619,3.9379,273.4319],[41.2648,3.9494,256.4388],[41.2793,3.9646,269.7079],[41.2151,3.9749,276.2968],[41.1917,3.9599,267.7884],[41.1721,3.9617,266.5701],[41.1463,3.9764,308.9723],[41.1127,3.9869,271.1177],[41.1013,3.9977,273.0174],[41.057,4.0264,290.0303],[41.0418,4.05,332.6892],[41.0255,4.0613,352.7986],[41.0072,4.0778,427.9396],[40.9814,4.0925,430.7728],[40.9703,4.1057,422.1629],[40.9619,4.0949,456.6248],[40.9583,4.0931,487.7732],[40.9513,4.0923,483.4665],[40.9385,4.0945,544.4655],[40.9231,4.0995,573.9878],[40.9161,4.1001,547.6913],[40.9096,4.0979,609.6135],[40.8879,4.0777,661.4836],[40.8761,4.0749,659.3499],[40.8489,4.0573,635.4852],[40.8456,4.0514,624.4437],[40.8195,4.0408,687.8845],[40.8111,4.0339,716.1284],[40.7963,4.0153,706.6423],[40.7787,4.0201,724.3369],[40.7621,4.0187,722.799],[40.7497,4.0151,716.2726],[40.7357,4.0081,710.7689],[40.7339,4.0051,712.0975],[40.7363,3.9587,768.8676],[40.7345,3.9495,747.8149],[40.7261,3.9409,746.9664],[40.7089,3.9351,758.6989],[40.6953,3.9277,773.4042],[40.6879,3.9219,779.6776],[40.6835,3.9161,780.3091],[40.6801,3.9097,783.5416],[40.6727,3.8739,793.1099],[40.6765,3.8639,776.2668],[40.6487,3.8613,793.9504],[40.6299,3.8703,796.0105],[40.6069,3.8729,788.6572],[40.6027,3.8707,783.3365],[40.5925,3.8607,794.2254],[40.5851,3.8587,773.6934],[40.5777,3.8619,767.3977],[40.5115,3.8627,779.4182],[40.5053,3.8613,778.9381],[40.5015,3.8645,781.6768],[40.5013,3.8683,784.2844],[40.4949,3.8699,786.8322],[40.4808,3.8701,792.0288],[40.4701,3.8747,796.9873],[40.4584,3.8834,806.2693],[40.4515,3.8836,818.2252],[40.4495,3.8816,811.3391],[40.4449,3.8833,814.0084],[40.4376,3.8826,824.2528],[40.4301,3.8732,818.214],[40.4224,3.867,831.5916],[40.4233,3.8503,852.666],[40.4219,3.8451,857.7985],[40.4133,3.8341,865.9929],[40.4085,3.8195,869.5934],[40.4015,3.8099,861.871],[40.3927,3.8043,860.5191],[40.3905,3.7999,856.8447],[40.3901,3.7923,847.3081],[40.3707,3.7619,821.4872],[40.3659,3.7425,804.1963],[40.3545,3.7325,797.0386],[40.3551,3.7235,787.8942],[40.3491,3.7269,793.1307],[40.3393,3.7551,820.5189],[40.3359,3.7557,825.599],[40.3251,3.7535,831.6957],[40.3141,3.7325,803.0685],[40.3099,3.7267,791.8341],[40.3061,3.7254,786.2897],[40.3051,3.7227,780.1448],[40.3069,3.7038,774.2595],[40.2989,3.6881,735.4498],[40.2987,3.679,732.7132],[40.2935,3.6642,730.6126],[40.2931,3.6571,723.1508],[40.2898,3.6519,712.6305],[40.2917,3.6417,710.4202],[40.2921,3.6247,691.0972],[40.2911,3.6192,685.5296],[40.2874,3.616,682.1628],[40.2908,3.6116,682.1991],[40.2975,3.5907,677.4791],[40.3164,3.5534,676.9835],[40.3238,3.5308,641.471],[40.3308,3.504,619.7831],[40.3304,3.4529,592.8409],[40.3366,3.4336,583.7736],[40.3615,3.3939,570.5684],[40.3868,3.3674,561.7816],[40.4176,3.3437,554.4999],[40.4412,3.3331,553.6686],[40.4499,3.3337,555.6393],[40.4552,3.3397,563.8245],[40.4587,3.3409,566.3666],[40.4899,3.3463,605.3345],[40.5158,3.3336,672.9819],[40.5218,3.3345,677.6868],[40.5239,3.3315,681.7589],[40.5413,3.3381,653.9197],[40.5527,3.3387,652.7527],[40.5587,3.3369,655.407],[40.5743,3.3103,617.3261],[40.6133,3.3073,572.9714],[40.6555,3.2863,544.4429],[40.6793,3.2621,528.3124],[40.6913,3.2519,520.2308],[40.6949,3.2505,519.879],[40.7067,3.2211,508.5818],[40.7087,3.2207,507.3409],[40.7095,3.2265,507.5546],[40.7193,3.2495,516.7886],[40.7275,3.2503,513.661],[40.7387,3.2449,508.2862],[40.7465,3.2443,505.5727],[40.7775,3.2519,509.1638],[40.7909,3.2611,526.3561],[40.7985,3.2641,516.9917],[40.8031,3.2635,515.7383],[40.8085,3.2559,513.5234],[40.8177,3.2519,508.9583],[40.8221,3.2515,508.7728],[40.8385,3.2573,515.5763],[40.8439,3.2569,515.135],[40.8651,3.2483,513.5963],[40.8645,3.2275,501.4901],[40.8659,3.2113,495.4525],[40.8635,3.2041,490.1528],[40.8635,3.1971,487.4088],[40.8669,3.1855,480.9783],[40.8691,3.1647,470.4437],[40.8857,3.0913,440.498],[40.9065,3.0923,443.0043],[40.9131,3.0969,445.0597],[40.9197,3.1121,454.2002],[40.9245,3.1189,456.9948],[40.9373,3.1199,454.4739],[40.9329,3.1291,460.494],[40.9281,3.1333,462.0025],[40.9277,3.1403,467.7159],[40.9213,3.1569,483.1501],[40.9217,3.1715,498.0909],[40.9367,3.1869,520.8642],[40.9383,3.1947,542.3123],[40.9423,3.1999,561.5062],[40.9509,3.2057,538.1312],[40.9611,3.2091,550.3226],[40.9651,3.2137,555.9454],[40.9785,3.2167,576.4916],[40.9867,3.2253,596.8846],[40.9883,3.2299,585.702],[40.9867,3.2443,596.4905],[40.9835,3.2485,600.1068],[40.9779,3.2521,617.6495],[40.9667,3.2657,660.2695],[40.9537,3.2759,678.6534],[40.9547,3.2805,703.0693],[40.9521,3.2893,725.8055],[40.9423,3.3003,673.948],[40.9403,3.3061,646.0483],[40.9435,3.3157,633.6433],[40.9427,3.3289,614.4121],[40.9305,3.3321,605.676],[40.9113,3.3327,592.3239],[40.8921,3.3303,573.1336],[40.9067,3.3657,613.6548],[40.9073,3.3713,628.8104],[40.9099,3.3739,638.4156],[40.9107,3.3835,636.2822],[40.9141,3.3923,638.6288],[40.9271,3.4033,648.9816],[40.9379,3.4077,649.6635],[40.9429,3.4127,637.8242],[40.9507,3.4171,624.6701],[40.9667,3.4319,589.2581],[40.9651,3.4429,591.1786],[40.9577,3.4519,594.7936],[40.9541,3.4735,607.3729],[40.9707,3.5195,625.9464],[40.9759,3.5275,624.9946],[40.9849,3.5345,623.2601],[40.9891,3.5531,609.5785],[40.9959,3.5641,593.4797],[40.9965,3.5777,581.8251],[40.9897,3.5911,567.4177],[40.9933,3.6013,567.0688],[40.9961,3.6039,561.5464]]]]}
,"properties": {"GID_2": "KEN.24.4_1","GID_0": "KEN","country": "Kenya","GID_1": "KEN.24_1","province": "Mandera","NL_NAME_1": "NA","county": "ManderaNorth","VARNAME_2": "NA","NL_NAME_2": "NA","TYPE_2": "Constituency","ENGTYPE_2": "Constituency","CC_2": "41","HASC_2": "NA","name": "Mandera_North.county","area_km2": 6068.415,"hist_schema_id": "Elevation0-9000","hist_area_km2": {"250": 22.167,"275": 66.057,"300": 36.614,"325": 45.287,"350": 62.188,"375": 85.161,"400": 106.506,"425": 119.032,"450": 118.624,"475": 130.666,"500": 161.556,"525": 267.893,"550": 315.253,"575": 397.458,"600": 504.721,"625": 588.669,"650": 498.035,"675": 497.433,"700": 438.678,"725": 533.397,"750": 378.409,"775": 280.623,"800": 206.913,"825": 139.503,"850": 65.116,"875": 2.454}}}