{"type": "Feature","bbox": [37.7263,0.2414,37.9013,0.5429],"geometry": {"type": "MultiPolygon","coordinates": [[[[37.7263,0.5277,944.4531],[37.7277,0.5247,946.6069],[37.7267,0.5203,946.833],[37.7279,0.5133,949.3917],[37.7311,0.5097,951.2551],[37.733,0.5036,954.9839],[37.7339,0.4883,967.8942],[37.7359,0.4843,971.5307],[37.7315,0.4643,993.3823],[37.7359,0.4427,1010.7925],[37.7469,0.4179,1043.4924],[37.7471,0.4131,1048.8284],[37.7555,0.3937,1131.9833],[37.7711,0.3673,1286.2235],[37.8047,0.3233,1267.874],[37.8293,0.3085,1389.5035],[37.8347,0.2769,1525.5835],[37.8401,0.2637,1651.7626],[37.8455,0.2563,1763.1953],[37.8425,0.2505,1793.0009],[37.8467,0.2414,1912.1094],[37.8601,0.2477,2005.1621],[37.8677,0.2485,2124.3799],[37.8805,0.2531,2077.9778],[37.8832,0.2507,2050.3394],[37.8851,0.2511,2071.1069],[37.8909,0.2451,2092.7012],[37.8929,0.2453,2102.0425],[37.9013,0.2563,2068.3081],[37.9001,0.2701,1938.73],[37.8907,0.2869,1771.9355],[37.8833,0.2953,1706.7681],[37.8827,0.2983,1749.0383],[37.8769,0.2975,1631.3143],[37.8687,0.2995,1555.2129],[37.8644,0.3057,1506.4314],[37.8507,0.3099,1394.4082],[37.8407,0.3187,1352.5671],[37.8361,0.3199,1335.5826],[37.8213,0.3289,1284.714],[37.8131,0.3439,1247.9866],[37.8049,0.3511,1238.0239],[37.7933,0.3731,1244.5837],[37.7909,0.3837,1179.5331],[37.7801,0.3943,1154.6544],[37.7723,0.4121,1084.5747],[37.7635,0.4351,1043.5812],[37.7605,0.4481,1036.7998],[37.7621,0.4655,1027.9672],[37.7745,0.4939,1003.2833],[37.7755,0.5053,977.7506],[37.7745,0.5191,966.6968],[37.7697,0.5429,945.6205],[37.7263,0.5277,944.4531]]]]}
,"properties": {"GID_3": "KEN.26.3.4_1","GID_0": "KEN","country": "Kenya","GID_1": "KEN.26_1","province": "Meru","NL_NAME_1": "NA","GID_2": "KEN.26.3_1","county": "IgembeCentral","NL_NAME_2": "NA","city": "Kangeta","VARNAME_3": "NA","NL_NAME_3": "NA","TYPE_3": "Ward","ENGTYPE_3": "Ward","CC_3": "260","HASC_3": "NA","name": "Kangeta.city","area_km2": 124.05116,"hist_schema_id": "Elevation0-9000","hist_area_km2": {"925": 0.31802,"950": 13.39924,"975": 11.70317,"1000": 10.85516,"1025": 10.32515,"1050": 3.75269,"1075": 3.34986,"1100": 1.75974,"1125": 1.69614,"1150": 1.48412,"1175": 1.61133,"1200": 1.78095,"1225": 3.94353,"1250": 5.00363,"1275": 3.98594,"1300": 2.56542,"1325": 1.95057,"1350": 2.71384,"1375": 2.56543,"1400": 1.50533,"1425": 1.88697,"1450": 1.37812,"1475": 1.33572,"1500": 1.18731,"1525": 1.16611,"1550": 1.01769,"1575": 1.1025,"1600": 1.01769,"1625": 1.22971,"1650": 1.31452,"1675": 1.18731,"1700": 1.1237,"1725": 1.27212,"1750": 1.48414,"1775": 2.22621,"1800": 1.78097,"1825": 1.84457,"1850": 1.61135,"1875": 1.52654,"1900": 1.20851,"1925": 1.42053,"1950": 1.52654,"1975": 1.37813,"2000": 0.86928,"2025": 0.65726,"2050": 1.50534,"2075": 0.99649,"2100": 1.0389,"2125": 0.29683,"2150": 0.19082}}}