{"type":"Feature","properties":{"GID_2":"KEN.6.4_1","GID_0":"KEN","country":"Kenya","GID_1":"KEN.6_1","province":"Embu","NL_NAME_1":"NA","county":"Runyenjes","VARNAME_2":"NA","NL_NAME_2":"NA","TYPE_2":"Constituency","ENGTYPE_2":"Constituency","CC_2":"64","HASC_2":"NA","name":"Runyenjes.county"},
"geometry":{"type": "MultiPolygon","coordinates": [[[[37.5478,-0.4726,1365.5146],[37.5477,-0.4739,1359.2131],[37.5503,-0.4742,1368.3157],[37.5493,-0.4751,1364.9395],[37.551,-0.4783,1363.9515],[37.5466,-0.4823,1383.6345],[37.5531,-0.4878,1369.5197],[37.5537,-0.4929,1325.7537],[37.5575,-0.4955,1348.4589],[37.5578,-0.5005,1283.717],[37.5627,-0.5017,1311.7443],[37.5663,-0.5004,1317.147],[37.569,-0.5014,1287.3525],[37.5708,-0.5049,1244.634],[37.5771,-0.5078,1255.8345],[37.5819,-0.5077,1230.9266],[37.5989,-0.5127,1184.067],[37.6001,-0.5164,1158.061],[37.6059,-0.5209,1161.0015],[37.6116,-0.52,1158.3149],[37.6202,-0.5219,1135.6254],[37.6213,-0.5176,1161.0586],[37.6246,-0.5177,1143.3711],[37.6266,-0.5222,1124.3704],[37.6352,-0.5235,1129.5278],[37.6371,-0.5266,1119.6984],[37.6417,-0.5265,1125.1512],[37.6452,-0.5292,1113.9398],[37.6472,-0.5262,1133.8931],[37.6521,-0.5264,1106.6943],[37.6508,-0.5203,1145.1682],[37.6532,-0.5178,1160.4727],[37.6573,-0.5189,1132.3312],[37.66,-0.5217,1100.1182],[37.6601,-0.5193,1127.2866],[37.663,-0.519,1102.1057],[37.6637,-0.514,1143.1069],[37.6684,-0.5161,1111.1487],[37.6722,-0.5118,1108.9033],[37.6726,-0.514,1095.0033],[37.6782,-0.5138,1132.7748],[37.6829,-0.5162,1076.178],[37.6851,-0.5084,1071.1831],[37.6841,-0.5031,1127.5195],[37.6882,-0.4976,1105.1289],[37.6983,-0.4926,1130.7437],[37.7023,-0.4927,1069.6755],[37.7057,-0.4874,1078.6687],[37.7069,-0.49,1035.0806],[37.714,-0.4924,1001.47],[37.7107,-0.4863,1062.7166],[37.704,-0.4794,1108.7595],[37.6972,-0.4794,1143.0469],[37.6893,-0.4756,1167.0878],[37.6881,-0.4736,1176.2041],[37.6798,-0.4711,1209.0051],[37.6802,-0.4595,1190.0529],[37.6873,-0.4459,1165.6301],[37.6933,-0.4384,1143.8478],[37.6895,-0.4324,1156.6565],[37.6802,-0.427,1169.6521],[37.6701,-0.4255,1189.892],[37.6601,-0.4215,1215.8115],[37.6555,-0.415,1239.3625],[37.6451,-0.4082,1236.3315],[37.6389,-0.4019,1305.5554],[37.6365,-0.3946,1328.2239],[37.6307,-0.3897,1399.0868],[37.6255,-0.3902,1431.8164],[37.6245,-0.3866,1446.7056],[37.6145,-0.3842,1464.9482],[37.612,-0.3806,1453.0669],[37.6,-0.3801,1496.7065],[37.5863,-0.3704,1571.4614],[37.5842,-0.3659,1582.1569],[37.5794,-0.3672,1583.9092],[37.5709,-0.3605,1596.1569],[37.5674,-0.3594,1587.366],[37.5625,-0.362,1635.0105],[37.5535,-0.3572,1707.583],[37.5008,-0.3119,2007.2158],[37.4989,-0.3086,2009.5178],[37.3082,-0.1459,4524.6895],[37.474,-0.3415,2064.5688],[37.4795,-0.3461,2014.9806],[37.4804,-0.3488,1972.9114],[37.4857,-0.3517,1946.5248],[37.4865,-0.3559,1910.1262],[37.4906,-0.3596,1889.8297],[37.4931,-0.3655,1864.584],[37.4915,-0.3745,1825.1863],[37.4966,-0.3777,1839.506],[37.4958,-0.3831,1812.0988],[37.4977,-0.3839,1817.3545],[37.5023,-0.396,1821.5154],[37.5084,-0.4004,1803.09],[37.5135,-0.4068,1784.986],[37.5179,-0.4079,1783.306],[37.5237,-0.4128,1716.9635],[37.527,-0.4131,1726.1201],[37.5314,-0.4188,1755.0851],[37.5421,-0.4262,1591.5807],[37.5423,-0.4306,1481.0645],[37.5442,-0.4318,1471.0422],[37.543,-0.4352,1456.2488],[37.5448,-0.4421,1415.1034],[37.5432,-0.4484,1385.401],[37.5448,-0.4555,1379.2245],[37.5475,-0.4571,1375.8334],[37.5473,-0.463,1370.6748],[37.5491,-0.4669,1372.6245],[37.5474,-0.4692,1375.0857],[37.5478,-0.4726,1365.5146]]]]}}