{"type":"Feature","properties":{"GID_3":"KEN.22.9.3_1","GID_0":"KEN","country":"Kenya","GID_1":"KEN.22_1","province":"Machakos","NL_NAME_1":"NA","GID_2":"KEN.22.9_1","county":"Yatta","NL_NAME_2":"NA","city":"Kithimani","VARNAME_3":"NA","NL_NAME_3":"NA","TYPE_3":"Ward","ENGTYPE_3":"Ward","CC_3":"378","HASC_3":"NA","name":"Kithimani.city"},
"geometry":{"type": "MultiPolygon","coordinates": [[[[37.3428,-1.1164,1291.09],[37.3458,-1.1224,1286.796],[37.3532,-1.1289,1271.2661],[37.357,-1.1302,1252.1183],[37.3621,-1.1284,1262.0566],[37.3657,-1.1361,1245.2852],[37.3635,-1.1401,1244.4136],[37.3817,-1.1605,1208.974],[37.3862,-1.1616,1214.2987],[37.3877,-1.1673,1198.1542],[37.3914,-1.1703,1199.6486],[37.3947,-1.1713,1194.6556],[37.3981,-1.1691,1226.5056],[37.4027,-1.1718,1192.7773],[37.4066,-1.1687,1195.0682],[37.4091,-1.169,1228.6118],[37.4079,-1.1748,1190.4045],[37.4112,-1.1784,1189.7842],[37.4112,-1.1823,1185.1516],[37.4139,-1.1839,1190.3517],[37.4178,-1.1834,1223.3502],[37.4198,-1.1856,1221.9821],[37.4191,-1.1931,1187.4075],[37.4252,-1.1936,1195.7488],[37.4272,-1.1979,1187.6151],[37.4313,-1.1983,1198.2778],[37.4297,-1.2051,1183.1134],[37.4307,-1.2075,1181.209],[37.4358,-1.2088,1192.6991],[37.4458,-1.2211,1193.5215],[37.4508,-1.2171,1189.8101],[37.4508,-1.2225,1180.9852],[37.4554,-1.2225,1187.1461],[37.4613,-1.2308,1170.283],[37.4674,-1.23,1171.1646],[37.4747,-1.2312,1174.9774],[37.4795,-1.2377,1172.26],[37.4805,-1.2423,1156.9917],[37.4842,-1.2448,1161.0024],[37.4883,-1.2516,1159.0117],[37.496,-1.2522,1183.8362],[37.5561,-1.2086,1311.9393],[37.5413,-1.1905,1313.3894],[37.5406,-1.1876,1310.3528],[37.5381,-1.1869,1314.1641],[37.5316,-1.1793,1297.1329],[37.5228,-1.1809,1314.1232],[37.5213,-1.1831,1311.3694],[37.5154,-1.1782,1296.7915],[37.5132,-1.1751,1296.0389],[37.5132,-1.1716,1285.8514],[37.5183,-1.163,1254.5303],[37.5184,-1.1597,1254.2781],[37.5156,-1.1576,1258.616],[37.5075,-1.1569,1244.7695],[37.4992,-1.1486,1222.1974],[37.4973,-1.1434,1211.2864],[37.498,-1.1402,1214.2618],[37.5011,-1.1363,1210.1414],[37.5022,-1.1304,1212.3184],[37.5089,-1.122,1184.7307],[37.5096,-1.1113,1175.2617],[37.5077,-1.1084,1173.2529],[37.4931,-1.1277,1207.8534],[37.4843,-1.1333,1195.0708],[37.478,-1.1276,1210.0198],[37.4659,-1.1216,1223.7953],[37.4641,-1.117,1194.9744],[37.4657,-1.104,1179.859],[37.4559,-1.0997,1144.1925],[37.4529,-1.0966,1141.3843],[37.4487,-1.1014,1143.6619],[37.4454,-1.1005,1156.0574],[37.4447,-1.1028,1148.4731],[37.4425,-1.1025,1170.7756],[37.4406,-1.1052,1161.1848],[37.4364,-1.1064,1167.9849],[37.432,-1.1054,1174.5216],[37.43,-1.1106,1180.7776],[37.423,-1.1096,1224.5598],[37.4228,-1.1131,1221.9381],[37.4208,-1.113,1230.1128],[37.4203,-1.1148,1218.6479],[37.4176,-1.1134,1222.8043],[37.4149,-1.1148,1251.8813],[37.4135,-1.1169,1241.0208],[37.4172,-1.124,1232.343],[37.416,-1.1258,1234.0485],[37.413,-1.125,1235.9727],[37.4095,-1.12,1248.1057],[37.4056,-1.1196,1240.8531],[37.404,-1.1152,1254.8818],[37.3994,-1.1141,1254.6389],[37.3984,-1.1165,1261.0868],[37.3965,-1.1122,1258.1312],[37.3909,-1.1119,1254.4281],[37.3882,-1.109,1253.6263],[37.3825,-1.107,1249.5564],[37.383,-1.1035,1261.1357],[37.3811,-1.1006,1258.6284],[37.3757,-1.1025,1256.5663],[37.3727,-1.0986,1259.9133],[37.3626,-1.0935,1286.3518],[37.3428,-1.1164,1291.09]]]]}}