{"type":"Feature","properties":{"GID_3":"KEN.3.10.4_1","GID_0":"KEN","country":"Kenya","GID_1":"KEN.3_1","province":"Bungoma","NL_NAME_1":"NA","GID_2":"KEN.3.10_1","county":"WebuteWest","NL_NAME_2":"NA","city":"Sitikho","VARNAME_3":"NA","NL_NAME_3":"NA","TYPE_3":"Ward","ENGTYPE_3":"Ward","CC_3":"1108","HASC_3":"NA","name":"Sitikho.city"},
"geometry":{"type": "MultiPolygon","coordinates": [[[[34.6779,0.5358,1432.0674],[34.6798,0.5343,1426.0304],[34.6782,0.5329,1423.0795],[34.6799,0.531,1416.7424],[34.6781,0.5253,1425.9349],[34.6799,0.5194,1408.467],[34.6767,0.5161,1418.6771],[34.6739,0.5168,1428.4651],[34.6734,0.513,1417.5208],[34.6716,0.5135,1432.802],[34.6665,0.5007,1403.5355],[34.6665,0.4935,1382.5864],[34.6577,0.4906,1395.0394],[34.6546,0.4837,1390.0432],[34.65,0.483,1389.9214],[34.6475,0.4785,1380.8965],[34.6438,0.4764,1386.6077],[34.6428,0.4728,1373.3602],[34.6364,0.4732,1371.4199],[34.6303,0.4623,1338.6382],[34.6324,0.4575,1328.4458],[34.6446,0.4556,1365.0499],[34.6504,0.4607,1384.0757],[34.6541,0.4584,1365.4225],[34.6571,0.4596,1380.7593],[34.66,0.4657,1399.116],[34.6665,0.4654,1389.7522],[34.6738,0.4765,1409.7249],[34.6786,0.4781,1390.4233],[34.676,0.4893,1413.2581],[34.6791,0.4902,1415.2979],[34.6836,0.4888,1407.6019],[34.6839,0.4912,1412.6742],[34.6891,0.4912,1400.7241],[34.6894,0.4955,1407.1178],[34.6938,0.4998,1404.9211],[34.6938,0.5037,1409.0089],[34.6987,0.5104,1417.3512],[34.7025,0.5125,1427.1898],[34.7089,0.5091,1425.5811],[34.7171,0.5158,1437.5945],[34.7206,0.5126,1426.7202],[34.7242,0.5146,1430.7008],[34.7276,0.5174,1435.4487],[34.7285,0.5213,1447.7056],[34.734,0.5241,1428.3345],[34.7372,0.5362,1439.4983],[34.7413,0.5394,1448.551],[34.7418,0.5421,1463.6799],[34.7489,0.5414,1435.1367],[34.7499,0.5443,1445.8463],[34.7486,0.5468,1448.1863],[34.7508,0.5526,1451.5057],[34.7496,0.569,1475.3649],[34.7345,0.5689,1493.3057],[34.7218,0.5616,1452.7881],[34.718,0.5783,1472.5198],[34.7193,0.5827,1479.0107],[34.7223,0.5848,1479.6587],[34.7221,0.5936,1487.7319],[34.7133,0.6003,1455.7717],[34.7048,0.6109,1444.8379],[34.692,0.6131,1445.5518],[34.6917,0.611,1443.5269],[34.6898,0.6115,1442.374],[34.6856,0.608,1441.3154],[34.6833,0.6083,1440.6536],[34.684,0.605,1440.6128],[34.6818,0.6031,1437.4612],[34.6842,0.6015,1436.2634],[34.6822,0.601,1437.5895],[34.6843,0.594,1434.2233],[34.6814,0.5914,1433.6906],[34.6806,0.5933,1433.8635],[34.6813,0.5891,1433.2683],[34.6777,0.589,1434.7671],[34.6816,0.5869,1431.1313],[34.6785,0.5831,1430.8784],[34.6797,0.5828,1430.8784],[34.6786,0.5804,1430.5645],[34.6809,0.5785,1429.2949],[34.6793,0.5762,1430.7607],[34.6805,0.5753,1429.0046],[34.6791,0.5752,1430.7667],[34.6805,0.5748,1429.0046],[34.6825,0.5696,1434.8379],[34.6797,0.5669,1427.2737],[34.6837,0.5618,1425.8198],[34.6823,0.5592,1424.9072],[34.684,0.5585,1424.5406],[34.6844,0.5559,1429.9434],[34.6817,0.5542,1423.9292],[34.6837,0.5527,1423.8556],[34.6831,0.5477,1419.3788],[34.6814,0.5461,1427.5852],[34.6825,0.5397,1420.0947],[34.679,0.5387,1426.4692],[34.6779,0.5358,1432.0674]]]]}}