{"type":"Feature","properties":{"GID_3":"KEN.18.5.1_1","GID_0":"KEN","country":"Kenya","GID_1":"KEN.18_1","province":"Kitui","NL_NAME_1":"NA","GID_2":"KEN.18.5_1","county":"KituiWest","NL_NAME_2":"NA","city":"Kauwi","VARNAME_3":"NA","NL_NAME_3":"NA","TYPE_3":"Ward","ENGTYPE_3":"Ward","CC_3":"347","HASC_3":"NA","name":"Kauwi.city"},
"geometry":{"type": "MultiPolygon","coordinates": [[[[37.7856,-1.28,1137.1602],[37.7855,-1.2738,1142.7517],[37.7934,-1.2703,1167.7767],[37.8327,-1.2641,1198.6481],[37.8476,-1.2639,1149.2535],[37.8599,-1.2657,1146.9834],[37.8681,-1.2643,1182.969],[37.8972,-1.2687,1158.0848],[37.895,-1.2669,1158.4165],[37.8957,-1.2611,1192.5483],[37.9011,-1.2562,1176.0803],[37.9011,-1.254,1182.2662],[37.9025,-1.2554,1176.0803],[37.9069,-1.2554,1173.8015],[37.9067,-1.2529,1173.5522],[37.904,-1.2534,1175.597],[37.903,-1.252,1179.9691],[37.9094,-1.2482,1178.6249],[37.91,-1.2452,1193.5303],[37.9128,-1.2469,1179.8126],[37.9161,-1.2448,1199.2955],[37.9177,-1.2458,1191.7952],[37.9206,-1.2447,1185.4481],[37.9189,-1.2417,1200.1221],[37.9245,-1.24,1198.037],[37.9291,-1.2418,1200.3979],[37.9324,-1.2396,1198.4607],[37.9316,-1.2387,1209.7104],[37.9339,-1.2364,1211.6078],[37.9388,-1.2358,1211.6605],[37.9366,-1.2288,1213.0149],[37.9366,-1.2202,1246.6871],[37.9389,-1.217,1257.9948],[37.939,-1.212,1245.8014],[37.942,-1.2092,1257.2379],[37.942,-1.2045,1268.0555],[37.9449,-1.2001,1277.7306],[37.9453,-1.1958,1272.4995],[37.9337,-1.2003,1261.6244],[37.9278,-1.1966,1267.6681],[37.9197,-1.1991,1258.9338],[37.9235,-1.1833,1231.4116],[37.9214,-1.1739,1230.0635],[37.9265,-1.172,1247.9973],[37.933,-1.1596,1237.0603],[37.9249,-1.1623,1225.7301],[37.9213,-1.1669,1240.9479],[37.9179,-1.1683,1232.3022],[37.9039,-1.1627,1223.9863],[37.9005,-1.1586,1216.5543],[37.9003,-1.1561,1218.9382],[37.8958,-1.157,1207.134],[37.8918,-1.1614,1191.6016],[37.8902,-1.1558,1192.5474],[37.8847,-1.1511,1190.6943],[37.878,-1.1487,1176.0477],[37.8764,-1.1427,1173.1122],[37.8739,-1.1417,1167.6431],[37.8732,-1.1366,1166.562],[37.8692,-1.1358,1159.1812],[37.8612,-1.129,1151.0753],[37.8583,-1.1237,1144.8149],[37.8584,-1.1202,1144.1912],[37.8086,-1.1211,1166.2269],[37.7931,-1.1259,1161.7872],[37.7912,-1.1317,1161.874],[37.7857,-1.1397,1165.0819],[37.7768,-1.149,1184.9492],[37.7768,-1.1599,1189.8198],[37.7734,-1.1798,1204.1641],[37.7762,-1.1888,1212.0707],[37.7758,-1.2514,1191.6617],[37.7806,-1.2736,1165.4963],[37.7856,-1.28,1137.1602]]]]}}