{"type":"Feature","properties":{"GID_3":"KEN.26.5.2_1","GID_0":"KEN","country":"Kenya","GID_1":"KEN.26_1","province":"Meru","NL_NAME_1":"NA","GID_2":"KEN.26.5_1","county":"IgembeSouth","NL_NAME_2":"NA","city":"AthiruGaiti","VARNAME_3":"NA","NL_NAME_3":"NA","TYPE_3":"Ward","ENGTYPE_3":"Ward","CC_3":"253","HASC_3":"NA","name":"Athiru_Gaiti.city"},
"geometry":{"type": "MultiPolygon","coordinates": [[[[38.3256,0.0862,465.9362],[38.3251,0.0887,467.5775],[38.3187,0.0955,477.5285],[38.3153,0.1037,480.7356],[38.3061,0.1031,485.7357],[38.3015,0.1099,491.6603],[38.2961,0.1123,497.9403],[38.2833,0.1277,519.5073],[38.2753,0.1289,526.3693],[38.2661,0.1265,525.671],[38.2611,0.1291,534.8263],[38.2569,0.1267,535.3447],[38.2489,0.1265,538.3943],[38.2421,0.1287,546.1017],[38.2339,0.1229,545.9624],[38.2329,0.1197,549.2109],[38.2169,0.1209,559.0463],[38.2071,0.1347,571.007],[38.2005,0.1471,582.4525],[38.2009,0.1499,582.4701],[38.1897,0.1579,596.2725],[38.1795,0.1571,613.8035],[38.1727,0.1587,615.0963],[38.1687,0.1631,621.1576],[38.1483,0.1683,638.0442],[38.1405,0.1737,645.2272],[38.1265,0.1711,667.3477],[38.1157,0.1747,685.616],[38.1089,0.1807,695.2358],[38.0929,0.1827,705.3867],[38.0845,0.1881,723.5591],[38.0763,0.1901,747.0868],[38.0683,0.1879,752.0227],[38.0551,0.1925,798.4225],[38.0477,0.1931,820.6022],[38.0389,0.1985,833.963],[38.0297,0.2139,880.6271],[38.0243,0.2155,889.3542],[38.0109,0.2297,957.1337],[38.0051,0.2327,993.2726],[37.9839,0.2201,1428.2964],[37.9811,0.2209,1414.1763],[37.9786,0.2294,1390.2584],[37.9681,0.2229,1460.8008],[37.9719,0.214,1383.3517],[37.9684,0.2125,1406.2521],[37.9655,0.2063,1502.1903],[37.9673,0.2093,1425.1797],[38.0007,0.1599,956.3741],[38.0229,0.1439,795.5621],[38.0315,0.1449,768.5441],[38.0453,0.139,730.6484],[38.0535,0.1389,715.1807],[38.0567,0.1369,714.2469],[38.0617,0.1385,703.7145],[38.0747,0.1341,689.4645],[38.0851,0.1357,680.6263],[38.0977,0.1291,667.1808],[38.1013,0.1245,664.7585],[38.1043,0.1233,665.7544],[38.1107,0.1239,668.8016],[38.1177,0.1185,658.1583],[38.1268,0.1193,662.4781],[38.1301,0.1175,662.4779],[38.1313,0.1101,625.9962],[38.1383,0.1063,620.4275],[38.1391,0.1037,614.29],[38.1445,0.1061,618.7991],[38.1511,0.1043,606.3821],[38.1549,0.1077,604.4125],[38.1575,0.1007,590.2155],[38.1627,0.0981,589.909],[38.1647,0.0941,582.6483],[38.171,0.0911,576.556],[38.1773,0.0913,567.4061],[38.1829,0.0893,562.6607],[38.1895,0.0811,558.9935],[38.2031,0.0759,546.285],[38.2039,0.0727,542.5244],[38.2079,0.0699,544.3099],[38.2107,0.0693,539.1193],[38.2125,0.0709,533.4084],[38.2285,0.0733,522.92],[38.2319,0.0675,518.668],[38.2371,0.0659,509.9563],[38.2371,0.0561,500.5004],[38.2435,0.0501,492.7765],[38.2459,0.0505,491.4181],[38.2461,0.0477,486.2871],[38.2545,0.0351,475.0746],[38.2653,0.0369,468.1294],[38.2689,0.0361,467.0899],[38.2693,0.029,458.5695],[38.2713,0.0259,456.7213],[38.2745,0.0289,461.3693],[38.2835,0.0293,449.0426],[38.2849,0.0271,445.2152],[38.2977,0.0251,433.0204],[38.3021,0.0149,417.5592],[38.3047,0.0121,416.8435],[38.3143,0.0077,412.4527],[38.3153,0.0043,409.1885],[38.3109,0.0017,409.0045],[38.3103,-0.0007,406.9519],[38.3117,-0.0028,402.4546],[38.3027,-0.0239,388.7285],[38.3053,-0.0239,387.128],[38.3059,-0.0266,384.2261],[38.3095,-0.0247,386.7329],[38.3133,-0.0296,378.0495],[38.3143,-0.0339,377.2161],[38.3111,-0.0398,370.9934],[38.3135,-0.0427,368.8814],[38.3127,-0.0478,363.9615],[38.3101,-0.0489,370.5396],[38.3277,-0.0676,354.2539],[38.3311,-0.0683,355.7665],[38.339,-0.0624,352.1811],[38.3485,-0.0639,348.7057],[38.3683,-0.079,349.3765],[38.377,-0.0814,344.5935],[38.3805,-0.0865,341.0],[38.3833,-0.0872,344.6911],[38.3887,-0.0833,342.2346],[38.3923,-0.0742,342.0739],[38.3959,-0.0737,342.5378],[38.4033,-0.0762,348.0912],[38.4145,-0.0739,336.0355],[38.4193,-0.0689,338.7437],[38.4107,-0.0637,335.4671],[38.4119,-0.0599,340.6875],[38.4105,-0.0575,343.1794],[38.4131,-0.0514,341.3253],[38.4103,-0.0509,341.2094],[38.4109,-0.0478,344.7954],[38.4065,-0.0436,343.6541],[38.4055,-0.0292,351.032],[38.4001,-0.0236,357.1967],[38.4011,-0.017,353.0609],[38.3939,-0.0134,358.6311],[38.3939,-0.0099,358.5984],[38.3873,-0.0053,366.5062],[38.3801,-0.0032,374.1136],[38.3763,0.0049,384.9949],[38.3697,0.0067,392.9441],[38.3659,0.0137,404.1644],[38.3565,0.0203,420.6059],[38.3535,0.0305,426.7793],[38.3575,0.0369,430.6248],[38.3487,0.0431,435.8916],[38.3451,0.0433,434.9527],[38.3441,0.0465,442.1236],[38.3465,0.0505,440.5957],[38.3457,0.0539,444.2746],[38.3491,0.0594,446.2049],[38.3469,0.0613,447.2601],[38.3381,0.0625,453.2012],[38.3405,0.0653,449.7806],[38.3393,0.0681,454.3789],[38.3249,0.0745,459.3342],[38.3231,0.0789,465.0814],[38.3256,0.0862,465.9362]]]]}}