{"type": "Feature","bbox": [37.0071,-0.9637,37.103,-0.8847],"geometry": {"type": "MultiPolygon","coordinates": [[[[37.1002,-0.9565,1488.6741],[37.103,-0.9528,1524.8105],[37.0894,-0.938,1498.9004],[37.0824,-0.9244,1524.1228],[37.0738,-0.9127,1541.6591],[37.0545,-0.9022,1552.4298],[37.0485,-0.8971,1549.6481],[37.0464,-0.8932,1566.3436],[37.0355,-0.8847,1574.8499],[37.0337,-0.8893,1583.233],[37.0366,-0.8902,1570.8992],[37.0326,-0.8924,1566.9592],[37.0353,-0.8963,1569.2357],[37.035,-0.8984,1596.0654],[37.0341,-0.896,1568.0966],[37.0301,-0.895,1591.4082],[37.0237,-0.8901,1608.3438],[37.0163,-0.8891,1655.4934],[37.0071,-0.902,1662.7717],[37.0213,-0.9111,1595.3044],[37.0319,-0.9219,1591.6836],[37.0423,-0.9253,1577.1957],[37.0477,-0.9312,1564.76],[37.059,-0.9371,1567.0415],[37.0655,-0.945,1548.0811],[37.0796,-0.953,1516.0916],[37.0853,-0.9593,1495.4846],[37.0939,-0.9637,1523.3093],[37.0963,-0.9609,1522.8977],[37.0964,-0.9584,1523.8616],[37.1002,-0.9565,1488.6741]]]]}
,"properties": {"GID_3": "KEN.29.2.4_1","GID_0": "KEN","country": "Kenya","GID_1": "KEN.29_1","province": "Murang'a","NL_NAME_1": "NA","GID_2": "KEN.29.2_1","county": "Kandara","NL_NAME_2": "NA","city": "Muruka","VARNAME_3": "NA","NL_NAME_3": "NA","TYPE_3": "Ward","ENGTYPE_3": "Ward","CC_3": "540","HASC_3": "NA","name": "Muruka.city","area_km2": 31.7992,"hist_schema_id": "Elevation0-9000","hist_area_km2": {"1475": 0.0848,"1500": 4.19747,"1525": 7.69538,"1550": 7.20783,"1575": 5.61787,"1600": 3.92191,"1625": 2.48035,"1650": 0.59359}}}