{"type": "Feature","bbox": [39.6689,0.7539,40.2743,1.6919],"geometry": {"type": "MultiPolygon","coordinates": [[[[40.0417,1.6919,248.5959],[40.0309,1.6617,241.5799],[40.0153,1.6391,234.1882],[40.0133,1.6323,237.4154],[39.9979,1.6081,233.3369],[39.9913,1.5941,231.9293],[39.9723,1.5721,231.0029],[39.9619,1.5627,230.2541],[39.9457,1.5427,229.7328],[39.9319,1.5319,229.7795],[39.9241,1.5207,230.088],[39.9123,1.4747,225.8937],[39.8739,1.3877,223.5908],[39.8533,1.3263,220.0182],[39.8393,1.2929,216.4743],[39.8279,1.2803,228.2819],[39.7329,1.2013,241.1073],[39.6689,1.1503,255.4951],[39.6975,1.1523,246.6223],[39.7427,1.1231,232.0855],[39.7625,1.1307,228.9635],[39.8139,1.0155,249.1461],[39.8713,1.0187,219.4209],[39.8797,0.9313,183.3207],[39.8825,0.9247,179.6754],[39.8881,0.9247,178.9572],[39.9079,0.9343,200.2103],[39.9243,0.9403,200.7947],[39.9753,0.8937,181.6278],[39.9761,0.7989,173.63],[40.0237,0.7539,172.3649],[40.0731,0.7941,160.5261],[40.1451,0.8473,171.2621],[40.2125,0.9273,178.4196],[40.2179,0.9369,180.6463],[40.2307,0.9537,181.9009],[40.2475,0.9855,182.1232],[40.2517,0.9977,181.183],[40.2599,1.0125,183.0166],[40.2699,1.0265,181.0727],[40.2663,1.0559,183.9955],[40.2627,1.0701,183.017],[40.2637,1.0913,179.5374],[40.2607,1.1031,175.0646],[40.2565,1.1103,171.7314],[40.2633,1.1121,171.9246],[40.2743,1.1107,171.0905],[40.1741,1.3297,196.2166],[40.1931,1.3529,193.7767],[40.1243,1.6041,225.6929],[40.1191,1.6287,232.1707],[40.1069,1.6419,235.9289],[40.0933,1.6471,238.25],[40.0879,1.6521,241.134],[40.0839,1.6599,242.8896],[40.0781,1.6873,247.5043],[40.0417,1.6919,248.5959]]]]}
,"properties": {"GID_3": "KEN.46.5.7_1","GID_0": "KEN","country": "Kenya","GID_1": "KEN.46_1","province": "Wajir","NL_NAME_1": "NA","GID_2": "KEN.46.5_1","county": "WajirSouth","NL_NAME_2": "NA","city": "LagbogholSouth","VARNAME_3": "NA","NL_NAME_3": "NA","TYPE_3": "Ward","ENGTYPE_3": "Ward","CC_3": "188","HASC_3": "NA","name": "Lagboghol_South.city","area_km2": 3425.656,"hist_schema_id": "Elevation0-9000","hist_area_km2": {"150": 2.459,"175": 537.634,"200": 1697.825,"225": 1086.376,"250": 100.747,"275": 0.615}}}