{"type": "Feature","bbox": [36.2893,0.9003,37.4068,2.5155],"geometry": {"type": "MultiPolygon","coordinates": [[[[36.8748,1.3366,1098.5581],[36.8738,1.3391,1098.8438],[36.8751,1.3426,1102.8871],[36.8738,1.3438,1115.4574],[36.8799,1.3546,1087.4785],[36.8789,1.3605,1097.2079],[36.8864,1.3755,1075.4685],[36.8889,1.3765,1062.1484],[36.8895,1.3802,1057.1907],[36.9116,1.3902,1029.3041],[36.9194,1.397,1002.7841],[36.9233,1.403,1016.0106],[36.9348,1.4094,996.4137],[36.9356,1.4144,978.6801],[36.945,1.4232,958.5988],[36.946,1.4291,956.8106],[36.9535,1.4444,952.5117],[36.9593,1.449,959.3214],[36.9639,1.4593,974.8054],[36.9742,1.4642,976.3652],[36.9762,1.4704,918.8904],[36.9812,1.4733,891.8676],[36.98,1.4842,888.8323],[36.9811,1.4867,888.0619],[37.0425,1.4983,893.6356],[37.0517,1.4968,878.5012],[37.0575,1.4916,830.7663],[37.0634,1.4902,818.449],[37.0784,1.5018,822.735],[37.0839,1.5039,837.074],[37.0934,1.5015,795.2554],[37.0953,1.4973,792.6755],[37.1052,1.502,784.2943],[37.1142,1.5005,778.7602],[37.12,1.5024,778.4067],[37.1234,1.5006,774.3144],[37.1298,1.5008,771.0808],[37.1472,1.5151,794.328],[37.1609,1.5161,760.1585],[37.164,1.5205,800.7661],[37.1708,1.5245,774.3424],[37.1727,1.5315,753.4152],[37.1854,1.5362,779.1337],[37.1922,1.5375,767.5535],[37.209,1.5355,765.3506],[37.2154,1.5308,727.2222],[37.2248,1.5368,717.6823],[37.2341,1.5342,721.5944],[37.2405,1.5357,719.446],[37.2581,1.5453,709.2164],[37.2732,1.5501,697.7952],[37.2808,1.5558,698.3359],[37.2914,1.5596,699.1328],[37.2967,1.5636,698.5219],[37.3103,1.5671,684.0327],[37.3149,1.5733,686.0189],[37.3295,1.5774,671.8501],[37.3497,1.5863,665.1073],[37.3521,1.5911,665.8944],[37.3595,1.5985,661.2722],[37.3645,1.601,660.884],[37.3705,1.6015,661.9819],[37.3809,1.6122,655.8766],[37.3837,1.6171,646.0973],[37.3818,1.6226,648.3649],[37.3826,1.6357,645.0159],[37.39,1.6369,640.5969],[37.3986,1.6473,637.7327],[37.4068,1.6544,741.4594],[37.3589,1.7296,1458.9209],[37.3053,1.7517,1057.6255],[37.2739,1.8697,721.4517],[37.2343,1.8719,923.4736],[37.2195,1.8915,779.3052],[37.1811,1.9181,871.2271],[37.1715,1.9273,879.6166],[37.1637,1.9411,862.5057],[37.1613,1.9643,823.0797],[37.1223,1.9673,835.9698],[37.0931,1.9747,844.775],[37.0753,1.9825,871.5974],[37.0115,1.9845,966.4456],[37.0052,1.9897,972.6747],[36.9977,1.9997,966.2328],[36.9765,2.0087,970.3633],[36.9609,2.0181,966.4896],[36.9521,2.0253,968.9917],[36.9475,2.0269,976.3636],[36.9375,2.0253,989.0157],[36.9245,2.0181,1010.1746],[36.9175,2.0187,1013.7604],[36.9165,2.0225,1017.6936],[36.9193,2.0351,1069.1318],[36.9196,2.0534,1151.3102],[36.9218,2.0605,1100.0652],[36.919,2.0847,1035.62],[36.9189,2.1014,1033.4006],[36.9145,2.1021,1059.9917],[36.9119,2.1049,1100.3519],[36.9138,2.1264,1089.7506],[36.9016,2.1573,970.6519],[36.8949,2.1927,975.7327],[36.8923,2.1957,1123.6528],[36.8646,2.2545,939.2834],[36.8447,2.2749,991.8688],[36.7655,2.4937,671.6062],[36.7597,2.5155,624.2312],[36.7397,2.5142,586.9432],[36.7155,2.5083,478.778],[36.7087,2.5081,463.2312],[36.7062,2.5122,388.9176],[36.7002,2.5126,376.1261],[36.7027,2.4975,392.1889],[36.7019,2.4865,371.1494],[36.7037,2.4793,373.7219],[36.6979,2.4652,366.7583],[36.6997,2.4571,373.3319],[36.6987,2.4543,382.7968],[36.688,2.4585,373.5291],[36.6855,2.4578,372.9625],[36.6717,2.4446,370.0701],[36.6569,2.4193,417.2935],[36.6506,2.4178,402.3659],[36.6479,2.4133,384.9366],[36.6445,2.4175,379.4886],[36.6438,2.4054,382.4361],[36.6395,2.3937,409.2306],[36.64,2.4097,378.3389],[36.6392,2.4103,378.3389],[36.638,2.4062,367.8152],[36.6356,2.4045,397.5064],[36.6315,2.4118,362.0],[36.6265,2.4142,468.9109],[36.6218,2.4136,437.684],[36.6213,2.4031,380.0406],[36.6197,2.3991,383.8014],[36.6161,2.3972,380.8428],[36.6083,2.3957,376.5656],[36.6057,2.3975,365.179],[36.6044,2.4024,362.0],[36.6013,2.4055,381.4168],[36.6013,2.3608,556.1067],[36.7233,2.3026,1076.3774],[36.7239,2.292,1253.6626],[36.722,2.2859,1379.4178],[36.7236,2.276,1255.0364],[36.7151,2.2672,1094.946],[36.7086,2.2643,1192.2173],[36.7127,2.2611,1340.0242],[36.7143,2.2555,1340.6729],[36.7139,2.246,1126.5586],[36.7104,2.2407,965.3952],[36.7124,2.2367,1071.5726],[36.7121,2.2263,990.2057],[36.7115,2.2241,1067.1643],[36.7041,2.2215,996.9576],[36.7004,2.2176,823.8734],[36.7018,2.2039,799.6747],[36.6814,2.1973,857.7685],[36.6708,2.1909,628.558],[36.6587,2.1789,515.8934],[36.6487,2.1731,497.0116],[36.6365,2.1682,443.8156],[36.6206,2.1654,438.73],[36.6128,2.161,446.8107],[36.6132,2.1629,434.1456],[36.6111,2.1629,424.4269],[36.5996,2.1536,367.8409],[36.595,2.1464,392.4793],[36.5879,2.1458,397.8524],[36.585,2.1409,421.711],[36.5806,2.1258,327.544],[36.5647,2.1084,293.2385],[36.5676,2.0965,405.2028],[36.5661,2.085,284.6891],[36.5692,2.0583,485.3784],[36.5611,2.0502,382.2317],[36.5582,2.0504,344.682],[36.5563,2.0485,344.2879],[36.556,2.0429,356.5519],[36.5518,2.0346,357.4162],[36.5499,2.0316,371.7272],[36.5474,2.0325,318.18],[36.5445,2.0277,313.2162],[36.5474,2.0212,420.0043],[36.5473,2.0083,401.9865],[36.545,2.0118,408.7038],[36.5431,2.0121,347.8594],[36.5415,2.0114,335.6282],[36.5402,2.0076,327.7324],[36.5454,2.004,447.827],[36.5467,1.9953,552.6401],[36.541,1.9778,680.8152],[36.5364,1.9703,555.3014],[36.5321,1.9573,428.1431],[36.5325,1.9544,565.0291],[36.5342,1.9535,597.8951],[36.5379,1.9551,619.103],[36.5396,1.9609,708.1672],[36.5412,1.9603,713.1808],[36.5397,1.944,701.295],[36.5421,1.9294,899.4923],[36.5414,1.9187,929.9967],[36.5384,1.9128,961.4279],[36.5375,1.9065,937.9776],[36.533,1.9047,749.4076],[36.5291,1.8969,634.4346],[36.5256,1.8952,604.3614],[36.5248,1.8905,688.9455],[36.5218,1.8901,555.8448],[36.5203,1.8865,615.9973],[36.5161,1.8844,512.8339],[36.5151,1.8806,503.6548],[36.5163,1.8528,685.9682],[36.5185,1.8475,644.5402],[36.5229,1.8527,668.5737],[36.5249,1.8475,690.223],[36.5216,1.8372,658.0114],[36.5245,1.8336,742.6484],[36.523,1.8306,688.1993],[36.5173,1.8322,616.7932],[36.5147,1.8311,638.4929],[36.5155,1.8232,634.2428],[36.5219,1.8143,713.3817],[36.5316,1.808,747.3494],[36.5272,1.801,672.6127],[36.5224,1.7972,654.8691],[36.5254,1.7944,601.9809],[36.524,1.792,606.9327],[36.5254,1.7904,579.3156],[36.5217,1.7845,538.137],[36.5172,1.7824,538.6097],[36.5192,1.7792,575.1387],[36.5189,1.7723,620.9362],[36.513,1.7755,492.1168],[36.5116,1.7731,530.543],[36.5129,1.7684,528.3804],[36.519,1.7636,712.5304],[36.5193,1.7569,701.4548],[36.5228,1.7583,672.4993],[36.5256,1.7643,697.4948],[36.5279,1.7578,652.7781],[36.5207,1.7468,599.9152],[36.5159,1.7466,584.0897],[36.5096,1.7383,550.6089],[36.5087,1.7251,470.5129],[36.504,1.7198,493.0346],[36.5038,1.7114,500.0132],[36.4998,1.7074,518.9266],[36.4871,1.7045,439.0489],[36.4856,1.6866,561.9335],[36.4815,1.6843,554.1642],[36.4776,1.6719,419.8916],[36.4703,1.6614,417.8519],[36.4692,1.6422,475.372],[36.4644,1.6285,490.0761],[36.4636,1.6152,570.3388],[36.4552,1.6145,519.3741],[36.4474,1.6189,442.1032],[36.4447,1.6184,435.4062],[36.4411,1.615,438.2388],[36.4381,1.603,470.3713],[36.4331,1.597,426.6228],[36.4324,1.5892,452.194],[36.4286,1.5835,443.0067],[36.4264,1.573,500.4235],[36.4209,1.571,444.0755],[36.4128,1.5615,475.004],[36.3974,1.5273,670.2091],[36.3895,1.5251,784.0291],[36.3855,1.5324,723.7482],[36.3796,1.5373,758.1302],[36.3757,1.5432,727.2573],[36.3725,1.5707,612.1893],[36.376,1.575,576.5275],[36.3771,1.5861,484.8259],[36.3731,1.594,440.8781],[36.3701,1.5965,416.6185],[36.3588,1.5871,411.265],[36.357,1.5711,453.3978],[36.3463,1.571,504.6014],[36.3448,1.5722,483.7052],[36.3446,1.5785,462.8197],[36.3413,1.5734,474.6402],[36.3346,1.5694,483.7907],[36.3161,1.552,639.9121],[36.3116,1.5499,642.5319],[36.303,1.542,713.6751],[36.3011,1.5346,700.4874],[36.301,1.5148,828.7635],[36.2968,1.5043,875.6917],[36.2999,1.4961,933.5348],[36.3,1.4911,957.5346],[36.2893,1.47,722.4822],[36.2925,1.4689,734.0894],[36.3181,1.4763,944.2195],[36.3221,1.4756,999.5683],[36.3422,1.4508,860.8781],[36.3487,1.4445,859.3969],[36.3558,1.4413,830.4661],[36.3627,1.4431,858.9819],[36.3676,1.4426,891.6935],[36.3747,1.4463,896.2477],[36.3802,1.4456,852.3622],[36.3868,1.4499,859.4553],[36.3927,1.4493,813.9813],[36.4015,1.4373,894.7991],[36.409,1.4326,962.8763],[36.4199,1.4206,1116.8374],[36.4274,1.4192,1109.59],[36.4282,1.4125,1073.328],[36.4379,1.4159,1085.2683],[36.4418,1.4145,1054.2776],[36.4474,1.4165,997.6163],[36.4505,1.4141,925.1828],[36.4508,1.41,900.4736],[36.4563,1.4021,1068.9579],[36.46,1.4066,992.8453],[36.4635,1.4068,1006.2844],[36.4674,1.413,992.9282],[36.4671,1.415,1046.9735],[36.4705,1.4149,1099.3523],[36.4758,1.4239,1306.151],[36.4809,1.4277,1341.6555],[36.505,1.4387,955.9929],[36.5085,1.4468,1009.298],[36.5122,1.45,1055.2184],[36.5278,1.4554,822.5036],[36.5284,1.4495,831.6025],[36.526,1.4461,840.0168],[36.5262,1.4396,859.1218],[36.5395,1.4268,1126.4086],[36.5441,1.4259,1097.213],[36.5456,1.4238,1147.2083],[36.5479,1.4248,1187.8301],[36.5526,1.4214,1120.4163],[36.5511,1.4199,1110.7772],[36.5533,1.4202,1144.8124],[36.5545,1.4175,1139.4617],[36.5611,1.4153,1273.3202],[36.5634,1.4119,1215.2673],[36.5676,1.4101,1206.6377],[36.5686,1.4073,1197.2413],[36.5736,1.4058,1308.9677],[36.5775,1.4023,1295.6344],[36.5833,1.4001,1256.3715],[36.5887,1.4001999999999999,1266.0309],[36.5991,1.3941,1545.1525],[36.6178,1.3914,1939.6936],[36.6289,1.387,1883.5107],[36.6284,1.3829,1914.9399],[36.6218,1.3719,1881.1855],[36.6226,1.3686,1859.4822],[36.6271,1.3657,1866.875],[36.6269,1.3576,1937.9962],[36.63,1.3576,1928.2772],[36.6319,1.3492,1920.9614],[36.6304,1.3474,1947.7853],[36.6318,1.3447,1964.2103],[36.6281,1.3378,1953.1853],[36.6275,1.3318,2021.7419],[36.6229,1.327,2085.1106],[36.6195,1.3146,2034.3242],[36.6151,1.31,2173.0869],[36.616,1.3075,2158.8384],[36.6219,1.3096,2022.2634],[36.6191,1.3035,2111.0669],[36.6197,1.2989,2163.4775],[36.6161,1.2807,2273.0723],[36.6053,1.273,2215.853],[36.6002,1.2622,2221.6506],[36.6024,1.2569,2308.6663],[36.602,1.2511,2360.2896],[36.609,1.244,2401.739],[36.6048,1.2374,2442.2715],[36.6075,1.2213,2531.1887],[36.612,1.2179,2440.1704],[36.6124,1.2112,2442.0947],[36.6188,1.2004,2434.1362],[36.618,1.1805,2387.335],[36.7057,1.1809,2103.7424],[36.7436,1.1342,2038.6381],[36.7508,1.1334,2097.1409],[36.751,1.1288,2082.9746],[36.7563,1.1243,2075.4033],[36.7627,1.1155,2152.2651],[36.7758,1.079,2096.845],[36.7779,1.0671,2165.0256],[36.788,1.0498,1950.1692],[36.7897,1.0415,1892.2471],[36.7977,1.0313,1878.5173],[36.7982,1.0253,1845.7496],[36.8019,1.0211,1847.1451],[36.8013,1.0191,1842.4976],[36.8054,1.013,1824.2302],[36.8055,1.0023,1809.2378],[36.8079,0.9968,1806.9027],[36.8068,0.9951,1800.2659],[36.8085,0.9872,1794.9742],[36.8069,0.9836,1796.6454],[36.8078,0.9793,1796.475],[36.8137,0.9966,1810.514],[36.842,1.0043,1862.6521],[36.8491,1.0077,1952.5431],[36.8498,1.01,1948.5753],[36.862,1.0218,2226.8469],[36.8644,1.0229,2240.2231],[36.8691,1.0216,2193.3699],[36.8722,1.0153,2177.1755],[36.8785,1.0149,2076.8699],[36.8898,1.0022,1766.8947],[36.8971,0.9969,1881.3379],[36.896,0.9943,2019.0485],[36.8958,0.9573,2005.3495],[36.9007,0.955,2108.6462],[36.9067,0.9457,1985.542],[36.9112,0.9425,1734.5242],[36.916,0.9331,1906.5044],[36.928,0.9196,1714.2035],[36.9425,0.9148,1667.4329],[36.9506,0.9097,1444.9351],[36.9703,0.9081,1261.7635],[36.9743,0.9126,1260.693],[36.975,0.9182,1240.324],[36.9772,0.9189,1260.3021],[36.9805,0.9162,1242.8344],[36.9876,0.915,1246.9395],[36.9902,0.9044,1211.9093],[36.9952,0.9003,1207.6364],[36.9963,0.9035,1224.3003],[36.9952,0.9058,1219.9414],[36.9985,0.911,1201.222],[36.9992,0.9278,1207.2896],[37.0049,0.9357,1191.1099],[37.0039,0.94,1190.7864],[37.0063,0.9583,1170.7944],[37.0049,0.961,1193.6318],[37.0082,0.9631,1167.9381],[37.0098,0.9703,1205.8567],[37.0163,0.9759,1152.01],[37.0144,0.981,1159.1232],[37.0174,0.9856,1158.4075],[37.0165,0.9878,1154.7756],[37.0193,0.9883,1144.5637],[37.0219,0.991,1149.5457],[37.0187,0.9928,1140.1818],[37.0207,0.9976,1127.8074],[37.0192,1.0016,1138.4083],[37.0171,1.002,1150.137],[37.02,1.0049,1138.5841],[37.0228,1.0052,1123.3141],[37.0196,1.0087,1145.3303],[37.0269,1.0144,1121.9352],[37.028,1.0234,1113.537],[37.0253,1.023,1117.1047],[37.0245,1.0245,1123.4153],[37.0287,1.0284,1132.4705],[37.0287,1.0324,1152.1719],[37.0348,1.0339,1097.7112],[37.0357,1.0384,1106.3245],[37.0337,1.0405,1121.209],[37.0361,1.0418,1108.7928],[37.0373,1.0497,1117.1711],[37.0401,1.0538,1094.1233],[37.0387,1.0627,1114.8492],[37.0436,1.068,1088.7404],[37.0412,1.0748,1078.4453],[37.0426,1.0801,1066.0701],[37.0458,1.0818,1062.381],[37.0432,1.0864,1069.5466],[37.0453,1.0934,1058.1182],[37.0439,1.0958,1094.0615],[37.0462,1.1006,1061.2511],[37.0455,1.103,1077.8206],[37.0551,1.1144,1064.4062],[37.0591,1.1146,1035.9642],[37.0602,1.1192,1034.6169],[37.0587,1.1245,1065.1351],[37.0627,1.1261,1064.1631],[37.0559,1.1263,1075.2151],[37.0494,1.1285,1099.8337],[37.043,1.1358,1126.0505],[37.041,1.1419,1135.7432],[37.0356,1.1479,1135.5854],[37.0285,1.1449,1169.234],[37.0197,1.1452,1212.8481],[37.0153,1.1556,1184.1456],[37.0102,1.1588,1208.4102],[37.0069,1.1577,1212.0724],[37.0021,1.1588,1233.094],[36.9964,1.1641,1232.9343],[36.9628,1.1863,1306.5465],[36.9542,1.1999,1318.2838],[36.9525,1.2058,1324.8756],[36.953,1.2109,1319.0029],[36.9567,1.2181,1348.3918],[36.9574,1.226,1373.8201],[36.9548,1.2367,1355.7325],[36.9476,1.2423,1323.3936],[36.9359,1.2458,1294.6149],[36.9252,1.2541,1317.1348],[36.9234,1.266,1268.688],[36.9112,1.2773,1263.3884],[36.9034,1.2983,1284.1461],[36.8981,1.2997,1241.9404],[36.8947,1.3026,1228.9493],[36.8748,1.3366,1098.5581]]]]}
,"properties": {"GID_2": "KEN.37.2_1","GID_0": "KEN","country": "Kenya","GID_1": "KEN.37_1","province": "Samburu","NL_NAME_1": "NA","county": "SamburuNorth","VARNAME_2": "NA","NL_NAME_2": "NA","TYPE_2": "Constituency","ENGTYPE_2": "Constituency","CC_2": "134","HASC_2": "NA","name": "Samburu_North.county","area_km2": 8483.88,"hist_schema_id": "Elevation0-9000","hist_area_km2": {"300": 0.127,"325": 1.483,"350": 5.424,"375": 20.656,"400": 25.359,"425": 29.067,"450": 29.704,"475": 31.251,"500": 36.019,"525": 33.965,"550": 32.673,"575": 32.843,"600": 30.556,"625": 33.628,"650": 51.749,"675": 66.244,"700": 73.704,"725": 88.793,"750": 94.049,"775": 93.33,"800": 106.976,"825": 112.379,"850": 118.503,"875": 127.425,"900": 132.002,"925": 139.781,"950": 151.5,"975": 169.066,"1000": 169.47,"1025": 168.666,"1050": 169.705,"1075": 182.168,"1100": 202.24,"1125": 220.744,"1150": 246.664,"1175": 267.055,"1200": 289.63,"1225": 316.994,"1250": 340.373,"1275": 348.722,"1300": 348.931,"1325": 369.459,"1350": 378.706,"1375": 298.239,"1400": 221.419,"1425": 191.581,"1450": 159.221,"1475": 129.533,"1500": 107.811,"1525": 100.902,"1550": 90.326,"1575": 82.21,"1600": 90.392,"1625": 66.548,"1650": 52.348,"1675": 51.967,"1700": 43.086,"1725": 35.371,"1750": 33.379,"1775": 32.617,"1800": 31.6,"1825": 34.335,"1850": 33.085,"1875": 33.699,"1900": 33.191,"1925": 31.898,"1950": 30.33,"1975": 32.916,"2000": 30.373,"2025": 30.161,"2050": 31.03,"2075": 31.603,"2100": 34.189,"2125": 33.68,"2150": 37.305,"2175": 29.887,"2200": 30.543,"2225": 29.208,"2250": 27.236,"2275": 21.449,"2300": 18.439,"2325": 15.663,"2350": 14.687,"2375": 16.87,"2400": 16.913,"2425": 15.45,"2450": 13.776,"2475": 12.335,"2500": 11.508,"2525": 9.006,"2550": 7.523,"2575": 6.992,"2600": 6.208,"2625": 3.793,"2650": 2.691,"2675": 2.225,"2700": 2.076,"2725": 1.653,"2750": 1.144,"2775": 1.737,"2800": 0.636,"2825": 0.106}}}