{"type":"Feature","properties":{"GID_3":"KEN.18.6.7_1","GID_0":"KEN","country":"Kenya","GID_1":"KEN.18_1","province":"Kitui","NL_NAME_1":"NA","GID_2":"KEN.18.6_1","county":"MwingiCentral","NL_NAME_2":"NA","city":"Waita","VARNAME_3":"NA","NL_NAME_3":"NA","TYPE_3":"Ward","ENGTYPE_3":"Ward","CC_3":"345","HASC_3":"NA","name":"Waita.city"},
"geometry":{"type": "MultiPolygon","coordinates": [[[[38.059,-0.8352,911.5776],[38.072,-0.832,929.7553],[38.0828,-0.833,963.4728],[38.0951,-0.8379,915.9885],[38.0979,-0.8417,901.6705],[38.102,-0.8412,903.6444],[38.1068,-0.8475,880.3157],[38.1139,-0.8512,867.4612],[38.1159,-0.851,861.4904],[38.1169,-0.8482,855.0004],[38.1199,-0.8507,846.3062],[38.1203,-0.8464,851.9709],[38.1226,-0.8454,853.6749],[38.1252,-0.8509,825.8862],[38.127,-0.8497,830.926],[38.1279,-0.8525,818.8704],[38.1306,-0.8531,814.9042],[38.1308,-0.8554,812.5879],[38.1355,-0.8535,810.7988],[38.1367,-0.8589,812.8405],[38.1395,-0.8593,799.6873],[38.1406,-0.8561,817.4791],[38.1441,-0.8589,802.389],[38.1464,-0.8545,803.7037],[38.1506,-0.8664,766.5997],[38.1473,-0.8683,790.5289],[38.1533,-0.8685,768.1588],[38.1569,-0.8706,765.7531],[38.1612,-0.8813,779.711],[38.1676,-0.8871,752.6038],[38.1685,-0.8971,760.5263],[38.1701,-0.8999,763.5493],[38.1768,-0.9027,745.6624],[38.187,-0.9122,732.0659],[38.1981,-0.9136,722.5736],[38.2034,-0.9172,712.0443],[38.208,-0.916,708.0016],[38.2114,-0.9197,703.7217],[38.2198,-0.9203,697.3218],[38.2256,-0.9176,693.3397],[38.231,-0.917,689.3805],[38.2325,-0.9132,686.3491],[38.2309,-0.9095,688.8583],[38.2361,-0.9081,684.3049],[38.2378,-0.9026,682.187],[38.2403,-0.9012,680.7402],[38.2402,-0.8979,679.7598],[38.2365,-0.8925,677.7902],[38.2386,-0.8778,671.7548],[38.2409,-0.8742,670.7473],[38.2436,-0.8736,670.5149],[38.2418,-0.8693,668.79],[38.243899999999996,-0.866,668.4442],[38.2408,-0.8613,667.0809],[38.2421,-0.8589,665.2614],[38.2454,-0.8577,665.1119],[38.246,-0.8554,673.4736],[38.2502,-0.8553,670.4004],[38.2531,-0.8534,662.1298],[38.2545,-0.8497,662.1056],[38.2517,-0.8464,663.4657],[38.254,-0.8445,659.0112],[38.2539,-0.8366,667.2883],[38.2565,-0.8325,663.2592],[38.2599,-0.8308,656.0491],[38.2586,-0.8291,656.0797],[38.2616,-0.8256,659.7288],[38.256,-0.819,692.171],[38.2513,-0.816,700.6318],[38.2505,-0.8093,710.8345],[38.2473,-0.8024,714.0252],[38.248,-0.7965,723.0502],[38.2299,-0.7677,725.4161],[38.221,-0.7492,751.4857],[38.2007,-0.7244,830.9762],[38.1896,-0.7066,1006.0971],[38.1735,-0.7128,884.2824],[38.1677,-0.7195,860.7748],[38.1563,-0.7254,906.7544],[38.1524,-0.7316,916.5123],[38.1467,-0.7336,936.4066],[38.1426,-0.7374,961.8426],[38.1358,-0.7394,1019.638],[38.1278,-0.7353,1068.2446],[38.1235,-0.738,1030.1824],[38.1138,-0.7342,1077.825],[38.1035,-0.7342,1041.0614],[38.0993,-0.7304,1039.3558],[38.096,-0.7342,1029.3646],[38.0832,-0.7143,1002.6321],[38.0802,-0.7188,993.7908],[38.0771,-0.7316,974.8474],[38.0753,-0.7335,980.0107],[38.0722,-0.733,975.1976],[38.0662,-0.7402,957.9937],[38.0623,-0.7369,970.9565],[38.0584,-0.7384,953.0895],[38.0523,-0.7351,954.9291],[38.0495,-0.7377,951.656],[38.0497,-0.7412,939.2233],[38.0431,-0.741,937.3306],[38.0363,-0.7437,912.0311],[38.0357,-0.7421,917.3342],[38.031,-0.7412,931.1872],[38.0305,-0.7437,907.3414],[38.0238,-0.7415,901.8416],[38.022,-0.7441,896.9269],[38.0193,-0.742,900.7097],[38.0205,-0.7446,882.0293],[38.0167,-0.7444,907.7574],[38.0171,-0.7456,896.789],[38.0147,-0.7471,876.0155],[38.0132,-0.7452,900.1881],[38.0098,-0.7457,879.2448],[38.0072,-0.743,872.8523],[38.0058,-0.7453,860.387],[38.007,-0.7475,847.2673],[38.0011,-0.7513,828.4727],[38.0005,-0.7485,843.6476],[37.998,-0.7477,846.3654],[37.9953,-0.7517,824.3672],[37.9896,-0.7515,804.3704],[37.9875,-0.7563,795.2579],[37.9899,-0.758,795.9974],[37.9899,-0.7623,800.4627],[37.9929,-0.7628,798.0562],[37.9935,-0.7679,801.3629],[37.996,-0.7677,800.8027],[37.997,-0.7718,809.3567],[38.0005,-0.7742,807.4026],[38.0055,-0.7875,817.0927],[38.0183,-0.7954,840.4231],[38.0201,-0.791,849.5901],[38.0223,-0.7939,847.3893],[38.0244,-0.793,851.4927],[38.023,-0.7967,840.7692],[38.0239,-0.7987,845.0641],[38.0258,-0.7977,843.7341],[38.0268,-0.7993,856.0413],[38.0254,-0.8006,848.8],[38.0265,-0.8033,855.7183],[38.0335,-0.8074,874.5591],[38.0344,-0.8103,876.566],[38.0365,-0.81,884.6768],[38.0379,-0.8116,875.2721],[38.0373,-0.8175,888.3772],[38.0397,-0.817,878.8177],[38.0416,-0.8192,889.5529],[38.0421,-0.8174,895.324],[38.0455,-0.8156,898.2257],[38.0491,-0.8253,894.2518],[38.0535,-0.8248,897.6606],[38.059,-0.8352,911.5776]]]]}}