{"type": "Feature","bbox": [36.8652,-0.7635,37.0086,-0.6949],"geometry": {"type": "MultiPolygon","coordinates": [[[[36.8723,-0.7277,1976.1467],[36.8737,-0.7311,1922.291],[36.8757,-0.7307,1994.1277],[36.8762,-0.734,2012.4707],[36.8799,-0.7374,1960.13],[36.8825,-0.7376,2045.4567],[36.8843,-0.7418,1965.3324],[36.8901,-0.7427,2019.5485],[36.8931,-0.7457,1959.3623],[36.8977,-0.745,2021.67],[36.8999,-0.7483,1960.1906],[36.9126,-0.7481,1963.5712],[36.9154,-0.7522,1933.7659],[36.9198,-0.7522,1882.1101],[36.9214,-0.7505,1916.4915],[36.9226,-0.7516,1880.0856],[36.9306,-0.7521,1864.4536],[36.931,-0.7507,1901.2209],[36.9326,-0.752,1854.9641],[36.9378,-0.7519,1879.9956],[36.9466,-0.7555,1837.6482],[36.9531,-0.7619,1760.7734],[36.957,-0.7613,1766.6012],[36.9626,-0.7635,1814.4429],[36.9641,-0.7633,1814.4429],[36.9645,-0.7458,1726.2228],[36.968,-0.7378,1651.8644],[36.9755,-0.7363,1714.4709],[36.9772,-0.7342,1657.3201],[36.9801,-0.7351,1669.2732],[36.9829,-0.734,1661.106],[36.9885,-0.7383,1706.3798],[36.9942,-0.7388,1637.5913],[36.9986,-0.7411,1670.2773],[37.003,-0.7369,1599.0751],[37.0055,-0.7313,1679.0072],[37.0086,-0.7297,1673.526],[37.001,-0.729,1648.6625],[36.9945,-0.7258,1655.4136],[36.9942,-0.7232,1669.7195],[36.989,-0.7222,1685.2648],[36.9831,-0.7227,1756.7117],[36.9801,-0.725,1691.3805],[36.9711,-0.7242,1692.3716],[36.9651,-0.7256,1653.287],[36.9618,-0.7205,1715.7932],[36.9544,-0.7178,1712.0586],[36.9494,-0.7086,1749.6995],[36.9461,-0.7074,1757.011],[36.9431,-0.7087,1772.1257],[36.941,-0.7073,1791.553],[36.9384,-0.7084,1781.3759],[36.9369,-0.7068,1774.3472],[36.934,-0.7077,1763.3352],[36.9305,-0.7041,1770.165],[36.9264,-0.7044,1838.6957],[36.9263,-0.703,1838.6957],[36.9228,-0.7052,1836.4684],[36.9207,-0.7026,1856.1445],[36.9193,-0.7036,1857.1053],[36.9184,-0.7005,1872.5607],[36.9171,-0.7011,1872.5607],[36.9145,-0.697,1841.9237],[36.9125,-0.6989,1863.1919],[36.9095,-0.6987,1900.1545],[36.906,-0.6953,1955.7572],[36.9044,-0.7001,1904.4536],[36.9008,-0.6993,1922.8248],[36.8966,-0.7008,1943.1903],[36.8882,-0.6949,2027.5381],[36.878,-0.6978,2028.5878],[36.8727,-0.6967,2153.7483],[36.8652,-0.7058,2070.2036],[36.8668,-0.7112,2023.175],[36.869,-0.7134,2031.7041],[36.8673,-0.7155,1993.8599],[36.8693,-0.7191,1964.8635],[36.8688,-0.7212,1948.5999],[36.8697,-0.7207,1981.135],[36.8723,-0.7277,1976.1467]]]]}
,"properties": {"GID_3": "KEN.29.5.4_1","GID_0": "KEN","country": "Kenya","GID_1": "KEN.29_1","province": "Murang'a","NL_NAME_1": "NA","GID_2": "KEN.29.5_1","county": "Kiharu","NL_NAME_2": "NA","city": "Murarandia","VARNAME_3": "NA","NL_NAME_3": "NA","TYPE_3": "Ward","ENGTYPE_3": "Ward","CC_3": "526","HASC_3": "NA","name": "Murarandia.city","area_km2": 59.95501,"hist_schema_id": "Elevation0-9000","hist_area_km2": {"1600": 0.93282,"1625": 2.52286,"1650": 2.37445,"1675": 2.22605,"1700": 2.28965,"1725": 2.22605,"1750": 2.77726,"1775": 3.37088,"1800": 3.75248,"1825": 4.5793,"1850": 4.2401,"1875": 3.73129,"1900": 3.45568,"1925": 3.66769,"1950": 2.84087,"1975": 2.88327,"2000": 2.62886,"2025": 2.73487,"2050": 1.63244,"2075": 1.54764,"2100": 1.54764,"2125": 0.99643,"2150": 0.59362,"2175": 0.29681,"2200": 0.0848,"2225": 0.0212}}}