{"type":"Feature","properties":{"GID_3":"KEN.46.5.6_1","GID_0":"KEN","country":"Kenya","GID_1":"KEN.46_1","province":"Wajir","NL_NAME_1":"NA","GID_2":"KEN.46.5_1","county":"WajirSouth","NL_NAME_2":"NA","city":"IbrahimUre","VARNAME_3":"NA","NL_NAME_3":"NA","TYPE_3":"Ward","ENGTYPE_3":"Ward","CC_3":"189","HASC_3":"NA","name":"Ibrahim_Ure.city"},
"geometry":{"type": "MultiPolygon","coordinates": [[[[40.1233,1.7427,256.3323],[40.1239,1.7367,255.0951],[40.1177,1.7205,252.4361],[40.0781,1.6873,247.5043],[40.0839,1.6599,242.8896],[40.0901,1.6493,239.4554],[40.1069,1.6419,235.9289],[40.1191,1.6287,232.1707],[40.1243,1.6041,225.6929],[40.1931,1.3529,193.7767],[40.1741,1.3297,196.2166],[40.2743,1.1107,171.0905],[40.2779,1.1111,171.5869],[40.2853,1.1083,170.5736],[40.2963,1.1105,169.1469],[40.3019,1.1133,168.9101],[40.2777,1.3347,184.303],[40.2731,1.3445,185.034],[40.2737,1.3497,184.9229],[40.2717,1.3541,185.0974],[40.2735,1.3689,184.1018],[40.2671,1.3791,184.7046],[40.2637,1.3815,184.8028],[40.2607,1.3913,184.4724],[40.2513,1.3995,185.3203],[40.2507,1.4103,188.2941],[40.2549,1.4197,186.3028],[40.2557,1.4275,187.4587],[40.2555,1.4573,193.3345],[40.2515,1.4759,196.2005],[40.2463,1.4887,198.794],[40.2453,1.5011,199.617],[40.2391,1.5157,201.701],[40.2447,1.5225,202.4716],[40.2579,1.5335,203.3116],[40.2597,1.5375,204.5098],[40.2717,1.5917,217.5199],[40.2747,1.5991,217.4162],[40.2937,1.6179,217.474],[40.3101,1.6287,212.7836],[40.3397,1.6331,216.3942],[40.355,1.642,218.653],[40.3571,1.6403,216.7122],[40.3581,1.6303,214.8492],[40.3631,1.6141,210.724],[40.3739,1.5969,204.4109],[40.3857,1.5915,202.4242],[40.4047,1.5925,200.4424],[40.4165,1.5965,199.4562],[40.4269,1.6021,199.2239],[40.4343,1.5953,196.9054],[40.4533,1.5841,190.3324],[40.4611,1.5769,187.3808],[40.4775,1.5665,190.4464],[40.4799,1.5635,188.6428],[40.4837,1.5521,184.0781],[40.4907,1.5621,186.6243],[40.4937,1.5717,187.9378],[40.5029,1.5813,190.8465],[40.5307,1.5867,192.9529],[40.5451,1.5863,192.6855],[40.6167,1.5661,183.5267],[40.6303,1.5639,175.7075],[40.6423,1.5563,176.5927],[40.6529,1.5527,180.0688],[40.6689,1.5417,179.7764],[40.6727,1.5367,179.1339],[40.6765,1.5221,177.1956],[40.6859,1.5133,175.5397],[40.6913,1.5019,173.9577],[40.7015,1.4881,172.0362],[40.7039,1.4715,169.544],[40.7095,1.4717,169.6317],[40.7163,1.4755,169.3983],[40.7233,1.4839,169.9789],[40.7403,1.4845,167.4102],[40.7473,1.4871,166.1105],[40.7531,1.4917,163.7274],[40.7605,1.5029,165.9817],[40.7673,1.5073,168.2917],[40.7817,1.5029,165.6945],[40.7869,1.4961,164.5536],[40.7881,1.4911,163.4516],[40.7901,1.4651,159.0867],[40.7873,1.4529,156.9259],[40.7869,1.4403,155.0214],[40.7823,1.4227,151.6879],[40.7817,1.4151,150.7126],[40.7847,1.4035,149.8242],[40.8093,1.4119,154.5081],[40.8459,1.4151,153.5734],[40.8891,1.4127,149.4182],[40.9276,1.4053,145.3368],[40.9327,1.4127,146.3379],[40.9417,1.4419,150.3022],[40.9393,1.4561,153.0598],[40.9399,1.4671,155.2162],[40.9543,1.4875,157.2222],[40.9643,1.5759,164.5295],[40.9623,1.5949,166.9824],[40.9583,1.6031,168.4193],[40.9565,1.6157,172.1578],[40.9485,1.6357,173.0738],[40.9485,1.6427,173.7597],[40.9469,1.6459,174.1364],[40.9489,1.6557,179.1148],[40.9429,1.6677,180.2258],[40.9423,1.6843,183.1279],[40.9401,1.6919,180.2571],[40.9381,1.6931,180.4308],[40.5803,1.7405,213.2828],[40.5033,1.7181,217.4832],[40.4959,1.7185,217.9477],[40.4835,1.7159,219.3128],[40.3817,1.7253,229.3522],[40.2761,1.7325,250.2825],[40.2265,1.7343,251.5865],[40.1233,1.7427,256.3323]]]]}}