{"type":"Feature","properties":{"GID_3":"KEN.2.1.4_1","GID_0":"KEN","country":"Kenya","GID_1":"KEN.2_1","province":"Bomet","NL_NAME_1":"NA","GID_2":"KEN.2.1_1","county":"BometCentral","NL_NAME_2":"NA","city":"SilibwetTownship","VARNAME_3":"NA","NL_NAME_3":"NA","TYPE_3":"Ward","ENGTYPE_3":"Ward","CC_3":"981","HASC_3":"NA","name":"Silibwet_Township.city"},
"geometry":{"type": "MultiPolygon","coordinates": [[[[35.3102,-0.7509,1955.3464],[35.3291,-0.7701,1948.1219],[35.3318,-0.7705,1965.6832],[35.3359,-0.7668,1962.4811],[35.3409,-0.7568,1979.1801],[35.3409,-0.7432,2006.9718],[35.3617,-0.7451,1982.4001],[35.3613,-0.7536,1942.8469],[35.364,-0.7534,1949.4211],[35.3623,-0.7604,1920.0725],[35.3659,-0.7569,1951.4008],[35.3719,-0.7588,1979.6689],[35.3791,-0.7695,1987.8658],[35.3881,-0.7709,2086.3086],[35.3908,-0.7669,2148.738],[35.394,-0.7655,2145.2004],[35.3989,-0.7699,2204.8105],[35.3947,-0.7611,2085.0911],[35.3922,-0.7623,2108.9971],[35.3856,-0.7589,2137.9299],[35.3846,-0.7515,2156.4265],[35.3812,-0.7495,2110.9297],[35.3832,-0.7492,2082.6567],[35.3822,-0.7484,2082.6567],[35.3859,-0.7444,2136.998],[35.385,-0.749,2161.699],[35.3917,-0.7504,2067.2903],[35.3933,-0.7465,2070.7861],[35.3905,-0.7398,2043.8768],[35.3891,-0.7395,2005.2576],[35.3898,-0.7372,2013.1104],[35.3877,-0.7346,2007.803],[35.3867,-0.7279,2036.5496],[35.3843,-0.7253,2009.3433],[35.3818,-0.7255,2001.4954],[35.3819,-0.7233,2052.5493],[35.3777,-0.7241,2071.6211],[35.3762,-0.7219,2098.8647],[35.3741,-0.7226,2051.6104],[35.3736,-0.7209,2090.8621],[35.3709,-0.72,2074.1523],[35.3693,-0.7225,2055.4614],[35.368,-0.7207,2060.3831],[35.3681,-0.7242,2057.9907],[35.3658,-0.7232,2029.3096],[35.3658,-0.7258,2037.3804],[35.362,-0.7284,1980.5571],[35.3596,-0.7263,2012.8536],[35.361,-0.7248,2019.62],[35.3601,-0.7237,1996.321],[35.362,-0.7229,1982.5695],[35.3622,-0.7181,1994.7091],[35.3594,-0.7148,2048.5295],[35.3522,-0.7113,2050.5029],[35.3497,-0.7113,2058.5327],[35.3484,-0.7131,2094.1289],[35.3462,-0.7205,2098.9658],[35.3327,-0.7208,2056.9028],[35.3199,-0.7261,2016.3524],[35.3178,-0.7287,1979.965],[35.3109,-0.7288,2011.4271],[35.2977,-0.7356,1950.4241],[35.3112,-0.7499,1955.3464],[35.3102,-0.7509,1955.3464]]]]}}