{"type":"Feature","properties":{"GID_3":"KEN.32.5.4_1","GID_0":"KEN","country":"Kenya","GID_1":"KEN.32_1","province":"Nandi","NL_NAME_1":"NA","GID_2":"KEN.32.5_1","county":"NandiHills","NL_NAME_2":"NA","city":"Ol'Lessos","VARNAME_3":"NA","NL_NAME_3":"NA","TYPE_3":"Ward","ENGTYPE_3":"Ward","CC_3":"763","HASC_3":"NA","name":"Ol'Lessos.city"},
"geometry":{"type": "MultiPolygon","coordinates": [[[[35.2472,0.2103,2092.1331],[35.2542,0.2051,2097.3792],[35.2596,0.1956,2089.207],[35.2679,0.1868,2082.4031],[35.2569,0.1768,1986.2683],[35.2726,0.1618,1998.2012],[35.3212,0.1383,2167.4983],[35.3273,0.1477,2228.5259],[35.3311,0.1464,2219.2747],[35.3358,0.1479,2273.488],[35.3359,0.1637,2216.8914],[35.3423,0.1756,2172.0344],[35.3407,0.1988,2270.6145],[35.3461,0.1976,2296.4858],[35.3471,0.1987,2285.8005],[35.3531,0.1954,2347.9126],[35.362,0.1953,2354.4482],[35.366,0.1918,2382.3188],[35.3661,0.2002,2348.3677],[35.3579,0.2107,2279.4255],[35.3571,0.2155,2276.2671],[35.3422,0.2067,2231.4092],[35.3342,0.2165,2191.0083],[35.3315,0.2224,2184.6152],[35.3243,0.2283,2172.3206],[35.3218,0.2292,2152.4338],[35.3122,0.2189,2167.7598],[35.3068,0.224,2151.5],[35.2988,0.2259,2134.418],[35.289,0.2343,2122.1064],[35.2871,0.2232,2141.6838],[35.2749,0.2156,2107.3706],[35.2734,0.2122,2097.5591],[35.2592,0.2127,2097.0608],[35.2472,0.2103,2092.1331]]]]}}