{"type": "Feature","bbox": [36.8315,-1.2779,36.8458,-1.2618],"geometry": {"type": "MultiPolygon","coordinates": [[[[36.8458,-1.2778,1651.2251],[36.8421,-1.262,1645.1676],[36.8369,-1.2618,1645.895],[36.8315,-1.267,1665.071],[36.8358,-1.2681,1662.7384],[36.8337,-1.2742,1661.4148],[36.8423,-1.2779,1653.7528],[36.8458,-1.2778,1651.2251]]]]}
,"properties": {"GID_3": "KEN.30.16.5_1","GID_0": "KEN","country": "Kenya","GID_1": "KEN.30_1","province": "Nairobi","NL_NAME_1": "NA","GID_2": "KEN.30.16_1","county": "Starehe","NL_NAME_2": "NA","city": "Pangani","VARNAME_3": "NA","NL_NAME_3": "NA","TYPE_3": "Ward","ENGTYPE_3": "Ward","CC_3": "1441","HASC_3": "NA","name": "Pangani.city","area_km2": 1.738154,"hist_schema_id": "Elevation0-9000","hist_area_km2": {"1625": 0.063591,"1650": 1.674563}}}