{"type":"Feature","properties":{"GID_3":"KEN.7.6.5_1","GID_0":"KEN","country":"Kenya","GID_1":"KEN.7_1","province":"Garissa","NL_NAME_1":"NA","GID_2":"KEN.7.6_1","county":"Lagdera","NL_NAME_2":"NA","city":"Modogashe","VARNAME_3":"NA","NL_NAME_3":"NA","TYPE_3":"Ward","ENGTYPE_3":"Ward","CC_3":"140","HASC_3":"NA","name":"Modogashe.city"},
"geometry":{"type": "MultiPolygon","coordinates": [[[[38.9977,0.5143,341.0132],[38.9995,0.5133,340.5693],[39.0033,0.5161,340.6511],[39.0137,0.5177,339.8074],[39.0293,0.5143,331.3271],[39.0389,0.5173,328.9939],[39.0449,0.5173,325.051],[39.0509,0.5203,323.084],[39.0637,0.5229,319.4681],[39.0673,0.5261,317.2568],[39.0727,0.5279,315.9937],[39.0747,0.5327,315.8364],[39.0829,0.5337,312.2564],[39.0861,0.5375,310.2164],[39.0915,0.5391,310.6737],[39.0981,0.5351,307.0304],[39.1109,0.5333,304.6221],[39.1213,0.5281,299.9667],[39.1383,0.5351,297.9362],[39.1385,0.5389,294.9079],[39.1539,0.5533,288.3723],[39.1567,0.5541,287.2697],[39.1811,0.5463,278.54],[39.1947,0.5475,275.9685],[39.1999,0.5459,274.545],[39.2047,0.5471,273.4579],[39.2103,0.5419,271.9586],[39.2159,0.5425,270.3626],[39.2225,0.5353,268.0815],[39.2273,0.5355,265.9799],[39.2345,0.5445,262.3054],[39.2407,0.5427,261.3787],[39.2497,0.5483,259.0398],[39.2575,0.5453,256.5871],[39.2715,0.5437,253.8111],[39.2865,0.5537,247.0431],[39.2979,0.5523,243.8861],[39.3125,0.5583,238.6013],[39.3141,0.5661,238.7229],[39.3181,0.5715,236.4416],[39.3311,0.5729,231.7949],[39.3453,0.5791,226.5929],[39.3507,0.5831,225.2604],[39.3593,0.5833,223.0164],[39.3639,0.5813,221.1337],[39.3713,0.5843,219.1964],[39.3779,0.5821,217.5674],[39.3929,0.5811,212.5072],[39.3999,0.5849,210.3302],[39.4095,0.5831,207.7743],[39.4121,0.5839,207.2511],[39.4145,0.5883,204.603],[39.4311,0.5967,198.9656],[39.4377,0.6045,195.0107],[39.4499,0.6133,191.0489],[39.4517,0.6153,190.512],[39.4531,0.6235,188.9863],[39.4459,0.6325,191.4724],[39.4275,0.6401,195.5114],[39.4145,0.6397,198.9186],[39.3975,0.6509,203.4039],[39.3753,0.6589,208.3762],[39.3577,0.6601,212.1131],[39.3355,0.6525,217.8137],[39.3267,0.6551,218.9174],[39.3147,0.6607,221.986],[39.3073,0.6677,224.5266],[39.2879,0.6747,229.3409],[39.2729,0.6849,233.6042],[39.2637,0.6887,235.7245],[39.2545,0.7033,239.4818],[39.2521,0.7047,240.1964],[39.2439,0.7049,241.5392],[39.2367,0.7091,243.3957],[39.2313,0.7103,244.9633],[39.2259,0.7165,247.2426],[39.2165,0.7219,248.6898],[39.2123,0.7217,250.6379],[39.2067,0.7175,253.2602],[39.1961,0.7145,257.1971],[39.1893,0.7141,259.2475],[39.1855,0.7147,262.856],[39.1779,0.7257,267.6167],[39.1741,0.7201,271.7933],[39.1673,0.7187,269.6644],[39.1643,0.7143,273.6708],[39.1475,0.7055,270.3701],[39.1435,0.6979,275.2958],[39.1423,0.6913,287.4435],[39.1353,0.6909,274.4815],[39.1311,0.6883,275.9388],[39.1143,0.6913,279.7678],[39.1025,0.6895,281.8701],[39.0985,0.6867,283.0216],[39.0981,0.6811,283.051],[39.0895,0.6809,285.3832],[39.0839,0.6769,288.7395],[39.0783,0.6791,288.9533],[39.0723,0.6787,288.4739],[39.0669,0.6829,290.2513],[39.0619,0.6831,292.2087],[39.0581,0.6857,291.2682],[39.0549,0.6863,293.6155],[39.0489,0.6837,294.4881],[39.0461,0.6775,297.9746],[39.0377,0.6729,298.063],[39.0351,0.6671,299.6536],[39.0319,0.6653,301.3995],[39.0275,0.6653,300.6875],[39.0257,0.6631,300.9971],[39.0227,0.6559,301.924],[39.0239,0.6467,307.6625],[39.0209,0.6415,307.3306],[39.0145,0.6415,307.2634],[39.0127,0.6389,306.9644],[39.0123,0.6281,319.2375],[39.0103,0.6253,322.5645],[38.9861,0.6263,315.2009],[38.9803,0.6229,316.0901],[38.9757,0.6227,319.9932],[38.9615,0.6247,321.783],[38.9517,0.6285,322.5304],[38.9457,0.6267,323.9609],[38.9403,0.6285,324.4035],[38.9357,0.6251,326.4215],[38.9255,0.6069,331.9902],[38.9107,0.5997,336.7538],[38.9081,0.6003,337.4583],[38.9013,0.5973,338.9706],[38.8943,0.5981,340.9479],[38.8917,0.5961,341.5636],[38.8861,0.5973,344.006],[38.8759,0.5957,347.5841],[38.8719,0.6007,347.5701],[38.8607,0.6005,350.3074],[38.8387,0.5871,357.8043],[38.8319,0.5859,360.6061],[38.8247,0.5811,365.1253],[38.8161,0.5717,365.9625],[38.8055,0.5527,371.4511],[38.8955,0.4865,393.5214],[38.8983,0.4859,392.9743],[38.9053,0.4865,386.7784],[38.9109,0.4901,381.6385],[38.9168,0.4969,380.3648],[38.9323,0.5035,374.6589],[38.9367,0.5019,370.0629],[38.9485,0.5025,364.9125],[38.9555,0.5037,361.0586],[38.9607,0.5077,360.1946],[38.9736,0.5093,353.9401],[38.9871,0.5157,347.9219],[38.9939,0.5161,345.5786],[38.9977,0.5143,341.0132]]]]}}