{"type": "Feature","bbox": [37.2727,-1.4284,37.4241,-1.2574],"geometry": {"type": "MultiPolygon","coordinates": [[[[37.4241,-1.3426,1484.238],[37.4206,-1.3317,1508.999],[37.4196,-1.3224,1462.4392],[37.412,-1.3139,1598.2157],[37.4055,-1.299,1516.9594],[37.3998,-1.2955,1588.7904],[37.3989,-1.2872,1391.6401],[37.3917,-1.2774,1438.0216],[37.3935,-1.2717,1415.3315],[37.3923,-1.2684,1321.8635],[37.3853,-1.2701,1458.8964],[37.3788,-1.2651,1566.0402],[37.3738,-1.266,1729.4836],[37.3704,-1.2648,1722.29],[37.3648,-1.2585,1640.8148],[37.3601,-1.2588,1588.0155],[37.3582,-1.2574,1625.6006],[37.3553,-1.2581,1601.2231],[37.3483,-1.2646,1545.0504],[37.3498,-1.2685,1556.4514],[37.3473,-1.2695,1551.2794],[37.3451,-1.2733,1551.6271],[37.3371,-1.2713,1556.5162],[37.3372,-1.275,1554.3827],[37.3345,-1.2743,1545.3184],[37.3315,-1.2782,1534.1156],[37.3282,-1.276,1535.0537],[37.3279,-1.2806,1532.5035],[37.3268,-1.2822,1526.0165],[37.3248,-1.2821,1518.1338],[37.3267,-1.2882,1527.4666],[37.3251,-1.2912,1538.9832],[37.3263,-1.2932,1539.7837],[37.323,-1.2998,1548.3044],[37.3263,-1.3025,1557.3873],[37.3173,-1.3067,1529.989],[37.3084,-1.3055,1509.8628],[37.3034,-1.3064,1499.9989],[37.2956,-1.3112,1495.6083],[37.286,-1.3253,1482.8914],[37.2793,-1.3252,1462.9143],[37.2727,-1.3304,1447.015],[37.2769,-1.3295,1446.214],[37.2794,-1.3319,1447.7206],[37.28,-1.3356,1435.4768],[37.2831,-1.3371,1437.1995],[37.2833,-1.34,1429.8068],[37.2917,-1.3423,1455.134],[37.2963,-1.3533,1405.5459],[37.3013,-1.3567,1399.5968],[37.3007,-1.3592,1406.0225],[37.3034,-1.3578,1402.0312],[37.3055,-1.3605,1404.686],[37.3038,-1.363,1390.246],[37.3067,-1.3649,1397.5272],[37.3086,-1.3636,1423.9371],[37.3077,-1.3678,1390.9265],[37.3088,-1.3694,1385.5664],[37.311,-1.369,1402.4523],[37.3102,-1.3707,1388.0088],[37.3161,-1.376,1394.5896],[37.3162,-1.3772,1401.7096],[37.3138,-1.3776,1401.0721],[37.3158,-1.3796,1376.0818],[37.3194,-1.3792,1390.0544],[37.3183,-1.382,1372.2908],[37.3209,-1.3839,1400.8373],[37.3194,-1.3861,1406.3577],[37.3219,-1.3878,1377.7687],[37.3222,-1.3857,1382.2609],[37.3241,-1.3847,1395.1406],[37.3324,-1.3917,1361.4999],[37.3346,-1.3963,1362.9757],[37.333,-1.403,1349.964],[37.3351,-1.4032,1353.674],[37.3362,-1.4065,1351.0872],[37.34,-1.4075,1372.4829],[37.3398,-1.4108,1344.8268],[37.3431,-1.4089,1379.6941],[37.3409,-1.4138,1344.8062],[37.3448,-1.4217,1342.4653],[37.3477,-1.4241,1346.6841],[37.3548,-1.4255,1340.1956],[37.3569,-1.4284,1336.1323],[37.3578,-1.4237,1366.8958],[37.3603,-1.4211,1410.5404],[37.3609,-1.4143,1435.65],[37.3651,-1.414,1500.0789],[37.3651,-1.4096,1514.4224],[37.3714,-1.4102,1412.954],[37.375,-1.4083,1351.3359],[37.3771,-1.4106,1354.512],[37.3793,-1.4056,1380.2021],[37.3839,-1.4014,1390.9329],[37.3914,-1.4014,1449.2502],[37.3937,-1.3989,1450.2969],[37.4036,-1.4001999999999999,1588.7958],[37.4052,-1.4051,1574.9331],[37.4077,-1.4054,1544.3573],[37.4063,-1.4008,1579.3307],[37.4075,-1.3924,1452.0891],[37.4046,-1.3878,1568.0242],[37.4067,-1.3857,1445.4901],[37.4037,-1.3829,1483.4865],[37.4059,-1.3816,1530.3835],[37.4075,-1.3776,1442.2314],[37.4037,-1.3738,1384.1418],[37.4039,-1.3711,1355.7615],[37.4076,-1.3655,1326.2692],[37.4104,-1.3647,1307.6594],[37.4082,-1.3608,1346.1697],[37.4102,-1.3545,1376.3567],[37.4169,-1.3525,1322.4321],[37.4181,-1.3493,1348.9778],[37.4238,-1.3462,1483.0254],[37.4241,-1.3426,1484.238]]]]}
,"properties": {"GID_2": "KEN.22.1_1","GID_0": "KEN","country": "Kenya","GID_1": "KEN.22_1","province": "Machakos","NL_NAME_1": "NA","county": "Kangundo","VARNAME_2": "NA","NL_NAME_2": "NA","TYPE_2": "Constituency","ENGTYPE_2": "Constituency","CC_2": "77","HASC_2": "NA","name": "Kangundo.county","area_km2": 171.6697,"hist_schema_id": "Elevation0-9000","hist_area_km2": {"1300": 0.106,"1325": 1.293,"1350": 3.8365,"1375": 7.355,"1400": 11.4247,"1425": 16.1302,"1450": 18.5043,"1475": 18.7588,"1500": 12.845,"1525": 12.6119,"1550": 14.8377,"1575": 12.6756,"1600": 11.0223,"1625": 8.3303,"1650": 5.9139,"1675": 4.4089,"1700": 3.5398,"1725": 2.6496,"1750": 2.374,"1775": 1.5898,"1800": 0.7419,"1825": 0.5723,"1850": 0.1272,"1875": 0.0212}}}