{"type": "Feature","bbox": [35.459,2.2849,35.874,3.055],"geometry": {"type": "MultiPolygon","coordinates": [[[[35.4685,2.5772,810.61],[35.5177,2.5597,819.9925],[35.5283,2.5494,821.3418],[35.5316,2.5434,826.3532],[35.5345,2.5359,826.0439],[35.5378,2.4998,817.3806],[35.5403,2.4897,819.2949],[35.5445,2.4816,836.4846],[35.5556,2.4669,848.2292],[35.5683,2.4558,852.201],[35.5714,2.451,848.8355],[35.554,2.4276,804.606],[35.5515,2.4159,794.0789],[35.5512,2.3908,785.8862],[35.5549,2.3834,785.6121],[35.5781,2.3607,799.6327],[35.6048,2.2988,1029.067],[35.6122,2.2849,886.9642],[35.6192,2.2912,860.2598],[35.6258,2.2947,839.8727],[35.6425,2.2976,811.3866],[35.6509,2.3034,797.2628],[35.66,2.3071,778.1888],[35.6767,2.3056,760.2104],[35.6845,2.3072,746.947],[35.6936,2.3113,734.2428],[35.7034,2.319,718.334],[35.7198,2.3257,697.2008],[35.729,2.3274,688.0081],[35.7426,2.3261,673.2006],[35.7565,2.3356,663.981],[35.7648,2.337,659.3011],[35.7727,2.3351,654.0597],[35.7864,2.3398,645.9959],[35.7915,2.3444,642.659],[35.7967,2.3447,639.8173],[35.8037,2.3426,636.9275],[35.8101,2.3436,632.7198],[35.8173,2.3402,630.7827],[35.8203,2.3329,631.4168],[35.8237,2.3364,629.0378],[35.8262,2.3483,637.8126],[35.8286,2.3785,649.6855],[35.8321,2.3915,645.2595],[35.8377,2.3996,642.2617],[35.8398,2.4065,637.3954],[35.8343,2.4218,629.1019],[35.8301,2.4437,622.6747],[35.8315,2.4532,618.4645],[35.8276,2.4712,612.9906],[35.8282,2.4852,608.5406],[35.8304,2.493,605.1896],[35.8269,2.4998,602.809],[35.8329,2.5074,599.5756],[35.8318,2.5149,598.32],[35.8353,2.5275,592.5054],[35.834,2.5434,588.4022],[35.8352,2.5509,586.15],[35.8376,2.5544,584.6052],[35.8363,2.5691,578.7605],[35.8296,2.5768,578.6913],[35.8318,2.5908,571.9923],[35.8271,2.5984,569.5431],[35.8299,2.6075,565.662],[35.8279,2.623,565.3384],[35.8324,2.6334,562.2051],[35.8382,2.637,557.9036],[35.8406,2.6404,554.7935],[35.8461,2.6594,548.9223],[35.8574,2.6854,537.3762],[35.8612,2.714,524.589],[35.862,2.7374,518.8907],[35.8694,2.7478,512.9825],[35.8716,2.7601,508.2294],[35.8722,2.7769,502.38869999999997],[35.8704,2.7962,497.0536],[35.874,2.8115,490.1326],[35.8725,2.8151,551.163],[35.8702,2.8101,491.2188],[35.8657,2.8062,495.9001],[35.8376,2.8017,511.0829],[35.833,2.8044,511.6182],[35.8293,2.8095,512.0316],[35.8117,2.8445,501.9077],[35.8055,2.8586,497.7542],[35.8028,2.8692,494.7646],[35.7932,2.8881,488.8587],[35.791,2.9037,484.8699],[35.7924,2.9147,484.5135],[35.7959,2.9201,486.2434],[35.7909,2.9202,487.4961],[35.7826,2.9174,486.4362],[35.7655,2.9296,487.6858],[35.7555,2.9631,486.9468],[35.7482,2.9792,485.119],[35.7403,2.9882,483.9976],[35.7371,3.0049,482.8704],[35.7395,3.014,481.8805],[35.738,3.0287,481.0371],[35.7302,3.0392,478.9646],[35.7279,3.055,477.731],[35.7261,3.0547,477.7423],[35.7251,3.051,478.3701],[35.7217,3.0484,479.4991],[35.715,3.0478,480.9692],[35.7073,3.0431,485.9148],[35.695,3.046,492.186],[35.6827,3.0455,490.7779],[35.6662,3.0392,499.0185],[35.6621,3.0302,501.6613],[35.6588,3.0167,509.4203],[35.647,2.9939,528.4183],[35.6456,2.9831,533.8318],[35.6411,2.9746,540.4012],[35.6246,2.9608,554.0369],[35.6211,2.9491,561.0327],[35.6141,2.9396,573.0067],[35.5947,2.9289,582.6556],[35.5864,2.9161,591.2462],[35.5855,2.9139,594.2016],[35.587,2.9058,593.2432],[35.5841,2.8974,599.4077],[35.5656,2.8745,627.0825],[35.5575,2.8549,640.6895],[35.5559,2.8472,645.5317],[35.5504,2.8424,651.7896],[35.5466,2.8359,656.6042],[35.5459,2.8278,664.2185],[35.5404,2.8183,672.0622],[35.5387,2.8055,681.4845],[35.535,2.8043,682.404],[35.5297,2.8054,685.7796],[35.5015,2.8208,685.347],[35.4809,2.8274,689.8737],[35.4726,2.829,701.7032],[35.4679,2.825,793.8035],[35.4599,2.7856,673.5665],[35.459,2.7592,669.9543],[35.4649,2.7089,763.2143],[35.472,2.681,786.7927],[35.4789,2.6666,725.4],[35.4784,2.6548,737.5677],[35.4798,2.6442,746.5189],[35.4739,2.6328,764.1889],[35.4731,2.6246,768.3201],[35.4696,2.6165,777.7938],[35.4712,2.6079,781.649],[35.4668,2.5939,794.4061],[35.4685,2.5772,810.61]]]]}
,"properties": {"GID_3": "KEN.43.5.5_1","GID_0": "KEN","country": "Kenya","GID_1": "KEN.43_1","province": "Turkana","NL_NAME_1": "NA","GID_2": "KEN.43.5_1","county": "TurkanaSouth","NL_NAME_2": "NA","city": "Lokichar","VARNAME_3": "NA","NL_NAME_3": "NA","TYPE_3": "Ward","ENGTYPE_3": "Ward","CC_3": "637","HASC_3": "NA","name": "Lokichar.city","area_km2": 2504.953,"hist_schema_id": "Elevation0-9000","hist_area_km2": {"475": 27.61,"500": 175.814,"525": 162.464,"550": 144.829,"575": 150.193,"600": 168.541,"625": 191.636,"650": 215.644,"675": 179.993,"700": 169.547,"725": 164.126,"750": 154.788,"775": 143.777,"800": 156.978,"825": 136.96,"850": 67.886,"875": 29.653,"900": 20.1,"925": 13.195,"950": 10.018,"975": 6.036,"1000": 4.617,"1025": 3.579,"1050": 2.775,"1075": 2.542,"1100": 0.89,"1125": 0.36,"1150": 0.275,"1175": 0.064,"1200": 0.064}}}