{"type":"Feature","properties":{"GID_1":"KEN.42_1","GID_0":"KEN","country":"Kenya","province":"TransNzoia","VARNAME_1":"NA","NL_NAME_1":"NA","TYPE_1":"County","ENGTYPE_1":"County","CC_1":"26","HASC_1":"KE.TN","ISO_1":"KE-42","name":"Trans_Nzoia.province"},
"geometry":{"type": "MultiPolygon","coordinates": [[[[35.1133,0.8873,1800.4935],[35.1178,0.8913,1786.8262],[35.1153,0.893,1787.4],[35.1155,0.8958,1788.0115],[35.1133,0.8974,1790.1311],[35.1148,0.903,1794.3401],[35.1174,0.9045,1791.7998],[35.1163,0.9125,1811.895],[35.1209,0.9149,1816.3772],[35.1204,0.9173,1828.7698],[35.1233,0.9167,1822.5187],[35.1237,0.9181,1832.3481],[35.1273,0.9187,1807.7312],[35.1282,0.9255,1827.9163],[35.1342,0.9244,1809.8278],[35.1406,0.9264,1816.5334],[35.144,0.9235,1823.6477],[35.1526,0.9248,1838.5118],[35.1551,0.9234,1833.7043],[35.1571,0.9254,1849.6063],[35.1633,0.9261,1843.782],[35.1665,0.9283,1843.9238],[35.1726,0.9253,1835.6348],[35.1791,0.9282,1848.7754],[35.1813,0.9272,1846.3826],[35.1832,0.9297,1852.0598],[35.1876,0.9297,1853.2292],[35.1904,0.9314,1854.6472],[35.1964,0.9305,1860.7048],[35.1984,0.928,1849.1744],[35.2075,0.9285,1858.1676],[35.2106,0.9266,1857.4885],[35.2158,0.9271,1850.2737],[35.219,0.925,1847.5444],[35.2224,0.9251,1858.9102],[35.2291,0.9275,1870.0481],[35.234,0.9322,1852.5496],[35.2355,0.9358,1850.4918],[35.2443,0.9386,1856.473],[35.2465,0.9438,1870.0702],[35.2525,0.9463,1876.5084],[35.2584,0.943,1863.2712],[35.2604,0.9435,1867.8027],[35.2613,0.9412,1872.7844],[35.2704,0.941,1881.4691],[35.2725,0.9347,1867.8494],[35.2779,0.9291,1876.9697],[35.2784,0.9266,1868.8745],[35.2849,0.9256,1884.0121],[35.2936,0.9195,1886.1511],[35.2922,0.9182,1880.3723],[35.2941,0.9158,1884.8125],[35.2941,0.9127,1873.9592],[35.2957,0.9128,1887.2185],[35.2957,0.9087,1876.6863],[35.2987,0.9038,1883.1453],[35.303,0.903,1891.7661],[35.303,0.8984,1885.6375],[35.3054,0.8959,1893.2849],[35.3297,0.9389,2185.4685],[35.3341,0.934,2084.8896],[35.3489,0.9263,1988.8624],[35.3593,0.95,2078.8076],[35.3438,0.953,2071.2703],[35.3403,0.9684,2086.8772],[35.3463,0.9718,2076.8667],[35.3373,0.9734,2104.356],[35.3396,0.9787,2138.5371],[35.3523,0.9848,2106.8477],[35.3423,1.0097,2287.4888],[35.3618,1.0139,2400.8792],[35.362,1.0247,2344.1821],[35.3131,1.0419,2256.3245],[35.271,1.0677,2162.75],[35.2421,1.0792,2129.5281],[35.2177,1.1209,2248.7856],[35.2021,1.1222,2273.3391],[35.1782,1.1602,2190.6787],[35.1607,1.1845,2276.5193],[35.1517,1.2045,2217.6162],[35.1254,1.1887,1911.3536],[35.1198,1.193,1923.3738],[35.088,1.1877,1958.4401],[35.0845,1.173,1903.6971],[35.08,1.1784,1899.7605],[35.0739,1.1826,1908.3657],[35.0615,1.1858,1919.1012],[35.0468,1.1992,1898.1112],[35.0426,1.2002,1917.3303],[35.036,1.2092,1917.2914],[35.0436,1.2204,1910.8113],[35.0256,1.2379,1930.085],[35.0126,1.2599,1899.5896],[34.9939,1.2632,1802.8666],[34.9792,1.2567,1575.3773],[34.9819,1.254,1652.3552],[34.97,1.2485,1845.6765],[34.939,1.2536,1795.4539],[34.9051,1.2524,1844.5537],[34.9067,1.2838,1765.2751],[34.8196,1.2622,1786.0229],[34.8177,1.2558,1789.7632],[34.8184,1.2507,1777.7205],[34.8133,1.2485,1827.5741],[34.8106,1.2429,1827.8025],[34.8114,1.2409,1837.2295],[34.8052,1.2307,1879.3416],[34.7952,1.2232,1918.7365],[34.7865,1.2229,1942.9465],[34.7825,1.225,2001.5909],[34.7787,1.2223,1982.6835],[34.7752,1.2238,2001.2228],[34.7693,1.2195,1985.7563],[34.7572,1.2228,2025.1436],[34.75,1.2198,2040.7703],[34.7426,1.221,2052.6504],[34.7398,1.2193,2069.6479],[34.7204,1.2179,2153.2441],[34.7104,1.2152,2154.6611],[34.7007,1.216,2258.5083],[34.6955,1.2134,2248.4194],[34.6695,1.2082,2472.4189],[34.6634,1.1924,2610.2981],[34.6569,1.188,2715.4128],[34.655,1.1839,2772.3237],[34.6488,1.1792,2844.491],[34.6405,1.1759,3020.2659],[34.636,1.1718,3012.5027],[34.6206,1.1677,3041.4358],[34.6094,1.1583,3422.9492],[34.5818,1.1512,3690.1084],[34.6089,1.1159,3913.6147],[34.6161,1.1091,3866.1062],[34.6321,1.0973,3490.551],[34.6414,1.0947,3322.5396],[34.6521,1.0884,3181.3821],[34.6616,1.0876,3142.2302],[34.6508,1.0606,3093.4302],[34.6562,1.0568,3081.1782],[34.7392,0.9441,2470.8608],[34.7679,0.9268,2240.5139],[34.7772,0.9303,2227.3335],[34.7851,0.9301,2185.6477],[34.7976,0.9198,2125.1694],[34.8007,0.9105,2065.3447],[34.799,0.9077,2071.7715],[34.7935,0.9061,2066.5037],[34.7925,0.9014,2034.9072],[34.7891,0.8993,2030.1536],[34.7866,0.8949,2029.4832],[34.79,0.8912,1998.7607],[34.7893,0.8884,1989.8604],[34.7929,0.8776,1914.2821],[34.7955,0.8745,1917.6522],[34.7951,0.8649,1855.3804],[34.7964,0.8599,1779.3064],[34.7993,0.8534,1705.3568],[34.805,0.8494,1710.8164],[34.8051,0.8441,1682.9038],[34.8103,0.8312,1676.9258],[34.8113,0.8192,1662.9332],[34.809,0.8112,1660.4874],[34.8705,0.8303,1766.3058],[34.9138,0.8524,1724.6135],[34.9191,0.8534,1695.408],[34.9257,0.8597,1739.9005],[34.9337,0.8587,1710.5695],[34.9422,0.8753,1729.2673],[34.9511,0.8751,1711.3151],[34.9667,0.8789,1744.4781],[34.9657,0.8838,1745.3174],[34.988,0.8905,1780.1466],[34.9852,0.8848,1774.7668],[35.0191,0.8918,1770.2115],[35.0189,0.8946,1771.7578],[35.0241,0.9008,1791.3143],[35.0277,0.9017,1792.3849],[35.0319,0.8986,1780.7821],[35.0322,0.9011,1787.7772],[35.0394,0.9032,1783.7616],[35.0411,0.9067,1787.2643],[35.0464,0.9068,1787.427],[35.0476,0.9041,1781.5627],[35.0515,0.9076,1810.5315],[35.0606,0.9026,1795.7815],[35.0666,0.9035,1798.2419],[35.0688,0.9014,1794.5404],[35.0738,0.9047,1808.6052],[35.0825,0.8986,1788.8694],[35.081,0.8979,1793.6093],[35.0822,0.8971,1788.8694],[35.0805,0.8951,1776.2335],[35.082,0.8949,1778.6191],[35.0809,0.8929,1777.1785],[35.0825,0.8914,1776.3367],[35.084,0.8922,1777.1864],[35.0849,0.888,1782.769],[35.0864,0.8892,1799.989],[35.0873,0.8874,1794.5496],[35.0861,0.8863,1790.3698],[35.0886,0.8853,1787.2952],[35.0884,0.8876,1801.1218],[35.0894,0.8863,1795.5231],[35.0928,0.8866,1804.856],[35.0934,0.8843,1797.8726],[35.0976,0.8851,1809.9111],[35.098,0.8815,1806.5735],[35.1018,0.8792,1804.4948],[35.1083,0.8821,1804.5353],[35.1085,0.8852,1804.3772],[35.1133,0.8873,1800.4935]]]]}}