{"type":"Feature","properties":{"GID_3":"KEN.7.2.3_1","GID_0":"KEN","country":"Kenya","GID_1":"KEN.7_1","province":"Garissa","NL_NAME_1":"NA","GID_2":"KEN.7.2_1","county":"Daadab","NL_NAME_2":"NA","city":"Damajale","VARNAME_3":"NA","NL_NAME_3":"NA","TYPE_3":"Ward","ENGTYPE_3":"Ward","CC_3":"149","HASC_3":"NA","name":"Damajale.city"},
"geometry":{"type": "MultiPolygon","coordinates": [[[[40.356,0.0335,122.6394],[40.3633,0.0321,122.4793],[40.3703,0.0245,122.7139],[40.3765,0.0136,123.7335],[40.3884,0.0088,124.7905],[40.4002,0.0011,124.7806],[40.4247,-0.0026,125.6421],[40.4337,-0.0076,126.493],[40.4915,-0.051,123.1465],[40.4995,-0.0504,126.8063],[40.5092,-0.0534,122.6624],[40.5094,-0.0595,121.0067],[40.516,-0.0744,121.2834],[40.5171,-0.0824,124.8511],[40.5253,-0.0913,122.6464],[40.5258,-0.1016,126.1664],[40.5428,-0.1174,122.2507],[40.5559,-0.1331,126.0025],[40.5604,-0.136,130.29],[40.5697,-0.1481,129.4456],[40.5758,-0.1613,128.6558],[40.578,-0.1722,122.9021],[40.598,-0.2065,125.4251],[40.6035,-0.2104,125.1683],[40.6152,-0.2241,131.9341],[40.6449,-0.2516,136.1787],[40.659,-0.2618,137.7437],[40.6825,-0.2747,135.7272],[40.7828,-0.3214,115.4166],[40.8154,-0.3318,111.0369],[40.9078,-0.3391,95.0166],[40.9186,-0.338,93.7986],[40.944,-0.3309,95.2221],[40.9931,-0.3308,87.8665],[40.9931,-0.3297,87.8665],[40.9996,-0.329,85.4502],[41.0014,-0.2436,90.7576],[40.9991,-0.112,95.0486],[41.0005,-0.0877,91.5977],[41.0005,0.0,89.8634],[40.9931,0.0087,87.8367],[40.9931,0.0025,91.2876],[40.9834,0.0131,91.7528],[40.9754,0.0346,93.3268],[40.9681,0.0449,96.9895],[40.9622,0.058,97.6735],[40.9514,0.0697,98.7715],[40.942,0.0854,97.7573],[40.938,0.096,97.2677],[40.9307,0.1057,99.342],[40.9261,0.1232,97.8656],[40.9084,0.1381,100.1471],[40.8982,0.1421,98.4784],[40.8816,0.1521,93.9151],[40.8763,0.1573,97.0112],[40.8733,0.1644,95.8427],[40.735,0.1639,107.3157],[40.6938,0.1595,112.5526],[40.6528,0.1577,117.7734],[40.6398,0.1454,119.5223],[40.6239,0.1402,113.6738],[40.5937,0.1342,122.063],[40.509,0.1266,126.1641],[40.4532,0.1268,119.8524],[40.45,0.1308,121.5018],[40.4431,0.1327,121.283],[40.3985,0.1252,119.6309],[40.4,0.1281,119.8283],[40.3578,0.2013,121.6395],[40.3446,0.2013,122.8521],[40.3283,0.1874,122.5983],[40.3224,0.1767,122.7951],[40.3221,0.1653,123.7633],[40.3301,0.1389,122.287],[40.3223,0.1153,123.4165],[40.329,0.104,121.6713],[40.3784,0.1022,120.5316],[40.3711,0.0908,121.0392],[40.3711,0.0856,121.3739],[40.3746,0.0735,121.223],[40.3712,0.0583,121.0046],[40.356,0.0335,122.6394]]]]}}