{"type": "Feature","bbox": [35.2245,-0.6718,35.3499,-0.5786],"geometry": {"type": "MultiPolygon","coordinates": [[[[35.2942,-0.6453,1924.6628],[35.2876,-0.6454,1975.4861],[35.2927,-0.6398,1938.2854],[35.2941,-0.6349,1988.0709],[35.3041,-0.6278,2024.8114],[35.3098,-0.626,1983.8949],[35.3115,-0.6206,2015.3704],[35.3146,-0.6198,1973.776],[35.3205,-0.6242,2015.7888],[35.3232,-0.6243,2092.1091],[35.3381,-0.6202,2151.0327],[35.3376,-0.6167,2227.5774],[35.3409,-0.6119,2161.6814],[35.3438,-0.6129,2123.708],[35.3442,-0.6109,2126.7971],[35.3422,-0.6089,2142.9236],[35.3493,-0.5947,2077.8379],[35.3474,-0.5889,2043.5946],[35.3499,-0.5818,2041.7068],[35.3487,-0.5797,2040.01],[35.3436,-0.5786,2095.5259],[35.3376,-0.5806,1986.2587],[35.3341,-0.579,1987.5298],[35.3314,-0.5811,2009.0449],[35.3299,-0.5791,2001.6589],[35.3285,-0.5807,1992.1465],[35.3299,-0.5822,1976.2958],[35.3266,-0.5876,1987.7045],[35.325,-0.588,1981.33],[35.3249,-0.5852,2002.6594],[35.3227,-0.585,2015.4999],[35.3223,-0.5874,2014.5376],[35.3158,-0.5894,1994.004],[35.3141,-0.5924,1986.0186],[35.3121,-0.5923,2011.514],[35.3125,-0.5945,2014.8619],[35.3105,-0.597,1983.7787],[35.3028,-0.6025,1969.1011],[35.296,-0.5992,2006.3694],[35.2961,-0.5975,2013.2207],[35.2921,-0.6004,1978.3019],[35.2907,-0.5977,2024.9407],[35.2862,-0.599,1987.3639],[35.2827,-0.5974,2002.4526],[35.2817,-0.6,1974.1743],[35.2786,-0.5983,1999.8627],[35.2745,-0.5991,1976.3079],[35.2743,-0.5968,1964.0472],[35.2715,-0.5973,1954.4369],[35.2641,-0.5892,1908.8475],[35.2549,-0.5883,1960.1779],[35.2475,-0.5923,1986.8002],[35.2497,-0.5997,1962.9272],[35.2458,-0.6034,1998.04],[35.2286,-0.6095,1930.8518],[35.2368,-0.6135,1908.6198],[35.2403,-0.6169,1976.9553],[35.2392,-0.6208,1951.1344],[35.2403,-0.6257,1922.251],[35.2292,-0.6296,1939.6047],[35.2245,-0.6336,1956.9197],[35.2465,-0.6381,1983.916],[35.2472,-0.6451,1932.4176],[35.2555,-0.6489,1967.4956],[35.2611,-0.6539,1975.9341],[35.264,-0.6613,1927.9059],[35.2618,-0.6677,1901.5676],[35.2626,-0.6718,1866.9778],[35.265,-0.6716,1889.5215],[35.264,-0.67,1874.0374],[35.2655,-0.6699,1906.895],[35.2664,-0.667,1878.4188],[35.268,-0.6681,1896.7961],[35.2667,-0.6657,1894.5596],[35.2691,-0.6657,1916.4766],[35.2746,-0.6575,1934.5774],[35.2764,-0.657,1957.1257],[35.2763,-0.6546,1916.3181],[35.278,-0.6559,1958.2933],[35.2807,-0.6539,1925.3408],[35.2822,-0.6546,1973.3804],[35.2846,-0.6502,1931.4951],[35.2884,-0.6494,1928.9867],[35.2895,-0.6473,1937.1279],[35.2942,-0.6453,1924.6628]]]]}
,"properties": {"GID_3": "KEN.2.4.5_1","GID_0": "KEN","country": "Kenya","GID_1": "KEN.2_1","province": "Bomet","NL_NAME_1": "NA","GID_2": "KEN.2.4_1","county": "Konoin","NL_NAME_2": "NA","city": "Mogogosiek","VARNAME_3": "NA","NL_NAME_3": "NA","TYPE_3": "Ward","ENGTYPE_3": "Ward","CC_3": "988","HASC_3": "NA","name": "Mogogosiek.city","area_km2": 61.14361,"hist_schema_id": "Elevation0-9000","hist_area_km2": {"1875": 0.36041,"1900": 2.3745,"1925": 6.7207,"1950": 12.40256,"1975": 15.68872,"2000": 11.78774,"2025": 4.55821,"2050": 1.95049,"2075": 0.93285,"2100": 1.06005,"2125": 0.72083,"2150": 0.59363,"2175": 0.59363,"2200": 0.63603,"2225": 0.44522,"2250": 0.27561,"2275": 0.0424}}}