{"type": "Feature","bbox": [36.7175,-0.9452,36.9161,-0.8188],"geometry": {"type": "MultiPolygon","coordinates": [[[[36.9161,-0.9246,1737.1782],[36.9114,-0.9177,1766.0408],[36.911,-0.9143,1780.4353],[36.9074,-0.9111,1747.0381],[36.9081,-0.9082,1773.2803],[36.9035,-0.9076,1796.0522],[36.903,-0.9054,1791.0062],[36.9012,-0.9071,1798.9542],[36.8929,-0.9052,1825.363],[36.8885,-0.8971,1738.9653],[36.8897,-0.8937,1845.8639],[36.8883,-0.8911,1861.5823],[36.8861,-0.8899,1844.2368],[36.8805,-0.8924,1826.912],[36.8802,-0.8886,1797.8689],[36.8779,-0.887,1833.9683],[36.8751,-0.886,1849.8434],[36.8728,-0.8871,1868.597],[36.8694,-0.8836,1896.0035],[36.8676,-0.886,1882.5813],[36.8641,-0.8846,1862.7521],[36.8603,-0.8814,1886.296],[36.8616,-0.8798,1926.4025],[36.8592,-0.8772,1908.4642],[36.8494,-0.8767,1947.75],[36.8427,-0.8708,1987.4288],[36.8405,-0.8723,1946.7217],[36.8361,-0.8681,1982.5155],[36.8317,-0.8682,2003.5022],[36.8316,-0.866,1997.2375],[36.827,-0.8642,1995.6688],[36.8251,-0.8592,2044.4847],[36.8229,-0.8594,2054.239],[36.8186,-0.8565,2068.5576],[36.8158,-0.857,2043.3571],[36.8142,-0.8538,2030.7755],[36.8092,-0.8531,2023.5979],[36.8104,-0.8502,2081.7678],[36.806,-0.8512,2088.5652],[36.8028,-0.8465,2084.8599],[36.792,-0.8392,2124.0303],[36.7888,-0.8394,2114.771],[36.7843,-0.8345,2146.2898],[36.7819,-0.8355,2132.5408],[36.7792,-0.8311,2191.2446],[36.775,-0.8287,2180.749],[36.7707,-0.8266,2181.4634],[36.7577,-0.8277,2219.3848],[36.755,-0.8263,2194.0884],[36.7514,-0.8275,2240.5828],[36.7468,-0.8216,2203.9526],[36.7384,-0.8235,2240.4246],[36.7323,-0.8197,2381.4463],[36.7196,-0.8188,2407.2808],[36.7216,-0.8221,2343.9106],[36.7188,-0.8213,2330.7441],[36.7208,-0.8237,2304.7854],[36.7175,-0.8247,2321.5781],[36.7252,-0.8302,2371.9814],[36.7232,-0.8307,2381.2605],[36.7254,-0.8367,2376.9216],[36.7373,-0.8449,2323.9075],[36.7432,-0.8501,2297.8757],[36.7428,-0.8517,2259.3491],[36.7478,-0.8531,2291.4255],[36.7493,-0.8558,2247.8489],[36.7521,-0.8549,2283.5002],[36.7595,-0.8565,2228.5115],[36.7598,-0.8589,2211.4453],[36.7697,-0.8637,2161.8757],[36.781,-0.8617,2168.6001],[36.7859,-0.8674,2086.8584],[36.7943,-0.8697,2086.3906],[36.7957,-0.8728,2061.2705],[36.8002,-0.8741,2068.531],[36.8004,-0.8756,2048.9097],[36.8033,-0.8765,2064.4758],[36.8065,-0.8753,2056.24],[36.8117,-0.8798,2020.3302],[36.8139,-0.8779,1983.0596],[36.8167,-0.8807,1982.3622],[36.8233,-0.8817,1965.6436],[36.8261,-0.8837,1948.8398],[36.8303,-0.8817,1983.8435],[36.8334,-0.8828,1955.0599],[36.8359,-0.886,1946.7596],[36.8382,-0.8853,1919.9164],[36.8376,-0.8892,1951.4755],[36.8424,-0.8905,1934.6538],[36.8436,-0.894,1946.6942],[36.8363,-0.9066,1936.5095],[36.8364,-0.9099,1931.8953],[36.8431,-0.9182,1869.9949],[36.8486,-0.9206,1863.8179],[36.8548,-0.9269,1864.5767],[36.8575,-0.9274,1839.4182],[36.8592,-0.9307,1865.1532],[36.863,-0.9303,1826.2345],[36.8651,-0.9336,1852.2161],[36.8696,-0.9335,1811.6172],[36.8715,-0.9204,1844.5702],[36.8728,-0.9199,1868.2301],[36.8725,-0.9179,1826.6001],[36.8745,-0.9172,1827.8075],[36.8751,-0.9218,1846.5779],[36.8817,-0.9231,1809.9746],[36.8841,-0.9252,1807.3396],[36.8863,-0.9243,1787.2742],[36.8887,-0.9277,1799.2344],[36.8959,-0.9309,1764.2249],[36.8989,-0.9342,1789.3154],[36.9014,-0.9343,1799.7804],[36.9007,-0.94,1734.0764],[36.9039,-0.9439,1777.4264],[36.9071,-0.9452,1773.6594],[36.9098,-0.9425,1755.7325],[36.9116,-0.9369,1725.4794],[36.9091,-0.9346,1725.3809],[36.9095,-0.9332,1724.28],[36.9161,-0.9246,1737.1782]]]]}
,"properties": {"GID_3": "KEN.13.1.3_1","GID_0": "KEN","country": "Kenya","GID_1": "KEN.13_1","province": "Kiambu","NL_NAME_1": "NA","GID_2": "KEN.13.1_1","county": "GatunduNorth","NL_NAME_2": "NA","city": "Gituamba","VARNAME_3": "NA","NL_NAME_3": "NA","TYPE_3": "Ward","ENGTYPE_3": "Ward","CC_3": "555","HASC_3": "NA","name": "Gituamba.city","area_km2": 72.90582,"hist_schema_id": "Elevation0-9000","hist_area_km2": {"1675": 0.0636,"1700": 0.50879,"1725": 1.03877,"1750": 2.11995,"1775": 3.01033,"1800": 3.60392,"1825": 4.93949,"1850": 5.74508,"1875": 5.97828,"1900": 4.79111,"1925": 2.84075,"1950": 1.58998,"1975": 1.84438,"2000": 2.39557,"2025": 3.05277,"2050": 2.86198,"2075": 2.75598,"2100": 2.69238,"2125": 2.28959,"2150": 2.37439,"2175": 2.73479,"2200": 2.84079,"2225": 2.60759,"2250": 1.272,"2275": 2.03519,"2300": 1.65359,"2325": 1.4204,"2350": 0.9116,"2375": 0.8268,"2400": 0.106}}}