{"type":"Feature","properties":{"GID_3":"KEN.43.6.4_1","GID_0":"KEN","country":"Kenya","GID_1":"KEN.43_1","province":"Turkana","NL_NAME_1":"NA","GID_2":"KEN.43.6_1","county":"TurkanaWest","NL_NAME_2":"NA","city":"Lokichoggio","VARNAME_3":"NA","NL_NAME_3":"NA","TYPE_3":"Ward","ENGTYPE_3":"Ward","CC_3":"622","HASC_3":"NA","name":"Lokichoggio.city"},
"geometry":{"type": "MultiPolygon","coordinates": [[[[34.4412,4.1288,618.9781],[34.449,4.1392,604.5799],[34.4596,4.1483,598.1925],[34.4619,4.1539,595.3741],[34.4631,4.1725,591.9492],[34.4601,4.2177,591.7141],[34.4613,4.2341,588.5033],[34.4649,4.2541,579.8234],[34.4795,4.3117,556.5702],[34.4668,4.3195,550.988],[34.4623,4.3206,550.1376],[34.4542,4.3188,554.3785],[34.4501,4.3208,557.651],[34.4474,4.3259,560.8404],[34.4378,4.3312,566.7598],[34.4327,4.3396,573.1519],[34.4298,4.3402,575.2075],[34.4239,4.3469,584.0927],[34.4201,4.3485,587.8545],[34.4158,4.3568,603.4338],[34.4079,4.3574,640.3346],[34.402,4.3613,662.1002],[34.3932,4.358,697.3247],[34.3885,4.3578,760.6402],[34.3825,4.3545,838.5994],[34.3727,4.3569,859.2111],[34.3585,4.363,965.6279],[34.3485,4.3717,1028.9607],[34.3309,4.3816,670.4443],[34.32,4.3914,629.5571],[34.3154,4.3932,625.0854],[34.3092,4.3928,616.1127],[34.3047,4.3965,611.2773],[34.2867,4.4053,598.9135],[34.2256,4.4512,612.474],[34.2098,4.4695,615.7778],[33.9921,4.256,834.7148],[34.0177,4.236,825.7374],[34.002,4.2214,862.9185],[34.0464,4.1804,878.496],[34.0479,4.1827,861.4441],[34.0642,4.1902,810.7214],[34.072,4.1921,789.782],[34.0791,4.209,768.757],[34.1115,4.1943,765.7586],[34.2255,4.1634,714.2023],[34.2335,4.165,711.4621],[34.246,4.1716,701.8508],[34.2522,4.1727,696.9158],[34.2583,4.1721,699.4878],[34.2647,4.1673,691.7864],[34.2683,4.1696,690.069],[34.271,4.1695,687.5994],[34.273,4.1717,685.5381],[34.2812,4.1729,679.9522],[34.2864,4.178,676.1506],[34.295,4.1797,670.0204],[34.2974,4.1795,667.755],[34.3003,4.1759,667.6318],[34.3036,4.1762,668.0662],[34.3643,4.1603,665.6829],[34.3866,4.1572,669.5286],[34.4112,4.1578,622.0983],[34.4209,4.1535,629.2249],[34.4282,4.1425,630.9518],[34.4412,4.1288,618.9781]]]]}}