{"type":"Feature","properties":{"GID_2":"KEN.14.6_1","GID_0":"KEN","country":"Kenya","GID_1":"KEN.14_1","province":"Kilifi","NL_NAME_1":"NA","county":"Malindi","VARNAME_2":"NA","NL_NAME_2":"NA","TYPE_2":"Constituency","ENGTYPE_2":"Constituency","CC_2":"16","HASC_2":"NA","name":"Malindi.county"},
"geometry":{"type": "MultiPolygon","coordinates": [[[[39.8059,-3.2861,140.5053],[39.8107,-3.2937,118.5718],[39.9179,-3.3601,15.1861],[39.9179,-3.2506,93.5581],[39.9789,-3.2469,63.9329],[39.9867,-3.2139,99.107],[40.0083,-3.2198,47.3604],[40.0139,-3.2334,48.1564],[40.0125,-3.2433,48.5002],[40.0395,-3.2538,35.8077],[40.0395,-3.2685,26.9013],[40.0543,-3.2687,19.7646],[40.0547,-3.2806,19.5684],[40.1227,-3.2797,7.1293],[40.1312,-3.264,0.0],[40.1326,-3.2557,4.7775],[40.1287,-3.2493,0.0],[40.1265,-3.249,9.9045],[40.1282,-3.2293,3.1069],[40.1304,-3.2246,0.7301],[40.1296,-3.2229,0.0],[40.1276,-3.2235,0.474],[40.1263,-3.2179,3.5522],[40.1221,-3.2124,3.8979],[40.121,-3.2021,0.5785],[40.1265,-3.1893,3.0234],[40.1407,-3.1715,2.1867],[40.1404,-3.1682,2.6468],[40.136,-3.1618,0.0],[40.1381,-3.1626,0.2411],[40.1241,-3.146,12.9239],[40.1187,-3.1471,2.6828],[40.1112,-3.1424,20.7623],[40.103,-3.143,6.0614],[40.1023,-3.1509,8.5342],[40.0965,-3.1522,24.6092],[40.0922,-3.1602,8.2708],[40.078,-3.1621,15.0068],[40.0715,-3.1564,8.4518],[40.0633,-3.1598,5.5908],[40.0638,-3.1574,7.0435],[40.0615,-3.1558,8.222],[40.0493,-3.1558,11.6407],[40.0431,-3.1598,8.6122],[40.0407,-3.1596,10.2872],[40.0304,-3.1482,22.9364],[40.0199,-3.149,20.0337],[40.0195,-3.1556,13.0315],[40.0137,-3.1565,15.2486],[40.0081,-3.1554,11.5],[40.0081,-3.1497,16.8042],[40.0073,-3.1536,11.8206],[40.0028,-3.1419,13.4741],[39.9985,-3.1375,16.2203],[39.9953,-3.1379,16.6694],[39.9869,-3.1412,19.483],[39.9869,-3.1439,19.5442],[39.9931,-3.1519,16.1352],[39.993899999999996,-3.1582,18.1037],[39.9903,-3.1598,18.5825],[39.9861,-3.1594,16.9856],[39.9855,-3.1566,18.1772],[39.9833,-3.1557,24.0382],[39.9719,-3.1675,18.8785],[39.9731,-3.1724,17.5],[39.9761,-3.1745,18.5226],[39.9737,-3.1768,18.5141],[39.9687,-3.1781,20.5772],[39.9641,-3.1835,21.352],[39.9537,-3.1904,22.8192],[39.9501,-3.1858,28.2367],[39.9373,-3.186,26.7001],[39.9337,-3.1871,27.5168],[39.9258,-3.1935,30.4332],[39.9227,-3.1926,29.433],[39.9203,-3.1882,26.8895],[39.9189,-3.1843,28.3294],[39.9199,-3.1803,29.4209],[39.9181,-3.1776,31.6251],[39.9101,-3.1746,29.8916],[39.9089,-3.1724,32.9475],[39.9116,-3.1666,31.4045],[39.9103,-3.164,31.4867],[39.9049,-3.1636,32.8839],[39.9025,-3.1659,33.9375],[39.9013,-3.175,34.6539],[39.8973,-3.1758,32.5795],[39.8953,-3.1722,33.9245],[39.8953,-3.166,31.1042],[39.8891,-3.1613,31.125],[39.8681,-3.1593,36.5357],[39.8684,-3.1482,37.1655],[39.8585,-3.1375,41.8636],[39.8549,-3.1366,44.7021],[39.8433,-3.1394,42.0824],[39.8453,-3.1295,41.8429],[39.8433,-3.1245,43.8216],[39.8249,-3.1237,44.935],[39.8243,-3.1205,44.8178],[39.8277,-3.1129,47.2157],[39.8305,-3.1106,46.4714],[39.8261,-3.1048,51.5835],[39.8211,-3.1038,53.8081],[39.8145,-3.1046,62.8008],[39.7979,-3.1152,54.5165],[39.7869,-3.1132,62.8246],[39.7825,-3.1146,62.3453],[39.7773,-3.1183,54.2609],[39.7712,-3.1201,79.1849],[39.7645,-3.1275,56.621],[39.7376,-3.1198,70.24],[39.7319,-3.1231,62.2833],[39.7247,-3.1233,60.0218],[39.7191,-3.1274,66.0027],[39.7159,-3.1276,59.966],[39.7099,-3.1342,80.3359],[39.6997,-3.1353,87.8662],[39.6907,-3.1382,79.3362],[39.6941,-3.1548,102.6363],[39.7049,-3.1674,143.0892],[39.7153,-3.187,157.3187],[39.7159,-3.1912,157.8233],[39.7301,-3.1977,153.0267],[39.7593,-3.2064,117.7169],[39.7419,-3.2513,175.8187],[39.7577,-3.2463,172.7867],[39.7691,-3.2463,169.1757],[39.8153,-3.2077,110.7837],[39.8247,-3.2317,71.4153],[39.8193,-3.2372,75.6431],[39.8151,-3.258,113.3661],[39.8101,-3.2667,121.1175],[39.8097,-3.2726,130.9142],[39.8047,-3.2802,139.6788],[39.8059,-3.2861,140.5053]]],
[[[40.14,-3.1642,0.0],[40.1387,-3.1635,0.0],[40.1387,-3.1643,0.0],[40.141,-3.166,0.0],[40.141,-3.1644,0.0],[40.14,-3.1642,0.0]]],
[[[40.1383,-3.1629,0.2411],[40.1382,-3.1628,0.2411],[40.1382,-3.1629,0.2411],[40.1383,-3.1629,0.2411]]]]}}