{"type": "Feature","bbox": [35.1955,-0.6095,35.5073,-0.4195],"geometry": {"type": "MultiPolygon","coordinates": [[[[35.5073,-0.4503,2453.1501],[35.4884,-0.4195,2458.5774],[35.4815,-0.4257,2438.4563],[35.4744,-0.4263,2434.2642],[35.4728,-0.4285,2417.7119],[35.4703,-0.4275,2410.1509],[35.4696,-0.4315,2386.4792],[35.4638,-0.4323,2375.0474],[35.463,-0.436,2392.0791],[35.4592,-0.4389,2336.2324],[35.4538,-0.448,2319.1116],[35.4547,-0.4496,2292.2046],[35.4531,-0.4539,2312.7322],[35.4428,-0.4624,2339.104],[35.4308,-0.467,2337.5391],[35.4189,-0.4661,2275.9951],[35.4138,-0.468,2296.0164],[35.4065,-0.468,2292.6033],[35.3997,-0.4742,2311.2981],[35.3973,-0.4807,2292.7874],[35.3907,-0.4848,2284.3401],[35.3691,-0.4856,2176.3301],[35.3616,-0.4879,2186.0215],[35.3573,-0.4934,2207.0603],[35.3516,-0.4952,2171.8132],[35.3431,-0.505,2128.1201],[35.3364,-0.5089,2067.3508],[35.3318,-0.5151,2080.5083],[35.326,-0.5169,2079.0356],[35.3251,-0.5193,2065.7832],[35.319,-0.5225,2059.9536],[35.3171,-0.5215,2030.3108],[35.3106,-0.5258,2048.0801],[35.3104,-0.5284,2051.2837],[35.3052,-0.5341,2029.1731],[35.3036,-0.5407,2020.0001],[35.3045,-0.5451,1952.4689],[35.3017,-0.5468,1957.7684],[35.2973,-0.5475,2002.78],[35.2886,-0.545,1989.3066],[35.2847,-0.5466,1988.526],[35.2809,-0.5451,1950.7988],[35.2788,-0.5463,1935.446],[35.2757,-0.5441,1956.0955],[35.2712,-0.5439,1970.8732],[35.2698,-0.5421,1943.082],[35.2687,-0.5435,1937.2643],[35.2627,-0.5436,1934.8864],[35.2583,-0.5486,1956.1976],[35.2551,-0.5477,1934.408],[35.2537,-0.549,1916.2578],[35.2508,-0.5475,1946.1484],[35.2447,-0.5518,1924.9799],[35.2422,-0.549,1917.2891],[35.2407,-0.5509,1882.416],[35.2371,-0.5503,1868.5132],[35.2365,-0.5464,1906.7051],[35.2288,-0.5424,1898.4734],[35.2216,-0.5429,1916.8513],[35.2093,-0.5378,1884.0526],[35.2051,-0.5383,1877.6254],[35.2031,-0.5365,1864.5413],[35.202,-0.5389,1854.6761],[35.2063,-0.5432,1794.821],[35.2052,-0.5466,1813.9448],[35.2011,-0.5491,1855.4984],[35.1966,-0.5587,1915.0836],[35.1955,-0.5702,1893.3228],[35.1996,-0.5759,1943.1821],[35.2128,-0.5875,1955.1902],[35.2248,-0.5931,1985.4877],[35.2286,-0.6029,1963.0256],[35.2286,-0.6095,1930.8518],[35.2458,-0.6034,1998.04],[35.2497,-0.5997,1962.9272],[35.2475,-0.5923,1986.8002],[35.2549,-0.5883,1960.1779],[35.2641,-0.5892,1908.8475],[35.2715,-0.5973,1954.4369],[35.2743,-0.5968,1964.0472],[35.2745,-0.5991,1976.3079],[35.2786,-0.5983,1999.8627],[35.2817,-0.6,1974.1743],[35.2827,-0.5974,2002.4526],[35.2862,-0.599,1987.3639],[35.2907,-0.5977,2024.9407],[35.2921,-0.6004,1978.3019],[35.2961,-0.5975,2013.2207],[35.296,-0.5992,2006.3694],[35.303,-0.6025,1969.1011],[35.3105,-0.597,1983.7787],[35.3125,-0.5945,2014.8619],[35.3121,-0.5923,2011.514],[35.3141,-0.5924,1986.0186],[35.3158,-0.5894,1994.004],[35.3223,-0.5874,2014.5376],[35.3229,-0.5849,2015.4999],[35.3249,-0.5852,2002.6594],[35.3249,-0.5878,1990.66],[35.3264,-0.5878,1987.7045],[35.3299,-0.5822,1976.2958],[35.3285,-0.5805,1992.1465],[35.3299,-0.5791,2001.6589],[35.3314,-0.5811,2009.0449],[35.334,-0.5794,1987.5298],[35.3324,-0.5786,2015.6064],[35.3356,-0.5765,1992.3439],[35.3339,-0.5738,2010.6837],[35.3366,-0.5721,1995.3411],[35.3365,-0.5675,2031.6467],[35.3393,-0.5627,2052.4124],[35.3415,-0.5631,1997.8474],[35.3406,-0.5606,2053.78],[35.3423,-0.5565,2048.0142],[35.3466,-0.5552,2065.1484],[35.3447,-0.5521,2038.2401],[35.349,-0.5471,2018.4022],[35.3477,-0.5432,2086.4155],[35.3503,-0.5414,2052.3479],[35.3498,-0.5399,2072.3574],[35.3519,-0.5399,2056.4111],[35.3528,-0.5315,2081.2546],[35.3549,-0.5284,2060.3364],[35.354,-0.527,2094.189],[35.3579,-0.5248,2088.7229],[35.3599,-0.5205,2147.8711],[35.3601,-0.5226,2128.2344],[35.3622,-0.5212,2128.1841],[35.3628,-0.5153,2179.7029],[35.368,-0.5154,2163.4727],[35.3696,-0.5128,2186.1133],[35.3721,-0.5123,2164.8152],[35.3752,-0.5055,2243.6387],[35.382,-0.5024,2177.2278],[35.388,-0.495,2243.3105],[35.3997,-0.4923,2271.8394],[35.404,-0.4944,2271.4114],[35.407,-0.4934,2296.1536],[35.4099,-0.4947,2269.2473],[35.414,-0.4929,2276.7207],[35.4153,-0.4902,2281.0098],[35.422,-0.49,2285.0718],[35.4303,-0.4862,2246.3735],[35.4363,-0.4867,2269.9395],[35.4423,-0.4816,2207.7581],[35.4495,-0.4794,2280.1482],[35.4568,-0.4805,2305.8091],[35.4588,-0.4828,2256.2361],[35.4636,-0.4826,2303.2239],[35.4647,-0.4846,2282.6143],[35.471,-0.4873,2334.4019],[35.4782,-0.4865,2334.2668],[35.4822,-0.483,2324.1128],[35.4891,-0.4831,2343.1438],[35.4886,-0.4811,2350.0752],[35.4949,-0.4758,2372.7886],[35.4984,-0.4673,2426.2405],[35.5046,-0.4621,2381.3115],[35.5039,-0.4564,2429.583],[35.5073,-0.4503,2453.1501]]]]}
,"properties": {"GID_3": "KEN.2.4.1_1","GID_0": "KEN","country": "Kenya","GID_1": "KEN.2_1","province": "Bomet","NL_NAME_1": "NA","GID_2": "KEN.2.4_1","county": "Konoin","NL_NAME_2": "NA","city": "Boito","VARNAME_3": "NA","NL_NAME_3": "NA","TYPE_3": "Ward","ENGTYPE_3": "Ward","CC_3": "989","HASC_3": "NA","name": "Boito.city","area_km2": 160.6634,"hist_schema_id": "Elevation0-9000","hist_area_km2": {"1775": 0.0212,"1800": 0.4664,"1825": 1.1449,"1850": 1.6749,"1875": 4.7067,"1900": 8.7137,"1925": 12.0211,"1950": 11.6394,"1975": 10.1765,"2000": 8.0352,"2025": 9.7949,"2050": 9.5617,"2075": 9.3709,"2100": 6.8056,"2125": 5.7031,"2150": 4.4311,"2175": 2.3958,"2200": 2.0989,"2225": 2.5018,"2250": 4.7491,"2275": 6.6785,"2300": 7.9718,"2325": 7.4629,"2350": 6.5937,"2375": 5.9152,"2400": 5.0036,"2425": 3.6891,"2450": 1.3357}}}