{"type": "Feature","bbox": [38.6054,-4.7204,39.4157,-4.1913],"geometry": {"type": "MultiPolygon","coordinates": [[[[39.3788,-4.7163,0.0],[39.3751,-4.7157,0.0],[39.3735,-4.7171,0.0],[39.3785,-4.7176,0.0],[39.3779,-4.7204,0.0],[39.3801,-4.7179,0.0],[39.3788,-4.7163,0.0]]],
[[[39.4087,-4.7049,1.0619],[39.4101,-4.7012,0.0],[39.4124,-4.7001,0.0],[39.409,-4.7007,0.0],[39.404,-4.7035,0.0],[39.4071,-4.7054,1.0619],[39.4087,-4.7049,1.0619]]],
[[[39.4157,-4.6982,0.0],[39.4151,-4.6965,0.0],[39.4135,-4.6982,0.0],[39.4135,-4.7018,0.0],[39.4143,-4.7015,0.0],[39.4157,-4.6982,0.0]]],
[[[39.4068,-4.6846,0.0],[39.4068,-4.6832,0.0],[39.4043,-4.6835,0.0],[39.4038,-4.6851,0.0],[39.3954,-4.6862,0.0],[39.3949,-4.6879,0.0],[39.4007,-4.6904,0.0],[39.4068,-4.6846,0.0]]],
[[[39.2715,-4.6535,0.0],[39.2679,-4.6537,0.0],[39.2679,-4.6593,0.0],[39.2707,-4.661,0.0],[39.2724,-4.6671,0.0],[39.2768,-4.6707,0.0],[39.2832,-4.6715,0.0],[39.284,-4.6696,0.0],[39.2901,-4.6674,0.0],[39.2946,-4.6621,0.0],[39.2938,-4.661,0.0],[39.2893,-4.6632,0.0],[39.2868,-4.6618,0.0],[39.2863,-4.6632,1.0731],[39.2715,-4.6535,0.0]]],
[[[39.289,-4.6229,0.0],[39.2857,-4.6226,0.6212],[39.2865,-4.626,0.0],[39.2893,-4.6251,0.0],[39.289,-4.6229,0.0]]],
[[[39.2926,-4.6196,0.2946],[39.291,-4.6187,0.0],[39.2932,-4.6218,0.0],[39.2938,-4.621,0.0],[39.2926,-4.6196,0.2946]]],
[[[39.2965,-4.6079,0.0],[39.294,-4.609,3.9944],[39.2929,-4.6187,0.7434],[39.2968,-4.6151,0.0],[39.2962,-4.6129,1.5677],[39.2988,-4.6118,0.0],[39.2965,-4.6079,0.0]]],
[[[39.361,-4.6535,1.3091],[39.3576,-4.654,0.0],[39.3568,-4.656,0.0],[39.3582,-4.6585,1.6043],[39.3504,-4.6632,0.0],[39.3482,-4.6668,0.0],[39.3518,-4.666,0.0],[39.3526,-4.6693,0.0],[39.3549,-4.6707,0.6371],[39.3649,-4.6704,3.8768],[39.3668,-4.6718,0.0],[39.3874,-4.6693,0.0],[39.3946,-4.6707,0.0],[39.3965,-4.6693,8.2642],[39.4004,-4.6724,2.6498],[39.4007,-4.6743,1.4514],[39.4057,-4.6718,0.0],[39.4051,-4.6746,0.0],[39.4021,-4.6751,0.0],[39.4032,-4.6779,0.0],[39.4068,-4.6746,0.0],[39.4068,-4.671,0.0],[39.4004,-4.6576,0.0],[39.3946,-4.6587,0.0],[39.3965,-4.6599,0.0],[39.3951,-4.6618,5.4098],[39.3899,-4.6618,9.666],[39.3882,-4.6599,0.0],[39.3807,-4.6601,10.9675],[39.3796,-4.6585,6.874],[39.3749,-4.6574,0.0],[39.3735,-4.6585,12.2537],[39.366,-4.6579,0.0],[39.3626,-4.6554,5.1892],[39.3629,-4.6537,0.0],[39.361,-4.6535,1.3091]]],
[[[39.3057,-4.6012,0.0],[39.3043,-4.6007,0.0],[39.3049,-4.6037,0.0],[39.3063,-4.6029,0.0],[39.3057,-4.6012,0.0]]],
[[[39.3062,-4.4045,37.2993],[39.3014,-4.3997,39.3194],[39.2971,-4.401,40.5583],[39.292,-4.3926,60.5306],[39.2877,-4.3935,43.8861],[39.2831,-4.3889,50.0009],[39.272,-4.3859,54.9707],[39.2557,-4.392,52.951],[39.2507,-4.3888,64.8925],[39.2455,-4.3924,66.7165],[39.2441,-4.3968,51.3284],[39.2382,-4.3836,51.9835],[39.2343,-4.3843,62.8013],[39.2311,-4.3805,70.4776],[39.2245,-4.3791,60.0022],[39.2213,-4.3825,58.9623],[39.217,-4.3779,80.505],[39.2143,-4.3772,70.8873],[39.2101,-4.3823,65.8098],[39.2045,-4.3807,65.503],[39.2027,-4.3858,69.6014],[39.1979,-4.385,66.0557],[39.1959,-4.3817,67.1155],[39.1923,-4.3832,77.9398],[39.1932,-4.3869,65.2903],[39.1909,-4.3883,71.4942],[39.1829,-4.3839,72.3382],[39.1819,-4.3742,75.3004],[39.1767,-4.3734,74.9375],[39.1735,-4.3678,91.8709],[39.1747,-4.3617,76.9085],[39.1727,-4.3509,81.6092],[39.1741,-4.3458,86.5319],[39.1695,-4.3462,95.7136],[39.1673,-4.3494,82.9189],[39.1635,-4.3426,98.7874],[39.1595,-4.3422,85.8563],[39.1573,-4.3392,92.4695],[39.1565,-4.3364,93.7276],[39.1595,-4.3318,91.977],[39.1599,-4.3244,107.046],[39.1565,-4.3217,94.4025],[39.1561,-4.3182,109.2857],[39.1507,-4.3158,114.4124],[39.1467,-4.3192,105.9352],[39.1395,-4.3175,106.7421],[39.1329,-4.3106,118.232],[39.1325,-4.3056,113.4782],[39.1275,-4.2971,113.1924],[39.1285,-4.2929,115.7032],[39.1303,-4.2928,115.4661],[39.1323,-4.2885,116.4327],[39.1319,-4.2858,119.2615],[39.1293,-4.2837,118.503],[39.1307,-4.2672,125.4383],[39.1289,-4.2655,126.0544],[39.1265,-4.2658,125.2929],[39.1291,-4.2612,127.9562],[39.1291,-4.2565,128.0229],[39.1249,-4.252,130.5536],[39.1215,-4.2519,132.4295],[39.1205,-4.2476,133.8988],[39.1127,-4.2446,137.3013],[39.1077,-4.2391,143.1398],[39.1069,-4.2357,158.1547],[39.1097,-4.2344,151.1145],[39.1103,-4.2298,143.7966],[39.1087,-4.2275,167.5004],[39.1049,-4.2271,158.2761],[39.1011,-4.2334,151.2074],[39.0969,-4.2344,157.1021],[39.0939,-4.2288,153.7653],[39.0865,-4.2274,158.6852],[39.0853,-4.2251,167.349],[39.0813,-4.2257,161.1736],[39.0795,-4.2234,172.0385],[39.0835,-4.2171,163.6056],[39.0819,-4.2141,168.3937],[39.0807,-4.2151,164.4056],[39.0799,-4.214,165.3459],[39.0801,-4.2103,179.625],[39.0845,-4.209,187.6568],[39.0889,-4.2106,170.6617],[39.0859,-4.2049,172.3916],[39.0849,-4.1952,195.621],[39.0797,-4.1913,191.123],[39.0733,-4.1926,198.3776],[39.0719,-4.1948,189.3281],[39.0761,-4.2008,194.0482],[39.0759,-4.2038,186.0159],[39.0725,-4.2017,192.6767],[39.0659,-4.2011,198.2012],[39.0619,-4.2112,195.7812],[39.0543,-4.2057,197.8333],[39.0537,-4.1939,211.1656],[39.0509,-4.1923,208.0297],[39.0495,-4.1941,204.2194],[39.0463,-4.1934,209.1445],[39.0411,-4.1973,209.0355],[39.0407,-4.2088,213.7545],[39.0373,-4.2123,223.1635],[39.0337,-4.213,226.5052],[39.0291,-4.2232,231.4016],[39.0251,-4.226,237.8743],[39.0203,-4.2252,241.6013],[39.0179,-4.2224,253.8731],[39.0097,-4.2242,248.343],[39.0093,-4.2217,253.1334],[39.0063,-4.2196,259.4924],[39.0047,-4.2204,255.6408],[39.0035,-4.2165,258.9739],[38.9991,-4.2113,261.5168],[38.9937,-4.2116,265.2506],[39.0003,-4.251,244.2612],[38.6054,-4.2509,477.6581],[38.7608,-4.3604,398.1151],[38.8028,-4.3875,308.8384],[38.9645,-4.4984,188.007],[39.1928,-4.6603,5.7324],[39.1979,-4.6661,5.3455],[39.2047,-4.6659,4.0162],[39.2073,-4.6675,2.4975],[39.2097,-4.6722,2.4621],[39.2193,-4.6758,2.3386],[39.2223,-4.6707,3.442],[39.226,-4.671,0.0],[39.2313,-4.6587,1.0154],[39.2337,-4.6624,0.0],[39.2368,-4.661,0.0],[39.2354,-4.6543,0.6845],[39.2382,-4.6515,0.0],[39.2393,-4.6457,1.7701],[39.2432,-4.6429,0.0],[39.244,-4.6454,0.0],[39.2465,-4.6424,0.0],[39.2365,-4.6349,0.5],[39.2449,-4.6365,0.0],[39.2465,-4.6354,0.0],[39.2457,-4.6324,0.25],[39.249,-4.6351,0.0],[39.2474,-4.6318,0.6507],[39.2515,-4.6271,0.0],[39.2513,-4.6243,2.0249],[39.2532,-4.6276,0.0],[39.2546,-4.6237,0.474],[39.2562,-4.6237,0.474],[39.2579,-4.621,1.6947],[39.2607,-4.624,0.0],[39.2629,-4.6235,0.0],[39.2651,-4.6221,0.0],[39.2651,-4.619,0.9757],[39.2671,-4.6168,0.5],[39.2674,-4.6174,0.5],[39.266,-4.6229,0.0],[39.2643,-4.6251,0.0],[39.2654,-4.6274,0.0],[39.2679,-4.6276,1.46],[39.2704,-4.6257,0.0],[39.2735,-4.6279,0.4013],[39.2757,-4.6254,1.0787],[39.2768,-4.6151,2.2214],[39.2751,-4.6104,1.956],[39.2771,-4.6113,0.7548],[39.2785,-4.6062,0.5],[39.2779,-4.6018,0.5],[39.2729,-4.5962,4.137],[39.2743,-4.596,1.0],[39.2738,-4.5929,1.25],[39.2715,-4.5901,1.5],[39.2665,-4.5882,3.5647],[39.2621,-4.5901,2.5935],[39.2571,-4.5901,2.25],[39.2637,-4.5871,2.7847],[39.2699,-4.5879,1.5],[39.2704,-4.5868,1.5],[39.2768,-4.5968,1.0],[39.2813,-4.5937,2.003],[39.279,-4.5968,1.6301],[39.2807,-4.6154,0.0],[39.2871,-4.6185,0.0],[39.2871,-4.616,1.3469],[39.2907,-4.6146,0.0],[39.2965,-4.5987,0.0],[39.2932,-4.5868,3.1031],[39.2929,-4.5796,2.8014],[39.2943,-4.5804,3.9219],[39.2943,-4.5874,3.2323],[39.2982,-4.5996,0.0],[39.3021,-4.5971,0.0],[39.314,-4.5801,1.5],[39.3115,-4.5887,0.75],[39.3065,-4.5926,0.8199],[39.3049,-4.5968,1.6566],[39.3082,-4.6035,0.6031],[39.3063,-4.6074,0.0],[39.3063,-4.6121,0.6753],[39.3104,-4.6132,3.1514],[39.306,-4.616,0.6438],[39.3057,-4.6304,0.5432],[39.3043,-4.6301,0.5432],[39.3035,-4.6354,0.0],[39.306,-4.639,0.5574],[39.324,-4.6429,5.3179],[39.3282,-4.6465,0.0],[39.3387,-4.6415,0.3973],[39.3546,-4.6407,0.0],[39.3838,-4.6499,0.0],[39.3885,-4.6499,0.0],[39.3985,-4.649,0.0],[39.4046,-4.6465,0.0],[39.4065,-4.6399,12.2355],[39.409,-4.639,0.0],[39.409,-4.6363,0.0],[39.4129,-4.6346,0.0],[39.4124,-4.6212,0.0],[39.4051,-4.6199,0.0],[39.4026,-4.6232,5.4323],[39.3982,-4.619,9.9374],[39.3982,-4.6135,2.6266],[39.4007,-4.6088,0.0],[39.3968,-4.6071,0.3822],[39.3985,-4.6051,0.632],[39.3949,-4.6032,0.703],[39.3957,-4.6012,0.0],[39.3943,-4.6001,3.123],[39.3971,-4.5985,0.0],[39.3946,-4.5946,0.0],[39.3965,-4.5879,4.5586],[39.3985,-4.5874,0.0],[39.3971,-4.5818,0.5],[39.3946,-4.5779,1.3643],[39.3889,-4.5888,3.6125],[39.3873,-4.5886,11.2369],[39.3863,-4.5844,9.1821],[39.3881,-4.5799,7.928],[39.3883,-4.5703,3.0465],[39.3855,-4.5627,3.4586],[39.3811,-4.5562,6.8069],[39.3741,-4.5553,8.5093],[39.3771,-4.5379,6.6342],[39.3913,-4.5263,8.0714],[39.3921,-4.5205,17.96],[39.3885,-4.5152,17.278],[39.39,-4.5092,18.4626],[39.3861,-4.5058,11.4792],[39.3857,-4.5032,14.3745],[39.3895,-4.4975,10.8832],[39.3877,-4.4918,11.9776],[39.3825,-4.4877,13.0136],[39.3737,-4.4709,24.1131],[39.3725,-4.4637,18.4384],[39.3685,-4.4602,23.225],[39.3697,-4.453,18.6297],[39.3661,-4.449,28.2226],[39.3607,-4.4471,26.2785],[39.3513,-4.4491,30.6844],[39.3479,-4.4474,24.8708],[39.3483,-4.4422,27.6378],[39.3461,-4.4367,25.1402],[39.3475,-4.4336,26.517],[39.3397,-4.4269,26.9351],[39.3377,-4.4219,36.2416],[39.3393,-4.4146,34.6525],[39.3265,-4.4165,28.5389],[39.3235,-4.4135,35.9707],[39.3235,-4.4081,29.6981],[39.3219,-4.4052,31.952],[39.3141,-4.4023,40.8619],[39.3062,-4.4045,37.2993]]],
[[[39.3032,-4.601,3.6906],[39.3018,-4.5987,0.3562],[39.2968,-4.6037,0.0],[39.2993,-4.609,0.0],[39.3035,-4.6079,3.5711],[39.3032,-4.601,3.6906]]]]}
,"properties": {"GID_2": "KEN.19.2_1","GID_0": "KEN","country": "Kenya","GID_1": "KEN.19_1","province": "Kwale","NL_NAME_1": "NA","county": "Lungalunga","VARNAME_2": "NA","NL_NAME_2": "NA","TYPE_2": "Constituency","ENGTYPE_2": "Constituency","CC_2": "8","HASC_2": "NA","name": "Lungalunga.county","area_km2": 2033.016,"hist_schema_id": "Elevation0-9000","hist_area_km2": {"0": 167.887,"25": 230.585,"50": 144.111,"75": 160.475,"100": 146.931,"125": 158.098,"150": 118.953,"175": 101.284,"200": 105.473,"225": 99.491,"250": 74.945,"275": 62.028,"300": 52.62,"325": 48.011,"350": 41.944,"375": 54.186,"400": 62.813,"425": 75.965,"450": 72.203,"475": 38.227,"500": 13.045,"525": 3.277,"550": 0.465}}}