{"type":"Feature","properties":{"GID_2":"KEN.4.3_1","GID_0":"KEN","country":"Kenya","GID_1":"KEN.4_1","province":"Busia","NL_NAME_1":"NA","county":"Funyula","VARNAME_2":"NA","NL_NAME_2":"NA","TYPE_2":"Constituency","ENGTYPE_2":"Constituency","CC_2":"230","HASC_2":"NA","name":"Funyula.county"},
"geometry":{"type": "MultiPolygon","coordinates": [[[[34.0892,0.1454,1193.8735],[34.0951,0.1367,1145.9968],[34.0994,0.1404,1154.6055],[34.1051,0.1401,1172.1664],[34.1027,0.1354,1206.9655],[34.1026,0.1298,1210.6744],[34.1083,0.1349,1200.9741],[34.1118,0.1412,1146.929],[34.115,0.154,1157.1072],[34.1128,0.1535,1151.1499],[34.1108,0.1669,1165.8397],[34.1119,0.1798,1175.6846],[34.1051,0.191,1186.3958],[34.1106,0.2046,1183.9136],[34.1092,0.2099,1193.3954],[34.1134,0.2142,1217.9734],[34.1162,0.223,1235.2694],[34.1165,0.2464,1269.2103],[34.1329,0.2558,1235.199],[34.1384,0.2614,1246.2172],[34.1475,0.2745,1314.5183],[34.1586,0.2949,1434.856],[34.1594,0.3051,1363.2471],[34.1721,0.3094,1318.2693],[34.1792,0.3183,1421.6881],[34.1773,0.3203,1360.0234],[34.1739,0.3183,1290.8462],[34.1709,0.32,1248.0935],[34.1707,0.328,1296.9612],[34.1409,0.3509,1189.0886],[34.1345,0.3529,1169.9177],[34.1265,0.3659,1156.8958],[34.1231,0.3648,1156.5017],[34.1174,0.3681,1172.5853],[34.1119,0.3658,1160.3724],[34.1103,0.3634,1161.9761],[34.1094,0.3645,1155.6876],[34.1069,0.3628,1154.0067],[34.1055,0.3661,1154.446],[34.1027,0.3641,1155.1138],[34.0974,0.3546,1154.6909],[34.0989,0.3498,1151.6509],[34.094,0.3463,1151.1841],[34.0914,0.3464,1150.8127],[34.0914,0.3445,1150.6914],[34.0903,0.3451,1150.6914],[34.0893,0.3425,1150.3196],[34.085,0.3397,1149.3949],[34.084,0.3365,1149.2046],[34.0808,0.3369,1148.8434],[34.0819,0.3356,1149.0763],[34.0802,0.3356,1148.8434],[34.081,0.3315,1148.6714],[34.0784,0.3318,1148.454],[34.0751,0.329,1147.7498],[34.0743,0.33,1147.7498],[34.0746,0.3284,1147.8534],[34.0733,0.3284,1147.8534],[34.0718,0.3252,1147.6007],[34.0647,0.3261,1146.8916],[34.06,0.3237,1146.3478],[34.0582,0.3252,1146.1877],[34.0562,0.3238,1151.6934],[34.0579,0.3213,1146.4636],[34.0582,0.3153,1145.5328],[34.0604,0.3135,1148.3047],[34.0539,0.3091,1144.8682],[34.0504,0.3087,1144.8668],[34.0514,0.3064,1144.3778],[34.0483,0.3035,1143.9056],[34.05,0.2967,1143.5559],[34.0479,0.2936,1142.9784],[34.0423,0.2925,1143.0264],[34.0428,0.2883,1142.5585],[34.0401,0.2861,1143.1395],[34.0398,0.2812,1143.2478],[34.0421,0.2783,1141.1873],[34.0395,0.2752,1141.036],[34.0381,0.2756,1141.1294],[34.0377,0.2727,1140.7633],[34.0291,0.2692,1139.7366],[34.0277,0.2706,1139.4473],[34.0249,0.2684,1139.42],[34.0219,0.2613,1138.9586],[34.0229,0.2567,1138.637],[34.0074,0.2435,1136.3256],[33.9969,0.2262,1133.0],[33.9667,0.1844,1133.0],[33.9938,0.1694,1134.2417],[34.0115,0.1691,1173.8745],[34.023,0.1707,1199.2871],[34.0308,0.1671,1295.3966],[34.0638,0.1657,1245.2922],[34.085,0.1549,1250.1365],[34.0857,0.1502,1253.7856],[34.0892,0.1454,1193.8735]]]]}}