{"type": "Feature","bbox": [40.7747,-1.6917,41.5774,-0.8244],"geometry": {"type": "MultiPolygon","coordinates": [[[[40.7959,-1.2984,60.6659],[40.8009,-1.3003,61.0681],[40.8043,-1.3046,60.0751],[40.8105,-1.3079,59.8661],[40.8171,-1.3193,58.8515],[40.8467,-1.3409,56.7647],[40.8523,-1.3466,57.0001],[40.8641,-1.3468,56.1142],[40.8753,-1.3503,57.8626],[40.8825,-1.3566,52.2307],[40.8887,-1.357,53.387],[40.8919,-1.3596,52.191],[40.8975,-1.3601,50.6962],[40.9071,-1.3651,50.453],[40.9219,-1.3695,49.0328],[40.9299,-1.3763,49.3041],[40.9351,-1.3828,47.6542],[40.9365,-1.3871,48.825],[40.9355,-1.3984,47.089],[40.9329,-1.4036,46.8042],[40.9357,-1.4139,46.6104],[40.9333,-1.4177,44.7613],[40.9317,-1.4293,43.8527],[40.9349,-1.4325,45.1064],[40.9363,-1.4429,42.8297],[40.9401,-1.4479,42.2923],[40.9417,-1.4561,45.442],[40.9475,-1.4599,41.5992],[40.9485,-1.4677,40.7172],[40.9563,-1.4797,40.3285],[40.9591,-1.4911,39.1857],[40.9767,-1.5017,38.3548],[40.9803,-1.5076,37.0098],[40.9791,-1.5122,39.6519],[40.9893,-1.5162,35.8076],[40.9923,-1.5127,39.2212],[40.9993,-1.5126,37.3852],[41.0041,-1.509,35.5108],[41.0195,-1.507,37.5552],[41.0237,-1.503,37.5248],[41.0379,-1.5034,40.8888],[41.0413,-1.5089,33.6305],[41.0421,-1.5147,36.5889],[41.0441,-1.5177,36.7291],[41.0519,-1.5226,36.7955],[41.0549,-1.5299,35.192],[41.0519,-1.5379,31.5649],[41.0507,-1.5484,29.3508],[41.0571,-1.5594,30.5872],[41.0603,-1.575,29.7966],[41.0583,-1.5838,31.1269],[41.0637,-1.5899,30.7463],[41.0645,-1.5952,29.145],[41.0689,-1.5965,30.6705],[41.0751,-1.6019,27.7639],[41.0787,-1.6008,26.3991],[41.0837,-1.6044,26.7919],[41.0851,-1.6123,26.8969],[41.0939,-1.6177,25.8748],[41.0951,-1.6204,27.6982],[41.0941,-1.6258,26.4521],[41.1005,-1.6284,27.9402],[41.1015,-1.6377,25.4917],[41.1045,-1.6392,21.6284],[41.1085,-1.6466,24.7051],[41.1117,-1.647,22.375],[41.1129,-1.6514,23.5556],[41.118899999999996,-1.6542,23.3414],[41.1239,-1.6627,22.8413],[41.1309,-1.6648,24.5237],[41.1321,-1.6631,25.6475],[41.1341,-1.6633,24.0906],[41.1375,-1.6661,25.4224],[41.1411,-1.6667,26.0972],[41.1447,-1.6626,24.3945],[41.1553,-1.6613,25.6008],[41.1577,-1.6628,24.3377],[41.1633,-1.6719,24.2716],[41.1627,-1.6808,20.7028],[41.1593,-1.682,26.6212],[41.1589,-1.6838,24.0529],[41.1603,-1.688,19.3837],[41.1629,-1.688,23.9425],[41.1635,-1.6917,21.4181],[41.5624,-1.658,1.3903],[41.5693,-1.6515,2.644],[41.5721,-1.6451,5.8593],[41.5754,-1.6426,5.2958],[41.5774,-1.5848,15.5934],[41.493899999999996,-1.4816,27.2944],[41.3653,-1.3003,32.6442],[41.2754,-1.1803,47.2069],[41.2287,-1.1262,53.8774],[41.1819,-1.063,64.1027],[41.1152,-0.9781,92.9904],[41.0049,-0.8244,88.0645],[40.9843,-0.8304,90.3531],[40.8881,-0.8476,101.1606],[40.9021,-0.8703,98.5442],[40.9225,-0.8951,95.4602],[40.9313,-0.9103,93.5877],[40.9345,-0.9194,92.5007],[40.9429,-0.9693,86.8926],[40.9487,-0.9883,86.2683],[40.9569,-1.0071,88.5482],[40.9653,-1.017,86.5183],[40.9777,-1.0401,80.1369],[41.0045,-1.0732,78.9525],[40.9861,-1.2237,69.0227],[40.9285,-1.2347,67.8156],[40.9271,-1.2614,64.9371],[40.9231,-1.2535,66.685],[40.9137,-1.2442,69.5316],[40.8035,-1.1929,73.0522],[40.8021,-1.1997,72.5772],[40.7957,-1.2133,71.112],[40.7789,-1.2343,68.3462],[40.7747,-1.2465,66.8764],[40.7757,-1.2575,66.594],[40.7829,-1.271,65.1561],[40.7899,-1.2907,61.8249],[40.7959,-1.2984,60.6659]]]]}
,"properties": {"GID_3": "KEN.7.5.1_1","GID_0": "KEN","country": "Kenya","GID_1": "KEN.7_1","province": "Garissa","NL_NAME_1": "NA","GID_2": "KEN.7.5_1","county": "Ijara","NL_NAME_2": "NA","city": "Hulugho","VARNAME_3": "NA","NL_NAME_3": "NA","TYPE_3": "Ward","ENGTYPE_3": "Ward","CC_3": "157","HASC_3": "NA","name": "Hulugho.city","area_km2": 3806.349,"hist_schema_id": "Elevation0-9000","hist_area_km2": {"0": 10.215,"25": 1484.65,"50": 1232.673,"75": 908.116,"100": 170.696}}}