{"type": "Feature","bbox": [38.9147,-0.5565,39.6263,-0.0018],"geometry": {"type": "MultiPolygon","coordinates": [[[[39.0543,-0.0032,236.3994],[39.0505,-0.0051,231.5596],[39.0357,-0.0018,239.0174],[39.014,-0.0025,237.3911],[38.9669,-0.0137,226.9377],[38.9643,-0.013,227.6408],[38.9661,-0.0147,227.1682],[38.9485,-0.0285,240.2689],[38.9369,-0.0438,243.3576],[38.9197,-0.0413,257.4095],[38.9215,-0.056,240.2405],[38.9269,-0.0609,243.7093],[38.9315,-0.0776,223.7597],[38.9343,-0.0811,221.1109],[38.9463,-0.108,218.4589],[38.9447,-0.1103,218.3669],[38.9457,-0.1125,216.5027],[38.9487,-0.1138,217.0402],[38.9531,-0.1202,221.0887],[38.9541,-0.1348,224.8226],[38.9565,-0.1381,226.5086],[38.9557,-0.1405,226.538],[38.9519,-0.1433,229.6257],[38.9487,-0.1432,232.0006],[38.9465,-0.1459,233.3099],[38.9475,-0.1578,235.5559],[38.9507,-0.1608,235.0664],[38.9528,-0.1677,238.7524],[38.9493,-0.1758,250.6991],[38.952,-0.1834,244.618],[38.9511,-0.1854,246.1069],[38.9485,-0.1857,244.9198],[38.9473,-0.1925,248.9616],[38.9451,-0.1941,249.8206],[38.9375,-0.1924,257.832],[38.9267,-0.1962,261.2983],[38.9239,-0.2019,260.2981],[38.9249,-0.2093,262.833],[38.9173,-0.2162,280.3382],[38.9183,-0.2197,270.1571],[38.9165,-0.2242,277.7322],[38.9197,-0.2247,277.7733],[38.9218,-0.2276,274.9877],[38.9165,-0.2332,282.9001],[38.9147,-0.2382,285.0272],[38.9197,-0.2403,289.2767],[38.9213,-0.2506,286.8881],[38.9207,-0.2572,290.0147],[39.2741,-0.1916,192.2177],[39.2719,-0.2066,204.7767],[39.2789,-0.2229,219.2526],[39.2771,-0.2315,232.5401],[39.2663,-0.2428,242.9191],[39.2619,-0.254,251.9642],[39.2733,-0.268,250.784],[39.2857,-0.2707,243.0094],[39.2971,-0.2927,261.3912],[39.2773,-0.316,273.1206],[39.2569,-0.5017,306.2586],[39.2653,-0.512,303.126],[39.2689,-0.5192,301.8386],[39.2865,-0.5355,294.2899],[39.2959,-0.5516,288.3059],[39.3044,-0.5565,286.7961],[39.3053,-0.5538,291.4549],[39.3131,-0.5512,300.4359],[39.3433,-0.5431,297.6241],[39.3739,-0.5377,288.8918],[39.3955,-0.5315,289.1342],[39.4269,-0.5251,275.9597],[39.4745,-0.5206,261.9555],[39.4987,-0.5129,251.8805],[39.6227,-0.4867,143.9603],[39.618899999999996,-0.4839,140.1295],[39.6079,-0.4555,141.8517],[39.5967,-0.4392,146.5193],[39.5957,-0.4352,146.6192],[39.5885,-0.4247,152.7568],[39.5873,-0.4195,154.6721],[39.6115,-0.4092,145.1041],[39.6261,-0.4003,146.9153],[39.6263,-0.3192,180.1777],[39.6177,-0.3103,177.8925],[39.5999,-0.2969,171.827],[39.5831,-0.2685,182.8966],[39.5645,-0.2527,183.8911],[39.5517,-0.2485,179.3316],[39.5447,-0.244,176.8148],[39.5295,-0.2162,187.835],[39.5099,-0.2024,192.2437],[39.4867,-0.1787,201.1045],[39.4685,-0.1664,190.1673],[39.4561,-0.1553,205.7655],[39.4443,-0.1481,199.3772],[39.4315,-0.1451,195.7748],[39.4119,-0.1454,194.4131],[39.4075,-0.1442,193.1822],[39.3869,-0.1252,201.4705],[39.3621,-0.1144,205.0626],[39.3357,-0.0942,219.8326],[39.3265,-0.0896,222.7173],[39.3121,-0.0877,224.0229],[39.2939,-0.0913,215.9376],[39.2613,-0.0931,218.8658],[39.2281,-0.0854,216.6891],[39.1969,-0.0906,201.4925],[39.1857,-0.0882,201.109],[39.1725,-0.0823,196.716],[39.1553,-0.0783,190.976],[39.1479,-0.0743,193.3326],[39.1391,-0.0665,201.257],[39.1255,-0.0501,214.8301],[39.1037,-0.0218,229.6488],[39.1013,-0.0178,230.7256],[39.1033,-0.0148,233.8312],[39.1013,-0.0174,230.7256],[39.0905,-0.0082,233.2355],[39.0807,-0.0044,240.5643],[39.0683,-0.0029,236.2352],[39.0553,-0.0047,235.1555],[39.0543,-0.0032,236.3994]]]]}
,"properties": {"GID_3": "KEN.40.1.4_1","GID_0": "KEN","country": "Kenya","GID_1": "KEN.40_1","province": "TanaRiver","NL_NAME_1": "NA","GID_2": "KEN.40.1_1","county": "Bura","NL_NAME_2": "NA","city": "Madogo","VARNAME_3": "NA","NL_NAME_3": "NA","TYPE_3": "Ward","ENGTYPE_3": "Ward","CC_3": "100","HASC_3": "NA","name": "Madogo.city","area_km2": 2253.339,"hist_schema_id": "Elevation0-9000","hist_area_km2": {"150": 182.124,"175": 386.81,"200": 487.372,"225": 380.343,"250": 249.758,"275": 218.335,"300": 258.744,"325": 89.852}}}