{"type": "Feature","id": "893","bbox": [38.6648,-2.07812,41.88502,4.28493],"geometry": {"type": "Polygon","coordinates": [[[41.21529,3.93661,272.4879],[41.163,3.94268,275.0174],[41.11452,3.96234,313.8936],[41.07008,3.99691,292.6882],[41.0059,4.08668,378.5953],[40.97975,4.11076,313.4395],[40.96363,4.12037,461.812],[40.91588,4.13665,500.4638],[40.89769,4.14592,454.7936],[40.88735,4.15605,513.4662],[40.87061,4.18698,453.4371],[40.84601,4.21499,630.4735],[40.78576,4.25584,495.5689],[40.76374,4.28493,417.4018],[40.7007,4.24351,770.5757],[40.6175,4.2116,874.2343],[40.51187,4.17106,930.5742],[40.38268,4.12138,924.2614],[40.377,4.11608,956.3307],[40.37111,4.09993,979.6677],[40.36573,4.09487,965.2928],[40.28687,4.06745,1012.1679],[40.18559,4.03216,1010.8845],[40.1828,4.032,1008.6541],[40.1798,4.03283,1000.3254],[40.1768,4.03454,996.9336],[40.16719,4.03547,985.3239],[40.16626,4.03149,986.4667],[40.16698,4.02526,975.0983],[40.16244,4.01939,958.9232],[40.11717,3.99691,855.3444],[40.02022,3.95012,772.1608],[39.93413,3.9087,786.181],[39.84845,3.86728,836.0211],[39.8283,3.84258,859.5657],[39.80866,3.79029,856.0698],[39.78075,3.71657,837.0787],[39.76422,3.68575,866.8691],[39.7451,3.66058,872.0823],[39.66645,3.58872,859.2423],[39.60082,3.52891,965.0882],[39.57498,3.4979,973.0869],[39.55317,3.43132,876.5164],[39.53633,3.40501,1076.2484],[39.50439,3.40333,872.499],[39.48847,3.4139,843.2795],[39.48093,3.42726,1082.4025],[39.47566,3.4408,946.1318],[39.46698,3.45201,1190.9796],[39.43618,3.46237,1059.4597],[39.31133,3.46609,768.4046],[39.32052,3.48454,796.7784],[39.31587,3.4949,1081.3101],[39.30275,3.49568,1144.1516],[39.29634,3.49199,1075.8601],[39.29619,3.47645,803.8932],[39.31045,3.29086,643.389],[39.32037,3.25626,659.2309],[39.32719,3.19978,648.5206],[39.32812,3.06757,601.5522],[39.32611,3.05191,586.4509],[39.32332,3.04235,579.3608],[39.31991,3.03894,578.6136],[39.29805,3.02328,566.1699],[39.29324,3.01762,564.9976],[39.28177,3.00062,562.0761],[39.27526,2.99473,556.5063],[39.26699,2.98977,551.347],[39.21624,2.97346,540.0356],[39.20679,2.96935,535.3942],[39.19934,2.96323,531.896],[39.18431,2.94677,535.3153],[39.18059,2.94375,535.6113],[39.1764,2.94119,538.73],[39.16674,2.93747,543.8576],[39.13992,2.93104,539.7689],[39.13108,2.92644,532.1663],[39.12565,2.9231,527.9684],[39.12023,2.91822,521.2397],[39.11294,2.90915,514.4789],[39.11,2.90194,512.3052],[39.10886,2.89486,513.5196],[39.10907,2.8806,509.6047],[39.10638,2.86058,503.5736],[39.10188,2.85585,509.256],[39.09537,2.85189,502.6272],[38.97078,2.57382,436.6646],[38.95032,2.5431,430.2066],[38.89693,2.52625,419.8238],[38.88531,2.51998,419.1815],[38.882,2.51439,420.5671],[38.8819,2.50796,419.0242],[38.87983,2.50414,417.9281],[38.87983,2.49964,415.8923],[38.88262,2.49375,416.1978],[38.88779,2.47838,412.7573],[38.90158,2.44975,406.2783],[38.91616,2.38792,396.6289],[38.91941,2.33275,388.5487],[38.9312,2.27162,377.9955],[38.93507,2.26139,375.9473],[38.93662,2.25588,375.1527],[38.94225,2.21979,369.4213],[38.94411,2.21475,368.3587],[38.94535,2.19015,363.9518],[38.94174,2.1578,358.5288],[38.94163,2.14266,356.5122],[38.94318,2.13274,355.0379],[38.94985,2.12522,353.8411],[38.95264,2.12119,352.5466],[38.95512,2.11677,352.2236],[38.96039,2.10147,349.109],[38.96334,2.09737,348.222],[38.96659,2.09403,347.7629],[38.97047,2.09109,346.7001],[38.97745,2.0844,346.5855],[38.98225,2.0754,344.0393],[38.9961,2.03336,339.6918],[39.02649,1.97438,331.0916],[39.06793,1.91138,322.1844],[39.07506,1.90448,321.2498],[39.10731,1.88206,317.1026],[39.12193,1.86857,313.4723],[39.12503,1.86485,312.6495],[39.13604,1.84808,310.377],[39.14426,1.82922,306.803],[39.14689,1.82495,306.1101],[39.14999,1.82092,305.6203],[39.16023,1.81023,304.1594],[39.16612,1.80245,303.1415],[39.17516,1.78346,300.7097],[39.18555,1.73837,295.5743],[39.18756,1.7338,295.132],[39.19004,1.72969,294.8514],[39.19299,1.72579,294.3929],[39.20725,1.71199,290.9078],[39.21128,1.70912,290.7286],[39.21562,1.70656,289.5149],[39.24048,1.69788,286.5388],[39.25459,1.69096,284.4324],[39.25862,1.68817,284.13],[39.2721,1.67483,283.0233],[39.27991,1.66879,282.0236],[39.34089,1.63393,274.5578],[39.34817,1.62758,273.3187],[39.35484,1.62037,272.5429],[39.36042,1.61236,271.4304],[39.3629,1.60794,271.4178],[39.36492,1.60305,270.7905],[39.36988,1.59391,270.0775],[39.39225,1.56838,266.2556],[39.39613,1.56528,265.8705],[39.40078,1.56303,265.3136],[39.41117,1.5597,264.1133],[39.4152,1.55696,263.9631],[39.42202,1.5506,263.4361],[39.42527,1.54704,264.9892],[39.42899,1.54394,263.4803],[39.44734,1.53495,260.8612],[39.45059,1.5327,260.1608],[39.45153,1.53076,260.2621],[39.45075,1.52849,261.4531],[39.29417,1.4651,302.0129],[39.28347,1.45906,290.023],[39.27784,1.45262,285.2901],[39.27939,1.44159,279.8225],[39.44496,0.99885,202.101],[39.44651,0.99224,201.8807],[39.44641,0.98387,201.2294],[39.43752,0.97746,201.682],[39.42605,0.97183,202.0106],[39.3075,0.92604,208.2541],[39.30456,0.92299,208.378],[39.30161,0.91922,209.0635],[39.26916,0.86315,224.8377],[39.25691,0.84827,229.5642],[39.24575,0.83768,233.8728],[39.22306,0.82016,241.7685],[39.20989,0.80527,246.4923],[39.18214,0.76466,258.7428],[39.17066,0.743,262.5071],[39.16798,0.73463,264.3309],[39.16488,0.7198,266.9427],[39.16271,0.71531,269.5062],[39.15852,0.71112,268.5912],[38.82588,0.5856,363.4534],[38.81916,0.58234,366.8661],[38.81451,0.57955,367.6001],[38.81141,0.5763,370.9106],[38.80908,0.57263,369.9211],[38.79622,0.54524,376.0463],[38.78257,0.52405,385.1489],[38.77932,0.52059,385.8649],[38.77555,0.51749,389.0773],[38.7712,0.51521,388.1022],[38.76609,0.51372,392.9948],[38.70434,0.5056,415.1789],[38.69906,0.50421,415.6625],[38.69472,0.50255,421.529],[38.67705,0.49289,438.5495],[38.67426,0.49093,437.493],[38.67007,0.48736,437.6224],[38.66558,0.48044,447.077],[38.6648,0.47454,451.3652],[38.66666,0.47,451.0734],[38.67007,0.46648,459.5137],[38.68899,0.45305,478.5129],[38.69131,0.45083,482.6275],[38.69271,0.44747,490.0637],[38.74718,0.21534,453.9042],[38.74997,0.17725,444.4693],[38.74857,0.17017,446.7717],[38.74594,0.16345,452.6326],[38.73849,0.14898,455.8406],[38.73694,0.14242,462.0336],[38.74578,-0.06522,274.0588],[38.93383,-0.09312,219.7413],[38.94628,-0.08893,218.3135],[38.95409,-0.07886,213.878],[38.96039,-0.06646,213.0329],[38.96799,-0.05529,220.5391],[38.97869,-0.04889,213.4389],[38.99455,-0.04361,209.6132],[39.02633,-0.03788,217.3248],[39.05708,-0.03788,213.2875],[39.06488,-0.04015,206.8037],[39.06969,-0.04501,200.7176],[39.07341,-0.04992,205.6742],[39.07785,-0.05214,201.7168],[39.09005,-0.06211,199.1346],[39.14302,-0.12728,194.4723],[39.2287,-0.13069,179.5268],[39.24699,-0.13942,180.6344],[39.2657,-0.13741,178.3184],[39.28539,-0.13291,176.653],[39.30688,-0.1341,177.0096],[39.3227,-0.14216,178.1843],[39.33164,-0.15141,176.8549],[39.3428,-0.1589,173.098],[39.37251,-0.16371,175.9186],[39.38021,-0.16795,167.4046],[39.38636,-0.17343,167.993],[39.38884,-0.1788,178.8552],[39.39458,-0.18071,177.3205],[39.43039,-0.18872,162.9538],[39.44321,-0.19477,163.6889],[39.45902,-0.20469,161.5517],[39.47245,-0.21616,161.0686],[39.48139,-0.23203,160.9394],[39.4955,-0.24179,159.3987],[39.50088,-0.25022,156.3863],[39.51235,-0.27807,163.1752],[39.52305,-0.2836,151.5359],[39.53788,-0.28158,153.3792],[39.54707,-0.28494,154.4882],[39.5509,-0.29011,154.4563],[39.56108,-0.3083,155.9778],[39.56418,-0.31223,157.207],[39.58123,-0.32241,148.4958],[39.59441,-0.34628,151.9099],[39.63322,-0.48953,138.0294],[39.63989,-0.50467,140.1053],[39.65182,-0.50751,136.2043],[39.65911,-0.51542,137.5836],[39.66278,-0.5272,132.9695],[39.66376,-0.54188,137.421],[39.66986,-0.54265,132.7374],[39.69487,-0.57268,133.4091],[39.69854,-0.57914,133.1557],[39.71042,-0.58384,129.0059],[39.73662,-0.58648,128.652],[39.75254,-0.59278,131.2601],[39.76494,-0.60162,127.5276],[39.77388,-0.61247,126.0467],[39.77921,-0.62652,126.1692],[39.78107,-0.64461,127.5431],[39.8115,-0.68962,119.0838],[39.8129,-0.69629,121.5546],[39.81135,-0.71133,124.111],[39.81238,-0.72729,121.1016],[39.82143,-0.7368,118.8021],[39.81336,-0.75081,115.6459],[39.81548,-0.76579,114.334],[39.82825,-0.79887,113.6604],[39.83099,-0.83044,112.1773],[39.83398,-0.84047,109.2946],[39.84194,-0.83917,110.1895],[39.84876,-0.83917,106.684],[39.84706,-0.85385,108.0321],[39.84551,-0.85984,109.3117],[39.84194,-0.86713,106.6598],[39.84721,-0.87659,106.1891],[39.8624,-0.92237,104.6401],[39.86292,-0.92857,103.8668],[39.8624,-0.94904,100.9625],[39.87543,-0.97017,98.8374],[39.88132,-0.98661,98.9504],[39.88767,-1.01518,95.5469],[39.92318,-1.08624,93.0536],[39.93749,-1.1005,89.4483],[39.93015,-1.1081,90.5305],[39.92452,-1.11657,91.7325],[39.91703,-1.13466,89.3444],[39.93899,-1.13698,90.8417],[39.9563,-1.15114,85.2345],[39.96762,-1.17156,85.6545],[39.97165,-1.19269,81.3058],[39.99392,-1.21874,84.1678],[40.00575,-1.25755,76.3738],[40.01046,-1.34209,72.6936],[40.01697,-1.38069,69.7662],[40.02689,-1.41583,68.1439],[40.03345,-1.48043,63.5591],[40.03681,-1.49092,57.5535],[40.04255,-1.4996,58.0832],[40.08384,-1.58641,51.803],[40.09221,-1.59773,50.9621],[40.1057,-1.61101,50.0986],[40.11345,-1.62615,51.0739],[40.11562,-1.69018,44.6995],[40.12151,-1.71679,44.8982],[40.12311,-1.71747,43.3792],[40.12048,-1.72553,43.1948],[40.11593,-1.7309,44.402],[40.11154,-1.73462,41.639],[40.10942,-1.73798,41.8294],[40.10875,-1.75509,41.3871],[40.11562,-1.79942,38.648],[40.11438,-1.80764,38.5138],[40.10864,-1.81839,44.0709],[40.10942,-1.82609,39.4637],[40.11402,-1.83539,46.5406],[40.12471,-1.84681,36.8061],[40.12931,-1.85405,40.1838],[40.13727,-1.90149,37.794],[40.14358,-1.91549,40.6163],[40.1397,-1.91849,32.783],[40.13293,-1.92593,34.2752],[40.12931,-1.92913,31.924],[40.13737,-1.94309,35.8708],[40.14978,-1.99802,30.2334],[40.16373,-2.02835,30.5283],[40.16833,-2.04303,30.4351],[40.16404,-2.05326,24.8108],[40.16404,-2.05946,28.7765],[40.16823,-2.07812,24.9102],[40.223,-2.05708,29.3591],[40.99655,-1.71111,35.6387],[41.0029,-1.70997,37.6466],[41.53564,-1.67633,10.5852],[41.53594,-1.67631,10.5852],[41.53858,-1.6137,15.957],[41.53496,-1.59479,27.4867],[41.52287,-1.57277,20.801],[41.48453,-1.52316,24.7437],[41.43419,-1.45805,26.3948],[41.38376,-1.39304,30.5431],[41.33218,-1.32638,31.8845],[41.28299,-1.26282,42.3472],[41.23731,-1.2039,50.2888],[41.18222,-1.13269,57.3498],[41.13106,-1.06645,70.6333],[41.08155,-1.00257,90.7312],[41.05613,-0.9696,80.5998],[41.0306,-0.93674,83.7759],[41.00528,-0.90377,87.1938],[40.97975,-0.8708,89.8701],[40.97882,-0.79483,84.8159],[40.97789,-0.72435,97.3356],[40.97696,-0.65386,90.0787],[40.97551,-0.54524,91.5844],[40.97407,-0.43672,85.692],[40.97262,-0.3283,91.218],[40.97117,-0.21968,96.2904],[40.97045,-0.15219,92.4794],[40.96962,-0.0847,97.9351],[40.96849,-0.00274,96.9376],[40.96849,0.12232,93.6776],[40.96849,0.24727,88.5095],[40.96849,0.37233,81.3444],[40.96849,0.49728,77.7986],[40.96849,0.62234,80.9546],[40.96849,0.74724,86.7658],[40.96849,0.87225,95.3882],[40.96849,0.9972,99.6811],[40.96849,1.12221,103.7756],[40.96849,1.2303,118.7502],[40.96849,1.24721,121.5138],[40.96849,1.37219,140.4581],[40.96849,1.49714,158.0046],[40.96849,1.62215,174.1786],[40.96849,1.74718,194.2072],[40.96849,1.87213,214.6726],[40.96849,1.99717,237.494],[40.96849,2.10362,261.1619],[40.96849,2.21005,287.8289],[40.96849,2.3165,310.4805],[40.96849,2.42295,380.3374],[40.96849,2.49711,404.9999],[40.96714,2.63173,429.4323],[40.9659,2.76061,385.1255],[40.96539,2.81414,381.641],[40.97975,2.84189,381.4323],[41.01396,2.87579,385.6138],[41.09613,2.95708,378.444],[41.1784,3.03842,379.2461],[41.26066,3.11981,394.4697],[41.34273,3.20115,413.3997],[41.39451,3.27515,465.4521],[41.44618,3.34905,455.0246],[41.49796,3.42307,594.8367],[41.54964,3.49702,455.9654],[41.63356,3.61709,356.7696],[41.71738,3.73716,317.9495],[41.8013,3.85718,219.7261],[41.88502,3.97723,196.38],[41.83593,3.94945,201.522],[41.79138,3.95816,214.8018],[41.74735,3.98141,209.8499],[41.69981,3.99691,214.8448],[41.65744,3.9727,218.3318],[41.64297,3.96945,219.451],[41.6287,3.97208,220.9872],[41.60225,3.98307,227.4647],[41.58633,3.98415,240.4418],[41.50623,3.96438,232.9957],[41.47977,3.96294,235.621],[41.42954,3.94888,239.7413],[41.31741,3.94242,248.9992],[41.21529,3.93661,272.4879]]]}
,"properties": {"ISO3166-1-Alpha-3": "KEN","country": "Kenya","fill": "#00F","name": "North-Eastern","area_km2": 127152.23,"hist_schema_id": "Elevation0-9000","hist_area_km2": {"0": 4.28,"25": 1823.3,"50": 3912.84,"75": 6243.22,"100": 9740.99,"125": 9243.66,"150": 8266.1,"175": 8313.76,"200": 7319.85,"225": 5725.95,"250": 5300.33,"275": 4485.55,"300": 4484.62,"325": 4340.48,"350": 3895.66,"375": 3853.39,"400": 4116.0,"425": 3976.23,"450": 3513.89,"475": 3037.81,"500": 3065.61,"525": 2666.7,"550": 2311.35,"575": 1970.37,"600": 1975.28,"625": 1949.71,"650": 1636.91,"675": 1481.51,"700": 1327.25,"725": 1310.06,"750": 1025.26,"775": 931.51,"800": 937.6,"825": 734.56,"850": 578.34,"875": 459.49,"900": 408.56,"925": 267.63,"950": 163.86,"975": 156.11,"1000": 98.21,"1025": 50.64,"1050": 9.8,"1075": 8.93,"1100": 7.85,"1125": 5.69,"1150": 4.95,"1175": 4.06,"1200": 2.52,"1225": 1.76,"1250": 1.16}}}