{"type":"Feature","properties":{"featurecla":"River","scalerank":8,"rivernum":689,"dissolve":"689River","name":"null55","name_alt":null,"note":null,"min_zoom":7.0,"strokeweig":0.2,"name_en":null,"min_label":8.0},
"geometry":{"type": "LineString","coordinates": [[39.428808593750006,3.083856512494108,562.4385],[39.440527343750006,3.07306549686912,558.4321],[39.445556640625,3.06696198124412,557.0015],[39.449804687500006,3.0598330749941169,555.5673],[39.560644531250006,2.5517764343691169,427.6409],[39.546630859375,2.44623444218162,404.5731],[39.550390625,2.3503604187441169,385.3883],[39.557226562500006,2.30548737186912,378.461],[39.557714843750006,2.29266998905662,373.0851],[39.554101562500023,2.26801178593162,368.3607],[39.555419921875,2.25519440311912,365.7835],[39.562255859375,2.2422061218691169,364.1036],[39.654296875,2.15485260624412,341.9158],[39.76708984375,1.965692449994108,301.9484],[39.86865234375,1.71356842655662,258.4858],[39.928125,1.62775299686912,240.1596],[39.949462890625,1.60407135624412,235.9996],[39.97314453125,1.58295319218162,227.5862],[40.001074218750006,1.56415436405662,223.4605],[40.023681640625,1.5542178406191169,219.6273],[40.068945312500006,1.54169342655662,214.896],[40.09033203125,1.53327057499412,212.9348],[40.113671875000023,1.51557037968162,210.1721],[40.157324218750006,1.4663272156191169,201.6514],[40.1806640625,1.4453311218691169,194.7658],[40.224609375,1.41693756718162,187.079],[40.246484375000023,1.40680573124412,188.699],[40.26953125,1.40009186405662,181.8753],[40.306884765625,1.396600653119108,177.4002],[40.42333984375,1.39887116093162,165.9326],[40.447021484375,1.3940615906191169,160.5296],[40.508544921875,1.36810944218162,151.5286],[40.5625,1.3576846374941169,154.8484],[40.579833984375,1.35126373905662,148.6635],[40.654882812500006,1.30499909061912,136.6486],[40.725683593750006,1.24701569218162,136.0256],[40.788476562500023,1.18085358280662,121.3224],[40.868896484375,1.0693545593691169,112.6694],[40.902246093750023,1.04108307499412,105.5821],[40.942480468750006,1.02558014530662,102.1073],[40.992578125000023,1.02313873905662,98.2195],[41.153564453125,1.04901764530662,82.7659],[41.29541015625,1.04071686405662,70.5259],[41.35009765625,1.04962799686912,64.3403],[41.37548828125,1.05072662968162,60.6844],[41.4,1.04608795780662,58.9629],[41.477783203125,1.00372955936912,53.5256],[41.490917968750011,0.987665106244108,52.6215],[41.497314453125,0.970819403119108,51.1001],[41.507080078125,0.93170807499412,48.8056],[41.555566406250023,0.816278387494108,41.4038],[41.58447265625,0.774432684369117,39.6173],[41.62841796875,0.742694403119117,36.28],[41.680419921875,0.72870514530662,33.6773],[41.738671875000023,0.727411199994108,31.2147],[41.8505859375,0.74567291874412,29.116]]}}