{"type":"Feature","properties":{"GID_3":"KEN.15.1.3_1","GID_0":"KEN","country":"Kenya","GID_1":"KEN.15_1","province":"Kirinyaga","NL_NAME_1":"NA","GID_2":"KEN.15.1_1","county":"Gichugu","NL_NAME_2":"NA","city":"Karumandi","VARNAME_3":"NA","NL_NAME_3":"NA","TYPE_3":"Ward","ENGTYPE_3":"Ward","CC_3":"508","HASC_3":"NA","name":"Karumandi.city"},
"geometry":{"type": "MultiPolygon","coordinates": [[[[37.3634,-0.4789,1517.3528],[37.3645,-0.4811,1505.7686],[37.3698,-0.4734,1549.3796],[37.376,-0.4693,1559.4976],[37.3734,-0.4587,1577.4795],[37.3738,-0.4547,1590.5167],[37.3764,-0.4506,1589.249],[37.3763,-0.4448,1609.2266],[37.3729,-0.4407,1620.8612],[37.3722,-0.432,1649.875],[37.3705,-0.4303,1672.6923],[37.3724,-0.4256,1682.6488],[37.3709,-0.4249,1679.8595],[37.3711,-0.4218,1690.7744],[37.3739,-0.4203,1684.0074],[37.376,-0.4164,1707.8885],[37.3081,-0.1467,4622.269],[37.3193,-0.4108,1865.9919],[37.3235,-0.4188,1795.799],[37.321,-0.4292,1733.3297],[37.3236,-0.4326,1726.5741],[37.3265,-0.445,1665.8298],[37.3251,-0.4463,1654.9424],[37.3265,-0.4471,1662.2285],[37.3288,-0.4585,1598.5178],[37.3382,-0.4636,1574.8053],[37.3491,-0.4631,1570.6851],[37.3461,-0.4699,1545.4102],[37.3495,-0.4737,1530.3945],[37.35,-0.4793,1503.5707],[37.3579,-0.4753,1552.0261],[37.3634,-0.4789,1517.3528]]],
[[[37.6101,-0.3215,1561.1642],[37.6039,-0.3197,1589.3655],[37.3221,-0.1577,4749.0586],[37.6079,-0.3372,1555.09],[37.6093,-0.3404,1535.2312],[37.6261,-0.3514,1475.9045],[37.6321,-0.3521,1454.5278],[37.6355,-0.3493,1445.5259],[37.6376,-0.3494,1443.4385],[37.6469,-0.3543,1431.7267],[37.6477,-0.3582,1408.9824],[37.6533,-0.3615,1404.2971],[37.6567,-0.3599,1382.8843],[37.6675,-0.3601,1348.129],[37.6709,-0.3615,1346.2559],[37.6715,-0.3723,1363.4541],[37.6741,-0.3773,1355.6772],[37.6781,-0.3774,1337.4714],[37.6849,-0.3804,1300.8123],[37.7071,-0.3979,1186.7936],[37.7089,-0.4017,1170.7407],[37.7079,-0.4066,1164.7585],[37.7103,-0.4097,1148.0801],[37.7165,-0.4119,1123.5616],[37.7213,-0.4115,1103.7834],[37.7255,-0.4032,1060.7778],[37.7356,-0.3971,1060.5835],[37.7303,-0.395,1008.411],[37.7267,-0.3832,1071.6429],[37.7201,-0.3768,1136.231],[37.7107,-0.3628,1206.6136],[37.7038,-0.3592,1197.0251],[37.7033,-0.3551,1215.7844],[37.7053,-0.3479,1225.5415],[37.6919,-0.3416,1267.4261],[37.6745,-0.3425,1355.9194],[37.6691,-0.3397,1338.6547],[37.6711,-0.3384,1375.502],[37.6685,-0.3392,1374.1095],[37.6529,-0.3338,1399.2239],[37.6473,-0.3354,1424.0966],[37.6241,-0.3238,1518.7769],[37.6163,-0.3249,1516.2544],[37.6101,-0.3215,1561.1642]]],
[[[37.5629,0.0691,2121.7957],[37.5573,0.0727,2154.0652],[37.5555,0.0757,2177.1765],[37.5549,0.0745,2170.2549],[37.5574,0.0725,2154.0652],[37.5649,0.0677,2104.8008],[37.5629,0.0691,2121.7957]]],
[[[37.5528,0.1216,2028.7937],[37.5526,0.1213,2028.0946],[37.5524,0.1206,2028.0946],[37.5527,0.1214,2028.0946],[37.5528,0.1216,2028.7937]]],
[[[37.5515,0.1431,1945.4648],[37.5509,0.1444,1954.1428],[37.5553,0.1342,2008.967],[37.5537,0.1383,1953.6257],[37.5515,0.1431,1945.4648]]],
[[[37.5501,0.1456,1993.7605],[37.5509,0.1444,1954.1428],[37.5495,0.147,1993.7605],[37.5498,0.1461,1993.7605],[37.5501,0.1456,1993.7605]]],
[[[37.5489,0.1482,1974.1454],[37.549,0.1478,1974.1454],[37.5492,0.1476,1974.1454],[37.549,0.148,1974.1454],[37.5489,0.1482,1974.1454]]],
[[[37.5387,0.1579,1890.1636],[37.5369,0.1557,1897.3209],[37.5373,0.1545,1904.469],[37.5374,0.1547,1904.469],[37.5387,0.1579,1890.1636]]],
[[[37.4959,0.1736,1795.7776],[37.4957,0.1741,1788.046],[37.4955,0.1705,1803.814],[37.4961,0.1733,1795.7776],[37.4959,0.1736,1795.7776]]],
[[[37.4899,0.1982,1721.8263],[37.49,0.1986,1721.8263],[37.4899,0.1983,1721.8263],[37.4899,0.1982,1721.8263]]],
[[[37.5308,0.2137,1615.7998],[37.5309,0.2137,1615.7998],[37.5277,0.2151,1617.3574],[37.5304,0.2137,1615.7998],[37.5308,0.2137,1615.7998]]],
[[[37.4963,0.2172,1663.9277],[37.4955,0.2161,1666.3566],[37.4959,0.2165,1666.3566],[37.4963,0.2172,1663.9277]]],
[[[37.5129,0.2275,1603.0686],[37.5103,0.2263,1612.8826],[37.5097,0.2261,1612.8826],[37.5111,0.2265,1612.8826],[37.5129,0.2275,1603.0686]]],
[[[37.5149,0.2315,1582.0621],[37.5144,0.2322,1575.7616],[37.5137,0.2331,1575.7616],[37.5146,0.2307,1582.0621],[37.5149,0.2315,1582.0621]]],
[[[37.52735,0.2153,1617.3574],[37.5275,0.2152,1617.3574],[37.5277,0.2151,1617.3574],[37.52735,0.2153,1617.3574]]],
[[[37.52735,0.2153,1617.3574],[37.5272,0.2154,1617.3574],[37.527,0.2155,1612.975],[37.52735,0.2153,1617.3574]]]]}}