{"type":"Feature","properties":{"GID_3":"KEN.22.4.2_1","GID_0":"KEN","country":"Kenya","GID_1":"KEN.22_1","province":"Machakos","NL_NAME_1":"NA","GID_2":"KEN.22.4_1","county":"Masinga","NL_NAME_2":"NA","city":"Kivaa","VARNAME_3":"NA","NL_NAME_3":"NA","TYPE_3":"Ward","ENGTYPE_3":"Ward","CC_3":"371","HASC_3":"NA","name":"Kivaa.city"},
"geometry":{"type": "MultiPolygon","coordinates": [[[[37.8018,-0.8087,779.0],[37.7994,-0.8102,783.8454],[37.7958,-0.8173,779.0],[37.7821,-0.8248,786.1959],[37.7777,-0.8245,813.3394],[37.7711,-0.8207,829.156],[37.7649,-0.8243,850.37],[37.7573,-0.8238,867.7808],[37.7561,-0.8182,885.9291],[37.7539,-0.8154,892.5886],[37.7548,-0.8127,901.4661],[37.7498,-0.8028,922.9648],[37.7474,-0.7878,925.0],[37.7439,-0.7792,925.0],[37.7322,-0.7745,940.7499],[37.7242,-0.7804,937.1897],[37.7185,-0.7795,942.1992],[37.7066,-0.7815,954.0809],[37.6985,-0.7844,967.3395],[37.6988,-0.789,961.4685],[37.6929,-0.7911,968.7289],[37.6928,-0.7947,956.9959],[37.6905,-0.7967,970.5649],[37.6878,-0.794,980.9094],[37.6815,-0.7958,973.7408],[37.6824,-0.8087,1004.0],[37.6798,-0.8175,1004.0],[37.6815,-0.8226,1004.0],[37.6741,-0.8257,1004.0],[37.671,-0.8317,1004.0],[37.6709,-0.8372,1004.0],[37.6658,-0.8419,1004.0],[37.6651,-0.8458,1004.0],[37.6593,-0.8477,1006.9659],[37.6542,-0.8575,1016.9692],[37.6561,-0.8608,1019.1809],[37.6578,-0.8598,1024.9331],[37.658,-0.8616,1023.2062],[37.6596,-0.8614,1023.2062],[37.6567,-0.8693,1030.553],[37.66,-0.8716,1050.1272],[37.6603,-0.8737,1034.3132],[37.6624,-0.8745,1043.6982],[37.6645,-0.8727,1071.4821],[37.6648,-0.8744,1056.0148],[37.6677,-0.8752,1048.2306],[37.6661,-0.878,1044.4917],[37.6632,-0.8772,1037.3875],[37.6629,-0.88,1056.873],[37.6586,-0.8817,1064.0536],[37.6618,-0.8907,1064.8729],[37.6545,-0.8935,1074.9247],[37.6576,-0.904,1069.9495],[37.6573,-0.9163,1083.5958],[37.6596,-0.9227,1090.6234],[37.6653,-0.9277,1104.5336],[37.6695,-0.9289,1112.7751],[37.6695,-0.9356,1119.8999],[37.6734,-0.9398,1133.3196],[37.675,-0.9516,1158.1235],[37.6867,-0.9684,1263.9801],[37.7004,-0.9688,1298.7554],[37.7148,-0.9645,1133.6334],[37.7173,-0.9621,1117.677],[37.7227,-0.9697,1097.3315],[37.7281,-0.974,1143.3445],[37.7366,-0.9937,1156.3447],[37.741,-0.9957,1130.5857],[37.7545,-0.9942,1095.291],[37.7564,-0.9983,1102.4636],[37.7563,-1.0032,1110.7781],[37.7452,-1.021,1239.6353],[37.7444,-1.0259,1349.2562],[37.7478,-1.0304,1385.5403],[37.7436,-1.0426,1510.6174],[37.7397,-1.0487,1460.0547],[37.7423,-1.0512,1396.0437],[37.7413,-1.0637,1447.3329],[37.7372,-1.0679,1416.2024],[37.7336,-1.08,1488.9043],[37.7939,-1.125,1158.2831],[37.7978,-1.1207,1150.1014],[37.798,-1.1182,1154.1483],[37.8019,-1.1165,1145.3218],[37.8025,-1.111,1151.4291],[37.8046,-1.1091,1140.756],[37.8079,-1.0994,1137.4995],[37.808,-1.0922,1130.7009],[37.8188,-1.0802,1116.7274],[37.8206,-1.0708,1120.2195],[37.8261,-1.07,1118.7698],[37.8278,-1.0711,1117.1886],[37.832,-1.0677,1105.5647],[37.84,-1.0524,1105.3539],[37.8435,-1.0513,1096.7363],[37.846,-1.0475,1092.8247],[37.8458,-1.0449,1094.9272],[37.8483,-1.0415,1083.4755],[37.8463,-1.0293,1082.4446],[37.8488,-1.0264,1077.3057],[37.8491,-1.0136,1075.9434],[37.8512,-1.0032,1072.488],[37.847,-0.9995,1066.5034],[37.8462,-0.9947,1079.1431],[37.8503,-0.9943,1060.2428],[37.8496,-0.9911,1062.156],[37.854,-0.9866,1068.833],[37.8588,-0.9857,1061.3505],[37.8609,-0.9827,1063.9282],[37.8655,-0.9827,1042.5295],[37.8641,-0.9802,1049.1245],[37.8622,-0.98,1060.1696],[37.8623,-0.9784,1062.1332],[37.8681,-0.9775,1040.6538],[37.8677,-0.9735,1047.4075],[37.8622,-0.9738,1052.1353],[37.864,-0.9689,1048.5203],[37.8596,-0.9679,1037.0217],[37.8572,-0.9655,1044.022],[37.8532,-0.9668,1032.5447],[37.8445,-0.964,1050.3005],[37.8507,-0.961,1026.3589],[37.8511,-0.959,1028.2107],[37.8527,-0.9627,1017.901],[37.8541,-0.9623,1020.1473],[37.8539,-0.9586,1009.8721],[37.8491,-0.9528,1016.7715],[37.8515,-0.9503,1011.3912],[37.8463,-0.9473,1009.24],[37.8488,-0.9434,991.002],[37.846,-0.9423,1012.5322],[37.8468,-0.9402,1003.7235],[37.8502,-0.9418,995.1078],[37.8523,-0.938,981.1839],[37.8513,-0.9352,978.5115],[37.8488,-0.9366,989.3364],[37.8489,-0.9348,977.3666],[37.8512,-0.9335,980.846],[37.847,-0.9285,970.9523],[37.8416,-0.9277,969.4866],[37.8443,-0.9249,965.5533],[37.8438,-0.9236,962.4672],[37.8405,-0.9237,966.4997],[37.8427,-0.9198,967.7705],[37.8375,-0.9202,969.6044],[37.8386,-0.9098,941.8979],[37.8331,-0.9126,948.6611],[37.8331,-0.9078,934.9207],[37.8367,-0.9073,937.5591],[37.8369,-0.9052,958.3369],[37.8322,-0.9057,928.1594],[37.8284,-0.9014,916.9715],[37.8183,-0.8998,914.9718],[37.8185,-0.8962,926.0416],[37.8225,-0.8953,902.6809],[37.8243,-0.8908,892.515],[37.8221,-0.8909,897.0701],[37.8216,-0.8849,876.6735],[37.8198,-0.8826,900.0001],[37.8219,-0.8829,875.285],[37.8216,-0.8798,878.7238],[37.8257,-0.8761,852.5969],[37.8238,-0.8728,851.4018],[37.8274,-0.8722,840.6356],[37.8262,-0.8666,870.6809],[37.8318,-0.8641,828.705],[37.8284,-0.8607,831.7607],[37.8299,-0.8572,836.756],[37.833,-0.8575,810.5475],[37.833,-0.855,808.5882],[37.831,-0.8536,827.0291],[37.8365,-0.8515,813.9799],[37.8382,-0.8485,800.8707],[37.8365,-0.8466,814.1852],[37.8373,-0.845,814.2292],[37.841,-0.845,796.4064],[37.8447,-0.8421,779.1264],[37.8415,-0.8404,786.5217],[37.8408,-0.835,786.3975],[37.8491,-0.8325,752.635],[37.8456,-0.8281,764.3287],[37.8475,-0.8254,748.8835],[37.8475,-0.8213,751.2487],[37.843,-0.8185,749.264],[37.8458,-0.8132,735.3127],[37.8448,-0.8111,742.1822],[37.8385,-0.8094,754.2999],[37.8369,-0.8122,748.0024],[37.8336,-0.8137,742.0927],[37.8286,-0.8056,747.7869],[37.819,-0.8044,757.7431],[37.8084,-0.8152,764.7915],[37.8079,-0.8072,779.0],[37.8056,-0.8017,796.5021],[37.8018,-0.8087,779.0]]]]}}