{"type": "Feature","bbox": [33.9293,-0.5324,34.1311,-0.3341],"geometry": {"type": "MultiPolygon","coordinates": [[[[34.0424,-0.3341,1133.0],[33.9559,-0.3341,1133.0],[33.9405,-0.4188,1133.0],[33.9354,-0.4599,1133.0],[33.932,-0.5165,1133.0],[33.9293,-0.5324,1133.0],[34.0145,-0.5188,1133.0],[34.0757,-0.5027,1133.0],[34.1311,-0.4753,1133.0],[34.0424,-0.3341,1133.0]]]]}
,"properties": {"GID_3": "KEN.8.5.4_1","GID_0": "KEN","country": "Kenya","GID_1": "KEN.8_1","province": "HomaBay","NL_NAME_1": "NA","GID_2": "KEN.8.5_1","county": "Mbita","NL_NAME_2": "NA","city": "MfanganoIsland","VARNAME_3": "NA","NL_NAME_3": "NA","TYPE_3": "Ward","ENGTYPE_3": "Ward","CC_3": "1252","HASC_3": "NA","name": "Mfangano_Island.city","area_km2": 336.8296,"hist_schema_id": "Elevation0-9000","hist_area_km2": {"1125": 271.0837,"1150": 11.6608,"1175": 7.7598,"1200": 6.0848,"1225": 5.364,"1250": 4.2191,"1275": 4.4099,"1300": 4.7279,"1325": 2.9894,"1350": 3.2438,"1375": 2.8198,"1400": 2.2262,"1425": 2.3746,"1450": 1.9081,"1475": 1.5265,"1500": 1.2085,"1525": 1.1873,"1550": 0.7845,"1575": 0.318,"1600": 0.3816,"1625": 0.3604,"1650": 0.1908}}}