{"type": "Feature","bbox": [34.797,-0.4824,34.9426,-0.3622],"geometry": {"type": "MultiPolygon","coordinates": [[[[34.8898,-0.3945,1447.7054],[34.8881,-0.3953,1429.4878],[34.887,-0.3913,1464.9161],[34.8848,-0.39,1453.8922],[34.8793,-0.3896,1446.5063],[34.8779,-0.392,1431.9651],[34.8669,-0.3882,1466.6464],[34.8645,-0.3912,1434.7838],[34.8623,-0.3914,1422.3292],[34.8584,-0.3888,1411.3696],[34.8593,-0.3864,1408.7621],[34.8389,-0.387,1420.1901],[34.8333,-0.3822,1363.6516],[34.8248,-0.3824,1285.4584],[34.822,-0.3804,1355.8662],[34.8246,-0.3798,1337.8884],[34.8252,-0.3779,1327.2103],[34.8249,-0.3755,1263.955],[34.8213,-0.3731,1353.928],[34.8229,-0.3657,1381.3743],[34.8203,-0.3648,1232.0569],[34.8193,-0.3622,1269.9954],[34.806,-0.3716,1404.0312],[34.8007,-0.3767,1349.6265],[34.797,-0.3831,1430.4623],[34.8002,-0.394,1446.9314],[34.8054,-0.3958,1437.1167],[34.8104,-0.4034,1423.0344],[34.81,-0.4187,1398.7421],[34.8153,-0.4193,1398.9706],[34.8214,-0.4266,1385.3264],[34.827,-0.4278,1422.2118],[34.8338,-0.4268,1435.0076],[34.8362,-0.4318,1387.3168],[34.8412,-0.4368,1414.5769],[34.8512,-0.4397,1420.8853],[34.8606,-0.4463,1448.9858],[34.8654,-0.4544,1456.5914],[34.8736,-0.4595,1473.1804],[34.8763,-0.4711,1485.973],[34.8816,-0.4824,1524.8994],[34.9062,-0.476,1539.5342],[34.9426,-0.4572,1540.4849],[34.9391,-0.4526,1586.829],[34.9361,-0.4536,1575.6764],[34.9296,-0.4513,1550.3859],[34.9242,-0.4523,1548.1538],[34.9141,-0.4507,1511.8638],[34.909,-0.4481,1503.1719],[34.9086,-0.4461,1512.5751],[34.9136,-0.439,1535.7322],[34.9129,-0.4367,1538.7079],[34.8882,-0.4395,1547.7676],[34.8839,-0.4317,1515.2139],[34.8802,-0.4294,1509.2026],[34.8805,-0.4241,1476.3076],[34.8878,-0.4133,1460.0892],[34.8946,-0.416,1454.1292],[34.8999,-0.414,1471.2273],[34.9018,-0.4116,1513.9456],[34.8963,-0.4091,1444.3029],[34.8916,-0.4018,1402.0],[34.8921,-0.3984,1405.7043],[34.8898,-0.3945,1447.7054]]]]}
,"properties": {"GID_3": "KEN.8.2.2_1","GID_0": "KEN","country": "Kenya","GID_1": "KEN.8_1","province": "HomaBay","NL_NAME_1": "NA","GID_2": "KEN.8.2_1","county": "KabondoKasipul","NL_NAME_2": "NA","city": "KabondoWest","VARNAME_3": "NA","NL_NAME_3": "NA","TYPE_3": "Ward","ENGTYPE_3": "Ward","CC_3": "1227","HASC_3": "NA","name": "Kabondo_West.city","area_km2": 77.91597,"hist_schema_id": "Elevation0-9000","hist_area_km2": {"1175": 0.14841,"1200": 0.06361,"1225": 0.10601,"1250": 0.23322,"1275": 0.23322,"1300": 0.61485,"1325": 1.06009,"1350": 1.78094,"1375": 4.51596,"1400": 9.92239,"1425": 13.50545,"1450": 16.79169,"1475": 13.3358,"1500": 9.66791,"1525": 4.72794,"1550": 1.10248,"1575": 0.10601}}}