{"type":"Feature","properties":{"GID_2":"KEN.27.2_1","GID_0":"KEN","country":"Kenya","GID_1":"KEN.27_1","province":"Migori","NL_NAME_1":"NA","county":"KuriaEast","VARNAME_2":"NA","NL_NAME_2":"NA","TYPE_2":"Constituency","ENGTYPE_2":"Constituency","CC_2":"260","HASC_2":"NA","name":"Kuria_East.county"},
"geometry":{"type": "MultiPolygon","coordinates": [[[[34.7251,-1.3599,1774.2209],[34.6956,-1.2462,1484.8032],[34.6867,-1.2053,1484.8301],[34.6799,-1.2079,1463.7059],[34.6724,-1.2056,1436.4657],[34.6712,-1.1931,1448.9486],[34.6634,-1.1878,1446.7307],[34.661,-1.1836,1443.9463],[34.6529,-1.1814,1425.2561],[34.6531,-1.1738,1442.5973],[34.6546,-1.1717,1464.9825],[34.6492,-1.1686,1436.6986],[34.6463,-1.1642,1437.8022],[34.6429,-1.1643,1422.1068],[34.6432,-1.1615,1425.3667],[34.6378,-1.1571,1442.6433],[34.6375,-1.1617,1421.4866],[34.6395,-1.1631,1420.1007],[34.6377,-1.1649,1414.2322],[34.6384,-1.1688,1417.5383],[34.6343,-1.173,1427.0542],[34.6318,-1.1783,1443.0422],[34.6333,-1.1915,1436.9272],[34.6295,-1.2002,1457.1267],[34.6241,-1.2051,1481.228],[34.6204,-1.2125,1485.0701],[34.6136,-1.2179,1521.2081],[34.6082,-1.2249,1526.3115],[34.611,-1.2294,1489.2439],[34.612,-1.2371,1526.6274],[34.6109,-1.2408,1548.9633],[34.6033,-1.2424,1521.4188],[34.6029,-1.2445,1527.693],[34.6086,-1.2476,1591.1852],[34.6068,-1.2494,1575.6924],[34.6018,-1.2519,1542.4634],[34.5975,-1.2462,1519.4352],[34.5976,-1.2373,1515.3824],[34.5954,-1.234,1503.3965],[34.588,-1.233,1550.4379],[34.5789,-1.2256,1527.3065],[34.5725,-1.2226,1502.6879],[34.5554,-1.2182,1501.7281],[34.5419,-1.2125,1493.9271],[34.5364,-1.2169,1502.9436],[34.5363,-1.22,1499.5542],[34.5329,-1.2224,1518.6125],[34.5315,-1.2295,1535.0732],[34.5289,-1.2296,1507.2939],[34.5296,-1.238,1508.114],[34.5256,-1.2526,1539.8422],[34.5166,-1.2576,1566.4094],[34.5142,-1.2606,1577.0056],[34.4992,-1.2521,1564.5321],[34.4968,-1.2613,1572.6423],[34.5652,-1.3002,1734.8604],[34.5646,-1.2949,1702.6145],[34.5807,-1.304,1724.9133],[34.5805,-1.3088,1711.6207],[34.5923,-1.3155,1767.1112],[34.5964,-1.3128,1728.655],[34.7325,-1.3902,1872.7109],[34.7251,-1.3599,1774.2209]]]]}}