{"type": "Feature","bbox": [36.0895,-0.3017,36.1652,-0.2601],"geometry": {"type": "MultiPolygon","coordinates": [[[[36.1025,-0.2601,1948.3115],[36.0905,-0.2685,1978.8766],[36.0895,-0.281,1874.2095],[36.0971,-0.2805,1856.3741],[36.1012,-0.2819,1861.3478],[36.1391,-0.3017,1875.174],[36.1478,-0.2955,1893.2278],[36.1497,-0.2914,1898.1047],[36.1651,-0.2911,1928.1667],[36.1652,-0.2832,1926.1525],[36.1484,-0.2818,1902.504],[36.1491,-0.2865,1897.8101],[36.1271,-0.2754,1873.9871],[36.1286,-0.2712,1879.5759],[36.1273,-0.2704,1879.5759],[36.1242,-0.2719,1876.9949],[36.1025,-0.2601,1948.3115]]]]}
,"properties": {"GID_3": "KEN.31.7.5_1","GID_0": "KEN","country": "Kenya","GID_1": "KEN.31_1","province": "Nakuru","NL_NAME_1": "NA","GID_2": "KEN.31.7_1","county": "NakuruTownEast","NL_NAME_2": "NA","city": "Menengai","VARNAME_3": "NA","NL_NAME_3": "NA","TYPE_3": "Ward","ENGTYPE_3": "Ward","CC_3": "879","HASC_3": "NA","name": "Menengai.city","area_km2": 16.02867,"hist_schema_id": "Elevation0-9000","hist_area_km2": {"1850": 1.54774,"1875": 8.88362,"1900": 3.43472,"1925": 1.48414,"1950": 0.25442,"1975": 0.31803,"2000": 0.10601}}}