{"type": "Feature","bbox": [36.706,-0.7309,36.9635,-0.6297],"geometry": {"type": "MultiPolygon","coordinates": [[[[36.9313,-0.665,1877.5035],[36.9207,-0.6644,1854.7952],[36.9152,-0.6683,1901.9353],[36.914,-0.6672,1876.2465],[36.9113,-0.6711,1911.0065],[36.8985,-0.67,1959.4077],[36.8874,-0.6734,1987.7179],[36.8795,-0.6737,2069.8516],[36.879,-0.675,2057.594],[36.8762,-0.6737,2100.7695],[36.8751,-0.6751,2057.6575],[36.8715,-0.6725,2129.3613],[36.8667,-0.6741,2102.2983],[36.8538,-0.6704,2107.8784],[36.8434,-0.6759,2184.6719],[36.8371,-0.6761,2272.876],[36.8345,-0.6729,2156.1509],[36.8315,-0.6723,2141.9426],[36.8253,-0.6746,2177.2583],[36.8237,-0.6773,2232.8774],[36.8177,-0.6745,2166.4697],[36.8098,-0.6774,2240.3101],[36.7972,-0.6764,2274.2131],[36.79,-0.6741,2290.3818],[36.7814,-0.6676,2354.0454],[36.7778,-0.6671,2460.6504],[36.7731,-0.6696,2486.1306],[36.7696,-0.6675,2607.4368],[36.7607,-0.6664,2660.4246],[36.7533,-0.6617,2712.8054],[36.7435,-0.6612,2867.0847],[36.741,-0.6628,2804.6401],[36.7332,-0.6506,2984.3657],[36.7233,-0.648,3133.3899],[36.7225,-0.6423,3254.0134],[36.7157,-0.6345,3560.1882],[36.7079,-0.6297,3816.8374],[36.706,-0.6367,3612.5098],[36.7093,-0.6593,3405.7842],[36.723,-0.6731,3191.1682],[36.725,-0.6733,3120.6553],[36.7294,-0.6811,3041.542],[36.7392,-0.6837,2884.3523],[36.7422,-0.6818,2733.8779],[36.7484,-0.6825,2820.5632],[36.7495,-0.6874,2734.0857],[36.7546,-0.6929,2713.4568],[36.7568,-0.6942,2641.8413],[36.7598,-0.6929,2626.1445],[36.7647,-0.6952,2667.1736],[36.7683,-0.7007,2541.1309],[36.7717,-0.702,2629.6941],[36.7771,-0.713,2516.3003],[36.7864,-0.7169,2478.811],[36.7953,-0.7247,2434.7012],[36.802,-0.7273,2372.4077],[36.8049,-0.7309,2362.875],[36.8121,-0.7158,2280.6541],[36.8141,-0.7076,2285.5911],[36.819,-0.7069,2299.8157],[36.8224,-0.7097,2275.8091],[36.8301,-0.7101,2250.1895],[36.833,-0.714,2252.4575],[36.8373,-0.715,2209.3345],[36.8387,-0.7176,2167.7937],[36.8415,-0.7162,2168.2473],[36.846,-0.722,2115.0928],[36.8579,-0.7247,2104.199],[36.8596,-0.7236,2075.5981],[36.8617,-0.7265,2116.4749],[36.8673,-0.7285,2039.6849],[36.8723,-0.7277,1976.1467],[36.8697,-0.7207,1981.135],[36.8688,-0.7212,1948.5999],[36.8693,-0.7191,1964.8635],[36.8673,-0.7155,1993.8599],[36.869,-0.7134,2031.7041],[36.8668,-0.7112,2023.175],[36.8652,-0.7058,2070.2036],[36.8727,-0.6967,2153.7483],[36.878,-0.6978,2028.5878],[36.8879,-0.6949,2029.1923],[36.8966,-0.7008,1943.1903],[36.9008,-0.6993,1922.8248],[36.9044,-0.7001,1904.4536],[36.906,-0.6953,1955.7572],[36.9095,-0.6987,1900.1545],[36.9125,-0.6989,1863.1919],[36.9145,-0.697,1841.9237],[36.9171,-0.7011,1872.5607],[36.9184,-0.7005,1872.5607],[36.9193,-0.7036,1857.1053],[36.9207,-0.7026,1856.1445],[36.9228,-0.7052,1836.4684],[36.9263,-0.703,1838.6957],[36.9264,-0.7044,1838.6957],[36.9305,-0.7041,1770.165],[36.934,-0.7077,1763.3352],[36.9369,-0.7068,1774.3472],[36.9384,-0.7084,1781.3759],[36.941,-0.7073,1791.553],[36.9437,-0.7088,1785.266],[36.9463,-0.7075,1757.011],[36.9494,-0.7086,1749.6995],[36.9544,-0.7178,1712.0586],[36.9625,-0.7214,1662.4353],[36.9635,-0.7181,1698.4751],[36.9624,-0.7081,1756.8516],[36.9568,-0.7064,1721.2212],[36.9594,-0.6929,1731.7124],[36.9561,-0.6915,1757.8335],[36.9445,-0.6932,1751.0803],[36.9416,-0.6914,1728.5969],[36.9414,-0.689,1767.8857],[36.9381,-0.6867,1817.6448],[36.9404,-0.676,1839.7169],[36.9327,-0.6738,1804.4949],[36.9303,-0.6668,1843.5859],[36.9313,-0.665,1877.5035]]]]}
,"properties": {"GID_3": "KEN.29.3.1_1","GID_0": "KEN","country": "Kenya","GID_1": "KEN.29_1","province": "Murang'a","NL_NAME_1": "NA","GID_2": "KEN.29.3_1","county": "Kangema","NL_NAME_2": "NA","city": "Kanyenya-Ini","VARNAME_3": "NA","NL_NAME_3": "NA","TYPE_3": "Ward","ENGTYPE_3": "Ward","CC_3": "516","HASC_3": "NA","name": "Kanyenya-Ini.city","area_km2": 106.76661,"hist_schema_id": "Elevation0-9000","hist_area_km2": {"1700": 0.80562,"1725": 2.03526,"1750": 2.24727,"1775": 1.92926,"1800": 1.10243,"1825": 1.73846,"1850": 2.07767,"1875": 3.0529,"1900": 2.62889,"1925": 2.14127,"1950": 2.54408,"1975": 2.48048,"2000": 2.56528,"2025": 2.50168,"2050": 2.09887,"2075": 2.09887,"2100": 2.31087,"2125": 2.05646,"2150": 2.18366,"2175": 2.05646,"2200": 2.45927,"2225": 3.2013,"2250": 3.43451,"2275": 3.47691,"2300": 3.3285,"2325": 3.81612,"2350": 2.69248,"2375": 2.81968,"2400": 3.07409,"2425": 2.35327,"2450": 2.48047,"2475": 2.54408,"2500": 1.84446,"2525": 1.67485,"2550": 1.48405,"2575": 1.42044,"2600": 1.48405,"2625": 1.50525,"2650": 1.27204,"2675": 0.95403,"2700": 1.18724,"2725": 1.10244,"2750": 0.86923,"2775": 0.80563,"2800": 0.89043,"2825": 0.76323,"2850": 0.84803,"2875": 0.59362,"2900": 0.38161,"2925": 0.25441,"2950": 0.50882,"2975": 0.46642,"3000": 0.40281,"3025": 0.36041,"3050": 0.44522,"3075": 0.33921,"3100": 0.31801,"3125": 0.42402,"3150": 0.23321,"3175": 0.14841,"3200": 0.31801,"3225": 0.23321,"3250": 0.31801,"3275": 0.31801,"3300": 0.25441,"3325": 0.21201,"3350": 0.40282,"3375": 0.44522,"3400": 0.21201,"3425": 0.29681,"3450": 0.14841,"3475": 0.21201,"3500": 0.16961,"3525": 0.21201,"3550": 0.31801,"3575": 0.14841,"3600": 0.21201,"3625": 0.14841,"3650": 0.106,"3675": 0.19081,"3700": 0.0636,"3725": 0.106,"3750": 0.16961,"3775": 0.106,"3800": 0.0636,"3825": 0.0636}}}