{"type": "Feature","bbox": [35.7156,0.0006,35.8575,0.1661],"geometry": {"type": "MultiPolygon","coordinates": [[[[35.8562,0.092,1631.2142],[35.8575,0.0946,1624.8838],[35.844,0.1097,1642.9786],[35.8329,0.1317,1673.6628],[35.8252,0.1372,1714.1951],[35.8153,0.1481,1651.6096],[35.812,0.1542,1629.5759],[35.8103,0.1533,1576.5319],[35.7987,0.1642,1709.9269],[35.7953,0.1638,1821.0898],[35.7922,0.1661,1803.0659],[35.7795,0.1632,1886.165],[35.7771,0.1569,1934.5587],[35.7791,0.1553,2055.6558],[35.7847,0.1424,1966.4548],[35.7899,0.1396,1821.0845],[35.7873,0.1342,1708.845],[35.783,0.1333,1791.8593],[35.783,0.1307,1775.8282],[35.7807,0.1305,1769.4382],[35.7757,0.125,1776.0563],[35.7721,0.1244,1917.7324],[35.7714,0.1221,1826.9314],[35.763,0.1212,1945.0579],[35.7586,0.1226,2080.4424],[35.7534,0.1185,1998.9221],[35.7515,0.1136,1924.5137],[35.7469,0.1095,1949.1984],[35.7449,0.1034,1953.8643],[35.7408,0.1001,1890.7035],[35.7377,0.0926,2034.0613],[35.7395,0.0822,1925.4146],[35.7384,0.0805,1961.8027],[35.7361,0.0792,2039.9203],[35.735,0.0833,2048.9436],[35.7323,0.0845,2061.3689],[35.7284,0.0829,2051.6467],[35.7219,0.0747,2085.3445],[35.7192,0.0734,2111.0977],[35.7171,0.0675,2101.1484],[35.7156,0.0672,2101.1484],[35.7192,0.0636,2059.3599],[35.7212,0.0539,2101.7942],[35.7266,0.0563,2108.9121],[35.7358,0.0663,2036.4709],[35.7437,0.062,2023.2677],[35.7424,0.0562,2004.0603],[35.7447,0.0431,2050.0435],[35.7433,0.0431,2025.8062],[35.7455,0.0382,2047.9375],[35.7423,0.0327,2053.2031],[35.7424,0.0273,2046.4226],[35.7461,0.0238,2094.0984],[35.7465,0.0191,2081.481],[35.7406,0.0086,2124.2671],[35.7396,0.0037,2135.9316],[35.7476,0.0006,2113.4844],[35.7495,0.0073,2124.0842],[35.7533,0.0098,2085.9478],[35.7543,0.0159,2085.3147],[35.7607,0.0242,2026.9539],[35.7633,0.0348,2006.1816],[35.7715,0.0305,1947.2493],[35.7755,0.0315,1964.2583],[35.7956,0.0282,1893.1647],[35.7991,0.0293,1884.0079],[35.8028,0.0285,1869.2485],[35.8061,0.0257,1881.337],[35.8185,0.0336,1816.6423],[35.8207,0.0316,1771.1333],[35.8228,0.0247,1766.5411],[35.8244,0.0253,1736.4141],[35.8265,0.0273,1722.6464],[35.8261,0.029,1730.7681],[35.8318,0.0327,1706.9447],[35.8327,0.0456,1693.5354],[35.8371,0.0492,1689.6385],[35.8342,0.0622,1706.0513],[35.8383,0.0726,1672.2385],[35.845,0.0762,1654.3048],[35.8449,0.0793,1652.5702],[35.8478,0.0792,1642.9734],[35.8501,0.0813,1641.9323],[35.8562,0.092,1631.2142]]]]}
,"properties": {"GID_3": "KEN.1.5.3_1","GID_0": "KEN","country": "Kenya","GID_1": "KEN.1_1","province": "Baringo","NL_NAME_1": "NA","GID_2": "KEN.1.5_1","county": "EldamaRavine","NL_NAME_2": "NA","city": "Lembus/Perkerra","VARNAME_3": "NA","NL_NAME_3": "NA","TYPE_3": "Ward","ENGTYPE_3": "Ward","CC_3": "809","HASC_3": "NA","name": "Lembus_Perkerra.city","area_km2": 142.1182,"hist_schema_id": "Elevation0-9000","hist_area_km2": {"1575": 0.4452,"1600": 0.7633,"1625": 1.7598,"1650": 9.0533,"1675": 8.5869,"1700": 8.3961,"1725": 9.4138,"1750": 9.4562,"1775": 8.5657,"1800": 6.7211,"1825": 7.1875,"1850": 7.1027,"1875": 8.184,"1900": 10.0074,"1925": 5.4066,"1950": 4.9825,"1975": 5.6398,"2000": 6.3819,"2025": 8.7353,"2050": 7.2087,"2075": 4.1344,"2100": 3.2227,"2125": 0.6997,"2150": 0.0636}}}