{"type": "Feature","bbox": [39.6191,-4.0338,39.6266,-4.019],"geometry": {"type": "MultiPolygon","coordinates": [[[[39.6191,-4.0205,52.4673],[39.6196,-4.0338,51.2514],[39.6208,-4.0301,51.5517],[39.622,-4.0321,51.5448],[39.622,-4.0278,51.1032],[39.6266,-4.0241,51.4923],[39.6191,-4.019,52.5335],[39.6191,-4.0205,52.4673]]]]}
,"properties": {"GID_3": "KEN.28.1.4_1","GID_0": "KEN","country": "Kenya","GID_1": "KEN.28_1","province": "Mombasa","NL_NAME_1": "NA","GID_2": "KEN.28.1_1","county": "Changamwe","NL_NAME_2": "NA","city": "Kipevu","VARNAME_3": "NA","NL_NAME_3": "NA","TYPE_3": "Ward","ENGTYPE_3": "Ward","CC_3": "2","HASC_3": "NA","name": "Kipevu.city","area_km2": 0.740246,"hist_schema_id": "Elevation0-9000","hist_area_km2": {"50": 0.740246}}}