{"type": "Feature","bbox": [39.6629,-4.0801,39.6829,-4.0457],"geometry": {"type": "MultiPolygon","coordinates": [[[[39.6705,-4.0603,24.7651],[39.6629,-4.0779,1.1986],[39.6715,-4.0801,0.0],[39.6829,-4.0721,0.0],[39.6826,-4.0643,0.0],[39.681,-4.0632,0.0],[39.6796,-4.0576,0.0],[39.676,-4.0557,10.5128],[39.6751,-4.0529,5.0183],[39.679,-4.0476,1.0584],[39.6776,-4.0457,0.0],[39.6747,-4.0465,9.8885],[39.6705,-4.0603,24.7651]]]]}
,"properties": {"GID_3": "KEN.28.5.2_1","GID_0": "KEN","country": "Kenya","GID_1": "KEN.28_1","province": "Mombasa","NL_NAME_1": "NA","GID_2": "KEN.28.5_1","county": "Mvita","NL_NAME_2": "NA","city": "MjiWaKale/Makadara","VARNAME_3": "NA","NL_NAME_3": "NA","TYPE_3": "Ward","ENGTYPE_3": "Ward","CC_3": "26","HASC_3": "NA","name": "Mji_Wa_Kale_Makadara.city","area_km2": 4.124021,"hist_schema_id": "Elevation0-9000","hist_area_km2": {"0": 0.761356,"25": 3.362665}}}