{"type":"Feature","properties":{"GID_3":"KEN.32.2.4_1","GID_0":"KEN","country":"Kenya","GID_1":"KEN.32_1","province":"Nandi","NL_NAME_1":"NA","GID_2":"KEN.32.2_1","county":"Chesumei","NL_NAME_2":"NA","city":"Kosirai","VARNAME_3":"NA","NL_NAME_3":"NA","TYPE_3":"Ward","ENGTYPE_3":"Ward","CC_3":"766","HASC_3":"NA","name":"Kosirai.city"},
"geometry":{"type": "MultiPolygon","coordinates": [[[[35.1233,0.2238,1985.459],[35.124,0.2217,1960.2649],[35.126,0.2221,1953.2816],[35.1338,0.2184,1974.7946],[35.1396,0.2118,1942.7924],[35.1458,0.2087,1968.7725],[35.1559,0.2161,2008.179],[35.1558,0.2233,1976.5339],[35.1601,0.2288,1963.3652],[35.1593,0.2314,1963.9453],[35.1607,0.2345,1966.5233],[35.165,0.236,1965.3849],[35.1719,0.2308,1956.377],[35.1726,0.2324,1956.6176],[35.1686,0.2398,1948.8647],[35.1717,0.2438,1945.3359],[35.1677,0.2486,1944.3862],[35.1659,0.2586,1944.4432],[35.1572,0.2599,1945.1145],[35.1679,0.2677,1947.6189],[35.168,0.2694,1948.6394],[35.1649,0.2707,1951.0564],[35.1635,0.2735,1952.224],[35.1639,0.2758,1955.0193],[35.1657,0.2724,1952.3257],[35.1683,0.272,1949.9402],[35.1696,0.2686,1947.6189],[35.1821,0.2756,1954.7349],[35.1816,0.2801,1968.5005],[35.1841,0.2845,1999.3848],[35.1837,0.3015,2102.3127],[35.1877,0.3028,2106.7649],[35.1884,0.3048,2101.1899],[35.1845,0.3107,2093.5273],[35.1766,0.313,2102.3091],[35.1706,0.3187,2089.811],[35.1561,0.3365,2053.5972],[35.1339,0.3432,2043.1143],[35.1257,0.3363,2055.5488],[35.1201,0.3367,2009.5182],[35.1171,0.331,1993.2771],[35.1133,0.3313,1993.0323],[35.1096,0.3293,1995.589],[35.1069,0.3239,1982.3597],[35.1137,0.3184,1972.3381],[35.1161,0.311,2020.2731],[35.1149,0.3084,2026.5803],[35.1174,0.3059,2037.5869],[35.1169,0.3032,2007.2242],[35.1193,0.2988,1958.0016],[35.1124,0.2963,1928.675],[35.1096,0.2902,1921.562],[35.1069,0.2887,1946.8861],[35.1007,0.2896,1917.9811],[35.0936,0.2956,1923.9774],[35.0885,0.2938,1924.7373],[35.0817,0.2888,1910.1531],[35.0855,0.2864,1908.218],[35.0884,0.279,1911.3849],[35.0941,0.2714,1925.5601],[35.095,0.2626,1920.5144],[35.0999,0.2527,1936.9816],[35.1127,0.2438,1998.8276],[35.12,0.2422,2022.4778],[35.122,0.2403,2020.5859],[35.1253,0.2276,2006.413],[35.1233,0.2238,1985.459]]]]}}