{"type": "Feature","bbox": [35.1223,0.9844,35.4755,1.5626],"geometry": {"type": "MultiPolygon","coordinates": [[[[35.4229,1.1915,3039.6907],[35.467,1.229,3140.9016],[35.4674,1.2361,3161.0635],[35.4498,1.2711,2979.2642],[35.4475,1.2791,2903.2893],[35.4352,1.2847,3115.3174],[35.4498,1.3328,2174.116],[35.4478,1.3665,1812.8767],[35.4377,1.3996,2247.1187],[35.4361,1.4104,2243.0488],[35.4444,1.4231,1781.1279],[35.4613,1.4264,1139.215],[35.4652,1.4326,1097.5045],[35.4427,1.4332,1692.6541],[35.4082,1.4399,2542.9558],[35.4025,1.4485,2273.6143],[35.3925,1.4567,1744.3481],[35.3861,1.4716,1421.511],[35.3826,1.4739,1479.1885],[35.3795,1.4807,1297.3318],[35.3757,1.484,1508.647],[35.376,1.4854,1508.647],[35.3745,1.4855,1586.733],[35.3725,1.4823,1473.1412],[35.3701,1.4829,1496.9288],[35.3584,1.4944,1825.5459],[35.3546,1.4964,1620.163],[35.3528,1.5009,1571.8103],[35.3443,1.5035,1413.2853],[35.34,1.5079,1351.6125],[35.3421,1.5108,1416.51],[35.3712,1.5258,1424.9994],[35.3923,1.5419,1344.4998],[35.3913,1.5436,1220.7935],[35.3894,1.5431,1154.7617],[35.3865,1.5453,1212.2996],[35.3877,1.5494,1361.1981],[35.3835,1.5468,1206.9329],[35.3817,1.5499,1306.4397],[35.3812,1.5476,1295.6427],[35.3781,1.547,1223.5298],[35.3774,1.5492,1253.3365],[35.3803,1.5513,1335.881],[35.3788,1.5524,1351.9346],[35.3745,1.5514,1282.1532],[35.3733,1.5496,1252.7509],[35.3715,1.5512,1283.8145],[35.3652,1.5495,1230.9143],[35.3623,1.5514,1236.7513],[35.3626,1.5565,1295.7542],[35.3607,1.5605,1352.9358],[35.3594,1.5596,1320.8406],[35.3588,1.562,1351.5774],[35.357,1.5624,1376.1514],[35.3556,1.5593,1302.0143],[35.3546,1.5626,1316.0973],[35.3523,1.5624,1312.6426],[35.3502,1.5595,1377.7246],[35.3524,1.5576,1382.3201],[35.3521,1.5555,1353.7136],[35.3503,1.5565,1365.464],[35.347,1.5537,1389.8171],[35.3465,1.5564,1472.7141],[35.3418,1.5535,1369.543],[35.3435,1.5522,1417.5901],[35.343,1.5504,1337.3396],[35.3394,1.5508,1409.6394],[35.3405,1.5529,1382.9656],[35.3368,1.5524,1487.3094],[35.337,1.5497,1504.2661],[35.3318,1.5517,1416.3708],[35.3273,1.5452,1467.917],[35.3256,1.5464,1452.9739],[35.3223,1.5446,1543.516],[35.3206,1.5463,1620.9515],[35.3189,1.5445,1633.6643],[35.3133,1.5461,1502.3517],[35.308,1.541,1676.4099],[35.2951,1.5456,1662.3994],[35.2763,1.5424,1932.0378],[35.2588,1.5372,1880.1863],[35.2486,1.5368,2011.7312],[35.2432,1.5373,2183.499],[35.2379,1.5447,2043.6649],[35.2316,1.5476,1939.3154],[35.2249,1.5466,1700.4015],[35.2228,1.5446,1774.2786],[35.2212,1.5354,1896.906],[35.2176,1.5297,1705.5713],[35.2114,1.5307,1438.778],[35.2058,1.5251999999999999,1544.8054],[35.2013,1.5248,1806.636],[35.2005,1.5222,1920.3542],[35.1939,1.5178,1743.6508],[35.1927,1.5112,2016.7756],[35.1983,1.5053,1676.7705],[35.2031,1.5043,1651.4686],[35.1681,1.4907,1701.8073],[35.16,1.4929,1541.2003],[35.1599,1.494,1539.8118],[35.1527,1.4932,1435.6841],[35.1432,1.4878,1430.5266],[35.1438,1.4854,1439.7937],[35.1391,1.4828,1419.0364],[35.1369,1.4829,1342.3109],[35.1335,1.4878,1326.2709],[35.1303,1.4869,1316.6735],[35.1274,1.4831,1325.2334],[35.1307,1.4723,1337.2836],[35.1267,1.471,1396.9559],[35.1253,1.4688,1375.1184],[35.125,1.4652,1350.6704],[35.1271,1.4618,1342.1106],[35.1241,1.4534,1373.5264],[35.1243,1.4477,1364.6553],[35.1223,1.4446,1374.5737],[35.1241,1.441,1372.0674],[35.125,1.4264,1377.4766],[35.1273,1.4232,1388.6512],[35.1353,1.4222,1409.6565],[35.1392,1.4184,1420.6573],[35.1417,1.42,1421.2407],[35.1414,1.4167,1424.7991],[35.1435,1.4152,1426.927],[35.143,1.4107,1427.0292],[35.1449,1.4085,1429.3716],[35.1456,1.4093,1437.1199],[35.1459,1.4044,1447.5259],[35.1487,1.4025,1447.9877],[35.146,1.4,1452.9058],[35.1463,1.3984,1454.3958],[35.149,1.398,1454.1415],[35.1469,1.393,1462.7551],[35.1477,1.3913,1458.7104],[35.1461,1.3901,1465.1481],[35.1491,1.3846,1471.7686],[35.1463,1.3837,1482.2268],[35.1452,1.3789,1571.9205],[35.1424,1.3788,1582.897],[35.1419,1.3761,1554.9285],[35.1391,1.3762,1579.665],[35.1381,1.3781,1568.4183],[35.136,1.377,1562.9573],[35.1375,1.3757,1585.1254],[35.13,1.3739,1515.0942],[35.1322,1.36,1591.1919],[35.1336,1.3595,1600.2423],[35.1345,1.3618,1598.5371],[35.1391,1.3556,1687.6841],[35.1427,1.3555,1697.1331],[35.1397,1.3526,1642.5656],[35.1412,1.3497,1640.5491],[35.1368,1.3508,1638.8977],[35.1367,1.3452,1682.4216],[35.1313,1.3431,1723.4165],[35.1312,1.3387,1720.4556],[35.1332,1.3381,1695.3296],[35.1318,1.3319,1732.2512],[35.1374,1.3177,1899.812],[35.1497,1.309,2087.396],[35.1604,1.2957,2161.458],[35.1585,1.2924,2264.4155],[35.1551,1.2914,2118.9595],[35.1512,1.2809,2089.8628],[35.1463,1.2789,2124.0916],[35.1459,1.2774,2161.0198],[35.1424,1.2791,2177.8489],[35.1467,1.2742,2239.3672],[35.1569,1.2682,2176.4043],[35.159,1.2647,2184.8462],[35.1598,1.2662,2102.5015],[35.1627,1.2633,2116.2461],[35.1729,1.2585,2326.343],[35.1733,1.2613,2161.8887],[35.1799,1.2646,2078.1082],[35.1917,1.2644,2233.6113],[35.1962,1.2628,2425.6775],[35.2058,1.2637,2091.8086],[35.2078,1.2654,2054.3645],[35.2154,1.2648,2126.9863],[35.2189,1.2694,2222.5396],[35.2287,1.2735,2271.2983],[35.2371,1.2747,2382.7241],[35.2432,1.2737,2317.3496],[35.2272,1.2684,2330.7656],[35.2203,1.2633,2389.436],[35.217,1.2527,2320.6624],[35.2124,1.2488,2298.335],[35.2161,1.2383,2264.7092],[35.2156,1.2335,2231.9268],[35.2081,1.2381,2374.1875],[35.1919,1.2273,2253.0117],[35.1515,1.2046,2217.6162],[35.2484,1.1583,2243.5791],[35.3253,1.124,2444.0427],[35.3336,1.1277,2460.3464],[35.3439,1.1088,2500.1213],[35.3451,1.1036,2468.5044],[35.3503,1.0971,2500.6899],[35.3524,1.0881,2425.3955],[35.3511,1.0837,2420.114],[35.3485,1.0832,2472.6089],[35.3498,1.0781,2401.2578],[35.3464,1.0745,2438.8362],[35.3428,1.0656,2397.7822],[35.3538,1.0643,2382.2932],[35.3712,1.065,2487.8416],[35.3715,1.0611,2456.7913],[35.3831,1.0542,2599.4482],[35.3817,1.039,2425.5728],[35.3849,1.033,2572.2117],[35.3886,1.0324,2664.3525],[35.3885,1.0231,2609.8938],[35.3735,1.0215,2432.623],[35.3716,1.0155,2518.2646],[35.3664,1.0144,2388.5273],[35.3662,1.0104,2285.8794],[35.379,1.0072,2576.4316],[35.3894,1.001,2650.6445],[35.3996,0.9894,2604.0376],[35.4036,0.9899,2559.2422],[35.4197,0.9844,2635.7295],[35.4308,0.9852,2611.0391],[35.4343,0.9968,2642.3979],[35.434,1.0089,2723.3093],[35.4355,1.0118,2794.6533],[35.4388,1.0076,2809.4321],[35.4483,1.0077,2703.4893],[35.4584,1.0056,2814.5366],[35.4676,1.0062,2719.0205],[35.4682,1.0045,2756.1389],[35.4739,1.0062,2535.251],[35.4732,1.0177,2571.1724],[35.4755,1.0234,2515.1216],[35.474,1.0318,2730.0515],[35.4714,1.0315,2752.3657],[35.467,1.0344,2625.4917],[35.4673,1.0407,2673.011],[35.4622,1.0442,2818.8599],[35.4536,1.0436,2748.6025],[35.4537,1.057,2867.4722],[35.4492,1.0613,2863.5361],[35.4477,1.0709,2872.1011],[35.448,1.0794,2783.0598],[35.4539,1.0879,2826.0315],[35.4518,1.0973,2847.5601],[35.4479,1.1032,2821.5276],[35.4488,1.1228,2878.9067],[35.4474,1.1273,2960.9426],[35.4508,1.1297,2965.8528],[35.453,1.1228,2914.4531],[35.4578,1.1247,2947.3643],[35.4685,1.1244,2901.9739],[35.4736,1.1348,2896.9067],[35.4727,1.1441,2945.1636],[35.4608,1.1647,3138.7205],[35.4583,1.165,3164.571],[35.4542,1.1625,3218.8955],[35.4483,1.1642,3130.6482],[35.4458,1.1676,3143.1897],[35.4414,1.165,3065.3291],[35.442,1.1693,3195.0073],[35.4375,1.1702,3144.9824],[35.4389,1.173,3111.8997],[35.4374,1.1765,3149.4058],[35.4329,1.1766,3027.978],[35.4326,1.179,3130.7715],[35.4294,1.1772,3054.5154],[35.4278,1.1739,3028.7676],[35.4214,1.1765,3001.2361],[35.4234,1.1795,3099.1047],[35.4219,1.1878,3132.426],[35.4229,1.1915,3039.6907]],
[[35.4674,1.0078,2681.519],[35.4669,1.0076,2681.519],[35.4688,1.0093,2608.9678],[35.4685,1.0084,2681.3276],[35.4674,1.0078,2681.519]],
[[35.4662,1.02,2731.6575],[35.4684,1.0177,2700.3994],[35.466,1.0138,2709.1226],[35.4688,1.0128,2623.3179],[35.4639,1.0106,2712.0117],[35.4603,1.0124,2810.3911],[35.462,1.0139,2814.2747],[35.4604,1.0139,2814.2747],[35.4603,1.0168,2806.7322],[35.4632,1.0173,2772.5703],[35.4616,1.0196,2766.5278],[35.4662,1.02,2731.6575]]]]}
,"properties": {"GID_2": "KEN.47.3_1","GID_0": "KEN","country": "Kenya","GID_1": "KEN.47_1","province": "WestPokot","NL_NAME_1": "NA","county": "PokotSouth","VARNAME_2": "NA","NL_NAME_2": "NA","TYPE_2": "Constituency","ENGTYPE_2": "Constituency","CC_2": "132","HASC_2": "NA","name": "Pokot_South.county","area_km2": 1482.556,"hist_schema_id": "Elevation0-9000","hist_area_km2": {"1050": 0.042,"1075": 0.064,"1100": 0.085,"1125": 0.148,"1150": 0.318,"1175": 0.784,"1200": 0.721,"1225": 1.123,"1250": 1.78,"1275": 2.543,"1300": 3.54,"1325": 5.214,"1350": 9.432,"1375": 11.064,"1400": 13.077,"1425": 16.087,"1450": 18.906,"1475": 22.573,"1500": 30.246,"1525": 39.106,"1550": 46.948,"1575": 55.172,"1600": 55.088,"1625": 54.452,"1650": 51.761,"1675": 42.413,"1700": 34.126,"1725": 29.357,"1750": 24.185,"1775": 21.747,"1800": 18.737,"1825": 16.088,"1850": 14.731,"1875": 14.392,"1900": 13.269,"1925": 13.036,"1950": 10.598,"1975": 10.768,"2000": 11.213,"2025": 10.535,"2050": 9.56,"2075": 10.026,"2100": 9.475,"2125": 9.242,"2150": 9.793,"2175": 10.726,"2200": 11.722,"2225": 16.873,"2250": 17.424,"2275": 18.802,"2300": 19.629,"2325": 21.282,"2350": 20.561,"2375": 17.255,"2400": 16.11,"2425": 17.149,"2450": 17.382,"2475": 14.944,"2500": 12.93,"2525": 12.824,"2550": 11.637,"2575": 11.828,"2600": 13.121,"2625": 13.779,"2650": 16.28,"2675": 16.301,"2700": 17.997,"2725": 17.658,"2750": 19.163,"2775": 21.579,"2800": 22.809,"2825": 28.172,"2850": 29.677,"2875": 31.818,"2900": 28.447,"2925": 24.398,"2950": 20.562,"2975": 16.343,"3000": 14.223,"3025": 12.867,"3050": 10.641,"3075": 8.733,"3100": 7.567,"3125": 5.511,"3150": 5.193,"3175": 5.49,"3200": 6.084,"3225": 5.999,"3250": 6.825,"3275": 6.296,"3300": 4.091,"3325": 1.971,"3350": 0.297,"3375": 0.021}}}