{"type": "Feature","bbox": [38.0583,-4.1388,38.5981,-3.3311],"geometry": {"type": "MultiPolygon","coordinates": [[[[38.445,-4.1388,623.1754],[38.4846,-4.0717,697.9943],[38.5509,-3.9389,605.969],[38.5003,-3.8111,639.5607],[38.4831,-3.8083,646.58],[38.4807,-3.8021,651.9327],[38.4841,-3.7874,658.4459],[38.4697,-3.7739,670.3027],[38.4683,-3.7685,673.2059],[38.4703,-3.7592,677.5475],[38.4665,-3.7468,684.221],[38.4643,-3.7459,684.8744],[38.4607,-3.7471,685.0695],[38.4561,-3.743,689.5724],[38.4481,-3.7314,698.2839],[38.4433,-3.7288,702.7782],[38.4425,-3.7257,704.9458],[38.4385,-3.7222,707.6055],[38.4339,-3.7141,713.8787],[38.5189,-3.6546,754.7684],[38.5343,-3.6485,828.3126],[38.5981,-3.6065,633.5887],[38.5701,-3.5578,686.419],[38.4755,-3.5573,835.0571],[38.4467,-3.4801,749.6049],[38.4611,-3.4722,705.3639],[38.4645,-3.4663,708.4263],[38.4639,-3.4583,700.0945],[38.4697,-3.4533,678.228],[38.4775,-3.4505,657.1307],[38.4823,-3.445,652.9034],[38.4827,-3.4528,638.4524],[38.4905,-3.4531,631.8705],[38.4883,-3.451,642.6849],[38.4896,-3.4486,652.7499],[38.4913,-3.4485,645.7628],[38.4931,-3.4515,627.1897],[38.4961,-3.4481,646.3735],[38.4991,-3.4517,627.1315],[38.4991,-3.4545,622.7715],[38.5037,-3.4517,623.2205],[38.5045,-3.4465,622.4288],[38.5087,-3.4468,616.2231],[38.5114,-3.4494,613.1495],[38.5145,-3.4485,633.8021],[38.5165,-3.4508,623.8044],[38.5207,-3.4507,612.064],[38.5216,-3.4492,617.2192],[38.5273,-3.4485,595.9676],[38.5265,-3.4462,601.006],[38.5292,-3.4429,611.1136],[38.5367,-3.4438,594.1299],[38.5426,-3.4385,585.422],[38.5455,-3.4389,584.1927],[38.5503,-3.4367,580.3171],[38.5521,-3.435,578.4272],[38.5509,-3.4257,573.6173],[38.5525,-3.4166,568.3805],[38.5501,-3.4223,574.9521],[38.5507,-3.4311,577.1655],[38.5486,-3.4351,589.2151],[38.5401,-3.4353,596.1075],[38.539,-3.439,591.6916],[38.511,-3.4313,679.6249],[38.5029,-3.4106,769.2818],[38.4835,-3.4043,782.5844],[38.4729,-3.3908,1229.3015],[38.4681,-3.3883,1053.1841],[38.4651,-3.382,902.9048],[38.4443,-3.3687,1006.1633],[38.4445,-3.3661,1033.6271],[38.4367,-3.3644,1268.7729],[38.4383,-3.3544,1348.2155],[38.4409,-3.3543,1324.6318],[38.4387,-3.3493,1382.949],[38.4385,-3.3424,1344.2761],[38.4411,-3.3365,1362.1025],[38.4267,-3.3363,1281.0793],[38.4239,-3.3311,1291.5848],[38.4177,-3.3317,1283.4016],[38.4003,-3.338,1023.5466],[38.3993,-3.3535,978.486],[38.4037,-3.3692,884.1497],[38.4137,-3.3776,923.7768],[38.4161,-3.3837,863.211],[38.4193,-3.3862,826.5657],[38.4149,-3.4111,681.0644],[38.4131,-3.4091,684.341],[38.4061,-3.409,708.9043],[38.4019,-3.4058,835.8463],[38.3969,-3.4052,875.3619],[38.3941,-3.4062,849.6346],[38.3937,-3.4093,826.4476],[38.3963,-3.4155,973.0445],[38.3935,-3.4197,986.2502],[38.3881,-3.4161,1011.16],[38.3841,-3.4173,1128.8223],[38.3807,-3.4139,1239.0732],[38.3775,-3.4132,1334.4283],[38.3629,-3.4191,1460.2623],[38.3575,-3.4168,1462.0623],[38.3549,-3.4197,1531.1448],[38.3501,-3.4177,1485.1162],[38.3469,-3.4201,1553.3433],[38.3423,-3.419,1618.3171],[38.3381,-3.4107,1682.2502],[38.3337,-3.4109,1752.4714],[38.3337,-3.4203,1627.8665],[38.3325,-3.419,1625.9272],[38.3207,-3.419,1433.0488],[38.3191,-3.426,1474.8525],[38.3159,-3.429,1344.1992],[38.3069,-3.42,1596.6426],[38.2915,-3.4128,2018.7704],[38.2709,-3.4154,1826.501],[38.2665,-3.4215,1361.8833],[38.2637,-3.4312,1157.2413],[38.2339,-3.4297,1126.4056],[38.2127,-3.4247,1082.009],[38.2177,-3.4027,1106.8259],[38.2239,-3.3874,1111.5095],[38.1511,-3.3727,1234.0127],[38.1389,-3.3651,1355.7922],[38.1335,-3.3637,1185.4497],[38.1335,-3.3773,1220.5901],[38.1187,-3.3773,1137.5273],[38.1185,-3.4031,1092.2537],[38.1191,-3.4355,1035.5457],[38.1335,-3.4356,1042.095],[38.1333,-3.7506,764.588],[38.2379,-3.7688,769.9445],[38.2479,-3.7854,807.8197],[38.2527,-3.7903,792.4168],[38.2583,-3.8016,820.1254],[38.2605,-3.8221,872.5507],[38.2595,-3.8431,887.2722],[38.2635,-3.8544,881.1837],[38.2625,-3.8571,879.1481],[38.2581,-3.8606,869.0837],[38.2491,-3.8622,815.3087],[38.2463,-3.861,797.2021],[38.2429,-3.8643,770.3005],[38.2215,-3.8704,751.3722],[38.1889,-3.8769,734.0181],[38.1683,-3.8787,716.8894],[38.1541,-3.8764,715.128],[38.1461,-3.8702,715.9116],[38.1329,-3.8655,731.764],[38.1153,-3.8523,743.7932],[38.1111,-3.8549,742.0961],[38.1055,-3.8633,741.4691],[38.0839,-3.8673,738.4026],[38.0663,-3.8652,756.6788],[38.0583,-3.8661,766.5307],[38.0597,-3.8671,763.1929],[38.0584,-3.8674,765.4579],[38.445,-4.1388,623.1754]]]]}
,"properties": {"GID_2": "KEN.39.1_1","GID_0": "KEN","country": "Kenya","GID_1": "KEN.39_1","province": "TaitaTaveta","NL_NAME_1": "NA","county": "Mwatate","VARNAME_2": "NA","NL_NAME_2": "NA","TYPE_2": "Constituency","ENGTYPE_2": "Constituency","CC_2": "25","HASC_2": "NA","name": "Mwatate.county","area_km2": 2831.624,"hist_schema_id": "Elevation0-9000","hist_area_km2": {"575": 0.402,"600": 5.966,"625": 52.716,"650": 133.059,"675": 208.322,"700": 230.276,"725": 285.887,"750": 283.205,"775": 268.9,"800": 250.967,"825": 169.056,"850": 134.448,"875": 116.297,"900": 96.896,"925": 81.895,"950": 75.082,"975": 66.809,"1000": 61.16,"1025": 54.261,"1050": 59.977,"1075": 46.624,"1100": 30.391,"1125": 17.502,"1150": 12.529,"1175": 9.481,"1200": 8.55,"1225": 8.741,"1250": 7.196,"1275": 5.841,"1300": 4.55,"1325": 3.767,"1350": 3.661,"1375": 2.624,"1400": 2.582,"1425": 2.518,"1450": 2.222,"1475": 2.053,"1500": 2.455,"1525": 3.323,"1550": 2.857,"1575": 3.534,"1600": 2.942,"1625": 1.82,"1650": 1.989,"1675": 1.376,"1700": 0.783,"1725": 0.635,"1750": 0.466,"1775": 0.381,"1800": 0.593,"1825": 0.466,"1850": 0.339,"1875": 0.127,"1900": 0.063,"1925": 0.169,"1950": 0.19,"1975": 0.233,"2000": 0.106,"2025": 0.085,"2050": 0.042,"2100": 0.042,"2150": 0.063,"2175": 0.063}}}