{"type":"Feature","properties":{"GID_3":"KEN.32.3.3_1","GID_0":"KEN","country":"Kenya","GID_1":"KEN.32_1","province":"Nandi","NL_NAME_1":"NA","GID_2":"KEN.32.3_1","county":"Emgwen","NL_NAME_2":"NA","city":"Kapsabet","VARNAME_3":"NA","NL_NAME_3":"NA","TYPE_3":"Ward","ENGTYPE_3":"Ward","CC_3":"772","HASC_3":"NA","name":"Kapsabet.city"},
"geometry":{"type": "MultiPolygon","coordinates": [[[[35.1067,0.1462,1951.2368],[35.1151,0.1518,2035.0396],[35.1161,0.151,2035.0396],[35.1196,0.1527,2006.8801],[35.1233,0.1512,1961.8035],[35.1286,0.1691,2045.7883],[35.131,0.1711,2025.9659],[35.1308,0.1751,2045.9558],[35.1248,0.1798,2011.5017],[35.1269,0.182,1998.2371],[35.1257,0.1878,2005.7762],[35.1281,0.1939,2003.1968],[35.1336,0.1969,1991.1675],[35.1277,0.2023,1985.7349],[35.1281,0.2083,2007.2222],[35.1256,0.2131,1948.4664],[35.1282,0.2204,1954.2694],[35.1211,0.2241,2004.4896],[35.115,0.2218,1980.6995],[35.1115,0.2234,1955.5487],[35.1026,0.2218,1940.9868],[35.0951,0.2225,1967.2264],[35.0897,0.2254,1924.0164],[35.0852,0.2242,1916.2577],[35.0781,0.2265,1941.541],[35.076,0.2265,1937.5773],[35.0763,0.218,1898.1401],[35.0798,0.2151,1941.9985],[35.0794,0.2111,1942.6909],[35.0838,0.2076,1942.1885],[35.0725,0.2007,1949.579],[35.0648,0.2003,1922.5861],[35.0579,0.198,1898.5164],[35.0491,0.2006,1880.076],[35.0483,0.1982,1889.7102],[35.0507,0.1962,1895.9021],[35.049,0.192,1888.5868],[35.0465,0.1928,1896.4138],[35.044,0.1907,1894.3755],[35.0459,0.1819,1872.3778],[35.053,0.1688,1901.693],[35.0499,0.1675,1882.7972],[35.0498,0.1657,1880.1578],[35.048,0.1662,1892.4983],[35.0477,0.1605,1886.8165],[35.0499,0.1584,1853.9071],[35.0473,0.1553,1878.1282],[35.0408,0.1544,1885.642],[35.0382,0.1509,1887.9666],[35.0386,0.1489,1865.9318],[35.0361,0.1482,1891.153],[35.0382,0.1472,1877.0984],[35.0377,0.1459,1873.7947],[35.0319,0.1447,1854.6202],[35.0305,0.1428,1834.0027],[35.0267,0.1472,1881.3602],[35.025,0.1455,1842.3618],[35.0236,0.1475,1859.8789],[35.0208,0.1467,1869.2738],[35.0179,0.149,1874.0498],[35.0101,0.1482,1821.9053],[35.0117,0.1504,1829.6779],[35.0111,0.1536,1863.1819],[35.0104,0.1511,1851.4138],[35.0039,0.1489,1834.281],[35.0061,0.1459,1824.3811],[35.0058,0.1427,1792.2076],[35.0073,0.1423,1792.2076],[35.007,0.139,1802.4023],[35.0111,0.1376,1838.0916],[35.0092,0.135,1810.9514],[35.0138,0.1325,1850.281],[35.0173,0.1329,1854.3394],[35.0184,0.1309,1828.9174],[35.0198,0.1318,1844.9186],[35.0226,0.1271,1844.8632],[35.0326,0.1295,1874.2585],[35.0444,0.1263,1909.6002],[35.0509,0.1281,1927.2505],[35.0546,0.1243,1906.8124],[35.0639,0.1258,1909.0156],[35.067,0.1334,1946.5345],[35.0704,0.1358,1906.0923],[35.0698,0.1384,1916.4803],[35.0719,0.1379,1911.0553],[35.0727,0.1423,1954.172],[35.0794,0.1392,1898.8367],[35.0826,0.1461,1904.3],[35.0884,0.1487,1933.0723],[35.0901,0.148,1925.1772],[35.0918,0.1505,1946.9806],[35.094,0.1488,1920.2319],[35.0957,0.1504,1920.2319],[35.1033,0.1482,1936.6118],[35.1039,0.1494,1943.0061],[35.1067,0.1462,1951.2368]]]]}}