{"type": "Feature","bbox": [37.806399999999996,0.0275,37.9045,0.1425],"geometry": {"type": "MultiPolygon","coordinates": [[[[37.8439,0.1399,1419.6631],[37.8435,0.1307,1376.3732],[37.8419,0.1297,1348.6145],[37.8343,0.1309,1349.7762],[37.8323,0.1367,1352.5164],[37.8237,0.1387,1340.7732],[37.8199,0.1377,1380.395],[37.8235,0.1369,1355.1985],[37.8229,0.1283,1327.2018],[37.8107,0.1225,1315.6614],[37.8109,0.1163,1361.1345],[37.806399999999996,0.1091,1301.5425],[37.8071,0.1045,1177.7325],[37.8087,0.1023,1169.6073],[37.8125,0.1015,1171.9905],[37.8133,0.0961,1164.5995],[37.8164,0.0962,1183.0459],[37.8197,0.0905,1165.7151],[37.8189,0.0835,1148.0264],[37.8201,0.0801,1173.3717],[37.8163,0.0803,1156.0776],[37.8161,0.0775,1127.8386],[37.8207,0.0705,1123.9646],[37.8239,0.0699,1167.5957],[37.8333,0.0615,1102.0408],[37.8331,0.0579,1091.6604],[37.8373,0.0562,1044.0959],[37.8373,0.0507,1013.287],[37.8397,0.0463,1001.8021],[37.8423,0.0461,999.5055],[37.8451,0.0417,976.9159],[37.8549,0.0357,967.4619],[37.8557,0.0321,958.3083],[37.8631,0.0275,944.6265],[37.8721,0.0373,987.4573],[37.878,0.0407,933.0374],[37.8867,0.0427,906.2589],[37.8919,0.0515,915.4703],[37.9015,0.0625,1161.6896],[37.9045,0.0771,1425.3518],[37.8709,0.1093,1159.5193],[37.8533,0.1301,1369.8523],[37.8609,0.1331,1395.5884],[37.8503,0.1379,1428.5674],[37.8447,0.1425,1429.8304],[37.8439,0.1399,1419.6631]]]]}
,"properties": {"GID_3": "KEN.26.8.3_1","GID_0": "KEN","country": "Kenya","GID_1": "KEN.26_1","province": "Meru","NL_NAME_1": "NA","GID_2": "KEN.26.8_1","county": "TiganiaEast","NL_NAME_2": "NA","city": "Mikinduri","VARNAME_3": "NA","NL_NAME_3": "NA","TYPE_3": "Ward","ENGTYPE_3": "Ward","CC_3": "272","HASC_3": "NA","name": "Mikinduri.city","area_km2": 75.69179,"hist_schema_id": "Elevation0-9000","hist_area_km2": {"900": 0.12721,"925": 0.63607,"950": 0.9541,"975": 2.24743,"1000": 2.71388,"1025": 2.26864,"1050": 1.71738,"1075": 2.26863,"1100": 4.26164,"1125": 9.6682,"1150": 8.69289,"1175": 6.86951,"1200": 4.9189,"1225": 3.9436,"1250": 3.43475,"1275": 3.20153,"1300": 3.73158,"1325": 2.43825,"1350": 2.09901,"1375": 1.61136,"1400": 1.33574,"1425": 1.52656,"1450": 1.27213,"1475": 1.16612,"1500": 1.0177,"1525": 0.67847,"1550": 0.38164,"1575": 0.33924,"1600": 0.12721,"1625": 0.0212,"1650": 0.0212}}}