{"type": "Feature","bbox": [37.5986,-1.6449,37.7538,-1.4507],"geometry": {"type": "MultiPolygon","coordinates": [[[[37.6948,-1.4978,992.5308],[37.6959,-1.4868,994.9462],[37.689,-1.473,1006.5215],[37.681,-1.4646,1030.0555],[37.6726,-1.4639,1013.931],[37.6728,-1.457,1030.6313],[37.6681,-1.455,1015.5996],[37.6666,-1.452,1023.022],[37.6584,-1.4507,1045.6245],[37.6576,-1.4538,1027.054],[37.6524,-1.4562,1065.9355],[37.6516,-1.4591,1048.2603],[37.6485,-1.4578,1079.3766],[37.646,-1.4615,1072.8379],[37.6418,-1.4618,1093.469],[37.6387,-1.4662,1103.4802],[37.6365,-1.4666,1105.0084],[37.6345,-1.465,1134.0557],[37.6292,-1.4691,1127.0157],[37.628,-1.4739,1124.8127],[37.6251,-1.476,1130.7758],[37.6244,-1.4806,1137.8707],[37.6187,-1.4834,1161.2981],[37.6196,-1.487,1160.1187],[37.6157,-1.4928,1201.7783],[37.6234,-1.4908,1188.6273],[37.6229,-1.4924,1203.005],[37.6212,-1.4948,1192.681],[37.6133,-1.4988,1229.1182],[37.6113,-1.5012,1237.1517],[37.6119,-1.5045,1251.6805],[37.6035,-1.5138,1218.9261],[37.6052,-1.5248,1186.1753],[37.6038,-1.5283,1181.2869],[37.6062,-1.5313,1173.3846],[37.6019,-1.5333,1196.6315],[37.5986,-1.5413,1136.0575],[37.6046,-1.548,1136.0337],[37.6047,-1.5533,1131.1606],[37.611,-1.5495,1148.6614],[37.6228,-1.5605,1140.6033],[37.6189,-1.5627,1124.3877],[37.6218,-1.5672,1118.0177],[37.6216,-1.569,1119.4994],[37.6195,-1.5692,1118.661],[37.6192,-1.5721,1110.8422],[37.6276,-1.5861,1109.2529],[37.6326,-1.5897,1115.0443],[37.6415,-1.5865,1101.6854],[37.6396,-1.5901,1096.6981],[37.6433,-1.593,1091.7759],[37.6415,-1.5954,1099.5389],[37.6436,-1.5999,1083.6707],[37.6424,-1.603,1096.8087],[37.6445,-1.6146,1077.9683],[37.6466,-1.62,1063.4028],[37.65,-1.6219,1076.6067],[37.6492,-1.6285,1071.2261],[37.6557,-1.6304,1084.861],[37.6563,-1.637,1053.698],[37.6606,-1.6449,1053.5625],[37.6684,-1.6416,1073.4395],[37.6748,-1.6296,1097.3499],[37.6812,-1.6264,1122.7673],[37.6833,-1.6192,1142.0502],[37.687,-1.6193,1169.808],[37.6883,-1.617,1175.198],[37.6871,-1.6073,1325.0214],[37.6905,-1.5995,1244.7784],[37.6846,-1.5885,1327.8002],[37.6841,-1.5863,1377.8552],[37.6858,-1.5843,1271.2053],[37.6898,-1.5879,1251.9248],[37.6923,-1.5859,1235.4594],[37.6939,-1.5867,1251.9468],[37.6936,-1.5835,1226.2654],[37.696,-1.5871,1264.7301],[37.7011,-1.584,1207.2583],[37.7113,-1.6046,1105.548],[37.719,-1.6085,1102.6342],[37.7279,-1.6033,1068.652],[37.729,-1.6003,1070.4805],[37.7281,-1.5969,1079.4827],[37.735,-1.5925,1032.6333],[37.7363,-1.5845,1043.4724],[37.7322,-1.581,1052.963],[37.7351,-1.5788,1031.9165],[37.7362,-1.5749,1039.8663],[37.7453,-1.5688,998.9583],[37.7502,-1.5685,986.5454],[37.7538,-1.5662,950.3127],[37.7501,-1.5541,969.8505],[37.7423,-1.5531,972.6553],[37.7346,-1.5444,972.2574],[37.7245,-1.5284,960.7823],[37.7241,-1.524,994.4977],[37.7205,-1.5227,962.8478],[37.7141,-1.5099,967.2853],[37.7054,-1.5066,982.4124],[37.7015,-1.508,987.5212],[37.6948,-1.4978,992.5308]]]]}
,"properties": {"GID_3": "KEN.22.7.1_1","GID_0": "KEN","country": "Kenya","GID_1": "KEN.22_1","province": "Machakos","NL_NAME_1": "NA","GID_2": "KEN.22.7_1","county": "Mwala","NL_NAME_2": "NA","city": "Kibauni","VARNAME_3": "NA","NL_NAME_3": "NA","TYPE_3": "Ward","ENGTYPE_3": "Ward","CC_3": "410","HASC_3": "NA","name": "Kibauni.city","area_km2": 191.344,"hist_schema_id": "Elevation0-9000","hist_area_km2": {"950": 0.9749,"975": 4.1541,"1000": 6.1041,"1025": 11.4452,"1050": 16.2563,"1075": 15.2177,"1100": 16.8496,"1125": 24.0982,"1150": 29.969,"1175": 22.4873,"1200": 14.8785,"1225": 8.2234,"1250": 4.3025,"1275": 2.7341,"1300": 2.3738,"1325": 2.1194,"1350": 2.3526,"1375": 2.4373,"1400": 1.6955,"1425": 0.9326,"1450": 0.657,"1475": 0.4239,"1500": 0.2119,"1525": 0.2119,"1550": 0.0636,"1575": 0.0848,"1600": 0.0636,"1625": 0.0212}}}