{"type":"Feature","properties":{"GID_3":"KEN.30.2.5_1","GID_0":"KEN","country":"Kenya","GID_1":"KEN.30_1","province":"Nairobi","NL_NAME_1":"NA","GID_2":"KEN.30.2_1","county":"DagorettiSouth","NL_NAME_2":"NA","city":"Riruta","VARNAME_3":"NA","NL_NAME_3":"NA","TYPE_3":"Ward","ENGTYPE_3":"Ward","CC_3":"1378","HASC_3":"NA","name":"Riruta.city"},
"geometry":{"type": "MultiPolygon","coordinates": [[[[36.752,-1.2904,1800.3331],[36.7471,-1.2891,1807.9561],[36.7369,-1.2821,1813.252],[36.733,-1.2729,1813.2256],[36.7271,-1.2724,1815.9648],[36.7255,-1.2874,1836.2799],[36.7273,-1.2942,1834.939],[36.7362,-1.2942,1823.4496],[36.7371,-1.2966,1820.0508],[36.7386,-1.2967,1820.8723],[36.7497,-1.2912,1808.3134],[36.753,-1.291,1802.7645],[36.752,-1.2904,1800.3331]]]]}}