{"type": "Feature","bbox": [34.6763,-0.8923,34.7428,-0.8057],"geometry": {"type": "MultiPolygon","coordinates": [[[[34.7403,-0.8456,1677.9865],[34.7428,-0.8378,1681.8853],[34.7359,-0.836,1737.0647],[34.725,-0.8285,1659.5554],[34.7233,-0.8172,1625.3408],[34.72,-0.8096,1640.0698],[34.7143,-0.8063,1605.8923],[34.708,-0.8057,1602.2994],[34.7015,-0.807,1594.7783],[34.6965,-0.8057,1558.5582],[34.6961,-0.81,1547.7667],[34.692,-0.8107,1573.3848],[34.692,-0.813,1568.9332],[34.69,-0.8119,1584.3822],[34.69,-0.8135,1574.845],[34.6868,-0.8146,1591.1083],[34.6848,-0.8203,1565.085],[34.6802,-0.8216,1598.0924],[34.6794,-0.8255,1602.7983],[34.6763,-0.8291,1577.849],[34.6819,-0.8338,1528.0967],[34.6851,-0.8411,1616.2676],[34.6833,-0.8501,1648.0729],[34.6871,-0.8559,1763.3142],[34.6869,-0.8625,1920.8351],[34.6887,-0.8656,1958.4138],[34.6866,-0.89,1716.5266],[34.6944,-0.8907,1680.7776],[34.6951,-0.8923,1676.9912],[34.7117,-0.8894,1742.4069],[34.7202,-0.8923,1732.1721],[34.7238,-0.8908,1726.6292],[34.7258,-0.8879,1714.0125],[34.7245,-0.8863,1745.0024],[34.727,-0.8823,1723.1542],[34.7277,-0.8761,1761.0514],[34.7244,-0.8705,1767.5844],[34.7257,-0.8655,1746.427],[34.7292,-0.8597,1728.4492],[34.7328,-0.858,1702.4115],[34.7403,-0.8456,1677.9865]]]]}
,"properties": {"GID_3": "KEN.16.3.2_1","GID_0": "KEN","country": "Kenya","GID_1": "KEN.16_1","province": "Kisii","NL_NAME_1": "NA","GID_2": "KEN.16.3_1","county": "BomachogeChache","NL_NAME_2": "NA","city": "Bosoti/Sengera","VARNAME_3": "NA","NL_NAME_3": "NA","TYPE_3": "Ward","ENGTYPE_3": "Ward","CC_3": "1325","HASC_3": "NA","name": "Bosoti_Sengera.city","area_km2": 44.96494,"hist_schema_id": "Elevation0-9000","hist_area_km2": {"1500": 0.1272,"1525": 1.0176,"1550": 1.6748,"1575": 1.8656,"1600": 2.3108,"1625": 3.1164,"1650": 2.438,"1675": 2.48039,"1700": 4.28238,"1725": 4.98196,"1750": 7.69553,"1775": 6.65674,"1800": 3.45557,"1825": 0.61479,"1850": 0.424,"1875": 0.50879,"1900": 0.50879,"1925": 0.55119,"1950": 0.2544}}}