{"type": "Feature","bbox": [37.7934,-1.1684,38.1271,-0.9825],"geometry": {"type": "MultiPolygon","coordinates": [[[[38.1271,-1.1535,756.771],[38.1249,-1.1504,811.261],[38.1229,-1.1493,859.9998],[38.1215,-1.1506,766.8981],[38.1152,-1.1442,837.7654],[38.1131,-1.1442,800.8527],[38.1099,-1.1402,801.2474],[38.1082,-1.141,786.8773],[38.1054,-1.1386,814.1519],[38.1035,-1.1408,803.9594],[38.1016,-1.1407,790.4077],[38.1008,-1.1387,805.8306],[38.0974,-1.1381,793.5838],[38.0983,-1.1365,813.7208],[38.0972,-1.1357,813.1343],[38.0945,-1.1378,795.6613],[38.0897,-1.1365,827.0356],[38.0882,-1.1388,823.0156],[38.0848,-1.1362,881.363],[38.0813,-1.1388,890.1572],[38.0808,-1.1412,854.4327],[38.0756,-1.1414,863.069],[38.0633,-1.1459,1013.4156],[38.0573,-1.1373,1096.9351],[38.0513,-1.137,1271.2826],[38.0438,-1.139,1457.7657],[38.0367,-1.1366,1306.0],[38.0325,-1.1325,1254.2723],[38.0256,-1.1308,1257.1608],[38.023,-1.1152,1211.2762],[38.0152,-1.1076,1137.9004],[38.007,-1.1066,1214.3966],[38.0064,-1.1035,1211.4116],[38.0006,-1.0969,1205.9099],[37.9991,-1.0967,1200.9875],[37.9943,-1.1112,1270.2729],[37.9903,-1.1155,1239.0259],[37.993,-1.1231,1266.5751],[37.992,-1.128,1305.7883],[37.9892,-1.1308,1310.3097],[37.9824,-1.1301,1298.3673],[37.9762,-1.1258,1259.8402],[37.9687,-1.1161,1223.5626],[37.9661,-1.1062,1221.6385],[37.9619,-1.1025,1201.8932],[37.9597,-1.1024,1197.8967],[37.9599,-1.1002,1199.9606],[37.9547,-1.0964,1189.9647],[37.9547,-1.091,1189.9713],[37.9532,-1.0882,1186.3013],[37.9499,-1.0868,1186.4877],[37.95,-1.0796,1175.1464],[37.9461,-1.0736,1180.9221],[37.9385,-1.076,1162.5134],[37.9323,-1.0713,1159.3304],[37.9312,-1.0635,1158.1423],[37.9281,-1.063,1152.1198],[37.9211,-1.0575,1142.2964],[37.9181,-1.053,1134.0554],[37.9168,-1.0532,1134.1742],[37.9171,-1.0498,1132.2883],[37.9145,-1.0496,1130.6942],[37.91,-1.0421,1134.6515],[37.9026,-1.04,1121.8644],[37.9003,-1.0412,1113.2488],[37.8969,-1.0391,1113.0334],[37.8963,-1.0367,1118.176],[37.8938,-1.0366,1110.8828],[37.8878,-1.0274,1111.6918],[37.8899,-1.0241,1112.1875],[37.8934,-1.0223,1108.5762],[37.8964,-1.0231,1103.2327],[37.8993,-1.0204,1092.131],[37.9,-1.0181,1090.2505],[37.8971,-1.015,1085.84],[37.8957,-1.0089,1084.2999],[37.8907,-1.0066,1077.0157],[37.886,-0.9999,1071.8191],[37.8795,-0.997,1065.7462],[37.8741,-0.9916,1066.9285],[37.8703,-0.9905,1070.5568],[37.8674,-0.9924,1055.502],[37.8627,-0.9871,1051.46],[37.8621,-0.9825,1053.7429],[37.8591,-0.9839,1065.1941],[37.8588,-0.9857,1061.3505],[37.8557,-0.9856,1065.9395],[37.8512,-0.9891,1064.2974],[37.8495,-0.9913,1059.9733],[37.8503,-0.9943,1060.2428],[37.8462,-0.995,1079.1431],[37.847,-0.9995,1066.5034],[37.8512,-1.0032,1072.488],[37.8491,-1.0136,1075.9434],[37.8488,-1.0264,1077.3057],[37.8463,-1.0293,1082.4446],[37.8483,-1.0415,1083.4755],[37.8458,-1.0449,1094.9272],[37.846,-1.0475,1092.8247],[37.8435,-1.0513,1096.7363],[37.84,-1.0524,1105.3539],[37.832,-1.0677,1105.5647],[37.8278,-1.0711,1117.1886],[37.8261,-1.07,1118.7698],[37.8206,-1.0708,1120.2195],[37.8188,-1.0802,1116.7274],[37.808,-1.0922,1130.7009],[37.8079,-1.0994,1137.4995],[37.8046,-1.1091,1140.756],[37.8025,-1.111,1151.4291],[37.8019,-1.1165,1145.3218],[37.798,-1.1182,1154.1483],[37.7978,-1.1207,1150.1014],[37.7934,-1.1257,1161.7872],[37.8086,-1.1211,1166.2269],[37.8584,-1.1202,1144.1912],[37.8672,-1.1281,1162.9425],[37.8785,-1.1238,1180.5868],[37.8878,-1.1257,1195.1091],[37.8892,-1.1306,1199.0756],[37.9016,-1.1301,1179.5061],[37.9069,-1.1327,1192.9697],[37.9095,-1.1319,1197.1821],[37.9224,-1.1343,1209.134],[37.9281,-1.1332,1223.7267],[37.9333,-1.1352,1230.7217],[37.9371,-1.1341,1251.0424],[37.9402,-1.136,1243.8691],[37.9463,-1.1339,1278.4016],[37.9487,-1.1372,1281.8724],[37.9553,-1.1347,1241.6219],[37.9579,-1.1378,1246.5582],[37.9605,-1.1373,1257.4766],[37.9656,-1.1396,1258.0803],[37.9685,-1.1427,1262.1912],[37.9714,-1.1432,1267.0997],[37.9726,-1.1415,1283.9644],[37.9814,-1.1495,1312.3208],[37.9912,-1.1466,1333.2122],[37.9952,-1.1476,1336.4233],[37.9987,-1.1537,1347.474],[38.0064,-1.1555,1386.8877],[38.0041,-1.1593,1432.8262],[38.0355,-1.1667,1147.144],[38.0439,-1.1635,1129.1963],[38.0475,-1.1639,1105.1611],[38.0472,-1.1664,1139.5923],[38.051,-1.1636,1077.9065],[38.0622,-1.1684,993.4348],[38.0682,-1.1684,916.7396],[38.0678,-1.1585,958.055],[38.1271,-1.1535,756.771]]]]}
,"properties": {"GID_3": "KEN.18.8.3_1","GID_0": "KEN","country": "Kenya","GID_1": "KEN.18_1","province": "Kitui","NL_NAME_1": "NA","GID_2": "KEN.18.8_1","county": "MwingiWest","NL_NAME_2": "NA","city": "Nguutani","VARNAME_3": "NA","NL_NAME_3": "NA","TYPE_3": "Ward","ENGTYPE_3": "Ward","CC_3": "337","HASC_3": "NA","name": "Nguutani.city","area_km2": 214.9087,"hist_schema_id": "Elevation0-9000","hist_area_km2": {"750": 0.2756,"775": 0.5723,"800": 1.3143,"825": 1.2083,"850": 1.4839,"875": 0.9751,"900": 0.8691,"925": 0.7419,"950": 0.8903,"975": 0.9327,"1000": 1.2719,"1025": 0.6359,"1050": 2.5438,"1075": 9.7091,"1100": 22.1103,"1125": 36.1858,"1150": 43.3506,"1175": 25.1624,"1200": 16.6618,"1225": 10.5355,"1250": 9.8995,"1275": 8.8396,"1300": 6.4442,"1325": 4.9815,"1350": 3.2857,"1375": 1.9926,"1400": 1.5051,"1425": 0.424,"1450": 0.0636,"1475": 0.0424}}}