{"type":"Feature","properties":{"GID_3":"KEN.42.1.4_1","GID_0":"KEN","country":"Kenya","GID_1":"KEN.42_1","province":"TransNzoia","NL_NAME_1":"NA","GID_2":"KEN.42.1_1","county":"Cherangany","NL_NAME_2":"NA","city":"Makutano","VARNAME_3":"NA","NL_NAME_3":"NA","TYPE_3":"Ward","ENGTYPE_3":"Ward","CC_3":"695","HASC_3":"NA","name":"Makutano.city"},
"geometry":{"type": "MultiPolygon","coordinates": [[[[35.1517,1.2045,2217.6162],[35.1467,1.1833,2023.2701],[35.1404,1.1753,1975.0483],[35.1445,1.1684,2046.2612],[35.1516,1.1496,1910.1062],[35.1466,1.1473,1888.4967],[35.1476,1.1423,1875.7229],[35.1537,1.1435,1878.0923],[35.1538,1.1372,1892.0894],[35.1486,1.1321,1867.0532],[35.1542,1.1307,1889.0859],[35.155,1.1157,1903.8514],[35.1524,1.0894,1864.3708],[35.1355,1.0561,1875.9172],[35.1478,1.0526,1858.6573],[35.1515,1.0482,1843.4517],[35.153,1.0484,1843.4517],[35.1568,1.0411,1843.4535],[35.1603,1.0395,1843.8406],[35.1598,1.0373,1843.2037],[35.1621,1.035,1840.6025],[35.1623,1.0302,1832.3359],[35.1639,1.0299,1840.3215],[35.1653,1.0267,1839.7009],[35.1677,1.0274,1839.6221],[35.1673,1.0251,1835.6154],[35.1851,1.0382,1889.6761],[35.199,1.0447,1909.924],[35.2022,1.0627,1919.5032],[35.2004,1.0673,1911.993],[35.1909,1.0783,1934.7509],[35.1886,1.0875,1919.776],[35.2069,1.0929,1930.2325],[35.2177,1.1209,2248.7856],[35.2021,1.1222,2273.3391],[35.1782,1.1602,2190.6787],[35.1607,1.1845,2276.5193],[35.1517,1.2045,2217.6162]]]]}}