{"type": "Feature","bbox": [37.4514,-1.5692,37.6228,-1.4252],"geometry": {"type": "MultiPolygon","coordinates": [[[[37.6113,-1.5012,1237.1517],[37.6068,-1.4928,1262.4445],[37.6032,-1.4981,1249.7529],[37.5942,-1.5056,1219.2689],[37.5901,-1.5166,1191.675],[37.5836,-1.5207,1153.903],[37.584,-1.5179,1171.3483],[37.5765,-1.51,1156.0146],[37.5758,-1.5049,1168.0215],[37.5701,-1.5009,1163.0592],[37.5678,-1.4846,1173.1611],[37.5632,-1.4812,1175.5083],[37.5627,-1.4721,1181.9474],[37.555,-1.459,1200.7747],[37.5517,-1.4568,1213.1033],[37.5446,-1.4562,1211.3201],[37.544,-1.4535,1210.3687],[37.5406,-1.454,1215.8334],[37.5386,-1.4514,1215.092],[37.5364,-1.4539,1217.9677],[37.5317,-1.4515,1231.2439],[37.5263,-1.4522,1222.1426],[37.5248,-1.4458,1256.2399],[37.5184,-1.443,1231.1851],[37.5174,-1.4401,1245.7019],[37.5132,-1.4366,1250.6078],[37.5116,-1.4314,1251.0505],[37.5127,-1.4296,1245.9893],[37.5078,-1.4255,1256.7704],[37.5009,-1.4252,1262.9324],[37.4983,-1.4286,1283.1327],[37.4856,-1.4335,1304.1471],[37.4811,-1.4447,1361.1132],[37.4785,-1.4454,1342.3284],[37.4708,-1.4559,1318.0881],[37.4698,-1.4615,1290.537],[37.4671,-1.4632,1284.8461],[37.4657,-1.4667,1287.8833],[37.4635,-1.4671,1291.2843],[37.4634,-1.4763,1262.2632],[37.4622,-1.4772,1290.0898],[37.4649,-1.4809,1269.5806],[37.4575,-1.4874,1303.7523],[37.4514,-1.5018,1257.7188],[37.4534,-1.5073,1248.8275],[37.4561,-1.5099,1244.5798],[37.4659,-1.512,1222.6539],[37.4707,-1.5154,1220.1504],[37.4739,-1.5207,1212.1472],[37.476,-1.5163,1221.3776],[37.4824,-1.5174,1216.8076],[37.4866,-1.5152,1205.4202],[37.4979,-1.5242,1204.2676],[37.5008,-1.524,1205.059],[37.5053,-1.5275,1197.7502],[37.5081,-1.5277,1210.8667],[37.5116,-1.5248,1208.9586],[37.5145,-1.5251,1202.4641],[37.5177,-1.5273,1192.2141],[37.5178,-1.5321,1190.0946],[37.5212,-1.5325,1194.9027],[37.5202,-1.5362,1192.5811],[37.5221,-1.5382,1188.1604],[37.5258,-1.5367,1195.8801],[37.535,-1.5401,1186.6608],[37.5443,-1.5408,1186.624],[37.5451,-1.537,1182.0337],[37.5505,-1.5369,1184.14],[37.5552,-1.5409,1182.2263],[37.5499,-1.5451,1189.7126],[37.5508,-1.5481,1176.2158],[37.5633,-1.5517,1172.7312],[37.5627,-1.5533,1173.6791],[37.5568,-1.5545,1191.0017],[37.5567,-1.5577,1188.1713],[37.5602,-1.5578,1174.4985],[37.5623,-1.56,1168.7081],[37.5686,-1.5575,1187.4022],[37.5761,-1.5578,1184.8551],[37.5731,-1.564,1182.2849],[37.574,-1.5651,1163.0613],[37.5787,-1.565,1169.3237],[37.5821,-1.5608,1179.1287],[37.5906,-1.5575,1151.4922],[37.5981,-1.5511,1166.5537],[37.598,-1.5546,1143.4346],[37.6007,-1.5578,1139.9583],[37.5993,-1.5612,1150.6875],[37.6067,-1.5609,1138.5121],[37.6082,-1.5661,1133.3502],[37.6148,-1.5639,1141.8459],[37.6195,-1.5692,1118.661],[37.6216,-1.569,1119.4994],[37.6212,-1.5646,1124.4392],[37.6189,-1.5627,1124.3877],[37.6228,-1.5605,1140.6033],[37.611,-1.5495,1148.6614],[37.6047,-1.5533,1131.1606],[37.6046,-1.548,1136.0337],[37.5986,-1.5413,1136.0575],[37.6019,-1.5333,1196.6315],[37.6062,-1.5313,1173.3846],[37.6038,-1.5283,1181.2869],[37.6052,-1.5248,1186.1753],[37.6033,-1.5144,1218.9261],[37.6119,-1.5045,1251.6805],[37.6113,-1.5012,1237.1517]]]]}
,"properties": {"GID_3": "KEN.22.7.5_1","GID_0": "KEN","country": "Kenya","GID_1": "KEN.22_1","province": "Machakos","NL_NAME_1": "NA","GID_2": "KEN.22.7_1","county": "Mwala","NL_NAME_2": "NA","city": "Muthetheni","VARNAME_3": "NA","NL_NAME_3": "NA","TYPE_3": "Ward","ENGTYPE_3": "Ward","CC_3": "408","HASC_3": "NA","name": "Muthetheni.city","area_km2": 136.6015,"hist_schema_id": "Elevation0-9000","hist_area_km2": {"1100": 0.0212,"1125": 1.6108,"1150": 6.2736,"1175": 13.7553,"1200": 25.6033,"1225": 31.2625,"1250": 26.3031,"1275": 15.5361,"1300": 9.877,"1325": 4.3874,"1350": 1.7804,"1375": 0.1908}}}