{"type":"Feature","properties":{"GID_3":"KEN.44.5.1_1","GID_0":"KEN","country":"Kenya","GID_1":"KEN.44_1","province":"UasinGishu","NL_NAME_1":"NA","GID_2":"KEN.44.5_1","county":"Soy","NL_NAME_2":"NA","city":"Kapkures","VARNAME_3":"NA","NL_NAME_3":"NA","TYPE_3":"Ward","ENGTYPE_3":"Ward","CC_3":"702","HASC_3":"NA","name":"Kapkures.city"},
"geometry":{"type": "MultiPolygon","coordinates": [[[[35.1448,0.832,1849.4247],[35.1531,0.833,1875.6799],[35.1673,0.8392,1865.406],[35.1769,0.8362,1912.472],[35.1849,0.8294,1896.9614],[35.1893,0.8284,1922.0099],[35.1936,0.8838,1959.174],[35.1673,0.8801,1900.575],[35.143,0.8707,1857.0586],[35.1432,0.8663,1915.2476],[35.1302,0.8644,1850.092],[35.116,0.8575,1838.1335],[35.125,0.8235,1816.9794],[35.1257,0.8334,1847.4778],[35.1313,0.8352,1840.8671],[35.1448,0.832,1849.4247]]]]}}