{"type":"Feature","properties":{"GID_3":"KEN.19.3.3_1","GID_0":"KEN","country":"Kenya","GID_1":"KEN.19_1","province":"Kwale","NL_NAME_1":"NA","GID_2":"KEN.19.3_1","county":"Matuga","NL_NAME_2":"NA","city":"Tiwi","VARNAME_3":"NA","NL_NAME_3":"NA","TYPE_3":"Ward","ENGTYPE_3":"Ward","CC_3":"41","HASC_3":"NA","name":"Tiwi.city"},
"geometry":{"type": "MultiPolygon","coordinates": [[[[39.616,-4.201,12.7612],[39.6047,-4.1948,17.9367],[39.6099,-4.185,19.4904],[39.5941,-4.1776,25.4469],[39.5881,-4.1848,40.4474],[39.5773,-4.1825,70.3706],[39.5695,-4.1955,90.6663],[39.5679,-4.2028,85.0784],[39.5553,-4.1994,80.1515],[39.5537,-4.1965,99.0589],[39.5609,-4.1831,116.5596],[39.5669,-4.1801,123.1884],[39.5665,-4.1745,117.5858],[39.5587,-4.1822,112.9777],[39.5435,-4.1917,87.8317],[39.5441,-4.1944,98.8832],[39.5503,-4.1994,117.7584],[39.5513,-4.2057,103.8943],[39.5515,-4.2177,93.013],[39.5469,-4.234,83.3855],[39.5551,-4.2348,30.0434],[39.5429,-4.2555,21.2354],[39.5469,-4.2582,15.7789],[39.5609,-4.2474,15.4764],[39.5641,-4.2488,18.1132],[39.5627,-4.2515,26.9206],[39.5669,-4.2573,13.9583],[39.5693,-4.2555,20.9331],[39.5761,-4.2602,22.1041],[39.5823,-4.2592,17.0678],[39.5837,-4.2542,19.4608],[39.5895,-4.2555,15.5569],[39.5953,-4.2541,12.3896],[39.6004,-4.2548,0.0],[39.6118,-4.2112,5.8903],[39.616,-4.201,12.7612]]]]}}