{"type": "Feature","bbox": [34.9268,0.6143,35.0435,0.6903],"geometry": {"type": "MultiPolygon","coordinates": [[[[35.0416,0.6555,1896.1405],[35.0359,0.6604,1887.5454],[35.0336,0.6646,1888.809],[35.0308,0.6771,1857.306],[35.0285,0.6802,1852.9872],[35.0138,0.6808,1853.0237],[35.0096,0.6831,1831.8254],[35.0067,0.6821,1834.194],[34.9982,0.6903,1861.7213],[34.9882,0.6831,1828.4202],[34.9851,0.6769,1802.9124],[34.9671,0.6702,1747.8792],[34.9576,0.6643,1736.8396],[34.9553,0.6592,1711.9128],[34.952,0.6591,1710.1685],[34.9466,0.656,1696.7479],[34.935,0.6557,1682.4617],[34.9282,0.6539,1676.9878],[34.9268,0.647,1631.0385],[34.9316,0.645,1642.9609],[34.9271,0.6404,1614.9231],[34.9339,0.6385,1624.175],[34.9347,0.6331,1626.7701],[34.9409,0.6279,1656.823],[34.9446,0.6279,1680.6681],[34.945,0.6294,1687.3671],[34.9482,0.6276,1690.528],[34.9502,0.6289,1704.3822],[34.954,0.6211,1667.1755],[34.9582,0.6214,1666.7152],[34.959,0.6181,1662.798],[34.9622,0.6166,1660.4802],[34.9632,0.6143,1655.1421],[34.9686,0.6188,1686.6567],[34.9707,0.6188,1686.8484],[34.9769,0.6295,1756.8279],[34.9807,0.6322,1747.1523],[34.9859,0.6327,1764.7307],[34.9903,0.6352,1830.469],[34.9941,0.6349,1807.6189],[35.0005,0.6433,1823.6632],[35.0272,0.6184,1806.3452],[35.0313,0.6214,1794.4297],[35.0351,0.629,1782.9468],[35.0352,0.6331,1798.1676],[35.041,0.6371,1809.895],[35.0393,0.6453,1856.5319],[35.0412,0.6443,1838.6631],[35.0435,0.6527,1889.618],[35.0416,0.6555,1896.1405]]]]}
,"properties": {"GID_3": "KEN.3.6.3_1","GID_0": "KEN","country": "Kenya","GID_1": "KEN.3_1","province": "Bungoma","NL_NAME_1": "NA","GID_2": "KEN.3.6_1","county": "Lugari","NL_NAME_2": "NA","city": "Lumakanda","VARNAME_3": "NA","NL_NAME_3": "NA","TYPE_3": "Ward","ENGTYPE_3": "Ward","CC_3": "993","HASC_3": "NA","name": "Lumakanda.city","area_km2": 59.40474,"hist_schema_id": "Elevation0-9000","hist_area_km2": {"1600": 0.0212,"1625": 0.80563,"1650": 2.5229,"1675": 3.98577,"1700": 4.7066,"1725": 4.7914,"1750": 4.13416,"1775": 3.79495,"1800": 6.42386,"1825": 11.17284,"1850": 11.68164,"1875": 4.38857,"1900": 0.97524}}}