{"type": "Feature","bbox": [34.3733,-1.2331,34.4804,-1.1215],"geometry": {"type": "MultiPolygon","coordinates": [[[[34.4783,-1.2192,1606.9327],[34.4774,-1.2145,1626.1095],[34.4804,-1.2022,1576.5159],[34.477,-1.2013,1579.7017],[34.4728,-1.197,1605.8948],[34.4721,-1.1918,1591.1016],[34.4668,-1.1926,1580.2606],[34.4641,-1.1868,1539.1461],[34.4563,-1.1833,1529.1528],[34.4507,-1.1785,1468.2258],[34.4398,-1.1749,1504.8704],[34.4246,-1.1651,1416.6713],[34.4271,-1.1576,1414.9186],[34.4281,-1.1374,1396.053],[34.4347,-1.1292,1422.8949],[34.4358,-1.1215,1422.5063],[34.4233,-1.1218,1390.6163],[34.4218,-1.1228,1384.9431],[34.4217,-1.1281,1407.9109],[34.4129,-1.1241,1376.1595],[34.4094,-1.1243,1376.0668],[34.3923,-1.1362,1365.954],[34.3866,-1.1552,1395.3439],[34.3839,-1.1577,1389.9049],[34.3851,-1.1599,1387.4193],[34.3829,-1.1627,1375.4207],[34.3795,-1.1757,1409.7529],[34.3753,-1.1817,1442.7659],[34.3791,-1.184,1447.6968],[34.3733,-1.1909,1439.8512],[34.4457,-1.2321,1611.0497],[34.4467,-1.2283,1587.3734],[34.4552,-1.2331,1576.8445],[34.4577,-1.2284,1557.3367],[34.4568,-1.2266,1559.3488],[34.4783,-1.2192,1606.9327]]]]}
,"properties": {"GID_3": "KEN.27.3.6_1","GID_0": "KEN","country": "Kenya","GID_1": "KEN.27_1","province": "Migori","NL_NAME_1": "NA","GID_2": "KEN.27.3_1","county": "KuriaWest","NL_NAME_2": "NA","city": "Nyamosense/Komosoko","VARNAME_3": "NA","NL_NAME_3": "NA","TYPE_3": "Ward","ENGTYPE_3": "Ward","CC_3": "1295","HASC_3": "NA","name": "Nyamosense_Komosoko.city","area_km2": 72.68688,"hist_schema_id": "Elevation0-9000","hist_area_km2": {"1350": 0.08479,"1375": 9.4331,"1400": 15.72881,"1425": 8.83945,"1450": 5.95653,"1475": 6.95281,"1500": 5.99891,"1525": 5.15101,"1550": 5.61733,"1575": 4.55745,"1600": 3.20082,"1625": 1.14466,"1650": 0.0212}}}