{"type": "Feature","bbox": [36.8645,0.5139,37.3957,0.7917],"geometry": {"type": "MultiPolygon","coordinates": [[[[37.3941,0.5739,901.093],[37.3933,0.5773,903.387],[37.3731,0.5891,918.9632],[37.3655,0.5883,908.0466],[37.3637,0.5915,908.9177],[37.3637,0.5997,916.0695],[37.3567,0.6011,923.1378],[37.3541,0.6035,915.5941],[37.3523,0.6245,919.1702],[37.3483,0.6295,918.2401],[37.3469,0.6361,918.625],[37.3437,0.6395,920.4564],[37.3421,0.6473,929.8469],[37.3317,0.6519,922.6847],[37.3261,0.6603,928.5819],[37.3255,0.6721,937.03],[37.3198,0.683,935.8926],[37.3133,0.6912,935.699],[37.3081,0.7061,946.3977],[37.3046,0.709,940.1215],[37.2997,0.726,953.23],[37.29,0.7365,943.8652],[37.2883,0.7422,958.1479],[37.2737,0.7497,953.8186],[37.271,0.7551,980.779],[37.2572,0.7683,958.0878],[37.2448,0.767,964.3492],[37.2353,0.7563,965.8181],[37.2299,0.7543,979.1355],[37.2259,0.7491,969.531],[37.2189,0.7444,1003.3089],[37.2056,0.7462,992.0214],[37.2042,0.75,1013.4065],[37.2021,0.751,1028.0454],[37.1947,0.7509,1045.7279],[37.1799,0.7471,1053.4677],[37.1759,0.7499,1060.3354],[37.1728,0.75,1066.2361],[37.1706,0.7478,1071.2502],[37.1656,0.7475,1048.4321],[37.1623,0.7519,1053.024],[37.1615,0.7562,1079.2045],[37.1514,0.7575,1044.2183],[37.1502,0.765,1071.1248],[37.1343,0.7638,1076.3374],[37.1261,0.7714,1063.3193],[37.1235,0.7815,1089.7548],[37.116,0.7873,1107.447],[37.1094,0.7847,1087.3071],[37.1065,0.7905,1102.2002],[37.1016,0.7917,1106.3497],[37.0943,0.7895,1108.4525],[37.0913,0.787,1114.604],[37.0859,0.787,1119.6787],[37.0706,0.7828,1123.5078],[37.0689,0.7705,1106.8413],[37.0606,0.7723,1123.8976],[37.0581,0.777,1147.1196],[37.0417,0.7686,1139.6465],[37.0083,0.7567,1194.0618],[37.0014,0.7549,1197.9603],[36.9946,0.7555,1269.2723],[36.9924,0.7529,1160.4082],[36.9806,0.7496,1191.1846],[36.977,0.7493,1251.9177],[36.9735,0.7523,1398.5787],[36.9709,0.7488,1274.3237],[36.9685,0.749,1299.0535],[36.9669,0.7471,1225.4731],[36.9483,0.7483,1347.8113],[36.9407,0.7524,1271.3203],[36.9366,0.7576,1385.0679],[36.9341,0.7574,1214.3335],[36.9309,0.7504,1333.9559],[36.9307,0.7341,1272.4695],[36.9273,0.7303,1263.4626],[36.9265,0.7261,1385.2534],[36.9255,0.6857,1322.8906],[36.9265,0.6761,1361.3489],[36.9235,0.6703,1384.3876],[36.9235,0.6669,1354.6619],[36.9217,0.6621,1438.0317],[36.9139,0.6623,1477.6472],[36.9123,0.6525,1389.1266],[36.9083,0.6453,1503.1738],[36.9089,0.6343,1405.3676],[36.9059,0.6319,1473.9629],[36.8973,0.6309,1480.2631],[36.8939,0.6235,1492.8525],[36.8909,0.6233,1508.9918],[36.8873,0.6107,1504.4158],[36.8841,0.6129,1515.085],[36.8791,0.6059,1555.8152],[36.8757,0.6055,1536.5909],[36.8721,0.5999,1544.4978],[36.8675,0.5967,1544.5322],[36.8661,0.5931,1540.7418],[36.8681,0.5873,1537.2639],[36.8673,0.5785,1550.3849],[36.8645,0.5737,1571.6699],[36.8677,0.5713,1558.3634],[37.1135,0.5417,1331.7113],[37.1375,0.5401,1199.4443],[37.1387,0.5387,1189.7021],[37.2475,0.5257,1438.4746],[37.3683,0.5139,959.0195],[37.3681,0.5165,964.3944],[37.3743,0.5219,948.6442],[37.3799,0.5315,948.3651],[37.3773,0.5419,935.3651],[37.3793,0.5553,939.9565],[37.3831,0.5571,1004.6346],[37.3914,0.5565,921.6638],[37.3957,0.5671,907.6522],[37.3941,0.5739,901.093]]]]}
,"properties": {"GID_3": "KEN.9.1.6_1","GID_0": "KEN","country": "Kenya","GID_1": "KEN.9_1","province": "Isiolo","NL_NAME_1": "NA","GID_2": "KEN.9.1_1","county": "IsioloNorth","NL_NAME_2": "NA","city": "Oldo/Nyiro","VARNAME_3": "NA","NL_NAME_3": "NA","TYPE_3": "Ward","ENGTYPE_3": "Ward","CC_3": "247","HASC_3": "NA","name": "Oldo_Nyiro.city","area_km2": 1181.1423,"hist_schema_id": "Elevation0-9000","hist_area_km2": {"900": 2.5653,"925": 14.9467,"950": 38.0979,"975": 48.2743,"1000": 52.7902,"1025": 51.8786,"1050": 60.2105,"1075": 71.2136,"1100": 81.9621,"1125": 81.7713,"1150": 73.7363,"1175": 67.6941,"1200": 56.797,"1225": 45.5818,"1250": 39.7515,"1275": 35.1298,"1300": 30.5716,"1325": 25.1018,"1350": 25.0382,"1375": 22.8969,"1400": 18.7416,"1425": 16.8123,"1450": 15.5402,"1475": 17.8299,"1500": 17.9571,"1525": 18.678,"1550": 20.7769,"1575": 22.9183,"1600": 27.6462,"1625": 22.982,"1650": 16.6005,"1675": 13.8231,"1700": 8.8197,"1725": 6.3604,"1750": 4.8975,"1775": 2.5653,"1800": 1.0389,"1825": 0.5724,"1850": 0.212,"1875": 0.1696,"1900": 0.0424,"1925": 0.106,"1950": 0.0212,"1975": 0.0212}}}