{"type": "Feature","bbox": [37.8931,0.1911,37.9663,0.2611],"geometry": {"type": "MultiPolygon","coordinates": [[[[37.8942,0.2466,2100.8833],[37.8931,0.2449,2102.0425],[37.8948,0.2425,2142.2048],[37.9027,0.2402,1985.8407],[37.9041,0.2367,1968.832],[37.9123,0.2321,1860.0371],[37.9097,0.2239,1930.3451],[37.9073,0.2249,2013.6632],[37.9029,0.2233,2002.5354],[37.9033,0.2189,1887.697],[37.9061,0.2175,1865.4995],[37.9055,0.2129,1803.3497],[37.9159,0.2043,1683.3931],[37.9361,0.2029,1513.9749],[37.9379,0.1937,1478.1371],[37.9461,0.1933,1401.5527],[37.9517,0.1911,1353.2305],[37.9541,0.1917,1373.2458],[37.9655,0.2063,1502.1903],[37.9663,0.2097,1439.5553],[37.9613,0.2141,1493.9784],[37.9364,0.2254,1598.049],[37.9355,0.2307,1686.5099],[37.9322,0.2328,1779.25],[37.9277,0.2403,1834.3792],[37.928,0.2427,1809.9747],[37.9309,0.2431,1812.1318],[37.9361,0.2489,1761.9126],[37.9365,0.2529,1744.9814],[37.9343,0.2551,1748.1008],[37.9279,0.2567,1833.6678],[37.9235,0.2527,1761.498],[37.9212,0.2526,1782.3486],[37.9145,0.2591,1976.7205],[37.9069,0.2539,2128.0173],[37.9011,0.2611,2013.7908],[37.9013,0.2563,2068.3081],[37.8942,0.2466,2100.8833]]]]}
,"properties": {"GID_3": "KEN.26.5.4_1","GID_0": "KEN","country": "Kenya","GID_1": "KEN.26_1","province": "Meru","NL_NAME_1": "NA","GID_2": "KEN.26.5_1","county": "IgembeSouth","NL_NAME_2": "NA","city": "Kiegoi/Antubochiu","VARNAME_3": "NA","NL_NAME_3": "NA","TYPE_3": "Ward","ENGTYPE_3": "Ward","CC_3": "252","HASC_3": "NA","name": "Kiegoi_Antubochiu.city","area_km2": 27.71107,"hist_schema_id": "Elevation0-9000","hist_area_km2": {"1375": 0.14841,"1400": 0.42404,"1425": 0.9965,"1450": 1.37813,"1475": 0.9965,"1500": 1.61136,"1525": 1.52655,"1550": 0.63606,"1575": 0.63606,"1600": 0.50885,"1625": 0.67847,"1650": 1.29333,"1675": 1.27212,"1700": 0.95409,"1725": 0.97529,"1750": 1.0389,"1775": 1.22972,"1800": 1.20852,"1825": 2.24741,"1850": 1.73857,"1875": 1.29332,"1900": 0.42404,"1925": 0.44524,"1950": 0.53005,"1975": 0.33923,"2000": 0.48765,"2025": 0.31803,"2050": 0.59366,"2075": 0.80568,"2100": 0.50885,"2125": 0.40284,"2150": 0.06361}}}