{"type": "Feature","bbox": [34.5208,-0.1861,34.6009,-0.0276],"geometry": {"type": "MultiPolygon","coordinates": [[[[34.5829,-0.0276,1460.08],[34.5765,-0.0318,1481.2241],[34.5701,-0.0324,1477.2432],[34.5654,-0.0358,1458.6235],[34.562,-0.0407,1452.702],[34.5584,-0.0415,1469.7773],[34.5559,-0.0478,1382.5325],[34.5481,-0.0505,1477.0439],[34.5455,-0.0572,1418.1069],[34.546,-0.0685,1272.1028],[34.5393,-0.0659,1306.6313],[34.5326,-0.0689,1347.519],[34.5225,-0.0674,1345.4003],[34.5208,-0.0758,1330.6367],[34.5288,-0.0824,1277.8551],[34.5389,-0.0972,1218.2788],[34.5347,-0.104,1192.3372],[34.5281,-0.106,1224.6427],[34.5265,-0.1113,1179.8613],[34.5313,-0.1127,1177.677],[34.5333,-0.118,1174.8872],[34.5346,-0.1168,1177.7556],[34.5363,-0.119,1179.3641],[34.5376,-0.1176,1179.6628],[34.5408,-0.1181,1207.0146],[34.5419,-0.1164,1203.4552],[34.5458,-0.1171,1196.6362],[34.5433,-0.1201,1186.0852],[34.5433,-0.1229,1184.7601],[34.5388,-0.1265,1192.1362],[34.5417,-0.1464,1177.3325],[34.5497,-0.1483,1148.6958],[34.5503,-0.1512,1147.1312],[34.5813,-0.1861,1133.0],[34.5734,-0.1372,1150.9875],[34.5819,-0.1063,1241.9529],[34.5899,-0.0984,1251.4702],[34.5921,-0.0872,1292.6764],[34.5964,-0.0839,1270.0225],[34.6009,-0.0712,1277.1377],[34.5965,-0.0572,1351.4507],[34.5924,-0.0524,1407.4055],[34.5854,-0.0392,1412.4111],[34.5829,-0.0276,1460.08]]]]}
,"properties": {"GID_3": "KEN.17.7.2_1","GID_0": "KEN","country": "Kenya","GID_1": "KEN.17_1","province": "Kisumu","NL_NAME_1": "NA","GID_2": "KEN.17.7_1","county": "Seme","NL_NAME_2": "NA","city": "EastSeme","VARNAME_3": "NA","NL_NAME_3": "NA","TYPE_3": "Ward","ENGTYPE_3": "Ward","CC_3": "1204","HASC_3": "NA","name": "East_Seme.city","area_km2": 73.50794,"hist_schema_id": "Elevation0-9000","hist_area_km2": {"1125": 7.29353,"1150": 3.51956,"1175": 3.9224,"1200": 9.56218,"1225": 9.68939,"1250": 6.74229,"1275": 6.06383,"1300": 5.40656,"1325": 3.28634,"1350": 2.43825,"1375": 3.37115,"1400": 3.41355,"1425": 5.63978,"1450": 2.31104,"1475": 0.84809}}}