{"type": "Feature","bbox": [37.0705,0.0421,37.2415,0.3568],"geometry": {"type": "MultiPolygon","coordinates": [[[[37.1087,0.0425,1958.2875],[37.1286,0.0421,1992.3827],[37.1394,0.0453,2013.7327],[37.1423,0.048,2008.4004],[37.1476,0.0484,2023.7509],[37.1525,0.0548,2040.125],[37.167,0.0574,2080.5605],[37.171,0.0601,2064.946],[37.188,0.0618,2129.9619],[37.1937,0.087,2082.5029],[37.1903,0.1176,2064.7583],[37.195,0.117,2077.3984],[37.1956,0.1911,1958.1005],[37.198,0.217,2004.6338],[37.2204,0.2259,2055.3628],[37.2398,0.2511,1967.9723],[37.2415,0.2869,2052.8855],[37.0878,0.3568,1764.5985],[37.1038,0.2949,2021.1265],[37.1005,0.2878,2082.8113],[37.0954,0.2857,2138.9856],[37.0943,0.2826,2138.2373],[37.0937,0.2778,1978.35],[37.0975,0.2713,2115.1067],[37.0966,0.2661,2096.113],[37.0876,0.2541,1891.8035],[37.0741,0.2302,1864.5295],[37.073,0.2254,1853.4587],[37.0705,0.1993,1863.2878],[37.0716,0.1712,1825.3766],[37.073,0.1705,1825.3766],[37.0721,0.1639,1840.2676],[37.074,0.1319,1839.5713],[37.073,0.1323,1833.1392],[37.0747,0.1144,1823.541],[37.0803,0.1124,1825.2111],[37.0796,0.0883,1888.864],[37.0824,0.0827,1891.1522],[37.0767,0.0701,1866.1903],[37.1085,0.0717,1926.4668],[37.1087,0.0425,1958.2875]]]]}
,"properties": {"GID_3": "KEN.20.2.5_1","GID_0": "KEN","country": "Kenya","GID_1": "KEN.20_1","province": "Laikipia","NL_NAME_1": "NA","GID_2": "KEN.20.2_1","county": "LaikipiaNorth","NL_NAME_2": "NA","city": "Umande","VARNAME_3": "NA","NL_NAME_3": "NA","TYPE_3": "Ward","ENGTYPE_3": "Ward","CC_3": "821","HASC_3": "NA","name": "Umande.city","area_km2": 422.0059,"hist_schema_id": "Elevation0-9000","hist_area_km2": {"1750": 0.0424,"1775": 2.3958,"1800": 10.7706,"1825": 22.6225,"1850": 34.6229,"1875": 40.8775,"1900": 45.012,"1925": 34.835,"1950": 35.1531,"1975": 35.8103,"2000": 34.1142,"2025": 29.7677,"2050": 26.3754,"2075": 20.0148,"2100": 14.1842,"2125": 11.8944,"2150": 9.3713,"2175": 7.1875,"2200": 4.304,"2225": 1.8446,"2250": 0.6997,"2275": 0.106}}}