{"type":"Feature","properties":{"GID_3":"KEN.34.2.3_1","GID_0":"KEN","country":"Kenya","GID_1":"KEN.34_1","province":"Nyamira","NL_NAME_1":"NA","GID_2":"KEN.34.2_1","county":"KitutuMasaba","NL_NAME_2":"NA","city":"Kemera","VARNAME_3":"NA","NL_NAME_3":"NA","TYPE_3":"Ward","ENGTYPE_3":"Ward","CC_3":"1348","HASC_3":"NA","name":"Kemera.city"},
"geometry":{"type": "MultiPolygon","coordinates": [[[[34.7779,-0.6702,1666.3352],[34.7844,-0.6739,1677.5996],[34.7865,-0.6706,1697.1017],[34.789,-0.6718,1707.3756],[34.7931,-0.678,1725.3062],[34.7924,-0.6818,1743.5701],[34.7959,-0.684,1844.5413],[34.8008,-0.6843,1881.608],[34.8083,-0.6817,1867.4453],[34.8197,-0.6874,1807.6521],[34.8227,-0.6913,1800.0197],[34.8235,-0.6993,1776.8387],[34.8252,-0.6972,1795.8525],[34.8271,-0.6999,1781.0961],[34.8277,-0.6984,1789.3716],[34.8348,-0.7025,1783.6758],[34.8354,-0.7007,1788.0906],[34.8386,-0.7006,1791.5076],[34.8387,-0.7023,1796.046],[34.8403,-0.7009,1804.2787],[34.8404,-0.6963,1826.1113],[34.8421,-0.6989,1829.2229],[34.8451,-0.6969,1852.1688],[34.8458,-0.6989,1829.9594],[34.8477,-0.6983,1839.5295],[34.8501,-0.7007,1871.3809],[34.8543,-0.6992,1926.9575],[34.8583,-0.7003,1837.3864],[34.862,-0.6986,1835.5438],[34.8628,-0.6819,1898.6873],[34.8573,-0.6698,1912.0851],[34.8618,-0.6517,1906.5133],[34.8574,-0.65,1893.9299],[34.8542,-0.6529,1880.3218],[34.851,-0.6504,1868.5479],[34.8454,-0.6506,1865.1624],[34.832,-0.6418,1877.7216],[34.83,-0.6419,1851.0518],[34.8271,-0.633,1895.2632],[34.8178,-0.6243,1822.3779],[34.8104,-0.6393,1773.0266],[34.8092,-0.6551,1924.1787],[34.8098,-0.6577,1914.4136],[34.8119,-0.6583,1848.2332],[34.8114,-0.6609,1858.7375],[34.805,-0.658,1769.8726],[34.804,-0.6604,1745.511],[34.7984,-0.6592,1655.5889],[34.7918,-0.6609,1694.4343],[34.7892,-0.6684,1692.8979],[34.7828,-0.6683,1681.3921],[34.7779,-0.6702,1666.3352]]]]}}