{"type":"Feature","properties":{"GID_3":"KEN.27.4.3_1","GID_0":"KEN","country":"Kenya","GID_1":"KEN.27_1","province":"Migori","NL_NAME_1":"NA","GID_2":"KEN.27.4_1","county":"Nyatike","NL_NAME_2":"NA","city":"Kaler","VARNAME_3":"NA","NL_NAME_3":"NA","TYPE_3":"Ward","ENGTYPE_3":"Ward","CC_3":"1286","HASC_3":"NA","name":"Kaler.city"},
"geometry":{"type": "MultiPolygon","coordinates": [[[[34.192,-1.0847,1237.1528],[34.1909,-1.0894,1240.2506],[34.2235,-1.1075,1288.3159],[34.2244,-1.103,1286.6107],[34.2474,-1.116,1301.3625],[34.2498,-1.111,1308.4323],[34.2488,-1.1104,1308.4323],[34.2542,-1.1025,1291.3337],[34.2538,-1.0974,1286.84],[34.2568,-1.0913,1292.8577],[34.2616,-1.0899,1287.4773],[34.27,-1.0825,1244.0413],[34.2696,-1.0811,1238.4421],[34.2741,-1.0805,1242.5613],[34.2778,-1.0759,1240.0951],[34.2751,-1.071,1259.9987],[34.2793,-1.0636,1273.2965],[34.2789,-1.0594,1275.7286],[34.2776,-1.0528,1255.2159],[34.2745,-1.0518,1256.9178],[34.2729,-1.0483,1274.6642],[34.2768,-1.0456,1260.1934],[34.28,-1.0459,1260.5126],[34.2809,-1.0383,1258.7241],[34.2697,-1.033,1229.1759],[34.2656,-1.0377,1259.5066],[34.2524,-1.0416,1231.4094],[34.2461,-1.0479,1200.9878],[34.2417,-1.0575,1267.7305],[34.2372,-1.0576,1250.7245],[34.2293,-1.0547,1241.1885],[34.2291,-1.0501,1237.812],[34.225,-1.0435,1243.188],[34.21,-1.0343,1261.0065],[34.2008,-1.0307,1255.3062],[34.1971,-1.0308,1232.1176],[34.1964,-1.057,1279.1786],[34.1914,-1.0708,1289.0776],[34.1929,-1.0787,1278.7534],[34.192,-1.0847,1237.1528]]]]}}