{"type": "Feature","bbox": [36.9395,-0.5685,37.0019,-0.5021],"geometry": {"type": "MultiPolygon","coordinates": [[[[37.0019,-0.5175,1716.5194],[36.9975,-0.5189,1644.5334],[36.9982,-0.5147,1653.408],[36.9968,-0.5101,1675.9178],[36.9985,-0.5059,1686.9297],[36.9941,-0.5079,1684.1233],[36.9912,-0.5046,1688.967],[36.982,-0.5021,1797.1278],[36.9791,-0.5026,1794.3689],[36.9774,-0.5056,1787.0144],[36.9731,-0.5064,1778.9448],[36.9692,-0.5094,1728.3477],[36.9656,-0.5074,1764.9032],[36.9647,-0.5083,1717.2914],[36.9636,-0.5062,1809.9147],[36.9606,-0.5118,1749.5477],[36.9575,-0.5126,1723.2207],[36.9598,-0.5155,1787.8666],[36.9591,-0.5172,1760.1716],[36.9542,-0.5184,1773.9672],[36.9554,-0.5238,1740.8464],[36.9522,-0.5256,1756.45],[36.9505,-0.535,1813.5522],[36.945,-0.5404,1857.2573],[36.9443,-0.5473,1861.7609],[36.9395,-0.558,1856.6594],[36.9396,-0.5635,1880.8173],[36.9467,-0.5648,1834.5264],[36.9453,-0.5662,1857.8169],[36.9465,-0.5685,1837.0601],[36.9478,-0.566,1834.5264],[36.9517,-0.5643,1858.5841],[36.9572,-0.5669,1795.0636],[36.9584,-0.5638,1808.4727],[36.9681,-0.5662,1836.6758],[36.9699,-0.566,1832.7908],[36.9696,-0.5644,1812.5229],[36.9715,-0.565,1819.8923],[36.9723,-0.5631,1806.0973],[36.9769,-0.5633,1825.3031],[36.9778,-0.5618,1841.7445],[36.9798,-0.5645,1824.0646],[36.9836,-0.5632,1775.1401],[36.9943,-0.5451,1679.5312],[36.9925,-0.5382,1696.7416],[36.9936,-0.536,1713.8481],[36.9963,-0.536,1686.1714],[36.995,-0.5343,1718.4602],[36.9961,-0.529,1713.0737],[36.9979,-0.529,1713.7366],[36.9978,-0.5265,1695.1033],[37.0019,-0.5214,1689.743],[37.0019,-0.5175,1716.5194]]]]}
,"properties": {"GID_3": "KEN.36.5.3_1","GID_0": "KEN","country": "Kenya","GID_1": "KEN.36_1","province": "Nyeri","NL_NAME_1": "NA","GID_2": "KEN.36.5_1","county": "Othaya","NL_NAME_2": "NA","city": "Karima","VARNAME_3": "NA","NL_NAME_3": "NA","TYPE_3": "Ward","ENGTYPE_3": "Ward","CC_3": "486","HASC_3": "NA","name": "Karima.city","area_km2": 32.45915,"hist_schema_id": "Elevation0-9000","hist_area_km2": {"1625": 0.0424,"1650": 0.46643,"1675": 1.37809,"1700": 2.22614,"1725": 2.90458,"1750": 3.56182,"1775": 3.75262,"1800": 4.09184,"1825": 4.17665,"1850": 5.21551,"1875": 3.13778,"1900": 0.38162,"1925": 0.25442,"1950": 0.23321,"1975": 0.59364,"2000": 0.0424}}}