{"type": "Feature","bbox": [34.9218,0.6555,35.0624,0.7685],"geometry": {"type": "MultiPolygon","coordinates": [[[[35.0531,0.712,1880.2452],[35.0547,0.7218,1881.4353],[35.0538,0.7329,1862.1609],[35.0575,0.736,1845.2159],[35.056,0.74,1828.4884],[35.0586,0.7431,1802.6658],[35.0544,0.7531,1767.8181],[35.0576,0.7615,1728.9773],[35.0624,0.7659,1755.0635],[35.0624,0.767,1755.0635],[35.0573,0.7685,1770.0741],[35.0435,0.7653,1752.7509],[35.0425,0.7623,1755.5884],[35.0398,0.762,1763.2656],[35.0383,0.7599,1749.4272],[35.0407,0.7538,1726.2007],[35.0365,0.7534,1743.6694],[35.0319,0.7573,1722.5382],[35.0308,0.7548,1736.5565],[35.0267,0.7547,1722.556],[35.0283,0.7504,1681.4725],[35.0241,0.7482,1692.3409],[35.0204,0.7485,1678.6483],[35.0181,0.7557,1695.2729],[35.0152,0.7557,1689.3939],[35.0119,0.7587,1702.9519],[35.0074,0.7522,1688.434],[35.0038,0.7502,1690.0848],[35.0014,0.7507,1696.6825],[35.0002,0.7484,1685.2549],[34.9924,0.7513,1654.0629],[34.9884,0.7582,1669.6997],[34.9853,0.7595,1675.4752],[34.981,0.7576,1652.1426],[34.9773,0.7614,1678.4988],[34.9685,0.7571,1668.9937],[34.9625,0.7585,1658.4906],[34.9567,0.7535,1636.5187],[34.956,0.758,1652.0977],[34.9528,0.7557,1645.7489],[34.9491,0.7578,1656.3992],[34.94,0.7447,1629.896],[34.9377,0.7472,1631.5377],[34.9357,0.747,1631.4939],[34.934,0.7441,1633.9208],[34.9295,0.7465,1652.2454],[34.9218,0.7308,1633.2139],[34.9241,0.7289,1626.553],[34.9371,0.726,1670.907],[34.9403,0.7234,1684.0254],[34.9491,0.724,1704.9568],[34.9576,0.7214,1808.5852],[34.9681,0.7213,1819.4174],[34.9744,0.7143,1832.7709],[34.9784,0.7131,1841.3639],[34.9828,0.7057,1835.6343],[34.9922,0.7006,1842.6061],[34.9963,0.692,1851.9622],[35.0061,0.6823,1834.194],[35.0096,0.6831,1831.8254],[35.0138,0.6808,1853.0237],[35.0285,0.6802,1852.9872],[35.0308,0.6771,1857.306],[35.0336,0.6646,1888.809],[35.0359,0.6604,1887.5454],[35.0416,0.6555,1896.1405],[35.0393,0.6627,1897.1995],[35.0386,0.6925,1858.8264],[35.0456,0.6999,1870.1801],[35.0531,0.712,1880.2452]]]]}
,"properties": {"GID_3": "KEN.3.6.4_1","GID_0": "KEN","country": "Kenya","GID_1": "KEN.3_1","province": "Bungoma","NL_NAME_1": "NA","GID_2": "KEN.3.6_1","county": "Lugari","NL_NAME_2": "NA","city": "Mautuma","VARNAME_3": "NA","NL_NAME_3": "NA","TYPE_3": "Ward","ENGTYPE_3": "Ward","CC_3": "991","HASC_3": "NA","name": "Mautuma.city","area_km2": 83.84799,"hist_schema_id": "Elevation0-9000","hist_area_km2": {"1625": 4.24008,"1650": 7.67455,"1675": 9.8582,"1700": 9.43421,"1725": 9.77342,"1750": 9.0314,"1775": 4.4733,"1800": 4.43091,"1825": 6.19056,"1850": 12.65677,"1875": 5.30016,"1900": 0.78443}}}