{"type": "Feature","bbox": [37.3351,-1.6446,37.482,-1.5181],"geometry": {"type": "MultiPolygon","coordinates": [[[[37.3501,-1.5484,1417.3353],[37.35,-1.5499,1410.9797],[37.3405,-1.5543,1450.8699],[37.3351,-1.5599,1453.2634],[37.3415,-1.569,1438.6931],[37.3421,-1.572,1434.4573],[37.364,-1.5898,1408.8228],[37.3666,-1.5986,1405.3362],[37.3706,-1.6028,1398.1511],[37.3771,-1.6235,1421.267],[37.3887,-1.6293,1490.5876],[37.3978,-1.6297,1615.1132],[37.4033,-1.6281,1865.3055],[37.4084,-1.64,1875.6351],[37.4115,-1.6409,1910.4163],[37.4139,-1.639,1820.6877],[37.412,-1.6321,1762.625],[37.4136,-1.6318,1738.7485],[37.4142,-1.6271,1662.5499],[37.4204,-1.6263,1706.3818],[37.424,-1.6289,1774.7736],[37.4293,-1.6395,1829.1062],[37.4354,-1.6446,1896.075],[37.4448,-1.6391,1862.2423],[37.4421,-1.6357,1814.0826],[37.4463,-1.6308,1827.5741],[37.4434,-1.629,1847.7246],[37.4414,-1.6242,1773.1095],[37.4496,-1.6156,1692.1765],[37.4542,-1.6179,1716.9282],[37.4559,-1.6139,1633.2942],[37.4567,-1.6143,1620.1271],[37.4565,-1.6169,1688.2606],[37.4598,-1.6134,1620.1481],[37.4706,-1.6142,1798.2849],[37.4731,-1.612,1830.7771],[37.4732,-1.6082,1862.5194],[37.4818,-1.5998,1740.7646],[37.482,-1.5976,1683.8325],[37.4556,-1.5732,1283.0752],[37.4579,-1.569,1270.1885],[37.4569,-1.5672,1270.2277],[37.4586,-1.5616,1274.5055],[37.4614,-1.5608,1266.6548],[37.4622,-1.5581,1269.6508],[37.4548,-1.5516,1323.541],[37.4523,-1.5539,1315.0581],[37.4502,-1.5517,1325.844],[37.4517,-1.5476,1313.8221],[37.4482,-1.5466,1319.3313],[37.4496,-1.5399,1251.7388],[37.4453,-1.5302,1244.7874],[37.4408,-1.5308,1229.3297],[37.4388,-1.5278,1262.7097],[37.4369,-1.5315,1240.8643],[37.4331,-1.5302,1259.3923],[37.4308,-1.5315,1238.5554],[37.4287,-1.5301,1253.1846],[37.427,-1.5314,1244.017],[37.414,-1.5274,1237.3888],[37.4087,-1.5236,1277.4449],[37.4066,-1.5239,1265.3694],[37.3991,-1.5202,1342.1467],[37.394,-1.5212,1309.6278],[37.384,-1.5195,1290.4786],[37.3826,-1.5181,1290.4786],[37.3767,-1.5206,1282.3477],[37.3765,-1.5227,1296.9623],[37.3722,-1.5258,1314.7866],[37.3712,-1.5288,1333.4343],[37.3647,-1.5323,1365.271],[37.3651,-1.5352,1366.3225],[37.3635,-1.5355,1366.3225],[37.3605,-1.5328,1366.6226],[37.3585,-1.5412,1370.47],[37.3551,-1.5414,1375.7273],[37.3541,-1.5471,1392.5656],[37.3501,-1.5484,1417.3353]]]]}
,"properties": {"GID_3": "KEN.23.6.5_1","GID_0": "KEN","country": "Kenya","GID_1": "KEN.23_1","province": "Makueni","NL_NAME_1": "NA","GID_2": "KEN.23.6_1","county": "Mbooni","NL_NAME_2": "NA","city": "Tulimani","VARNAME_3": "NA","NL_NAME_3": "NA","TYPE_3": "Ward","ENGTYPE_3": "Ward","CC_3": "411","HASC_3": "NA","name": "Tulimani.city","area_km2": 131.531,"hist_schema_id": "Elevation0-9000","hist_area_km2": {"1225": 0.975,"1250": 2.9037,"1275": 6.8034,"1300": 11.6569,"1325": 13.9247,"1350": 14.6453,"1375": 17.4217,"1400": 16.807,"1425": 10.2368,"1450": 4.4931,"1475": 3.1155,"1500": 2.2889,"1525": 2.2042,"1550": 1.9498,"1575": 2.2889,"1600": 2.2465,"1625": 2.4161,"1650": 1.6319,"1675": 1.8862,"1700": 1.7167,"1725": 1.6743,"1750": 1.3988,"1775": 1.3564,"1800": 1.1233,"1825": 1.3564,"1850": 0.9113,"1875": 0.8054,"1900": 0.4875,"1925": 0.5086,"1950": 0.1907,"1975": 0.0848,"2000": 0.0212}}}