{"type":"Feature","properties":{"GID_3":"KEN.45.2.1_1","GID_0":"KEN","country":"Kenya","GID_1":"KEN.45_1","province":"Vihiga","NL_NAME_1":"NA","GID_2":"KEN.45.2_1","county":"Hamisi","NL_NAME_2":"NA","city":"Banja","VARNAME_3":"NA","NL_NAME_3":"NA","TYPE_3":"Ward","ENGTYPE_3":"Ward","CC_3":"1064","HASC_3":"NA","name":"Banja.city"},
"geometry":{"type": "MultiPolygon","coordinates": [[[[34.8546,0.0823,1741.9199],[34.8504,0.085,1750.5522],[34.8461,0.0841,1732.8158],[34.8419,0.0877,1710.8878],[34.8398,0.0874,1702.9656],[34.839,0.0841,1689.7305],[34.8253,0.086,1681.8383],[34.822,0.0849,1719.2704],[34.8193,0.0868,1709.0079],[34.8083,0.083,1701.969],[34.8016,0.0798,1668.8911],[34.7982,0.0757,1680.9205],[34.7922,0.0748,1694.1213],[34.7897,0.0729,1663.0513],[34.788,0.0688,1659.4479],[34.788,0.0585,1667.0662],[34.7847,0.0548,1668.7706],[34.7869,0.0557,1667.3906],[34.7963,0.054,1621.2999],[34.7992,0.0496,1567.142],[34.8094,0.0438,1540.7877],[34.813,0.0455,1536.5851],[34.8141,0.0437,1543.2235],[34.8187,0.0439,1564.7637],[34.8212,0.042,1531.2979],[34.822,0.0436,1540.179],[34.8243,0.043,1623.0396],[34.8215,0.0393,1562.8123],[34.8255,0.0356,1691.8011],[34.8287,0.0349,1681.6356],[34.836,0.0365,1620.4929],[34.838,0.0394,1694.3148],[34.8396,0.0511,1724.9938],[34.8495,0.0651,1672.1678],[34.8468,0.0688,1724.3934],[34.8486,0.0745,1724.6744],[34.8532,0.078,1749.9369],[34.8546,0.0823,1741.9199]]]]}}