{"type": "Feature","bbox": [34.4412,3.8712,35.0608,4.8596],"geometry": {"type": "MultiPolygon","coordinates": [[[[34.9353,4.8596,450.1346],[34.9289,4.8573,450.3793],[34.9287,4.8588,450.2317],[34.6599,4.7498,581.0311],[34.7402,4.5724,470.3756],[34.6438,4.5324,480.351],[34.638,4.5279,481.5471],[34.6312,4.5179,483.3992],[34.6143,4.508,486.4026],[34.6071,4.4933,489.729],[34.5946,4.4748,494.3885],[34.571,4.4604,500.7972],[34.5593,4.4496,504.4284],[34.5553,4.4381,508.7314],[34.5442,4.4177,514.0342],[34.4795,4.3077,557.6663],[34.4684,4.2687,571.5969],[34.4613,4.2341,588.5033],[34.4601,4.2177,591.7141],[34.4631,4.1725,591.9492],[34.4619,4.1539,595.3741],[34.4596,4.1483,598.1925],[34.449,4.1392,604.5799],[34.4412,4.1288,618.9781],[34.4487,4.1202,629.2368],[34.4499,4.1164,631.8676],[34.4415,4.1085,682.8468],[34.4415,4.0998,634.2988],[34.4456,4.0958,631.7324],[34.4565,4.0904,641.1046],[34.4783,4.0852,607.9103],[34.5046,4.0498,936.9369],[34.5136,4.0339,711.0419],[34.5159,4.0123,945.8559],[34.5295,4.001,819.0805],[34.5533,3.965,643.5526],[34.557,3.9512,643.9258],[34.5581,3.9311,658.6003],[34.5646,3.9129,668.0157],[34.5671,3.8985,669.0558],[34.5792,3.8812,660.251],[34.5903,3.885,652.2845],[34.5964,3.8833,647.6393],[34.6049,3.8844,645.2002],[34.615,3.8809,638.096],[34.6201,3.8817,636.7511],[34.6283,3.8888,632.3574],[34.633,3.8904,628.454],[34.6351,3.8878,626.4291],[34.6449,3.8941,623.4011],[34.6538,3.897,616.9479],[34.6877,3.924,595.333],[34.6981,3.9304,590.9459],[34.7013,3.9308,587.95],[34.7264,3.9111,580.6921],[34.7498,3.9023,577.1273],[34.7585,3.8974,572.6768],[34.7802,3.8783,570.41],[34.7846,3.876,569.2165],[34.7977,3.8751,565.1153],[34.8093,3.8712,566.5432],[34.8089,3.8729,564.7031],[34.8128,3.8783,564.8903],[34.8122,3.8872,559.2233],[34.8252,3.9021,556.1172],[34.8262,3.9118,558.1066],[34.8289,3.9166,556.1064],[34.831,3.926,551.4263],[34.8462,3.9507,548.4244],[34.8579,3.9582,546.4168],[34.8613,3.9669,547.6722],[34.8613,3.9775,542.8009],[34.8662,3.9966,539.9482],[34.8669,4.0182,536.1073],[34.873,4.0219,534.7599],[34.8748,4.034,532.5927],[34.8758,4.0554,529.4859],[34.8723,4.0637,528.073],[34.8787,4.0645,526.9816],[34.8749,4.0689,524.2571],[34.8753,4.0781,524.9771],[34.8778,4.0881,524.033],[34.882,4.0885,523.0923],[34.882,4.093,519.7261],[35.0545,4.1702,505.9724],[35.0554,4.1938,503.1481],[35.0585,4.2031,501.3904],[35.0552,4.2089,501.2217],[35.0599,4.2187,499.9584],[35.0537,4.2274,498.8669],[35.0553,4.2303,498.5444],[35.0549,4.2409,499.049],[35.0591,4.2468,497.9454],[35.0608,4.2547,496.3604],[35.059,4.2655,495.4443],[35.0551,4.2692,495.2624],[35.056,4.2718,495.268],[35.0546,4.2718,495.7674],[35.0521,4.2829,495.109],[35.0532,4.2909,494.7028],[35.0512,4.2919,494.555],[35.0551,4.2973,492.9967],[35.0522,4.3119,491.7868],[35.0566,4.3297,490.3079],[35.0556,4.329,490.3079],[35.056,4.3384,490.6187],[35.0578,4.3454,489.6237],[35.0554,4.3479,489.4553],[35.0562,4.3572,487.5421],[35.0544,4.3609,487.1537],[35.056,4.3837,485.8506],[35.0512,4.3968,484.7114],[35.0483,4.3962,485.2328],[35.0427,4.4061,485.2819],[35.0396,4.4087,483.8886],[35.0376,4.4081,483.9032],[35.033,4.4144,482.7503],[35.0203,4.4261,481.1913],[35.021,4.4284,481.1671],[35.0174,4.4296,481.7773],[35.0162,4.4343,481.9702],[35.0178,4.4353,481.401],[35.0155,4.4367,480.93],[35.0154,4.44,480.8299],[35.0136,4.4403,480.8299],[35.0122,4.4448,480.439],[35.0134,4.4555,479.0263],[35.0095,4.4652,478.1773],[35.0068,4.4653,478.3469],[35.0029,4.4708,477.3461],[34.9997,4.4722,477.2006],[34.9997,4.4754,477.0192],[34.9971,4.476,476.7472],[34.9956,4.4829,476.2647],[34.991,4.4896,475.6585],[34.9896,4.497,475.1043],[34.986,4.5013,475.8731],[34.9832,4.5104,473.7382],[34.9831,4.5235,472.4714],[34.9793,4.5288,471.8772],[34.9767,4.5392,471.0797],[34.9788,4.5473,470.6605],[34.9772,4.5601,469.8267],[34.9713,4.5664,469.5804],[34.9675,4.5669,470.3669],[34.9624,4.5714,469.903],[34.9487,4.5914,467.1931],[34.9482,4.599,466.8093],[34.9506,4.607,466.6127],[34.9499,4.6164,466.3186],[34.9539,4.6165,466.0455],[34.9547,4.6178,465.9459],[34.9529,4.6212,465.855],[34.9527,4.6314,465.0426],[34.946,4.6345,464.3297],[34.9409,4.6445,463.3989],[34.9439,4.6546,462.3567],[34.9442,4.6772,460.7831],[34.9392,4.685,460.312],[34.9398,4.6907,459.9873],[34.9336,4.7093,458.797],[34.9324,4.7433,456.8444],[34.9281,4.7777,454.4192],[34.9277,4.8021,452.8038],[34.9306,4.8134,452.5554],[34.9282,4.8328,451.4159],[34.9363,4.8495,450.739],[34.9353,4.8596,450.1346]]]]}
,"properties": {"GID_3": "KEN.43.6.7_1","GID_0": "KEN","country": "Kenya","GID_1": "KEN.43_1","province": "Turkana","NL_NAME_1": "NA","GID_2": "KEN.43.6_1","county": "TurkanaWest","NL_NAME_2": "NA","city": "Songot","VARNAME_3": "NA","NL_NAME_3": "NA","TYPE_3": "Ward","ENGTYPE_3": "Ward","CC_3": "620","HASC_3": "NA","name": "Songot.city","area_km2": 4460.148,"hist_schema_id": "Elevation0-9000","hist_area_km2": {"450": 436.944,"475": 1128.191,"500": 1110.503,"525": 616.175,"550": 507.835,"575": 354.217,"600": 152.469,"625": 91.965,"650": 42.579,"675": 5.478,"700": 1.819,"725": 1.502,"750": 1.48,"775": 1.375,"800": 2.221,"825": 1.734,"850": 1.036,"875": 0.55,"900": 0.529,"925": 0.529,"950": 0.402,"975": 0.169,"1000": 0.169,"1025": 0.127,"1050": 0.127}}}