{"type":"Feature","properties":{"GID_3":"KEN.12.4.1_1","GID_0":"KEN","country":"Kenya","GID_1":"KEN.12_1","province":"Kericho","NL_NAME_1":"NA","GID_2":"KEN.12.4_1","county":"KipkelionEast","NL_NAME_2":"NA","city":"Chepseon","VARNAME_3":"NA","NL_NAME_3":"NA","TYPE_3":"Ward","ENGTYPE_3":"Ward","CC_3":"938","HASC_3":"NA","name":"Chepseon.city"},
"geometry":{"type": "MultiPolygon","coordinates": [[[[35.3266,-0.3438,2056.1245],[35.3384,-0.3532,2070.7405],[35.3441,-0.364,2148.7458],[35.3432,-0.3684,2140.6294],[35.3455,-0.3711,2157.355],[35.3524,-0.3726,2177.1111],[35.3537,-0.37,2183.1499],[35.3564,-0.3691,2184.741],[35.3581,-0.3711,2151.7661],[35.3606,-0.3696,2164.4937],[35.3632,-0.3717,2178.0273],[35.3655,-0.3715,2165.595],[35.3683,-0.3741,2195.5498],[35.3731,-0.3728,2201.6746],[35.3802,-0.3753,2284.5801],[35.386,-0.3711,2276.1948],[35.391,-0.3745,2309.9668],[35.3962,-0.3714,2335.1267],[35.4072,-0.37,2344.7659],[35.4137,-0.3649,2345.833],[35.4205,-0.3649,2301.7029],[35.4285,-0.3599,2345.1624],[35.4427,-0.3443,2370.5874],[35.4139,-0.2969,2277.4248],[35.4545,-0.2819,2334.7622],[35.4707,-0.2723,2362.4238],[35.4834,-0.27,2294.3027],[35.4818,-0.2522,2218.8823],[35.4871,-0.2224,2077.679],[35.4656,-0.2243,2024.6362],[35.4642,-0.2202,2045.5631],[35.4692,-0.2075,1992.3442],[35.4623,-0.2095,1935.5367],[35.4592,-0.2009,2082.4683],[35.4503,-0.207,1991.4178],[35.4488,-0.2042,1948.79],[35.4467,-0.204,1924.7496],[35.4449,-0.2074,1906.2662],[35.4381,-0.2068,1953.5002],[35.4368,-0.2079,1961.072],[35.4358,-0.2067,1961.072],[35.4247,-0.2111,1914.5989],[35.4227,-0.2177,1884.0747],[35.4129,-0.2214,1926.7281],[35.4119,-0.2204,1925.7151],[35.4108,-0.2226,1911.1591],[35.4055,-0.224,1939.0815],[35.4064,-0.2265,1924.7749],[35.4012,-0.2304,1935.9816],[35.3999,-0.2284,1887.2633],[35.3964,-0.2294,1850.8204],[35.3887,-0.2217,1933.15],[35.3766,-0.2306,1905.1848],[35.368,-0.2344,1871.7405],[35.3641,-0.2388,1795.1821],[35.3554,-0.2365,1660.7074],[35.3519,-0.2337,1686.8082],[35.3518,-0.2307,1670.3027],[35.3463,-0.2285,1749.5499],[35.342,-0.234,1757.626],[35.3217,-0.2413,1669.0386],[35.3239,-0.2462,1606.8748],[35.33,-0.2495,1659.6616],[35.334,-0.248,1784.6582],[35.3352,-0.2495,1792.7866],[35.3372,-0.2491,1794.9977],[35.3382,-0.2476,1786.1427],[35.3396,-0.249,1796.7056],[35.3399,-0.2473,1776.532],[35.3428,-0.2508,1747.3822],[35.3481,-0.251,1750.934],[35.3503,-0.2539,1846.8074],[35.3546,-0.2542,1853.2673],[35.3561,-0.2571,1779.8954],[35.3618,-0.2548,1916.2705],[35.3629,-0.2621,1777.9517],[35.3654,-0.263,1792.0287],[35.3684,-0.262,1894.0908],[35.3713,-0.2631,1917.1195],[35.3723,-0.2613,1918.0837],[35.3747,-0.2625,1936.616],[35.3773,-0.2609,1934.271],[35.385,-0.2617,1952.8809],[35.3882,-0.2587,1999.2671],[35.3969,-0.2568,2027.0576],[35.3966,-0.2557,2043.6442],[35.4008,-0.2531,2070.7346],[35.4054,-0.2538,2033.7084],[35.4103,-0.2487,2017.0538],[35.4146,-0.248,2057.3777],[35.4157,-0.2505,2050.5918],[35.4089,-0.2546,1978.2778],[35.4076,-0.2576,1974.5079],[35.4085,-0.2611,1956.3707],[35.4061,-0.2615,1970.8817],[35.4041,-0.2669,2000.569],[35.4011,-0.2673,2029.5876],[35.3957,-0.2715,2009.6111],[35.3933,-0.271,2004.8746],[35.3879,-0.2757,2002.0543],[35.3877,-0.2787,2031.3545],[35.3848,-0.2812,2039.3077],[35.3746,-0.2856,1955.9878],[35.373,-0.2883,1984.8284],[35.3689,-0.29,1989.7426],[35.3692,-0.2936,1997.765],[35.3625,-0.2967,1968.4304],[35.3637,-0.3006,1982.2284],[35.3508,-0.3026,1978.8644],[35.3423,-0.313,2042.2828],[35.3304,-0.3232,2031.1097],[35.3276,-0.3271,2058.1553],[35.3397,-0.3409,2110.4419],[35.3345,-0.3407,2059.667],[35.3318,-0.3451,2056.3606],[35.3266,-0.3438,2056.1245]]]]}}