{"type":"Feature","properties":{"GID_3":"KEN.34.4.2_1","GID_0":"KEN","country":"Kenya","GID_1":"KEN.34_1","province":"Nyamira","NL_NAME_1":"NA","GID_2":"KEN.34.4_1","county":"WestMugirango","NL_NAME_2":"NA","city":"Bonyamatuta","VARNAME_3":"NA","NL_NAME_3":"NA","TYPE_3":"Ward","ENGTYPE_3":"Ward","CC_3":"1355","HASC_3":"NA","name":"Bonyamatuta.city"},
"geometry":{"type": "MultiPolygon","coordinates": [[[[34.9465,-0.5633,1886.8044],[34.9458,-0.5691,1890.9768],[34.947,-0.5723,1913.4935],[34.9315,-0.5799,2012.5885],[34.9234,-0.5755,1928.6931],[34.9215,-0.5787,1953.2522],[34.9216,-0.5866,1935.1467],[34.9265,-0.5921,1999.8884],[34.926,-0.5957,2031.2501],[34.9296,-0.607,2062.3325],[34.9391,-0.6179,1983.4724],[34.9459,-0.6229,1919.3848],[34.9542,-0.6255,1920.3644],[34.9593,-0.6339,1942.0094],[34.97,-0.6344,1930.0159],[34.9703,-0.6406,1896.2972],[34.978,-0.6305,1940.3583],[34.9809,-0.637,1911.7642],[34.986,-0.6393,1925.8064],[34.9972,-0.6399,2001.1832],[35.0036,-0.6383,2133.0601],[35.0037,-0.629,1989.7079],[34.9988,-0.6196,2144.873],[34.9976,-0.6206,2144.873],[34.9966,-0.6191,2061.5278],[34.9901,-0.6176,1967.7349],[34.9845,-0.612,1996.3231],[34.981,-0.6131,1994.7738],[34.9746,-0.6108,1950.452],[34.9739,-0.6045,1974.3965],[34.9678,-0.6001,2051.5828],[34.9636,-0.5925,2098.8486],[34.9614,-0.5929,2018.5431],[34.9603,-0.5874,1988.244],[34.957,-0.585,2074.0615],[34.9544,-0.5772,2051.1313],[34.9465,-0.5633,1886.8044]]]]}}