{"type":"Feature","properties":{"GID_2":"KEN.13.10_1","GID_0":"KEN","country":"Kenya","GID_1":"KEN.13_1","province":"Kiambu","NL_NAME_1":"NA","county":"Limuru","VARNAME_2":"NA","NL_NAME_2":"NA","TYPE_2":"Constituency","ENGTYPE_2":"Constituency","CC_2":"121","HASC_2":"NA","name":"Limuru.county"},
"geometry":{"type": "MultiPolygon","coordinates": [[[[36.5172,-1.2239,1443.7346],[36.5136,-1.236,1443.8049],[36.5735,-1.2211,2061.5806],[36.5907,-1.2211,2087.7886],[36.6127,-1.2163,2099.105],[36.6161,-1.2105,2086.1929],[36.6158,-1.2041,2066.3345],[36.6111,-1.2033,2091.041],[36.609,-1.1994,2099.7734],[36.6126,-1.1859,2121.8706],[36.6078,-1.1803,2143.8452],[36.6071,-1.1765,2150.1934],[36.6092,-1.1685,2139.2612],[36.6196,-1.1532,2158.9922],[36.6254,-1.1506,2128.3286],[36.6316,-1.1537,2196.7725],[36.6356,-1.1708,2163.6689],[36.6381,-1.1553,2242.8628],[36.6548,-1.1545,2237.7646],[36.6544,-1.161,2230.4253],[36.6496,-1.1646,2229.0156],[36.6493,-1.1673,2214.8838],[36.6523,-1.1768,2121.9795],[36.6584,-1.179,2094.5212],[36.6609,-1.1838,2080.6841],[36.667,-1.1835,2097.2437],[36.6688,-1.1787,2100.2139],[36.6647,-1.1774,2104.1826],[36.6643,-1.1746,2100.8491],[36.6821,-1.176,2045.3511],[36.6838,-1.1736,2022.7],[36.6798,-1.1701,2074.739],[36.6834,-1.1675,2065.918],[36.6852,-1.1718,2042.6714],[36.6917,-1.1748,2043.4801],[36.6895,-1.1779,2021.8184],[36.6937,-1.1836,2023.3723],[36.6988,-1.1859,2005.4081],[36.7057,-1.186,1959.0468],[36.7284,-1.1656,1890.149],[36.7302,-1.1503,1938.5566],[36.7324,-1.1503,1932.5598],[36.7423,-1.1413,1978.657],[36.7312,-1.1326,1985.9911],[36.7302,-1.1256,2043.027],[36.735,-1.1195,2001.397],[36.7305,-1.1179,2028.5803],[36.7271,-1.1234,2044.2782],[36.724,-1.1239,2057.0315],[36.7239,-1.1167,2081.9844],[36.7347,-1.1013,2024.406],[36.7312,-1.0966,2033.8934],[36.7316,-1.0939,2070.6702],[36.7278,-1.0899,2093.0349],[36.7282,-1.0875,2106.2898],[36.7215,-1.0866,2136.3896],[36.7183,-1.088,2133.7285],[36.7141,-1.0845,2182.0283],[36.7125,-1.0798,2201.2444],[36.7073,-1.0745,2188.4629],[36.6981,-1.0769,2265.8325],[36.6903,-1.0755,2282.0518],[36.6894,-1.0738,2294.7654],[36.6844,-1.0724,2306.0708],[36.6797,-1.0724,2295.7585],[36.6758,-1.075,2292.126],[36.6746,-1.0736,2304.3428],[36.6754,-1.0654,2366.0967],[36.6738,-1.0657,2372.1062],[36.6735,-1.0644,2369.7126],[36.6768,-1.0461,2287.3257],[36.6721,-1.0461,2315.5244],[36.6646,-1.0539,2391.4248],[36.6608,-1.0619,2385.27],[36.6621,-1.0642,2376.7534],[36.66,-1.0678,2334.812],[36.6576,-1.0668,2321.4983],[36.6533,-1.0684,2342.7949],[36.6502,-1.0663,2305.9136],[36.6461,-1.0662,2316.8733],[36.6453,-1.0638,2354.9365],[36.6479,-1.0612,2369.5662],[36.6477,-1.0592,2369.8242],[36.6434,-1.0605,2379.752],[36.6282,-1.0558,2407.9771],[36.6229,-1.0558,2413.5923],[36.6172,-1.0575,2324.9128],[36.6104,-1.0568,2306.5012],[36.6085,-1.0621,2271.2644],[36.6094,-1.0696,2275.2607],[36.5923,-1.0682,1938.9949],[36.5911,-1.0581,1823.8597],[36.5699,-1.0965,1830.6394],[36.5672,-1.0944,1799.8569],[36.5445,-1.1207,1706.9431],[36.5349,-1.1612,1548.8884],[36.5172,-1.2239,1443.7346]]]]}}