{"type": "Feature","bbox": [35.4139,-1.1488,36.6001,0.24],"geometry": {"type": "MultiPolygon","coordinates": [[[[36.5265,-1.1405,1590.6277],[36.537,-1.1488,1741.6729],[36.5445,-1.1207,1706.9431],[36.5672,-1.0944,1799.8569],[36.5699,-1.0965,1830.6394],[36.5912,-1.0579,1823.7292],[36.5902,-1.0435,1848.9485],[36.5878,-1.0365,1829.9996],[36.5951,-1.0059,1826.1453],[36.5966,-0.9913,1909.293],[36.6001,-0.9872,2024.9338],[36.5962,-0.9857,1939.3052],[36.5964,-0.9786,2017.1299],[36.5914,-0.9793,1917.9155],[36.5873,-0.9721,1868.4893],[36.5877,-0.9587,1963.4039],[36.5788,-0.9406,2039.4521],[36.5749,-0.938,2041.7085],[36.5687,-0.9392,2043.7181],[36.5615,-0.9329,1981.9722],[36.5726,-0.9257,2108.0703],[36.5676,-0.922,2139.8979],[36.5542,-0.9202,2264.6404],[36.5543,-0.9146,2393.6433],[36.5442,-0.9018,2445.1343],[36.5545,-0.8666,2714.79],[36.5523,-0.849,2614.1807],[36.5616,-0.8358,2696.293],[36.5589,-0.8317,2689.9106],[36.5303,-0.7226,2515.3789],[36.5207,-0.7046,2496.0076],[36.5441,-0.6907,2511.6245],[36.5212,-0.647,2451.5508],[36.5263,-0.6432,2457.2832],[36.5266,-0.6388,2448.7161],[36.5248,-0.6363,2451.2898],[36.5247,-0.6317,2453.2314],[36.5162,-0.6262,2431.1792],[36.5159,-0.6227,2445.1675],[36.5182,-0.6228,2448.6484],[36.5203,-0.6199,2453.543],[36.5194,-0.6187,2451.6079],[36.5163,-0.6197,2447.0627],[36.5123,-0.6149,2427.4692],[36.5119,-0.6045,2434.4299],[36.5061,-0.6169,2441.189],[36.4679,-0.6205,2449.2375],[36.456,-0.6058,2399.311],[36.4514,-0.5596,2393.3806],[36.443,-0.5641,2288.9099],[36.4312,-0.5659,2165.9482],[36.4062,-0.569,1957.8909],[36.403,-0.5665,1951.4978],[36.4043,-0.563,1965.6337],[36.4032,-0.5599,1963.4521],[36.4049,-0.5598,1961.911],[36.4032,-0.5549,1966.3362],[36.4039,-0.5498,1981.3773],[36.407,-0.5467,1973.5753],[36.4027,-0.5415,1968.104],[36.4045,-0.5329,1974.1136],[36.4003,-0.5301,1992.031],[36.4013,-0.5227,1983.4612],[36.4056,-0.518,1981.0159],[36.4004,-0.5099,2030.45],[36.4035,-0.5057,1971.5753],[36.4027,-0.4999,1978.5181],[36.3969,-0.4956,1977.897],[36.3976,-0.4892,1980.24],[36.3964,-0.4881,1980.24],[36.3981,-0.4869,1976.3477],[36.3981,-0.4829,2026.5601],[36.3961,-0.4807,1988.0146],[36.3925,-0.4704,2003.1003],[36.3953,-0.4684,2039.3096],[36.3922,-0.4655,1988.9122],[36.391,-0.4594,2005.4041],[36.3886,-0.4572,2006.007],[36.3887,-0.459,2001.0299],[36.3873,-0.4579,1999.1013],[36.387,-0.4513,2034.0706],[36.3856,-0.4504,2074.1519],[36.389,-0.4484,2019.9812],[36.3878,-0.4466,2043.7604],[36.3896,-0.4405,2027.9951],[36.3868,-0.4336,2043.8875],[36.3874,-0.43,2051.824],[36.3852,-0.4225,2162.5732],[36.3862,-0.4213,2149.947],[36.3812,-0.4201,2116.3481],[36.3792,-0.4164,2174.1648],[36.3808,-0.405,2183.6243],[36.378,-0.398,2207.397],[36.3648,-0.3893,2255.6904],[36.3601,-0.372,2282.9521],[36.3343,-0.3827,2387.6865],[36.3139,-0.3798,2384.3862],[36.3116,-0.3627,2366.3318],[36.293,-0.3673,2433.4402],[36.2758,-0.3864,2289.0464],[36.2629,-0.3364,2451.9927],[36.2524,-0.3363,2389.2959],[36.249,-0.3399,2235.9546],[36.246,-0.3407,2230.4648],[36.2411,-0.3384,2202.2114],[36.2317,-0.3374,2021.4458],[36.2286,-0.3475,2033.4745],[36.2249,-0.3401,2057.2935],[36.2138,-0.288,2127.0132],[36.2128,-0.2635,2189.7095],[36.2461,-0.2486,2518.7837],[36.2371,-0.2235,2550.0471],[36.2242,-0.2045,2532.0193],[36.2202,-0.2052,2562.6914],[36.2118,-0.1972,2587.9297],[36.2115,-0.1815,2595.9429],[36.2008,-0.1302,2431.6067],[36.2194,-0.1069,2486.6147],[36.2207,-0.0992,2458.1831],[36.2285,-0.1005,2446.0635],[36.2277,-0.1084,2459.5862],[36.2467,-0.1117,2774.9817],[36.2515,-0.078,2710.5193],[36.2506,-0.0538,2655.4038],[36.2466,-0.0539,2593.9072],[36.2481,-0.0455,2351.1716],[36.2527,-0.0408,2543.0957],[36.2551,-0.0288,2420.4468],[36.2526,-0.0275,2314.5376],[36.2573,-0.0174,2393.5601],[36.2571,-0.0127,2279.6946],[36.2654,0.0252,2395.9729],[36.269,0.0259,2364.873],[36.2624,0.0399,2394.937],[36.2564,0.0623,2131.978],[36.2616,0.0696,2127.8042],[36.2711,0.0938,2029.902],[36.289,0.1175,1965.7007],[36.2857,0.1324,1968.0077],[36.2773,0.1539,2057.0847],[36.2603,0.1813,1884.2372],[36.254,0.1876,1856.4751],[36.2361,0.215,1954.3856],[36.2026,0.24,1648.3319],[36.1807,0.2348,1470.8636],[36.1796,0.2339,1475.7905],[36.1805,0.2316,1469.6023],[36.1824,0.2295,1512.2286],[36.1847,0.2298,1577.1887],[36.1849,0.2275,1607.428],[36.1981,0.2234,1558.9198],[36.1972,0.2218,1553.9711],[36.1984,0.2205,1553.9711],[36.1984,0.2101,1561.9236],[36.1999,0.2067,1528.1185],[36.1984,0.2049,1581.9346],[36.1483,0.1907,1680.6036],[36.1402,0.1324,1577.8649],[36.1348,0.1137,1552.8859],[36.128,0.0645,1531.5659],[36.1063,0.0664,1536.6001],[36.1136,0.0109,1605.6512],[36.0936,-0.0059,1665.2434],[36.0539,0.009,1722.8966],[36.042,0.0257,1664.6451],[36.0366,0.0261,1650.4897],[36.0069,0.036,1598.1011],[36.0,0.0656,1582.931],[35.9657,0.0621,1535.3933],[35.9635,0.0706,1519.5698],[35.9666,0.0742,1516.1791],[35.9639,0.077,1518.0344],[35.9646,0.08,1513.9006],[35.9634,0.0809,1512.9292],[35.9664,0.0832,1522.9747],[35.9614,0.0879,1505.5181],[35.9607,0.0904,1507.7314],[35.9621,0.092,1503.2872],[35.9406,0.101,1581.1661],[35.9302,0.075,1618.0312],[35.9703,0.0301,1537.9667],[35.9764,0.0266,1540.5364],[35.976,0.0241,1540.8331],[35.978,0.0228,1541.5857],[35.9786,0.0191,1543.6898],[35.978,0.014,1545.0447],[35.9761,0.0127,1546.3351],[35.9768,0.0116,1546.9084],[35.9736,0.0061,1550.2833],[35.9742,0.0031,1552.7122],[35.9707,-0.0085,1556.475],[35.9638,-0.0174,1574.3887],[35.9603,-0.0194,1579.6877],[35.9608,-0.0254,1578.8616],[35.9551,-0.0315,1596.8173],[35.9497,-0.0457,1613.2931],[35.9373,-0.0538,1639.1748],[35.938,-0.0568,1636.2769],[35.935,-0.0617,1649.0315],[35.9325,-0.0614,1653.5099],[35.9278,-0.0649,1660.4272],[35.9289,-0.071,1659.7412],[35.923,-0.0722,1676.6517],[35.9171,-0.0763,1689.6223],[35.9004,-0.0426,1709.8252],[35.8944,-0.0456,1711.5288],[35.8773,-0.0297,1696.6687],[35.8464,-0.078,2010.5803],[35.8221,-0.1124,1942.5667],[35.8193,-0.1116,1945.0251],[35.8186,-0.1083,1960.8217],[35.8071,-0.0932,1995.9213],[35.8029,-0.0938,2020.299],[35.7989,-0.0979,2014.2982],[35.7958,-0.105,2034.9075],[35.7905,-0.1061,2104.5977],[35.7904,-0.157,2234.0625],[35.772,-0.1882,2249.3992],[35.7243,-0.1989,2482.8264],[35.7227,-0.194,2469.262],[35.7228,-0.1673,2576.6279],[35.7298,-0.1513,2692.1636],[35.7137,-0.1262,2779.6606],[35.7058,-0.1183,2740.0105],[35.7066,-0.1161,2756.7104],[35.6934,-0.103,2640.6987],[35.6887,-0.0869,2510.0869],[35.6903,-0.0787,2504.1074],[35.6889,-0.0684,2501.3677],[35.666,-0.0686,2481.5674],[35.6523,-0.0724,2491.1917],[35.6671,-0.0437,2400.7163],[35.6596,-0.0483,2423.26],[35.6579,-0.0456,2421.1057],[35.6476,-0.0528,2450.0269],[35.6397,-0.055,2495.2358],[35.6281,-0.0673,2437.5723],[35.6248,-0.0737,2429.1326],[35.6152,-0.0783,2373.6255],[35.6167,-0.0824,2380.3804],[35.6142,-0.0856,2365.8438],[35.6215,-0.0913,2383.0669],[35.6231,-0.0972,2377.0859],[35.6126,-0.105,2351.0562],[35.6121,-0.1127,2336.3547],[35.6037,-0.1172,2324.6528],[35.5989,-0.1165,2306.8052],[35.5971,-0.1236,2300.9553],[35.6009,-0.128,2313.7012],[35.6009,-0.1391,2303.3369],[35.6035,-0.1417,2327.1299],[35.6045,-0.1485,2339.7104],[35.608,-0.1488,2365.3164],[35.6105,-0.1529,2420.342],[35.6133,-0.1523,2411.1265],[35.6162,-0.1484,2431.1682],[35.6255,-0.1446,2442.689],[35.6299,-0.1472,2429.4766],[35.6409,-0.1442,2453.6133],[35.6472,-0.1454,2468.9304],[35.6516,-0.1497,2466.8735],[35.6516,-0.1541,2461.9548],[35.6541,-0.1588,2474.6777],[35.6674,-0.1567,2546.2632],[35.6704,-0.1577,2548.4478],[35.6661,-0.1792,2471.406],[35.675,-0.183,2540.3535],[35.6642,-0.1888,2519.0996],[35.6619,-0.1997,2589.9238],[35.6576,-0.1994,2585.5271],[35.6561,-0.2012,2603.6895],[35.6555,-0.2071,2570.6743],[35.6577,-0.2122,2683.103],[35.6554,-0.2158,2548.2939],[35.6581,-0.2296,2703.2937],[35.6502,-0.2605,2671.1208],[35.6464,-0.266,2659.8254],[35.6415,-0.2659,2585.8823],[35.6315,-0.2709,2626.5229],[35.6311,-0.2825,2693.4922],[35.6198,-0.2888,2663.6323],[35.6181,-0.2848,2654.9268],[35.6113,-0.2837,2744.0259],[35.6046,-0.2883,2698.4219],[35.6015,-0.2776,2743.7935],[35.5944,-0.2714,2765.3643],[35.5925,-0.2723,2723.1438],[35.5918,-0.28,2740.8193],[35.585,-0.2867,2664.0518],[35.581,-0.3031,2687.6772],[35.5693,-0.2983,2649.9944],[35.5723,-0.2772,2672.7756],[35.5588,-0.2679,2649.4587],[35.5291,-0.2545,2222.3333],[35.5255,-0.2646,2270.769],[35.5106,-0.2651,2259.6926],[35.5048,-0.2633,2244.1995],[35.4877,-0.2693,2279.4937],[35.4707,-0.2723,2362.4238],[35.4545,-0.2819,2334.7622],[35.4139,-0.2969,2277.4248],[35.5372,-0.4985,2395.7466],[35.5872,-0.5831,2349.2422],[35.5984,-0.6491,2355.7717],[35.6106,-0.6664,2323.884],[35.6288,-0.6777,2362.3096],[35.6422,-0.6951,2428.4849],[35.646,-0.6953,2335.5986],[35.6476,-0.6898,2409.6797],[35.6502,-0.6887,2343.5552],[35.6531,-0.6787,2438.4248],[35.664,-0.6731,2350.6362],[35.6637,-0.669,2463.8521],[35.6662,-0.6637,2399.8779],[35.6655,-0.6612,2445.0837],[35.6677,-0.6602,2429.5676],[35.6718,-0.6525,2438.9685],[35.6769,-0.6527,2421.2607],[35.6778,-0.6476,2483.9214],[35.6812,-0.6453,2390.2437],[35.6813,-0.64,2444.6648],[35.6856,-0.6326,2400.7954],[35.6865,-0.621,2437.2961],[35.6845,-0.6165,2482.6152],[35.689,-0.6102,2484.6121],[35.6886,-0.6066,2508.709],[35.6925,-0.5997,2481.4006],[35.6927,-0.5951,2506.9917],[35.6951,-0.5911,2530.2197],[35.7037,-0.585,2515.6421],[35.7054,-0.5805,2546.8916],[35.708,-0.5796,2522.2551],[35.7117,-0.571,2515.2246],[35.7133,-0.5649,2545.2603],[35.7118,-0.5638,2525.2339],[35.7125,-0.5532,2533.8943],[35.7112,-0.5525,2552.3096],[35.7106,-0.5543,2539.0947],[35.7091,-0.5531,2539.0947],[35.7111,-0.5471,2571.2598],[35.717,-0.5464,2585.1799],[35.7237,-0.542,2616.584],[35.734,-0.5273,2624.4971],[35.7405,-0.5239,2635.1819],[35.7735,-0.5313,2727.8984],[35.778,-0.5086,2788.8879],[35.7951,-0.4677,2892.9714],[35.7943,-0.4623,2889.9756],[35.7982,-0.4505,2952.5195],[35.813,-0.4522,2961.6587],[35.8161,-0.4609,2958.5474],[35.8145,-0.4702,2911.4932],[35.8271,-0.4672,2964.7546],[35.8306,-0.4607,2976.1606],[35.8364,-0.4606,2970.2305],[35.8391,-0.4675,2972.8406],[35.8321,-0.4885,2942.5576],[35.8543,-0.4983,2968.5457],[35.8531,-0.5003,2956.4106],[35.8902,-0.5195,3028.6067],[35.9045,-0.5399,2956.2627],[35.9122,-0.5431,2831.0107],[35.933,-0.5445,2827.8296],[35.9359,-0.5503,2833.1423],[35.9447,-0.5487,2761.2754],[35.947,-0.5507,2789.3955],[35.9475,-0.5586,2722.3228],[35.9518,-0.5624,2785.9243],[35.9826,-0.6248,2845.6113],[35.9508,-0.6598,2780.9368],[35.9161,-0.6295,2857.625],[35.8762,-0.6317,2789.7239],[35.8783,-0.6444,2760.0327],[35.8931,-0.6432,2751.1453],[35.9301,-0.6893,2737.1128],[35.9313,-0.6943,2714.7102],[35.9303,-0.6992,2736.1753],[35.9458,-0.7074,2720.6006],[36.0117,-0.6571,2912.3594],[36.0281,-0.6728,2904.0527],[36.0554,-0.6548,2891.4839],[36.0974,-0.6333,2375.2058],[36.0999,-0.6706,2615.502],[36.1427,-0.7091,2206.6191],[36.1438,-0.7052,2279.8486],[36.1474,-0.7051,2310.5364],[36.1538,-0.7085,2242.3413],[36.1527,-0.7143,2187.8989],[36.1542,-0.72,2157.9854],[36.1595,-0.7278,2229.3911],[36.1594,-0.7355,2162.9001],[36.1615,-0.7389,2119.8362],[36.1687,-0.7411,2173.9346],[36.1715,-0.7475,2126.1506],[36.1835,-0.7526,2085.6387],[36.1888,-0.7593,2068.4238],[36.1911,-0.7575,2050.2527],[36.1928,-0.7599,2037.0085],[36.1835,-0.7726,2081.5361],[36.1908,-0.7783,2094.4016],[36.1883,-0.7982,2191.1462],[36.1583,-0.8313,2674.3552],[36.1695,-0.8649,2814.8193],[36.1895,-0.9017,2554.2639],[36.1855,-0.9087,2708.8726],[36.1948,-0.9091,2462.8569],[36.2057,-0.9278,2238.1914],[36.2638,-0.9085,2103.9866],[36.3356,-1.0408,1609.3704],[36.4935,-1.1151,1547.3367],[36.5265,-1.1405,1590.6277]]]]}
,"properties": {"GID_1": "KEN.31_1","GID_0": "KEN","country": "Kenya","province": "Nakuru","VARNAME_1": "NA","NL_NAME_1": "NA","TYPE_1": "County","ENGTYPE_1": "County","CC_1": "32","HASC_1": "KE.NK","ISO_1": "KE-31","name": "Nakuru.province","area_km2": 7508.699,"hist_schema_id": "Elevation0-9000","hist_area_km2": {"1475": 0.36,"1500": 1.484,"1525": 52.009,"1550": 71.258,"1575": 74.52,"1600": 92.413,"1625": 102.844,"1650": 116.498,"1675": 95.7,"1700": 98.479,"1725": 108.593,"1750": 138.021,"1775": 181.696,"1800": 167.766,"1825": 172.43,"1850": 214.029,"1875": 350.77,"1900": 361.225,"1925": 285.749,"1950": 248.096,"1975": 239.933,"2000": 228.103,"2025": 223.863,"2050": 204.23,"2075": 179.742,"2100": 162.421,"2125": 152.245,"2150": 138.083,"2175": 115.886,"2200": 113.511,"2225": 105.752,"2250": 103.377,"2275": 94.918,"2300": 94.727,"2325": 90.466,"2350": 102.636,"2375": 116.269,"2400": 134.714,"2425": 146.226,"2450": 162.572,"2475": 147.265,"2500": 146.545,"2525": 136.771,"2550": 127.146,"2575": 118.919,"2600": 111.965,"2625": 99.69,"2650": 96.892,"2675": 90.998,"2700": 94.771,"2725": 90.87,"2750": 77.004,"2775": 61.654,"2800": 46.622,"2825": 42.912,"2850": 42.127,"2875": 34.474,"2900": 27.838,"2925": 20.438,"2950": 13.929,"2975": 10.77,"3000": 10.261,"3025": 10.198,"3050": 4.474,"3075": 0.551}}}