{"type":"Feature","properties":{"GID_3":"KEN.3.11.3_1","GID_0":"KEN","country":"Kenya","GID_1":"KEN.3_1","province":"Bungoma","NL_NAME_1":"NA","GID_2":"KEN.3.11_1","county":"WebuyeEast","NL_NAME_2":"NA","city":"Ndivisi","VARNAME_3":"NA","NL_NAME_3":"NA","TYPE_3":"Ward","ENGTYPE_3":"Ward","CC_3":"1105","HASC_3":"NA","name":"Ndivisi.city"},
"geometry":{"type": "MultiPolygon","coordinates": [[[[34.7721,0.7536,1612.7131],[34.7655,0.7483,1619.0864],[34.7578,0.7355,1672.8894],[34.752,0.7363,1684.3414],[34.7538,0.7236,1677.478],[34.7499,0.7005,1662.6825],[34.7564,0.7031,1676.6411],[34.7653,0.7009,1665.0409],[34.7731,0.7064,1653.0903],[34.7764,0.7061,1653.384],[34.7831,0.6912,1631.176],[34.7929,0.6794,1616.0925],[34.7941,0.6722,1592.4133],[34.7934,0.6619,1580.5793],[34.7972,0.6525,1578.2422],[34.8012,0.6508,1584.4716],[34.8054,0.6555,1604.2887],[34.8118,0.6593,1627.9354],[34.8199,0.669,1612.9176],[34.8291,0.6716,1552.3168],[34.8337,0.6758,1583.1934],[34.8306,0.6763,1575.8662],[34.8282,0.6788,1563.3328],[34.8291,0.6805,1560.0793],[34.8266,0.6821,1562.7595],[34.8271,0.6907,1571.7617],[34.8244,0.6947,1574.606],[34.828,0.7026,1573.8136],[34.826,0.7096,1599.5229],[34.8285,0.7094,1583.9524],[34.83,0.7116,1584.0553],[34.8275,0.713,1594.4639],[34.8296,0.7165,1580.0698],[34.8286,0.7206,1593.7362],[34.8258,0.7279,1618.4736],[34.8177,0.7319,1595.3325],[34.8166,0.735,1602.9885],[34.8214,0.7506,1604.787],[34.8191,0.7654,1615.3396],[34.8052,0.7628,1661.4238],[34.804,0.7679,1633.4802],[34.7971,0.7701,1673.884],[34.7952,0.7648,1705.7288],[34.7895,0.7643,1715.4225],[34.7877,0.7616,1700.9996],[34.7844,0.7621,1687.762],[34.7721,0.7536,1612.7131]]]]}}