{"type":"Feature","properties":{"GID_3":"KEN.34.2.5_1","GID_0":"KEN","country":"Kenya","GID_1":"KEN.34_1","province":"Nyamira","NL_NAME_1":"NA","GID_2":"KEN.34.2_1","county":"KitutuMasaba","NL_NAME_2":"NA","city":"Manga","VARNAME_3":"NA","NL_NAME_3":"NA","TYPE_3":"Ward","ENGTYPE_3":"Ward","CC_3":"1350","HASC_3":"NA","name":"Manga.city"},
"geometry":{"type": "MultiPolygon","coordinates": [[[[34.8436,-0.5918,1944.7637],[34.8347,-0.599,1838.3547],[34.8314,-0.6092,1819.2906],[34.8178,-0.6242,1822.3779],[34.8271,-0.633,1895.2632],[34.8298,-0.6417,1851.0518],[34.832,-0.6418,1877.7216],[34.8454,-0.6506,1865.1624],[34.851,-0.6504,1868.5479],[34.8542,-0.6529,1880.3218],[34.8585,-0.65,1893.9299],[34.8689,-0.6527,2012.9764],[34.8695,-0.655,2055.4563],[34.8744,-0.6555,2078.3005],[34.8741,-0.6583,2043.2759],[34.8828,-0.6614,1992.2104],[34.889,-0.6596,2052.0664],[34.8935,-0.6633,1970.1979],[34.8991,-0.6623,1987.0286],[34.8989,-0.6547,1978.4556],[34.8899,-0.6515,1978.6326],[34.8881,-0.6419,2043.5653],[34.8819,-0.6422,1989.6373],[34.8825,-0.6365,2027.7446],[34.8811,-0.6342,1988.4415],[34.8834,-0.6318,1997.161],[34.8843,-0.6262,1983.1274],[34.8824,-0.6194,1989.5088],[34.8879,-0.6069,1946.8101],[34.8858,-0.6079,1933.5087],[34.8745,-0.6014,1896.6285],[34.8662,-0.6026,1865.4729],[34.8538,-0.5927,1941.5295],[34.8501,-0.5942,1983.278],[34.8466,-0.5918,1959.5046],[34.8436,-0.5918,1944.7637]]]]}}