{"type":"Feature","properties":{"GID_3":"KEN.14.3.6_1","GID_0":"KEN","country":"Kenya","GID_1":"KEN.14_1","province":"Kilifi","NL_NAME_1":"NA","GID_2":"KEN.14.3_1","county":"KilifiNorth","NL_NAME_2":"NA","city":"Tezo","VARNAME_3":"NA","NL_NAME_3":"NA","TYPE_3":"Ward","ENGTYPE_3":"Ward","CC_3":"51","HASC_3":"NA","name":"Tezo.city"},
"geometry":{"type": "MultiPolygon","coordinates": [[[[39.8537,-3.6076,22.6504],[39.8785,-3.617,0.9163],[39.8826,-3.6115,0.0],[39.8954,-3.5826,0.1748],[39.8943,-3.5801,5.3558],[39.8954,-3.5779,3.9239],[39.8985,-3.5768,3.2882],[39.9032,-3.5671,0.0],[39.914,-3.5346,3.3354],[39.9182,-3.5271,0.0],[39.9246,-3.5055,5.0178],[39.8767,-3.4881,25.7989],[39.8737,-3.4978,26.7038],[39.8487,-3.4976,49.3326],[39.8481,-3.5,44.6154],[39.8507,-3.5008,47.2166],[39.8445,-3.5172,46.0033],[39.8477,-3.5206,45.5929],[39.8559,-3.5239,31.1418],[39.8533,-3.5313,41.4907],[39.8513,-3.5518,40.881],[39.8607,-3.5714,20.2672],[39.8547,-3.5912,23.0901],[39.8537,-3.6076,22.6504]]]]}}