{"type":"Feature","properties":{"GID_3":"KEN.29.5.5_1","GID_0":"KEN","country":"Kenya","GID_1":"KEN.29_1","province":"Murang'a","NL_NAME_1":"NA","GID_2":"KEN.29.5_1","county":"Kiharu","NL_NAME_2":"NA","city":"Township","VARNAME_3":"NA","NL_NAME_3":"NA","TYPE_3":"Ward","ENGTYPE_3":"Ward","CC_3":"525","HASC_3":"NA","name":"Township.city"},
"geometry":{"type": "MultiPolygon","coordinates": [[[[37.1304,-0.7081,1348.1117],[37.1285,-0.7102,1281.3501],[37.1156,-0.714,1377.3262],[37.1108,-0.7125,1308.0807],[37.0954,-0.7188,1401.8365],[37.0974,-0.7213,1451.0164],[37.1147,-0.7249,1398.6367],[37.12,-0.7222,1369.2369],[37.1291,-0.7221,1389.1946],[37.1363,-0.7203,1308.701],[37.1465,-0.7218,1359.3221],[37.1501,-0.7204,1336.7603],[37.1514,-0.7212,1336.7603],[37.1478,-0.7257,1318.5203],[37.1482,-0.7286,1300.8558],[37.1516,-0.7312,1320.8055],[37.161,-0.7315,1263.818],[37.1653,-0.7424,1279.4102],[37.1713,-0.7413,1287.3875],[37.1776,-0.7334,1228.8998],[37.1747,-0.729,1203.7395],[37.1714,-0.7273,1238.8932],[37.1737,-0.7214,1205.5774],[37.1887,-0.7163,1180.9019],[37.1927,-0.717,1155.2281],[37.1875,-0.7139,1154.6616],[37.1778,-0.7132,1172.4514],[37.1793,-0.7111,1184.4897],[37.1827,-0.7106,1177.3173],[37.1815,-0.707,1202.0125],[37.168,-0.7095,1308.5774],[37.1643,-0.7074,1269.9351],[37.1624,-0.7017,1274.6122],[37.1581,-0.7043,1292.4681],[37.1499,-0.7016,1380.9675],[37.1448,-0.7024,1318.2791],[37.141,-0.7071,1361.6611],[37.1372,-0.707,1365.7145],[37.1371,-0.7127,1337.3108],[37.1342,-0.7122,1356.1176],[37.1304,-0.7081,1348.1117]]]]}}