{"type":"Feature","properties":{"GID_3":"KEN.37.1.3_1","GID_0":"KEN","country":"Kenya","GID_1":"KEN.37_1","province":"Samburu","NL_NAME_1":"NA","GID_2":"KEN.37.1_1","county":"SamburuEast","NL_NAME_2":"NA","city":"WambaWest","VARNAME_3":"NA","NL_NAME_3":"NA","TYPE_3":"Ward","ENGTYPE_3":"Ward","CC_3":"673","HASC_3":"NA","name":"Wamba_West.city"},
"geometry":{"type": "MultiPolygon","coordinates": [[[[37.4922,0.5892,883.3662],[37.4931,0.5915,885.7795],[37.4912,0.5944,891.2768],[37.4822,0.5948,894.9113],[37.4772,0.5973,895.1968],[37.4735,0.6224,946.1931],[37.4613,0.6289,975.4121],[37.4582,0.6336,992.0573],[37.4538,0.6484,1097.5527],[37.4501,0.6552,1233.1243],[37.4492,0.6678,1272.2341],[37.4561,0.6773,1348.9785],[37.4561,0.6835,1334.8403],[37.4602,0.6974,1115.2729],[37.4581,0.7008,1140.401],[37.4433,0.7055,1226.9841],[37.439,0.7088,1353.8281],[37.4351,0.7129,1289.9468],[37.431,0.7254,1056.9651],[37.415,0.7417,1026.9601],[37.3796,0.754,1037.0215],[37.3739,0.7582,1040.1694],[37.3618,0.7777,1055.53],[37.362,0.7882,1063.2953],[37.3578,0.7899,1063.4426],[37.3389,0.8066,1086.4203],[37.3227,0.8115,1115.8058],[37.3126,0.8118,1097.9858],[37.2876,0.8033,1070.5369],[37.279,0.7977,1048.4546],[37.2741,0.7892,1028.5834],[37.2713,0.7787,1020.0461],[37.262,0.7739,983.4182],[37.2615,0.769,978.5125],[37.2593,0.7661,956.4238],[37.271,0.7551,980.779],[37.2737,0.7497,953.8186],[37.2883,0.7422,958.1479],[37.29,0.7365,943.8652],[37.2997,0.726,953.23],[37.3046,0.709,940.1215],[37.3081,0.7061,946.3977],[37.3133,0.6912,935.699],[37.3198,0.683,935.8926],[37.3255,0.6721,937.03],[37.3261,0.6603,928.5819],[37.3317,0.6519,922.6847],[37.3421,0.6473,929.8469],[37.3437,0.6395,920.4564],[37.3469,0.6361,918.625],[37.3483,0.6295,918.2401],[37.3523,0.6245,919.1702],[37.3541,0.6035,915.5941],[37.3567,0.6011,923.1378],[37.3637,0.5997,916.0695],[37.3637,0.5915,908.9177],[37.3655,0.5883,908.0466],[37.3731,0.5891,918.9632],[37.3933,0.5773,903.387],[37.3941,0.5739,901.093],[37.3935,0.5773,903.387],[37.3983,0.5799,903.9689],[37.4155,0.5815,904.9474],[37.4223,0.5805,905.5051],[37.4279,0.5843,899.5728],[37.4307,0.5843,898.3035],[37.4367,0.5809,894.3553],[37.4423,0.5837,893.4969],[37.4465,0.5817,891.7775],[37.4605,0.5869,889.976],[37.4687,0.5943,889.3282],[37.4777,0.5895,885.0518],[37.4885,0.5909,886.1313],[37.4922,0.5892,883.3662]]],
[[[37.2585,0.7667,954.5952],[37.2579,0.7777,974.6091],[37.2564,0.7803,980.6685],[37.2577,0.7849,976.0173],[37.2546,0.7943,994.9141],[37.2561,0.7972,989.4016],[37.2537,0.799,1000.5235],[37.2527,0.8041,1016.1132],[37.2593,0.804,1008.7881],[37.2586,0.8083,1019.8221],[37.2661,0.8089,1020.243],[37.2693,0.8136,1023.5701],[37.2658,0.8163,1027.0066],[37.2648,0.8197,1024.048],[37.2669,0.8204,1020.1012],[37.2659,0.8239,1032.9672],[37.2681,0.8256,1037.4846],[37.2623,0.8291,1033.9725],[37.2609,0.8341,1043.1157],[37.2646,0.8364,1037.3619],[37.2642,0.8391,1040.7229],[37.2673,0.846,1045.7075],[37.2752,0.846,1077.9056],[37.2757,0.8494,1080.1702],[37.2775,0.8496,1081.196],[37.2787,0.8538,1096.2063],[37.2843,0.8582,1106.1853],[37.2888,0.8666,1127.6392],[37.2951,0.8652,1136.9834],[37.3017,0.8702,1145.5493],[37.3064,0.8701,1147.896],[37.3086,0.8742,1161.6248],[37.314,0.8765,1168.8237],[37.3131,0.8784,1175.1949],[37.3151,0.8803,1175.6497],[37.3076,0.9115,1233.0579],[37.3011,0.9229,1262.7096],[37.2996,0.9363,1286.7598],[37.2905,0.9592,1320.4271],[37.288,0.9761,1287.5135],[37.2847,0.9805,1288.8265],[37.2748,1.0039,1238.8395],[37.2684,1.014,1233.7184],[37.2577,1.0162,1228.9531],[37.2496,1.0234,1237.9198],[37.2445,1.0243,1245.0012],[37.2402,1.0459,1278.4082],[37.2281,1.0548,1303.7693],[37.2078,1.054,1283.4843],[37.1987,1.0509,1264.5106],[37.1938,1.0469,1247.2162],[37.1821,1.0453,1282.8564],[37.1704,1.0348,1242.3047],[37.1586,1.0305,1268.0259],[37.1536,1.0334,1267.0562],[37.1441,1.0445,1276.0295],[37.1425,1.0492,1258.7936],[37.1393,1.0509,1269.9204],[37.1378,1.0544,1262.804],[37.1344,1.0557,1222.0094],[37.1294,1.0628,1203.7626],[37.1232,1.0678,1223.1611],[37.1186,1.0688,1190.6678],[37.1147,1.073,1199.8984],[37.1083,1.0719,1159.1021],[37.1068,1.0682,1164.7234],[37.102,1.0635,1183.473],[37.0944,1.0628,1217.4005],[37.0923,1.0708,1196.3086],[37.0866,1.0795,1215.2996],[37.0876,1.0879,1184.1086],[37.0772,1.0924,1125.746],[37.0655,1.1138,1062.0212],[37.0641,1.1262,1057.9099],[37.0591,1.1251,1048.0042],[37.0594,1.115,1035.9642],[37.0551,1.1144,1064.4062],[37.0455,1.103,1077.8206],[37.0462,1.1006,1061.2511],[37.0439,1.0958,1094.0615],[37.0453,1.0934,1058.1182],[37.0432,1.0864,1069.5466],[37.0458,1.0818,1062.381],[37.0422,1.0793,1125.3607],[37.0412,1.0745,1078.4453],[37.0436,1.068,1088.7404],[37.0387,1.0627,1114.8492],[37.0401,1.0538,1094.1233],[37.0373,1.0497,1117.1711],[37.0361,1.0418,1108.7928],[37.0337,1.0405,1121.209],[37.0357,1.0384,1106.3245],[37.0348,1.0339,1097.7112],[37.0279,1.0314,1147.3798],[37.0287,1.0284,1132.4705],[37.0244,1.0242,1123.4153],[37.0256,1.0229,1117.1047],[37.0279,1.0236,1113.537],[37.0269,1.0144,1121.9352],[37.0196,1.0087,1145.3303],[37.0228,1.0052,1123.3141],[37.02,1.0049,1138.5841],[37.0171,1.002,1150.137],[37.0192,1.0016,1138.4083],[37.0207,0.9976,1127.8074],[37.0187,0.9928,1140.1818],[37.0218,0.9906,1137.2998],[37.0165,0.9878,1154.7756],[37.0174,0.9856,1158.4075],[37.0144,0.981,1159.1232],[37.0163,0.9759,1152.01],[37.0098,0.9703,1205.8567],[37.0082,0.9631,1167.9381],[37.0049,0.961,1193.6318],[37.0063,0.9583,1170.7944],[37.0039,0.94,1190.7864],[37.0049,0.9357,1191.1099],[36.9992,0.9278,1207.2896],[36.9985,0.911,1201.222],[36.9952,0.9056,1219.9414],[36.9963,0.9035,1224.3003],[36.9955,0.8805,1234.8383],[37.0005,0.8657,1266.2382],[36.9976,0.8572,1285.4442],[36.9989,0.8324,1317.6991],[36.9868,0.8219,1515.8689],[36.9782,0.8224,1399.9125],[36.9766,0.8067,1447.7617],[36.9798,0.8039,1454.3059],[36.9803,0.8,1536.2024],[36.9791,0.7967,1534.0297],[36.9757,0.7953,1522.0288],[36.9711,0.786,1501.6351],[36.9678,0.7741,1458.0942],[36.9597,0.7756,1395.0012],[36.951,0.766,1436.2778],[36.9478,0.7677,1429.9012],[36.9412,0.7669,1486.7153],[36.9373,0.7732,1542.9115],[36.9312,0.7625,1429.1174],[36.9323,0.7598,1297.8606],[36.9366,0.7576,1385.0679],[36.9407,0.7524,1271.3203],[36.9481,0.7483,1347.8113],[36.9669,0.7471,1225.4731],[36.9685,0.749,1299.0535],[36.9709,0.7488,1274.3237],[36.9735,0.7523,1398.5787],[36.977,0.7493,1251.9177],[36.9806,0.7496,1191.1846],[36.9924,0.7529,1160.4082],[36.9946,0.7555,1269.2723],[37.0014,0.7549,1197.9603],[37.0083,0.7567,1194.0618],[37.0417,0.7686,1139.6465],[37.0581,0.777,1147.1196],[37.0606,0.7723,1123.8976],[37.0689,0.7705,1106.8413],[37.0706,0.7828,1123.5078],[37.0859,0.787,1119.6787],[37.0913,0.787,1114.604],[37.0943,0.7895,1108.4525],[37.1016,0.7917,1106.3497],[37.1065,0.7905,1102.2002],[37.1094,0.7847,1087.3071],[37.116,0.7873,1107.447],[37.1235,0.7815,1089.7548],[37.1261,0.7714,1063.3193],[37.1343,0.7638,1076.3374],[37.1502,0.765,1071.1248],[37.1514,0.7575,1044.2183],[37.1615,0.7562,1079.2045],[37.1623,0.7519,1053.024],[37.1656,0.7475,1048.4321],[37.1706,0.7478,1071.2502],[37.1728,0.75,1066.2361],[37.1759,0.7499,1060.3354],[37.1799,0.7471,1053.4677],[37.1947,0.7509,1045.7279],[37.2021,0.751,1028.0454],[37.2042,0.75,1013.4065],[37.2056,0.7462,992.0214],[37.2189,0.7444,1003.3089],[37.2259,0.7491,969.531],[37.2299,0.7543,979.1355],[37.2353,0.7563,965.8181],[37.2448,0.767,964.3492],[37.2542,0.7689,959.0381],[37.2585,0.7667,954.5952]]]]}}