{"type":"Feature","properties":{"GID_3":"KEN.17.6.2_1","GID_0":"KEN","country":"Kenya","GID_1":"KEN.17_1","province":"Kisumu","NL_NAME_1":"NA","GID_2":"KEN.17.6_1","county":"Nyando","NL_NAME_2":"NA","city":"Awasi/Onjiko","VARNAME_3":"NA","NL_NAME_3":"NA","TYPE_3":"Ward","ENGTYPE_3":"Ward","CC_3":"1207","HASC_3":"NA","name":"Awasi_Onjiko.city"},
"geometry":{"type": "MultiPolygon","coordinates": [[[[35.1296,-0.1499,1234.8401],[35.1294,-0.1451,1234.3254],[35.1278,-0.1471,1223.0667],[35.1248,-0.1439,1220.2683],[35.1263,-0.142,1227.679],[35.1245,-0.1376,1219.3007],[35.1243,-0.1397,1227.7927],[35.1207,-0.1373,1217.2031],[35.1159,-0.1394,1224.0114],[35.114,-0.1419,1251.8081],[35.109,-0.1425,1228.4592],[35.1023,-0.1474,1271.5239],[35.1033,-0.1516,1286.4941],[35.092,-0.1554,1276.2311],[35.0874,-0.1553,1269.4004],[35.0842,-0.1517,1248.5974],[35.0806,-0.1535,1246.386],[35.0775,-0.1536,1243.2694],[35.0776,-0.1513,1237.3729],[35.0702,-0.1522,1232.0172],[35.065,-0.144,1206.9705],[35.0539,-0.1434,1211.48],[35.0526,-0.1457,1213.2855],[35.0442,-0.1427,1200.5166],[35.0417,-0.1444,1201.8895],[35.0374,-0.1444,1195.7863],[35.0173,-0.1555,1186.4213],[35.0097,-0.1579,1182.671],[35.0037,-0.1689,1170.9739],[35.0074,-0.1707,1175.6742],[35.0146,-0.1828,1171.2943],[35.0273,-0.189,1180.1294],[35.0296,-0.1971,1185.5264],[35.04,-0.2042,1213.406],[35.044,-0.214,1294.1481],[35.0536,-0.2183,1314.8821],[35.0595,-0.2238,1316.364],[35.0634,-0.2115,1303.2893],[35.0719,-0.2032,1280.4451],[35.1033,-0.1957,1290.7024],[35.1274,-0.1505,1225.7029],[35.1296,-0.1499,1234.8401]]]]}}