{"type": "Feature","bbox": [34.1015,0.3628,34.1977,0.4775],"geometry": {"type": "MultiPolygon","coordinates": [[[[34.1286,0.3633,1155.278],[34.1323,0.3684,1159.3932],[34.1329,0.3735,1170.3433],[34.1368,0.3758,1171.4666],[34.1372,0.3809,1169.6527],[34.1417,0.3834,1162.2539],[34.14,0.3866,1180.3882],[34.1414,0.3889,1187.5955],[34.143,0.3875,1180.2789],[34.1453,0.3916,1183.358],[34.1502,0.3915,1179.0289],[34.1535,0.3945,1177.1674],[34.161,0.3935,1164.2463],[34.1769,0.4039,1185.2789],[34.1864,0.4149,1178.6514],[34.1847,0.4346,1198.509],[34.1927,0.4424,1197.9435],[34.1944,0.4529,1205.7234],[34.1936,0.4598,1212.5276],[34.1977,0.4706,1216.6912],[34.1977,0.4726,1218.4614],[34.1958,0.4739,1217.4004],[34.1937,0.4745,1216.6544],[34.1892,0.4722,1219.1501],[34.1851,0.4678,1221.5701],[34.1798,0.4675,1216.6605],[34.1692,0.4702,1187.8817],[34.164,0.4749,1180.2554],[34.1561,0.4746,1180.635],[34.15,0.4775,1165.8173],[34.1457,0.4656,1174.0656],[34.1455,0.4584,1179.5157],[34.1435,0.4559,1191.73],[34.1397,0.4533,1205.0718],[34.1288,0.4525,1211.1332],[34.1188,0.4426,1202.9221],[34.1185,0.4333,1180.6481],[34.1213,0.4287,1184.7677],[34.1202,0.4254,1178.8802],[34.116,0.421,1189.7283],[34.1092,0.4066,1176.3004],[34.1036,0.4024,1166.9028],[34.1015,0.4062,1163.2861],[34.106,0.3941,1162.0145],[34.1086,0.3809,1157.866],[34.1082,0.3708,1155.9186],[34.1055,0.3661,1154.446],[34.1069,0.3628,1154.0067],[34.1094,0.3645,1155.6876],[34.1111,0.3637,1161.9761],[34.1119,0.3658,1160.3724],[34.1174,0.3681,1172.5853],[34.1231,0.3648,1156.5017],[34.1265,0.3659,1156.8958],[34.1286,0.3633,1155.278]]]]}
,"properties": {"GID_3": "KEN.4.4.1_1","GID_0": "KEN","country": "Kenya","GID_1": "KEN.4_1","province": "Busia","NL_NAME_1": "NA","GID_2": "KEN.4.4_1","county": "Matayos","NL_NAME_2": "NA","city": "BukhayoWest","VARNAME_3": "NA","NL_NAME_3": "NA","TYPE_3": "Ward","ENGTYPE_3": "Ward","CC_3": "1137","HASC_3": "NA","name": "Bukhayo_West.city","area_km2": 72.97599,"hist_schema_id": "Elevation0-9000","hist_area_km2": {"1150": 3.24386,"1175": 20.60802,"1200": 37.39964,"1225": 11.72447}}}