{"type": "Feature","bbox": [35.3054,1.1572,35.4674,1.4399],"geometry": {"type": "MultiPolygon","coordinates": [[[[35.467,1.229,3140.9016],[35.4674,1.2361,3161.0635],[35.4498,1.2711,2979.2642],[35.4475,1.2791,2903.2893],[35.4352,1.2847,3115.3174],[35.4498,1.3328,2174.116],[35.4478,1.3665,1812.8767],[35.4377,1.3996,2247.1187],[35.4361,1.4104,2243.0488],[35.4444,1.4231,1781.1279],[35.4613,1.4264,1139.215],[35.4652,1.4326,1097.5045],[35.4427,1.4332,1692.6541],[35.4082,1.4399,2542.9558],[35.4103,1.4287,2954.4302],[35.4094,1.4157,2974.9114],[35.4007,1.4007,2927.0723],[35.3977,1.3849,2659.5515],[35.3984,1.3825,2694.6572],[35.3947,1.3799,2554.8784],[35.3988,1.3728,2844.1418],[35.3967,1.3697,2711.498],[35.3968,1.3656,2628.3708],[35.4094,1.3471,3075.0786],[35.4096,1.3413,2790.8218],[35.4147,1.3243,2766.8967],[35.307,1.3176,1608.3413],[35.3054,1.315,1599.7155],[35.3097,1.3119,1620.3148],[35.3103,1.3091,1701.3873],[35.3129,1.3098,1821.3962],[35.3163,1.3061,1805.2216],[35.3199,1.3047,1806.7311],[35.3208,1.3001,1716.0608],[35.3232,1.3008,1880.8479],[35.3257,1.2967,1816.4816],[35.3252,1.2938,1747.3346],[35.3292,1.287,1873.9438],[35.3354,1.2619,1977.0801],[35.3394,1.2573,2204.8608],[35.3522,1.2544,2353.105],[35.3546,1.2486,2192.9504],[35.3577,1.2461,2359.8457],[35.3529,1.2411,2357.1016],[35.3504,1.2283,2756.0068],[35.3593,1.2121,2885.5244],[35.3579,1.2051,2919.1509],[35.3599,1.1991,2915.6453],[35.3645,1.1963,2875.0281],[35.3672,1.1892,2869.5117],[35.371,1.1869,2863.3625],[35.3713,1.1754,2856.4453],[35.3754,1.1693,2876.0864],[35.3771,1.1582,2739.2781],[35.3784,1.1589,2782.3984],[35.3796,1.1572,2798.812],[35.467,1.229,3140.9016]]]]}
,"properties": {"GID_3": "KEN.47.3.4_1","GID_0": "KEN","country": "Kenya","GID_1": "KEN.47_1","province": "WestPokot","NL_NAME_1": "NA","GID_2": "KEN.47.3_1","county": "PokotSouth","NL_NAME_2": "NA","city": "Tapach","VARNAME_3": "NA","NL_NAME_3": "NA","TYPE_3": "Ward","ENGTYPE_3": "Ward","CC_3": "660","HASC_3": "NA","name": "Tapach.city","area_km2": 242.5132,"hist_schema_id": "Elevation0-9000","hist_area_km2": {"1050": 0.0424,"1075": 0.0636,"1100": 0.0848,"1125": 0.1484,"1150": 0.0636,"1175": 0.1272,"1200": 0.0848,"1225": 0.0848,"1250": 0.0848,"1275": 0.0212,"1300": 0.0424,"1325": 0.0424,"1350": 0.0636,"1375": 0.106,"1400": 0.0848,"1425": 0.0424,"1450": 0.0848,"1475": 0.0212,"1500": 0.0636,"1525": 0.106,"1550": 0.0848,"1575": 0.0424,"1600": 0.106,"1625": 0.1908,"1650": 0.2332,"1675": 0.2967,"1700": 0.4875,"1725": 0.3815,"1750": 0.4027,"1775": 0.4451,"1800": 0.4875,"1825": 0.4239,"1850": 0.5511,"1875": 0.8055,"1900": 0.8267,"1925": 0.8267,"1950": 0.6995,"1975": 1.2506,"2000": 1.2294,"2025": 1.1234,"2050": 1.2506,"2075": 1.6745,"2100": 1.9501,"2125": 1.6957,"2150": 1.8653,"2175": 2.1832,"2200": 2.0349,"2225": 2.5436,"2250": 2.0561,"2275": 2.5224,"2300": 2.7344,"2325": 3.2431,"2350": 3.0947,"2375": 2.9675,"2400": 3.3491,"2425": 3.1583,"2450": 2.904,"2475": 3.3915,"2500": 3.3703,"2525": 3.3703,"2550": 3.2855,"2575": 2.9252,"2600": 3.6247,"2625": 3.0312,"2650": 3.2007,"2675": 3.3279,"2700": 3.3703,"2725": 3.6459,"2750": 3.6671,"2775": 4.1122,"2800": 4.1546,"2825": 5.5748,"2850": 6.4651,"2875": 7.5249,"2900": 8.288,"2925": 9.5386,"2950": 10.7468,"2975": 10.9163,"3000": 9.6657,"3025": 9.4538,"3050": 7.758,"3075": 5.9563,"3100": 5.4688,"3125": 4.0486,"3150": 3.9002,"3175": 4.5574,"3200": 5.49,"3225": 5.7444,"3250": 6.7407,"3275": 6.2532,"3300": 4.0911,"3325": 1.9501,"3350": 0.2968,"3375": 0.0212}}}