{"type":"Feature","properties":{"GID_3":"KEN.1.5.5_1","GID_0":"KEN","country":"Kenya","GID_1":"KEN.1_1","province":"Baringo","NL_NAME_1":"NA","GID_2":"KEN.1.5_1","county":"EldamaRavine","NL_NAME_2":"NA","city":"Ravine","VARNAME_3":"NA","NL_NAME_3":"NA","TYPE_3":"Ward","ENGTYPE_3":"Ward","CC_3":"807","HASC_3":"NA","name":"Ravine.city"},
"geometry":{"type": "MultiPolygon","coordinates": [[[[35.7476,0.0006,2113.4844],[35.7393,0.0045,2133.7625],[35.7465,0.0197,2081.481],[35.7461,0.0238,2094.0984],[35.7424,0.0273,2046.4226],[35.7423,0.0327,2053.2031],[35.7455,0.0382,2047.9375],[35.7433,0.0431,2025.8062],[35.7447,0.0431,2050.0435],[35.7424,0.0562,2004.0603],[35.7437,0.062,2023.2677],[35.7361,0.0664,2036.4709],[35.7263,0.056,2108.9121],[35.7207,0.0541,2101.7942],[35.7177,0.0463,2123.5364],[35.7123,0.0453,2162.3152],[35.7074,0.0403,2149.4482],[35.7053,0.0336,2157.7397],[35.707,0.0288,2180.5085],[35.699,0.0222,2228.7505],[35.6991,0.006,2328.5137],[35.7016,0.0075,2309.0371],[35.7129,0.0074,2284.5769],[35.7129,0.0006,2269.4062],[35.72,-0.0001,2247.5356],[35.7203,-0.0069,2214.8462],[35.7131,-0.0183,2350.5149],[35.716,-0.0196,2326.4131],[35.7214,-0.0184,2286.9771],[35.7347,-0.0075,2190.5151],[35.7409,-0.0084,2176.2686],[35.7464,-0.0071,2097.5657],[35.7464,-0.0088,2107.8767],[35.7485,-0.0088,2124.3682],[35.7476,0.0006,2113.4844]]]]}}