{"type":"Feature","properties":{"GID_3":"KEN.26.9.4_1","GID_0":"KEN","country":"Kenya","GID_1":"KEN.26_1","province":"Meru","NL_NAME_1":"NA","GID_2":"KEN.26.9_1","county":"TiganiaWest","NL_NAME_2":"NA","city":"Mbeu","VARNAME_3":"NA","NL_NAME_3":"NA","TYPE_3":"Ward","ENGTYPE_3":"Ward","CC_3":"270","HASC_3":"NA","name":"Mbeu.city"},
"geometry":{"type": "MultiPolygon","coordinates": [[[[37.8001,0.0411,1111.2656],[37.8043,0.0415,1127.5095],[37.805,0.0386,1081.1687],[37.8081,0.0362,1064.8076],[37.8125,0.036,1061.5388],[37.8136,0.0336,1040.8455],[37.819,0.0309,1037.0107],[37.8379,0.0488,1011.1735],[37.8373,0.0562,1044.0959],[37.8331,0.0579,1091.6604],[37.8333,0.0615,1102.0408],[37.8239,0.0699,1167.5957],[37.8207,0.0705,1123.9646],[37.8161,0.0775,1127.8386],[37.8163,0.0803,1156.0776],[37.8201,0.0801,1173.3717],[37.8189,0.0835,1148.0264],[37.8203,0.0888,1172.7158],[37.8164,0.0962,1183.0459],[37.8133,0.0961,1164.5995],[37.8125,0.1015,1171.9905],[37.8087,0.1023,1169.6073],[37.8071,0.1045,1177.7325],[37.806399999999996,0.1091,1301.5425],[37.7979,0.1055,1244.5785],[37.7979,0.1033,1199.4039],[37.79,0.1006,1195.569],[37.7854,0.0971,1183.6405],[37.7715,0.0797,1172.0096],[37.7689,0.0793,1170.9994],[37.7618,0.096,1225.932],[37.7558,0.089,1223.4983],[37.7576,0.0837,1204.4277],[37.7601,0.0819,1180.0427],[37.7593,0.0782,1193.7716],[37.7566,0.0787,1185.8607],[37.7557,0.0847,1219.3853],[37.754,0.0858,1240.6566],[37.7516,0.0808,1235.4413],[37.755,0.0775,1183.2064],[37.7513,0.078,1202.4523],[37.7532,0.0746,1183.3411],[37.7516,0.0727,1200.4878],[37.7556,0.0714,1177.0371],[37.7577,0.0729,1178.3256],[37.7629,0.068,1169.46],[37.7618,0.0662,1185.2908],[37.7523,0.0636,1179.4374],[37.7513,0.0609,1184.5222],[37.7547,0.0575,1174.2783],[37.7533,0.0562,1182.4412],[37.7537,0.0532,1159.2711],[37.7636,0.0517,1149.0946],[37.7751,0.0552,1141.9603],[37.7746,0.0516,1138.8309],[37.7809,0.0497,1116.3585],[37.7829,0.052,1119.064],[37.7848,0.0516,1117.1394],[37.7847,0.0493,1112.818],[37.7888,0.0472,1121.3655],[37.7905,0.0479,1131.7324],[37.7916,0.0431,1103.9968],[37.7949,0.0417,1107.8032],[37.798,0.0432,1135.241],[37.8001,0.0411,1111.2656]]]]}}