{"type":"Feature","properties":{"GID_2":"KEN.3.11_1","GID_0":"KEN","country":"Kenya","GID_1":"KEN.3_1","province":"Bungoma","NL_NAME_1":"NA","county":"WebuyeEast","VARNAME_2":"NA","NL_NAME_2":"NA","TYPE_2":"Constituency","ENGTYPE_2":"Constituency","CC_2":"221","HASC_2":"NA","name":"Webuye_East.county"},
"geometry":{"type": "MultiPolygon","coordinates": [[[[34.7224,0.5843,1479.6587],[34.7193,0.5827,1479.0107],[34.718,0.5783,1472.5198],[34.7218,0.5616,1452.7881],[34.7345,0.5689,1493.3057],[34.7496,0.569,1475.3649],[34.7508,0.5526,1451.5057],[34.7486,0.5466,1448.1863],[34.7499,0.5443,1445.8463],[34.7542,0.5463,1440.5491],[34.7545,0.5493,1443.3397],[34.7598,0.5526,1449.7188],[34.7595,0.5568,1464.0424],[34.7656,0.5624,1435.824],[34.7631,0.5657,1460.4518],[34.7645,0.5693,1474.4941],[34.7702,0.5697,1458.8877],[34.7782,0.5786,1457.6023],[34.7831,0.5819,1452.4739],[34.7881,0.5813,1452.2517],[34.7913,0.5851,1457.6821],[34.8011,0.5914,1525.7252],[34.8101,0.5921,1496.1399],[34.8101,0.5943,1509.9724],[34.7993,0.6038,1525.7078],[34.8023,0.6072,1532.6876],[34.8029,0.6111,1538.4795],[34.8086,0.6115,1530.2689],[34.8147,0.6209,1559.0161],[34.8197,0.6238,1551.1146],[34.823,0.6232,1529.8126],[34.8326,0.6314,1520.095],[34.833,0.6387,1538.1925],[34.836,0.6421,1537.177],[34.8326,0.6514,1555.5028],[34.8347,0.6516,1541.7997],[34.8381,0.6551,1538.6858],[34.8371,0.6622,1560.6577],[34.8411,0.6642,1539.5383],[34.8434,0.6713,1554.7023],[34.8396,0.6713,1558.9868],[34.8405,0.6734,1564.3495],[34.8358,0.6736,1573.1365],[34.8306,0.6763,1575.8662],[34.8282,0.6788,1563.3328],[34.8291,0.6805,1560.0793],[34.8264,0.6824,1562.7595],[34.8271,0.6907,1571.7617],[34.8244,0.6947,1574.606],[34.828,0.7026,1573.8136],[34.8259,0.7093,1599.5229],[34.8295,0.7098,1583.9524],[34.8299,0.7124,1582.0867],[34.8275,0.7132,1594.4639],[34.8296,0.7168,1580.0698],[34.826,0.7277,1618.4736],[34.8177,0.7319,1595.3325],[34.8166,0.735,1602.9885],[34.8214,0.7506,1604.787],[34.8191,0.7654,1615.3396],[34.8052,0.7628,1661.4238],[34.804,0.7679,1633.4802],[34.7971,0.7701,1673.884],[34.7952,0.7648,1705.7288],[34.7895,0.7643,1715.4225],[34.7877,0.7616,1700.9996],[34.7844,0.7621,1687.762],[34.7685,0.7513,1619.9844],[34.7629,0.7449,1626.8386],[34.7578,0.7355,1672.8894],[34.752,0.7363,1684.3414],[34.7538,0.7236,1677.478],[34.7486,0.6835,1675.3151],[34.7546,0.6673,1671.8367],[34.7587,0.6499,1674.6211],[34.7552,0.6391,1564.2853],[34.7619,0.627,1641.327],[34.7592,0.6156,1528.254],[34.7632,0.6111,1526.4929],[34.7547,0.6081,1518.1558],[34.7477,0.5982,1518.0149],[34.7443,0.5968,1520.3291],[34.7391,0.5976,1511.4771],[34.7268,0.585,1485.8445],[34.7224,0.5843,1479.6587]]]]}}