{"type":"Feature","properties":{"GID_2":"KEN.22.3_1","GID_0":"KEN","country":"Kenya","GID_1":"KEN.22_1","province":"Machakos","NL_NAME_1":"NA","county":"MachakosTown","VARNAME_2":"NA","NL_NAME_2":"NA","TYPE_2":"Constituency","ENGTYPE_2":"Constituency","CC_2":"81","HASC_2":"NA","name":"Machakos_Town.county"},
"geometry":{"type": "MultiPolygon","coordinates": [[[[37.3952,-1.6593,1395.6179],[37.3935,-1.6528,1417.426],[37.3889,-1.6459,1427.736],[37.386,-1.646,1461.8164],[37.3859,-1.6417,1440.4333],[37.382,-1.6349,1464.5942],[37.3831,-1.6312,1446.7737],[37.3769,-1.6234,1421.267],[37.3706,-1.6028,1398.1511],[37.3666,-1.5986,1405.3362],[37.364,-1.5898,1408.8228],[37.3424,-1.5723,1434.4573],[37.3351,-1.5599,1453.2634],[37.3405,-1.5543,1450.8699],[37.3501,-1.5498,1410.9797],[37.3495,-1.5399,1372.6677],[37.354,-1.5287,1352.3744],[37.3565,-1.5263,1322.6912],[37.3566,-1.5226,1326.4313],[37.3507,-1.5225,1344.7065],[37.3482,-1.5246,1329.4772],[37.3452,-1.5232,1361.0178],[37.3462,-1.5279,1328.1941],[37.3427,-1.5254,1363.741],[37.3419,-1.5266,1354.5809],[37.3442,-1.5301,1327.1252],[37.3407,-1.5288,1342.4548],[37.3377,-1.5319,1366.0439],[37.3304,-1.5269,1631.0909],[37.3321,-1.5209,1417.6073],[37.3397,-1.5167,1367.1516],[37.3383,-1.5137,1384.0881],[37.3306,-1.5133,1520.6079],[37.3153,-1.5007,1803.3638],[37.3143,-1.4978,1872.1522],[37.3105,-1.4987,1935.3328],[37.3042,-1.5046,1906.7762],[37.3002,-1.502,1961.6432],[37.3004,-1.4996,1972.0709],[37.298,-1.4969,1983.7931],[37.2954,-1.497,2044.5232],[37.2923,-1.4943,2046.2974],[37.2935,-1.4805,2074.2585],[37.2832,-1.4522,1995.2062],[37.2805,-1.4529,2030.6243],[37.2796,-1.4467,2067.8135],[37.2814,-1.4408,1983.3691],[37.276,-1.4366,2016.7825],[37.2742,-1.4278,1969.5498],[37.2753,-1.4229,1923.991],[37.2709,-1.416,1967.3335],[37.2673,-1.4147,1868.4153],[37.2585,-1.4058,1720.5735],[37.2568,-1.3974,1653.3521],[37.2559,-1.398,1646.7612],[37.2567,-1.3943,1605.5806],[37.261,-1.3917,1575.7227],[37.261,-1.3887,1550.1304],[37.2632,-1.386,1510.0132],[37.2533,-1.3838,1557.6681],[37.2432,-1.387,1607.6357],[37.2384,-1.3894,1651.033],[37.2322,-1.4007,1884.1631],[37.2204,-1.4012,1789.7899],[37.2194,-1.3592,1547.3252],[37.2079,-1.3599,1548.5396],[37.1981,-1.373,1570.927],[37.1981,-1.3838,1591.317],[37.1946,-1.3914,1593.7173],[37.1869,-1.3997,1620.324],[37.1908,-1.4051,1634.2207],[37.1948,-1.4073,1655.5894],[37.2019,-1.4198,1769.4778],[37.1976,-1.421,1856.6595],[37.1955,-1.4166,1762.7595],[37.1892,-1.4242,1814.8802],[37.1958,-1.4314,1872.5261],[37.1903,-1.4365,1845.0292],[37.1962,-1.4457,1863.272],[37.1945,-1.4527,1848.4426],[37.1877,-1.4546,1893.6697],[37.1884,-1.4595,1937.2888],[37.186,-1.4566,1899.212],[37.1795,-1.4594,1986.5536],[37.1794,-1.4652,1988.1184],[37.1848,-1.4639,2021.8295],[37.1843,-1.4696,1927.755],[37.1867,-1.4723,2018.1954],[37.1865,-1.4744,1954.626],[37.1892,-1.4755,2076.3579],[37.1875,-1.4785,2000.0822],[37.1826,-1.4808,2011.153],[37.1789,-1.4807,1994.7479],[37.1762,-1.4834,2050.8474],[37.1694,-1.483,2023.2938],[37.1677,-1.4889,2011.967],[37.1602,-1.497,1994.7295],[37.1629,-1.4999,1986.1764],[37.1592,-1.5043,1924.5953],[37.1479,-1.5034,1800.7839],[37.1414,-1.5081,1768.2075],[37.1435,-1.5313,1732.5173],[37.171,-1.5314,1703.6613],[37.1767,-1.553,1628.6121],[37.1657,-1.5748,1678.6957],[37.1509,-1.5672,1682.6038],[37.175,-1.6169,1628.9647],[37.2294,-1.5921,1604.1044],[37.2319,-1.5889,1586.7292],[37.2453,-1.5921,1569.5107],[37.2514,-1.5919,1587.5073],[37.2523,-1.6355,1741.9281],[37.2563,-1.6445,1774.766],[37.2585,-1.6455,1803.7681],[37.2721,-1.6681,1826.4286],[37.265,-1.6803,1744.9165],[37.2789,-1.6875,1782.7466],[37.2893,-1.6984,1738.6855],[37.2881,-1.7115,1622.797],[37.3129,-1.7009,1571.363],[37.3294,-1.6999,1612.6699],[37.3314,-1.6981,1646.8668],[37.334,-1.7013,1660.8188],[37.3439,-1.7007,1568.1459],[37.3467,-1.7044,1558.5625],[37.3491,-1.7034,1580.498],[37.3502,-1.705,1576.6704],[37.3545,-1.7047,1601.7236],[37.3575,-1.7069,1571.5334],[37.364,-1.7037,1546.9181],[37.3736,-1.7049,1523.2595],[37.3801,-1.7019,1437.2079],[37.3848,-1.7017,1430.402],[37.3876,-1.6981,1429.0118],[37.3908,-1.698,1398.5305],[37.3929,-1.6951,1433.7653],[37.3942,-1.696,1433.7653],[37.4006,-1.6928,1388.496],[37.402,-1.6938,1377.4001],[37.4051,-1.6901,1395.0149],[37.4074,-1.691,1394.3816],[37.4082,-1.6891,1386.4849],[37.4122,-1.6891,1341.4562],[37.4131,-1.6878,1338.0005],[37.4081,-1.6845,1351.6719],[37.4069,-1.6794,1363.319],[37.4049,-1.6778,1363.58],[37.4061,-1.675,1366.1011],[37.4018,-1.6712,1372.1323],[37.4005,-1.6623,1409.2529],[37.3952,-1.6593,1395.6179]]]]}}