{"type":"Feature","properties":{"GID_3":"KEN.43.1.3_1","GID_0":"KEN","country":"Kenya","GID_1":"KEN.43_1","province":"Turkana","NL_NAME_1":"NA","GID_2":"KEN.43.1_1","county":"Loima","NL_NAME_2":"NA","city":"Lokiriama/Lorengippi","VARNAME_3":"NA","NL_NAME_3":"NA","TYPE_3":"Ward","ENGTYPE_3":"Ward","CC_3":"632","HASC_3":"NA","name":"Lokiriama_Lorengippi.city"},
"geometry":{"type": "MultiPolygon","coordinates": [[[[35.072,2.6809,784.3768],[35.0721,2.6898,781.1094],[35.0863,2.7288,755.0139],[35.0622,2.7098,775.9246],[35.0557,2.6971,782.7775],[35.0527,2.696,783.7152],[35.0497,2.6969,789.1768],[35.0438,2.6921,821.7767],[35.0385,2.691,795.369],[35.0331,2.6837,800.6223],[35.0222,2.6795,809.3793],[35.011,2.6703,820.022],[34.9951,2.6698,834.3595],[34.9926,2.6711,836.3154],[34.9911,2.6755,848.6],[34.9887,2.6774,851.1293],[34.9818,2.6761,843.1501],[34.971,2.6767,850.9581],[34.9608,2.6834,861.4664],[34.9489,2.7064,872.8273],[34.9381,2.7185,862.8522],[34.9363,2.739,850.3842],[34.9316,2.7526,832.0657],[34.9303,2.7614,822.9686],[34.9142,2.7796,829.6552],[34.8809,2.8082,871.0295],[34.8716,2.8226,896.3527],[34.8547,2.8385,934.0032],[34.853,2.8452,956.7952],[34.8479,2.8529,1000.0629],[34.8391,2.859,1166.7845],[34.8276,2.8806,1121.5011],[34.8222,2.8854,1122.3606],[34.8178,2.8941,1116.9846],[34.8062,2.9011,1125.7731],[34.7924,2.9053,1139.8505],[34.7749,2.9225,1034.385],[34.7653,2.9384,1012.4885],[34.7664,2.9477,1011.5154],[34.7498,2.9565,989.095],[34.7404,2.9805,973.5711],[34.7351,2.9837,973.5342],[34.7291,2.9823,958.6177],[34.7244,2.9843,952.9356],[34.7189,2.9914,947.4025],[34.7192,2.9941,950.5338],[34.7122,2.9956,947.2083],[34.707,2.9994,935.4008],[34.7049,3.0077,932.6844],[34.7057,3.0158,943.1807],[34.694,3.0221,925.4214],[34.6809,3.0384,931.8743],[34.6781,3.0476,893.4664],[34.6799,3.0509,891.2075],[34.6781,3.0568,888.3783],[34.6798,3.0631,884.2188],[34.6764,3.0685,876.9246],[34.6794,3.0741,881.6783],[34.679,3.0827,872.7697],[34.6664,3.0823,890.8603],[34.6617,3.074,892.7537],[34.6525,3.0709,925.7321],[34.6409,3.0621,928.8728],[34.6359,3.0533,929.9575],[34.6348,3.0482,936.0667],[34.624,3.0388,991.5936],[34.6191,3.0374,991.7562],[34.6147,3.0395,996.9392],[34.6092,3.0386,994.1815],[34.6041,3.0411,1006.7171],[34.5995,3.0403,1011.1797],[34.5795,3.0191,1083.1989],[34.5874,3.0041,1080.3353],[34.5888,2.9824,1103.1385],[34.599,2.9249,1198.1237],[34.6393,2.907,1221.781],[34.6529,2.8678,1161.8135],[34.6684,2.8634,1145.8528],[34.6849,2.8643,1128.9308],[34.6924,2.8631,1123.1929],[34.7017,2.8779,1099.1907],[34.7083,2.8737,1126.4756],[34.7117,2.8655,1131.8511],[34.7363,2.8552,1147.2731],[34.7491,2.8264,1217.7471],[34.7519,2.8261,1220.6908],[34.755,2.8287,1274.5504],[34.7621,2.8212,1173.6707],[34.767,2.8114,1149.5131],[34.7672,2.8027,1169.8132],[34.7753,2.788,1088.3428],[34.7781,2.7706,1075.1555],[34.7835,2.7554,1087.8348],[34.7838,2.7429,1102.5461],[34.7754,2.6981,1055.2114],[34.7904,2.6836,1062.186],[34.7992,2.6561,1050.0485],[34.8316,2.6211,1067.9613],[34.8385,2.6045,1080.8815],[34.8522,2.5838,1120.8967],[34.8682,2.5708,1109.7372],[34.8783,2.5726,1098.3884],[34.8805,2.5897,1053.2468],[34.8938,2.5931,1025.1902],[34.8973,2.5883,1031.1204],[34.9051,2.5475,1057.1055],[34.913,2.5168,985.5018],[34.933,2.5162,959.9874],[34.9367,2.5001,1015.847],[34.9485,2.4724,987.8787],[34.9544,2.4726,987.209],[34.9534,2.4713,982.2874],[34.9549,2.4687,985.2122],[34.9525,2.4614,1035.1278],[34.9536,2.4579,1048.2046],[34.9669,2.4496,1279.1791],[35.0256,2.4365,1662.5635],[35.0256,2.4439,1549.8782],[35.0228,2.4468,1569.168],[35.0194,2.4607,1130.3066],[35.0218,2.4685,1359.6665],[35.0193,2.4748,1339.0262],[35.0204,2.4877,1352.9252],[35.0156,2.5018,1251.5696],[35.0197,2.513,1278.3712],[35.0386,2.5379,912.1786],[35.0555,2.5677,855.86],[35.0583,2.5776,847.3063],[35.0565,2.5912,834.442],[35.0598,2.6033,827.2804],[35.0595,2.6108,821.0443],[35.0654,2.6248,813.7646],[35.0742,2.6284,806.4303],[35.0811,2.6394,801.5844],[35.0923,2.6454,791.4102],[35.0961,2.6495,785.2535],[35.1091,2.6527,775.0713],[35.1045,2.6609,778.5499],[35.0771,2.6706,786.5765],[35.0721,2.6764,787.2266],[35.072,2.6809,784.3768]]]]}}