{"type": "Feature","bbox": [37.218,-1.4353,37.3129,-1.2929],"geometry": {"type": "MultiPolygon","coordinates": [[[[37.2727,-1.3304,1447.015],[37.2728,-1.3264,1445.8916],[37.2744,-1.3257,1446.7522],[37.2704,-1.3242,1446.4264],[37.2713,-1.322,1469.5503],[37.2676,-1.3201,1451.9241],[37.2648,-1.3154,1474.6531],[37.2598,-1.3137,1461.6622],[37.2578,-1.306,1466.2832],[37.2549,-1.3041,1464.4916],[37.254,-1.2989,1479.9385],[37.2495,-1.2956,1476.4523],[37.2288,-1.2929,1510.5798],[37.218,-1.2999,1520.0953],[37.2204,-1.4012,1789.7899],[37.2322,-1.4007,1884.1631],[37.2384,-1.3894,1651.033],[37.2432,-1.387,1607.6357],[37.2533,-1.3838,1557.6681],[37.2631,-1.3859,1510.0132],[37.261,-1.3887,1550.1304],[37.261,-1.3917,1575.7227],[37.2564,-1.3949,1611.163],[37.2574,-1.4035,1718.322],[37.2673,-1.4147,1868.4153],[37.2709,-1.416,1967.3335],[37.2751,-1.4226,1923.991],[37.2742,-1.4278,1969.5498],[37.2757,-1.4352,2001.3719],[37.277,-1.4353,2001.3719],[37.2803,-1.4305,1835.7266],[37.2828,-1.4315,1883.7101],[37.2842,-1.4302,1920.9139],[37.2864,-1.4244,1924.9735],[37.2901,-1.4259,1930.2922],[37.2905,-1.4233,1923.8326],[37.2932,-1.4241,1898.1301],[37.2966,-1.4193,1829.3347],[37.3082,-1.4156,1630.426],[37.297,-1.4106,1812.8015],[37.294,-1.4074,1728.0068],[37.2936,-1.4039,1633.5924],[37.289,-1.3996,1554.6575],[37.2862,-1.3991,1529.8612],[37.2824,-1.3942,1490.5277],[37.2833,-1.3907,1471.6913],[37.2858,-1.3897,1450.0366],[37.2863,-1.3854,1456.1121],[37.2884,-1.3851,1446.2416],[37.2936,-1.3784,1433.4794],[37.2995,-1.3804,1435.7949],[37.3007,-1.3831,1404.814],[37.3027,-1.3824,1428.0554],[37.3045,-1.3839,1394.9568],[37.3052,-1.3818,1406.9658],[37.3073,-1.3829,1422.5375],[37.3104,-1.3748,1417.4001],[37.3129,-1.3728,1418.512],[37.3102,-1.3707,1388.0088],[37.311,-1.369,1402.4523],[37.3088,-1.3694,1385.5664],[37.3075,-1.3674,1390.9265],[37.3086,-1.3636,1423.9371],[37.3067,-1.3649,1397.5272],[37.3041,-1.3633,1390.246],[37.3055,-1.3605,1404.686],[37.3036,-1.358,1394.5859],[37.3007,-1.3592,1406.0225],[37.3012,-1.3565,1399.5968],[37.2963,-1.3533,1405.5459],[37.2917,-1.3423,1455.134],[37.2833,-1.34,1429.8068],[37.2831,-1.3371,1437.1995],[37.28,-1.3356,1435.4768],[37.2794,-1.3319,1447.7206],[37.2769,-1.3295,1446.214],[37.2727,-1.3304,1447.015]]]]}
,"properties": {"GID_3": "KEN.22.2.3_1","GID_0": "KEN","country": "Kenya","GID_1": "KEN.22_1","province": "Machakos","NL_NAME_1": "NA","GID_2": "KEN.22.2_1","county": "Kathiani","NL_NAME_2": "NA","city": "Mitaboni","VARNAME_3": "NA","NL_NAME_3": "NA","TYPE_3": "Ward","ENGTYPE_3": "Ward","CC_3": "390","HASC_3": "NA","name": "Mitaboni.city","area_km2": 90.63512,"hist_schema_id": "Elevation0-9000","hist_area_km2": {"1375": 0.14837,"1400": 0.91144,"1425": 2.86149,"1450": 8.45731,"1475": 14.24394,"1500": 23.76125,"1525": 14.79501,"1550": 5.53219,"1575": 3.00984,"1600": 1.75927,"1625": 1.48372,"1650": 1.42013,"1675": 1.37774,"1700": 1.18697,"1725": 1.27175,"1750": 1.14457,"1775": 1.22936,"1800": 1.08098,"1825": 0.97501,"1850": 0.80544,"1875": 0.74185,"1900": 0.78424,"1925": 0.4875,"1950": 0.33913,"1975": 0.40272,"2000": 0.33913,"2025": 0.08478}}}