{"type": "Feature","bbox": [35.2822,0.0707,35.5907,0.563],"geometry": {"type": "MultiPolygon","coordinates": [[[[35.5885,0.1712,2554.0698],[35.5878,0.1762,2612.4351],[35.5854,0.1767,2571.3721],[35.5786,0.1834,2571.4961],[35.5752,0.1892,2541.1533],[35.5675,0.1913,2557.0999],[35.5679,0.203,2581.5566],[35.5551,0.1949,2506.606],[35.5127,0.1932,2487.29],[35.5197,0.2021,2560.1958],[35.5197,0.2074,2535.6914],[35.5272,0.2167,2546.1902],[35.5261,0.2183,2518.4272],[35.5307,0.2249,2528.895],[35.5347,0.2273,2540.3384],[35.537,0.2267,2551.3765],[35.5401,0.2302,2534.564],[35.5345,0.2339,2467.6702],[35.5293,0.2326,2519.53],[35.5281,0.235,2508.4961],[35.5124,0.2331,2542.2986],[35.5049,0.2296,2524.3735],[35.4957,0.2367,2536.2905],[35.4855,0.255,2468.5933],[35.4946,0.2624,2502.9199],[35.491,0.2681,2504.7375],[35.4947,0.279,2487.032],[35.4973,0.2787,2502.2756],[35.4997,0.2829,2503.4897],[35.5004,0.2926,2497.7986],[35.4987,0.2959,2500.5854],[35.5042,0.2988,2499.3215],[35.4986,0.3091,2494.207],[35.4976,0.3146,2464.3911],[35.4949,0.3178,2475.1257],[35.4959,0.3195,2461.7524],[35.5095,0.3194,2506.3774],[35.5137,0.3273,2502.9546],[35.5124,0.3296,2497.6848],[35.507,0.3305,2468.96],[35.5025,0.3409,2479.9634],[35.4945,0.3497,2471.0349],[35.4878,0.3555,2445.8533],[35.4827,0.3558,2429.928],[35.4808,0.3643,2431.4888],[35.4732,0.3688,2405.2886],[35.4684,0.3745,2390.7793],[35.4705,0.3831,2399.5916],[35.4788,0.3874,2415.345],[35.4819,0.3838,2425.5303],[35.4881,0.3853,2452.2896],[35.4849,0.391,2440.4585],[35.4793,0.3936,2424.9634],[35.4796,0.3975,2444.8574],[35.4872,0.4093,2430.4441],[35.4812,0.4093,2438.7063],[35.4806,0.4254,2415.0576],[35.4762,0.4304,2416.7227],[35.4729,0.4537,2424.7561],[35.4713,0.4553,2412.4233],[35.4701,0.4546,2412.8237],[35.4675,0.4598,2404.582],[35.4613,0.4601,2391.126],[35.4635,0.5112,2369.1191],[35.4582,0.5083,2331.5894],[35.4546,0.5114,2328.9148],[35.4551,0.5126,2341.8608],[35.4529,0.5132,2344.3833],[35.4462,0.5064,2315.9517],[35.4388,0.5094,2311.9619],[35.4302,0.5095,2298.1638],[35.4264,0.5069,2287.7983],[35.4252,0.5097,2292.6731],[35.421,0.5079,2288.1147],[35.4133,0.5115,2274.9885],[35.4071,0.509,2268.1309],[35.4016,0.5112,2261.0288],[35.3967,0.5076,2253.0461],[35.3928,0.508,2238.2551],[35.3908,0.5129,2236.042],[35.3852,0.5154,2231.4692],[35.3821,0.5142,2221.7156],[35.3794,0.5175,2219.229],[35.372,0.518,2208.4746],[35.3676,0.5222,2203.2581],[35.3538,0.5274,2177.625],[35.3486,0.5428,2168.7559],[35.3277,0.5572,2145.7664],[35.3237,0.563,2148.3008],[35.3132,0.5251,2167.9854],[35.2912,0.5334,2152.1912],[35.2883,0.524,2111.1865],[35.2846,0.5253,2108.1306],[35.2822,0.5152,2093.9692],[35.2892,0.5108,2096.3477],[35.2916,0.5027,2091.4109],[35.2942,0.5008,2098.0466],[35.2937,0.5054,2104.3911],[35.298,0.506,2106.8032],[35.3002,0.5038,2108.7058],[35.3013,0.5047,2108.7058],[35.3057,0.4986,2113.4209],[35.3079,0.4992,2134.5842],[35.3089,0.4966,2125.7881],[35.3111,0.4955,2133.373],[35.3147,0.4958,2148.8481],[35.317,0.49,2125.6643],[35.3228,0.4902,2150.9473],[35.3272,0.4839,2150.1858],[35.3304,0.4839,2156.1011],[35.3327,0.4857,2162.6265],[35.3366,0.4821,2167.7617],[35.3384,0.4823,2167.7617],[35.34,0.479,2163.8867],[35.3479,0.4777,2183.5435],[35.3541,0.4713,2163.6541],[35.3551,0.4595,2185.5835],[35.3571,0.456,2180.3125],[35.3626,0.449,2204.5122],[35.3703,0.4438,2218.3352],[35.3695,0.4423,2214.3503],[35.3723,0.4375,2215.1519],[35.3734,0.4383,2215.1519],[35.3746,0.4369,2225.04],[35.3738,0.4358,2225.04],[35.3769,0.4357,2228.6797],[35.3778,0.432,2230.9087],[35.3798,0.432,2230.9087],[35.3808,0.4295,2232.5457],[35.39,0.4286,2248.2659],[35.3935,0.4297,2255.5669],[35.3904,0.402,2257.0283],[35.4024,0.3991,2271.2681],[35.3998,0.3678,2242.5042],[35.4138,0.3567,2261.7817],[35.4007,0.3387,2246.4614],[35.4066,0.3346,2248.8037],[35.4078,0.3272,2237.5029],[35.4101,0.3233,2247.1362],[35.4136,0.3212,2252.9316],[35.4158,0.3166,2250.3335],[35.4185,0.3167,2252.7695],[35.4234,0.3137,2259.1252],[35.4252,0.3077,2264.7969],[35.4335,0.2944,2313.4192],[35.438,0.2897,2329.9502],[35.441,0.2889,2340.1655],[35.4362,0.2857,2310.9072],[35.4375,0.2843,2310.8252],[35.4359,0.2715,2330.252],[35.428,0.2795,2300.8765],[35.4138,0.2645,2287.4141],[35.4215,0.2574,2356.9402],[35.4228,0.2526,2289.3777],[35.4243,0.2529,2301.6089],[35.4238,0.2504,2286.875],[35.4274,0.247,2316.3389],[35.428,0.2431,2332.8013],[35.4291,0.2438,2332.9365],[35.4308,0.2415,2323.8921],[35.4317,0.236,2322.2966],[35.4335,0.235,2335.3474],[35.4332,0.2314,2321.9324],[35.4349,0.2298,2319.9568],[35.42,0.2233,2364.7639],[35.4242,0.2201,2381.2678],[35.428,0.2115,2384.8738],[35.4416,0.2205,2412.501],[35.4505,0.2134,2429.0398],[35.452,0.2104,2424.4238],[35.4547,0.2099,2436.438],[35.4563,0.2068,2437.2515],[35.464,0.2055,2437.5737],[35.4682,0.1972,2420.5254],[35.4686,0.1877,2428.739],[35.4772,0.1633,2450.7847],[35.4694,0.1536,2517.6377],[35.4636,0.1394,2519.7002],[35.4598,0.1372,2534.6863],[35.4622,0.1213,2595.3296],[35.4658,0.1258,2578.0366],[35.4751,0.1213,2584.5215],[35.4745,0.1156,2617.1465],[35.4781,0.1153,2599.4297],[35.4806,0.1124,2603.2244],[35.5048,0.1157,2614.9639],[35.509,0.1212,2658.3667],[35.5217,0.1316,2602.6453],[35.5223,0.1281,2611.7139],[35.5194,0.1187,2633.9827],[35.5207,0.1139,2633.2378],[35.5271,0.1116,2673.708],[35.5283,0.1082,2696.7078],[35.5316,0.1065,2720.3586],[35.5368,0.1082,2680.2751],[35.5406,0.1135,2698.4968],[35.5425,0.1136,2674.1965],[35.5444,0.1066,2746.4771],[35.5414,0.0989,2804.2139],[35.5418,0.0935,2748.5417],[35.5735,0.0707,2713.2368],[35.5752,0.1193,2588.3716],[35.5907,0.1532,2554.3577],[35.5885,0.1712,2554.0698]]]]}
,"properties": {"GID_2": "KEN.44.1_1","GID_0": "KEN","country": "Kenya","GID_1": "KEN.44_1","province": "UasinGishu","NL_NAME_1": "NA","county": "Ainabkoi","VARNAME_2": "NA","NL_NAME_2": "NA","TYPE_2": "Constituency","ENGTYPE_2": "Constituency","CC_2": "144","HASC_2": "NA","name": "Ainabkoi.county","area_km2": 504.603,"hist_schema_id": "Elevation0-9000","hist_area_km2": {"2100": 2.1625,"2125": 4.3887,"2150": 8.2897,"2175": 16.4098,"2200": 24.9541,"2225": 17.3004,"2250": 27.7529,"2275": 44.0994,"2300": 39.2019,"2325": 28.0286,"2350": 25.1028,"2375": 26.8203,"2400": 25.1666,"2425": 26.2056,"2450": 29.7252,"2475": 29.6616,"2500": 16.8132,"2525": 17.5341,"2550": 20.5661,"2575": 18.7215,"2600": 19.9724,"2625": 13.5694,"2650": 10.3042,"2675": 6.3394,"2700": 2.6927,"2725": 1.1237,"2750": 1.2085,"2775": 0.4664,"2800": 0.0212}}}