{"type": "Feature","bbox": [39.6447,-0.4517,39.8289,-0.2629],"geometry": {"type": "MultiPolygon","coordinates": [[[[39.7071,-0.3803,225.0064],[39.6447,-0.4517,147.9663],[39.6565,-0.4504,161.0444],[39.6601,-0.4485,165.0682],[39.6766,-0.4485,180.2461],[39.6935,-0.4362,205.0905],[39.7036,-0.4325,224.3146],[39.8289,-0.2917,222.5609],[39.8136,-0.2629,222.1453],[39.7271,-0.358,239.5867],[39.7071,-0.3803,225.0064]]]]}
,"properties": {"GID_3": "KEN.7.4.4_1","GID_0": "KEN","country": "Kenya","GID_1": "KEN.7_1","province": "Garissa","NL_NAME_1": "NA","GID_2": "KEN.7.4_1","county": "GarissaTownship","NL_NAME_2": "NA","city": "Waberi","VARNAME_3": "NA","NL_NAME_3": "NA","TYPE_3": "Ward","ENGTYPE_3": "Ward","CC_3": "131","HASC_3": "NA","name": "Waberi.city","area_km2": 88.26299,"hist_schema_id": "Elevation0-9000","hist_area_km2": {"150": 0.95407,"175": 5.59722,"200": 8.28984,"225": 66.80691,"250": 6.61496}}}