{"type": "Feature","bbox": [36.84,-1.3292,36.8882,-1.3083],"geometry": {"type": "MultiPolygon","coordinates": [[[[36.8882,-1.3285,1635.9745],[36.8731,-1.3194,1632.335],[36.8807,-1.3083,1624.3682],[36.877,-1.3083,1625.5903],[36.8723,-1.3112,1626.6686],[36.8673,-1.31,1626.6929],[36.8611,-1.3144,1629.3994],[36.8521,-1.3138,1635.3882],[36.8473,-1.3169,1640.2391],[36.84,-1.3185,1651.5917],[36.8567,-1.3279,1649.4402],[36.8812,-1.3259,1633.2666],[36.8871,-1.3292,1634.1577],[36.8882,-1.3285,1635.9745]]]]}
,"properties": {"GID_3": "KEN.30.6.3_1","GID_0": "KEN","country": "Kenya","GID_1": "KEN.30_1","province": "Nairobi","NL_NAME_1": "NA","GID_2": "KEN.30.6_1","county": "EmbakasiSouth","NL_NAME_2": "NA","city": "KwaReuben","VARNAME_3": "NA","NL_NAME_3": "NA","TYPE_3": "Ward","ENGTYPE_3": "Ward","CC_3": "1408","HASC_3": "NA","name": "Kwa_Reuben.city","area_km2": 5.595898,"hist_schema_id": "Elevation0-9000","hist_area_km2": {"1600": 0.021197,"1625": 3.412652,"1650": 2.162049}}}