{"type":"Feature","properties":{"GID_3":"KEN.36.1.5_1","GID_0":"KEN","country":"Kenya","GID_1":"KEN.36_1","province":"Nyeri","NL_NAME_1":"NA","GID_2":"KEN.36.1_1","county":"Kieni","NL_NAME_2":"NA","city":"Mweiga","VARNAME_3":"NA","NL_NAME_3":"NA","TYPE_3":"Ward","ENGTYPE_3":"Ward","CC_3":"469","HASC_3":"NA","name":"Mweiga.city"},
"geometry":{"type": "MultiPolygon","coordinates": [[[[36.6231,-0.395,3783.5684],[36.6384,-0.3963,3731.1377],[36.6435,-0.4057,3589.9556],[36.6498,-0.4106,3481.6772],[36.6557,-0.4072,3464.7993],[36.6583,-0.4072,3417.7441],[36.6594,-0.404,3486.1401],[36.6649,-0.3995,3403.0234],[36.6837,-0.398,3205.1785],[36.6853,-0.4012,3194.6572],[36.692,-0.4047,3181.3804],[36.6904,-0.4087,3173.2759],[36.6932,-0.4139,3155.981],[36.6916,-0.4174,3135.0601],[36.6929,-0.4202,3117.3394],[36.6966,-0.4231,3125.7898],[36.6977,-0.4263,3115.2363],[36.7036,-0.4291,3103.1558],[36.7034,-0.4314,3062.1394],[36.7067,-0.435,3074.9185],[36.7107,-0.4368,3050.9453],[36.7115,-0.4384,3053.1348],[36.7103,-0.4401,3023.418],[36.714,-0.4432,3017.4897],[36.7142,-0.4468,3031.9458],[36.7181,-0.4479,3063.1045],[36.7187,-0.451,3038.1985],[36.7213,-0.4525,3034.6694],[36.7238,-0.4527,3046.1636],[36.7288,-0.4496,3013.833],[36.7399,-0.4515,2910.2773],[36.7418,-0.45,2890.502],[36.7342,-0.4118,3024.2366],[36.8012,-0.3859,2402.2966],[36.8014,-0.3804,2440.5483],[36.8115,-0.3787,2359.4966],[36.818,-0.3824,2349.9541],[36.8279,-0.3829,2255.0015],[36.8351,-0.3796,2214.8879],[36.8413,-0.3794,2165.6699],[36.842,-0.381,2152.0933],[36.8459,-0.3791,2130.8394],[36.8472,-0.3801,2138.5767],[36.8554,-0.3785,2088.4333],[36.8611,-0.3821,2078.2581],[36.8677,-0.3894,2054.9922],[36.8741,-0.3893,2047.3723],[36.8767,-0.3914,1987.8591],[36.8824,-0.3913,2009.4368],[36.887,-0.3934,1998.9004],[36.8894,-0.3758,2008.8005],[36.8934,-0.3734,2000.4218],[36.8951,-0.3751,1988.2135],[36.9019,-0.3737,1906.9467],[36.9066,-0.3701,1939.1133],[36.9126,-0.3733,1931.0376],[36.9186,-0.3672,1847.8002],[36.9267,-0.3712,1825.6527],[36.9306,-0.366,1878.7091],[36.9301,-0.3544,1838.774],[36.9314,-0.3532,1823.6927],[36.961,-0.3619,1776.718],[36.9638,-0.3675,1776.6633],[36.9678,-0.367,1775.5938],[36.9651,-0.3632,1754.3077],[36.9896,-0.3447,1758.9308],[36.9874,-0.3371,1804.0986],[36.9841,-0.3361,1771.1494],[36.9843,-0.3333,1780.3264],[36.9823,-0.3321,1798.2505],[36.9814,-0.3279,1819.8984],[36.9713,-0.3294,1837.8235],[36.9699,-0.3271,1845.7465],[36.9656,-0.3253,1824.8223],[36.9634,-0.3211,1844.5038],[36.9559,-0.3197,1863.6738],[36.9561,-0.3184,1799.8455],[36.9519,-0.3158,1832.2451],[36.9491,-0.3102,1821.3394],[36.9461,-0.309,1869.1021],[36.9468,-0.3075,1818.9365],[36.9449,-0.306,1837.9528],[36.9477,-0.3051,1869.3611],[36.9477,-0.3018,1866.0121],[36.9423,-0.2986,1859.4539],[36.9377,-0.3012,1855.0377],[36.9359,-0.2991,1874.4036],[36.9355,-0.3003,1858.3827],[36.9328,-0.2995,1889.7622],[36.9297,-0.3029,1887.5748],[36.9301,-0.3047,1896.4327],[36.9285,-0.3045,1898.3828],[36.9304,-0.3074,1882.0321],[36.9287,-0.3117,1868.333],[36.9267,-0.3112,1905.5726],[36.9275,-0.3093,1895.5327],[36.9237,-0.31,1898.739],[36.9163,-0.3081,1940.4124],[36.9138,-0.3102,1957.5193],[36.9054,-0.3088,1943.6672],[36.8999,-0.3104,1944.0005],[36.8998,-0.3128,1922.427],[36.8984,-0.312,1943.5088],[36.8971,-0.3157,1887.6808],[36.8942,-0.3168,1928.157],[36.8886,-0.3232,1953.5991],[36.8877,-0.3219,1963.3469],[36.8789,-0.3214,2007.2234],[36.877,-0.32,2005.8046],[36.8716,-0.3233,2047.7992],[36.864,-0.3214,2077.1206],[36.8574,-0.3218,2054.1445],[36.8553,-0.3194,2067.3101],[36.8557,-0.3156,2114.1304],[36.8411,-0.3109,2154.762],[36.8422,-0.3093,2170.9058],[36.8395,-0.3054,2181.2173],[36.8327,-0.3042,2201.6313],[36.8296,-0.3059,2222.2468],[36.8263,-0.3051,2239.2529],[36.8253,-0.3028,2197.2244],[36.8218,-0.303,2238.5696],[36.8174,-0.3076,2256.2444],[36.816,-0.3133,2261.9448],[36.8116,-0.3151,2281.801],[36.8116,-0.3169,2288.29],[36.8053,-0.3162,2309.0637],[36.8041,-0.3205,2273.3999],[36.7881,-0.324,2419.9951],[36.7826,-0.327,2506.395],[36.7776,-0.3256,2493.3521],[36.7746,-0.3204,2545.5735],[36.7715,-0.3184,2537.6504],[36.7642,-0.3216,2617.5742],[36.758,-0.3192,2636.1726],[36.7559,-0.3223,2651.582],[36.7524,-0.3222,2661.9419],[36.7461,-0.3278,2785.1946],[36.7414,-0.3372,2813.822],[36.7246,-0.338,2981.2268],[36.7139,-0.3437,3023.9966],[36.7085,-0.3446,3026.4199],[36.7054,-0.355,3078.1797],[36.6982,-0.3597,3180.2117],[36.6953,-0.3596,3173.2285],[36.69,-0.3558,3199.9509],[36.6786,-0.3573,3253.3259],[36.667,-0.3532,3382.1719],[36.6566,-0.356,3407.28],[36.6461,-0.3526,3416.8096],[36.6446,-0.3488,3414.4868],[36.6384,-0.343,3410.8706],[36.6352,-0.3343,3525.1035],[36.6252,-0.3266,3623.5496],[36.6147,-0.3132,3920.6416],[36.6104,-0.3206,3890.3933],[36.6092,-0.3271,3768.2393],[36.6109,-0.339,3863.1609],[36.6167,-0.3497,3749.1497],[36.605,-0.3604,3764.4346],[36.6041,-0.3663,3802.9631],[36.6067,-0.37,3819.6848],[36.6161,-0.3721,3790.4292],[36.6315,-0.3813,3783.5359],[36.6318,-0.3839,3798.4595],[36.6231,-0.395,3783.5684]]]]}}