{"type":"Feature","properties":{"GID_3":"KEN.23.5.7_1","GID_0":"KEN","country":"Kenya","GID_1":"KEN.23_1","province":"Makueni","NL_NAME_1":"NA","GID_2":"KEN.23.5_1","county":"Makueni","NL_NAME_2":"NA","city":"Wote","VARNAME_3":"NA","NL_NAME_3":"NA","TYPE_3":"Ward","ENGTYPE_3":"Ward","CC_3":"424","HASC_3":"NA","name":"Wote.city"},
"geometry":{"type": "MultiPolygon","coordinates": [[[[37.5126,-1.8045,1410.887],[37.5169,-1.8114,1423.7538],[37.5233,-1.8165,1346.9915],[37.5219,-1.8283,1442.4012],[37.5262,-1.8301,1252.8972],[37.5252,-1.8478,1156.1387],[37.5308,-1.8472,1182.2139],[37.5381,-1.8522,1171.5398],[37.5421,-1.8502,1157.4305],[37.5455,-1.8549,1170.6221],[37.5471,-1.8515,1158.5845],[37.55,-1.8501,1261.2078],[37.5534,-1.8519,1251.3578],[37.5523,-1.8592,1264.3997],[37.5574,-1.8608,1304.9387],[37.5595,-1.8586,1307.5507],[37.5575,-1.8541,1314.6201],[37.5612,-1.8482,1351.3241],[37.5606,-1.8439,1354.108],[37.5582,-1.8409,1376.1349],[37.5605,-1.8259,1543.8021],[37.5591,-1.8175,1459.5029],[37.57,-1.8071,1315.1155],[37.5762,-1.8061,1331.4465],[37.5774,-1.8036,1323.9263],[37.5788,-1.8135,1308.7815],[37.5822,-1.813,1272.6174],[37.5891,-1.8186,1275.2979],[37.5916,-1.8172,1254.3159],[37.5992,-1.822,1179.879],[37.6018,-1.826,1208.0961],[37.6114,-1.8234,1266.7423],[37.6191,-1.818,1171.7922],[37.6212,-1.8182,1166.9592],[37.6286,-1.8234,1158.9287],[37.6361,-1.8334,1148.9561],[37.6413,-1.8187,1134.7871],[37.643,-1.8075,1133.0703],[37.6487,-1.7955,1140.0344],[37.6601,-1.8018,1101.3409],[37.6655,-1.8031,1081.5922],[37.6685,-1.7995,1081.7054],[37.6726,-1.7873,1065.6788],[37.6718,-1.7816,1080.0442],[37.6757,-1.7764,1059.7262],[37.675,-1.7742,1060.0374],[37.6772,-1.7693,1046.168],[37.6765,-1.7662,1047.0704],[37.6743,-1.7646,1042.6061],[37.676,-1.762,1047.0665],[37.6727,-1.7633,1049.6383],[37.6723,-1.7665,1041.6554],[37.6705,-1.7667,1041.749],[37.6683,-1.7629,1049.6614],[37.6681,-1.7561,1078.7051],[37.665,-1.7565,1053.5615],[37.6605,-1.7545,1074.7002],[37.6581,-1.7579,1062.4524],[37.656,-1.7535,1057.735],[37.6567,-1.7482,1078.1416],[37.6552,-1.7476,1073.5486],[37.6534,-1.7489,1074.7906],[37.6536,-1.756,1077.6635],[37.6383,-1.7599,1078.2468],[37.6295,-1.757,1096.0016],[37.6273,-1.7604,1098.6638],[37.6289,-1.7661,1108.5074],[37.6231,-1.769,1122.3975],[37.6221,-1.772,1107.7946],[37.6191,-1.7739,1113.8704],[37.6149,-1.7747,1121.3276],[37.6135,-1.7792,1122.141],[37.6104,-1.7765,1140.2644],[37.6119,-1.7724,1128.3727],[37.6007,-1.7703,1128.8811],[37.5969,-1.7659,1130.1365],[37.5937,-1.7677,1142.7401],[37.5951,-1.771,1128.5116],[37.5904,-1.7754,1136.9714],[37.5875,-1.7731,1153.5353],[37.5883,-1.7768,1132.8481],[37.5871,-1.7778,1136.4333],[37.5799,-1.773,1141.1603],[37.5801,-1.768,1144.5366],[37.5736,-1.7712,1149.7224],[37.5706,-1.7763,1146.5896],[37.5621,-1.7693,1150.2332],[37.5587,-1.7728,1153.3031],[37.5527,-1.7751,1157.6348],[37.5528,-1.7797,1156.2241],[37.5383,-1.7874,1185.1814],[37.5366,-1.7911,1203.4098],[37.5282,-1.7913,1204.3649],[37.5295,-1.7974,1201.2554],[37.5126,-1.8045,1410.887]]]]}}