{"type":"Feature","properties":{"GID_3":"KEN.18.1.1_1","GID_0":"KEN","country":"Kenya","GID_1":"KEN.18_1","province":"Kitui","NL_NAME_1":"NA","GID_2":"KEN.18.1_1","county":"KituiCentral","NL_NAME_2":"NA","city":"KyangwithyaEast","VARNAME_3":"NA","NL_NAME_3":"NA","TYPE_3":"Ward","ENGTYPE_3":"Ward","CC_3":"358","HASC_3":"NA","name":"Kyangwithya_East.city"},
"geometry":{"type": "MultiPolygon","coordinates": [[[[38.0054,-1.3535,1132.8904],[38.0094,-1.3483,1138.926],[38.0129,-1.3358,1169.5347],[38.0198,-1.3329,1186.5806],[38.0216,-1.3406,1170.0702],[38.0195,-1.3431,1146.2021],[38.0169,-1.3432,1151.7628],[38.0186,-1.345,1138.7512],[38.0144,-1.3524,1138.8231],[38.017,-1.3527,1133.2068],[38.0235,-1.3582,1133.9872],[38.0254,-1.3621,1116.9773],[38.0235,-1.3637,1119.7639],[38.0248,-1.3656,1109.7686],[38.0238,-1.3687,1110.3503],[38.0305,-1.3733,1115.8093],[38.0469,-1.3749,1154.9661],[38.0535,-1.3821,1086.5981],[38.062,-1.3789,977.5043],[38.0683,-1.3825,878.2378],[38.0711,-1.3795,796.3116],[38.072,-1.3812,768.217],[38.0737,-1.3797,790.7135],[38.074,-1.3814,763.4159],[38.0775,-1.381,787.4669],[38.0772,-1.3839,752.9823],[38.0798,-1.3835,759.0929],[38.0807,-1.3816,815.7063],[38.0888,-1.3815,729.0012],[38.0952,-1.3795,778.9421],[38.106,-1.3808,705.1924],[38.1085,-1.3767,712.6058],[38.1122,-1.3744,695.201],[38.1128,-1.3726,693.8033],[38.1065,-1.3676,717.5577],[38.1033,-1.3671,718.3495],[38.1027,-1.3639,729.7702],[38.0992,-1.3608,796.1561],[38.0926,-1.3599,821.6061],[38.0905,-1.3569,895.6234],[38.0894,-1.2931,923.6272],[38.0879,-1.2933,923.6272],[38.0864,-1.289,996.6552],[38.0859,-1.2903,956.8859],[38.0826,-1.2898,955.6638],[38.0804,-1.2839,985.9243],[38.0648,-1.2852,1020.7516],[38.0596,-1.2798,1063.0885],[38.0603,-1.2763,1131.9761],[38.0742,-1.2675,1006.6903],[38.07,-1.2624,1050.8239],[38.0596,-1.2579,1154.2247],[38.0491,-1.2592,1293.96],[38.041,-1.2623,1395.9509],[38.0416,-1.2697,1431.2527],[38.0328,-1.2746,1478.514],[38.037,-1.2774,1432.2705],[38.0371,-1.2846,1294.7283],[38.0214,-1.2907,1237.4741],[38.0194,-1.2937,1227.8334],[38.0194,-1.3029,1219.9564],[38.0179,-1.303,1213.8612],[38.0154,-1.3092,1225.1263],[38.0119,-1.31,1209.5579],[38.0122,-1.3153,1202.6072],[38.0087,-1.3147,1199.2987],[38.0077,-1.3178,1188.8767],[38.0041,-1.3197,1191.5444],[37.9981,-1.3206,1171.9519],[37.9974,-1.3182,1172.6582],[37.9919,-1.3199,1181.3378],[37.9908,-1.3219,1170.4236],[37.9869,-1.3227,1183.4904],[37.9841,-1.3279,1177.5144],[37.9806,-1.3293,1178.8794],[37.9942,-1.3391,1169.314],[37.9974,-1.3494,1159.2078],[38.0054,-1.3535,1132.8904]]]]}}