{"type":"Feature","properties":{"GID_3":"KEN.23.5.5_1","GID_0":"KEN","country":"Kenya","GID_1":"KEN.23_1","province":"Makueni","NL_NAME_1":"NA","GID_2":"KEN.23.5_1","county":"Makueni","NL_NAME_2":"NA","city":"Muvau/Kikuumini","VARNAME_3":"NA","NL_NAME_3":"NA","TYPE_3":"Ward","ENGTYPE_3":"Ward","CC_3":"425","HASC_3":"NA","name":"Muvau_Kikuumini.city"},
"geometry":{"type": "MultiPolygon","coordinates": [[[[37.6799,-2.0062,946.1588],[37.6826,-1.9878,1011.0302],[37.6972,-1.9809,1044.3934],[37.6912,-1.9745,1047.4149],[37.6872,-1.9651,1054.8107],[37.6819,-1.9596,1061.4255],[37.6788,-1.9436,1070.3828],[37.6702,-1.9297,1091.9017],[37.67,-1.9272,1091.6439],[37.6725,-1.9259,1077.3284],[37.6724,-1.9236,1078.9351],[37.6682,-1.9206,1093.7107],[37.6647,-1.9209,1093.4777],[37.6631,-1.9186,1108.082],[37.6603,-1.9033,1140.6985],[37.6633,-1.9022,1143.8154],[37.6781,-1.8734,1118.9094],[37.6811,-1.8635,1147.7749],[37.6836,-1.8648,1143.3599],[37.6853,-1.863,1131.7017],[37.686,-1.8564,1124.6423],[37.6944,-1.8565,1113.079],[37.6979,-1.8514,1102.4603],[37.7026,-1.8503,1096.48],[37.7008,-1.8443,1092.5425],[37.7044,-1.8338,1098.082],[37.701,-1.8265,1090.5939],[37.7127,-1.8262,1079.0728],[37.7168,-1.8211,1072.8165],[37.7192,-1.8203,1071.8071],[37.7231,-1.8253,1057.9429],[37.7293,-1.8261,1061.1233],[37.7351,-1.8214,1054.167],[37.737,-1.8216,1046.0984],[37.7401,-1.8159,1047.561],[37.7462,-1.8161,1029.8376],[37.7498,-1.8108,981.9139],[37.7483,-1.8077,990.7414],[37.7519,-1.801,975.197],[37.7512,-1.7934,975.0801],[37.7532,-1.7909,967.5217],[37.7514,-1.788,979.6941],[37.756,-1.7877,965.6675],[37.7551,-1.7851,967.7882],[37.7532,-1.7845,956.8879],[37.753,-1.7816,965.4777],[37.7549,-1.7814,957.2868],[37.7547,-1.7801,972.1102],[37.7615,-1.7749,959.6728],[37.7497,-1.7718,962.9451],[37.7466,-1.7675,986.1639],[37.7386,-1.7691,987.8645],[37.7386,-1.7717,969.2894],[37.7348,-1.7738,978.321],[37.7285,-1.7728,994.073],[37.7219,-1.7749,987.8363],[37.7155,-1.7663,992.688],[37.7147,-1.7589,991.8485],[37.704,-1.7543,1015.2081],[37.6994,-1.7557,1009.2557],[37.6977,-1.7529,1021.0964],[37.6892,-1.7588,1024.7673],[37.6797,-1.7596,1042.4772],[37.6751,-1.7615,1047.0665],[37.676,-1.7623,1047.0665],[37.6743,-1.7646,1042.6061],[37.6765,-1.7662,1047.0704],[37.6772,-1.7693,1046.168],[37.675,-1.7742,1060.0374],[37.6759,-1.7755,1059.265],[37.6718,-1.7816,1080.0442],[37.6726,-1.7873,1065.6788],[37.6686,-1.7994,1081.7054],[37.6666,-1.8003,1088.3341],[37.666,-1.8027,1079.8145],[37.6601,-1.8018,1101.3409],[37.6489,-1.7953,1140.0344],[37.6481,-1.7962,1140.0344],[37.6454,-1.8047,1134.7407],[37.643,-1.8075,1133.0703],[37.6413,-1.8187,1134.7871],[37.6361,-1.8334,1148.9561],[37.6286,-1.8234,1158.9287],[37.6212,-1.8182,1166.9592],[37.6191,-1.818,1171.7922],[37.6114,-1.8234,1266.7423],[37.6018,-1.826,1208.0961],[37.5992,-1.822,1179.879],[37.5916,-1.8172,1254.3159],[37.5891,-1.8186,1275.2979],[37.5822,-1.813,1272.6174],[37.5788,-1.8135,1308.7815],[37.5774,-1.8036,1323.9263],[37.5762,-1.8061,1331.4465],[37.57,-1.8071,1315.1155],[37.5591,-1.8175,1459.5029],[37.5605,-1.8259,1543.8021],[37.5582,-1.8409,1376.1349],[37.5606,-1.8439,1354.108],[37.5612,-1.8482,1351.3241],[37.5575,-1.8541,1314.6201],[37.559,-1.8597,1321.5504],[37.5533,-1.8604,1265.3274],[37.555,-1.8648,1276.5081],[37.5525,-1.8679,1318.8174],[37.5571,-1.8766,1370.5615],[37.5623,-1.8788,1300.4824],[37.5628,-1.8811,1305.9619],[37.5658,-1.8816,1231.4479],[37.5691,-1.8773,1193.0483],[37.5722,-1.8772,1169.7388],[37.5864,-1.8832,1136.223],[37.5923,-1.8892,1122.0312],[37.5923,-1.8954,1106.0054],[37.6004,-1.9018,1087.632],[37.6009,-1.9057,1091.3911],[37.6065,-1.9077,1079.2317],[37.6057,-1.9139,1078.3447],[37.6096,-1.9156,1068.9546],[37.6115,-1.9147,1075.7744],[37.6128,-1.9166,1072.9404],[37.6127,-1.919,1065.9535],[37.6095,-1.9214,1081.3746],[37.6112,-1.9243,1057.745],[37.6144,-1.9238,1065.2336],[37.6167,-1.9277,1056.0381],[37.6195,-1.9263,1058.6537],[37.6227,-1.9279,1054.1045],[37.6226,-1.9336,1050.907],[37.6254,-1.9341,1053.7675],[37.6251,-1.9385,1045.7799],[37.6272,-1.9403,1041.333],[37.6278,-1.9375,1043.6816],[37.6313,-1.9367,1037.9675],[37.6334,-1.9344,1057.8618],[37.6359,-1.9367,1032.7673],[37.634,-1.939,1036.1057],[37.6362,-1.9409,1028.8312],[37.6356,-1.9429,1029.3622],[37.637,-1.9428,1029.3622],[37.6365,-1.9454,1033.0654],[37.6396,-1.9443,1042.6172],[37.6414,-1.9561,1017.677],[37.6432,-1.9557,1017.677],[37.6445,-1.958,1013.9822],[37.6428,-1.9596,1024.71],[37.6457,-1.962,1016.9482],[37.6469,-1.9609,1025.9001],[37.6472,-1.9634,1009.8102],[37.6509,-1.965,1009.6661],[37.6525,-1.9702,1006.3595],[37.6498,-1.9726,1015.257],[37.6539,-1.9754,1017.0943],[37.6541,-1.9778,1005.779],[37.6568,-1.9789,1005.3329],[37.6593,-1.9778,1004.6167],[37.657,-1.9804,998.0096],[37.6575,-1.9823,1001.9286],[37.6634,-1.9825,1007.8875],[37.6657,-1.9853,993.3518],[37.6692,-1.9835,990.0643],[37.6679,-1.9853,994.9496],[37.6691,-1.9882,988.6862],[37.665,-1.9878,991.4343],[37.668,-1.9926,984.9265],[37.6708,-1.9941,988.9081],[37.6724,-1.9926,985.4387],[37.6722,-1.9978,981.2097],[37.6704,-1.9997,987.201],[37.6717,-2.0015,986.2832],[37.6704,-2.0023,986.2832],[37.6717,-2.0038,984.4844],[37.6713,-2.0094,965.524],[37.6799,-2.0062,946.1588]]]]}}