{"type": "Feature","bbox": [34.4701,-0.0179,34.5602,0.0913],"geometry": {"type": "MultiPolygon","coordinates": [[[[34.533,-0.01,1342.5981],[34.542,0.0011,1415.7981],[34.5412,0.0032,1433.4],[34.5369,0.0052,1446.9828],[34.5336,0.009,1380.4652],[34.544,0.0145,1387.4849],[34.543,0.0193,1420.5623],[34.5482,0.023,1433.0546],[34.5501,0.0293,1517.9255],[34.5494,0.0391,1462.189],[34.5521,0.0403,1462.0256],[34.5526,0.0476,1499.7345],[34.556,0.0525,1472.7653],[34.5602,0.0521,1482.1843],[34.5569,0.0611,1438.4268],[34.5586,0.0783,1432.6875],[34.5545,0.0913,1416.6768],[34.5489,0.0828,1415.8499],[34.5455,0.0816,1402.1233],[34.5431,0.0756,1429.2847],[34.533,0.0714,1414.5389],[34.5312,0.0692,1391.0917],[34.5269,0.0702,1361.4684],[34.5229,0.0742,1340.1511],[34.5211,0.0733,1335.5276],[34.5186,0.0664,1349.2565],[34.5151,0.0679,1387.7336],[34.5054,0.0634,1381.3413],[34.4961,0.0618,1370.2552],[34.4944,0.0596,1359.4187],[34.4891,0.0609,1320.6729],[34.4861,0.06,1320.6987],[34.4852,0.0577,1318.9636],[34.4819,0.0577,1343.7819],[34.4805,0.0557,1320.1108],[34.4804,0.0507,1283.0663],[34.4759,0.0474,1352.7468],[34.4701,0.038,1297.7197],[34.4719,0.0353,1266.6675],[34.4713,0.0283,1253.4545],[34.4789,0.0249,1292.668],[34.4863,0.025,1310.8328],[34.4888,0.0223,1306.3132],[34.4862,0.0149,1294.4542],[34.4876,0.0129,1304.3752],[34.4874,0.0042,1354.5408],[34.4908,0.0027,1371.33],[34.499,0.006,1332.9698],[34.499,0.0041,1347.9058],[34.5011,0.0044,1353.5339],[34.5028,0.0007,1385.2935],[34.5073,-0.0029,1411.7484],[34.5101,-0.0001,1403.8267],[34.5075,0.0025,1364.5415],[34.5097,0.0073,1371.6582],[34.5199,-0.0052,1446.0967],[34.5197,-0.0083,1423.2781],[34.5172,-0.0111,1395.5156],[34.5192,-0.0179,1355.0079],[34.5271,-0.015,1367.2859],[34.5298,-0.0155,1360.5476],[34.533,-0.01,1342.5981]]]]}
,"properties": {"GID_3": "KEN.38.3.2_1","GID_0": "KEN","country": "Kenya","GID_1": "KEN.38_1","province": "Siaya","NL_NAME_1": "NA","GID_2": "KEN.38.3_1","county": "Gem","NL_NAME_2": "NA","city": "EastGem","VARNAME_3": "NA","NL_NAME_3": "NA","TYPE_3": "Ward","ENGTYPE_3": "Ward","CC_3": "1173","HASC_3": "NA","name": "East_Gem.city","area_km2": 61.91043,"hist_schema_id": "Elevation0-9000","hist_area_km2": {"1250": 0.27563,"1275": 2.20503,"1300": 4.98252,"1325": 6.48787,"1350": 7.42077,"1375": 8.54449,"1400": 9.71061,"1425": 10.32547,"1450": 7.27235,"1475": 3.26514,"1500": 1.25093,"1525": 0.16962}}}