{"type":"Feature","properties":{"GID_3":"KEN.13.5.3_1","GID_0":"KEN","country":"Kenya","GID_1":"KEN.13_1","province":"Kiambu","NL_NAME_1":"NA","GID_2":"KEN.13.5_1","county":"Kabete","NL_NAME_2":"NA","city":"Muguga","VARNAME_3":"NA","NL_NAME_3":"NA","TYPE_3":"Ward","ENGTYPE_3":"Ward","CC_3":"592","HASC_3":"NA","name":"Muguga.city"},
"geometry":{"type": "MultiPolygon","coordinates": [[[[36.7107,-1.215,1890.7925],[36.711,-1.209,1915.5773],[36.7048,-1.2054,1936.1237],[36.7019,-1.2006,1951.8364],[36.6909,-1.1941,1977.9514],[36.6858,-1.1966,1960.1541],[36.6782,-1.1893,2012.0295],[36.6757,-1.1896,2002.6481],[36.6705,-1.1872,2061.0315],[36.667,-1.1835,2097.2437],[36.6609,-1.1838,2080.6841],[36.6584,-1.179,2094.5212],[36.6529,-1.1776,2121.9795],[36.6501,-1.1705,2174.6812],[36.6474,-1.1779,2152.4011],[36.6513,-1.1841,2129.7341],[36.6501,-1.2028,2118.3979],[36.6582,-1.1981,2081.4829],[36.6665,-1.2174,2062.3386],[36.6726,-1.2211,2001.8562],[36.679,-1.2219,1970.4503],[36.6826,-1.2194,1953.4536],[36.6823,-1.2128,1970.3354],[36.6902,-1.2057,1952.2788],[36.6942,-1.2062,1961.7168],[36.6964,-1.211,1956.4524],[36.7023,-1.2144,1938.1707],[36.7107,-1.215,1890.7925]]]]}}