{"type": "Feature","bbox": [34.8551,0.0777,34.9366,0.1589],"geometry": {"type": "MultiPolygon","coordinates": [[[[34.9284,0.0891,1812.7242],[34.9295,0.0923,1804.8784],[34.9284,0.0995,1822.3888],[34.9315,0.1061,1854.8638],[34.929,0.1222,1836.77],[34.9366,0.1304,1779.1301],[34.9352,0.1326,1773.0272],[34.9053,0.1448,1716.2231],[34.9092,0.1589,1703.7886],[34.9011,0.1578,1665.2361],[34.8829,0.1481,1701.7479],[34.882,0.1425,1700.8528],[34.8725,0.1376,1696.2975],[34.8645,0.1283,1719.7988],[34.8596,0.1256,1701.7942],[34.8568,0.1132,1676.9406],[34.8592,0.1091,1691.762],[34.8572,0.0995,1689.5823],[34.86,0.0891,1706.9574],[34.8581,0.0854,1709.2854],[34.8551,0.0841,1720.9628],[34.8625,0.0816,1727.7581],[34.8659,0.0838,1736.0449],[34.8782,0.0855,1752.469],[34.8832,0.0846,1781.4709],[34.8863,0.0801,1767.9626],[34.8902,0.0784,1810.0115],[34.8913,0.0815,1801.7034],[34.8945,0.0829,1803.8372],[34.9039,0.0777,1837.8651],[34.9191,0.0911,1835.6625],[34.9222,0.0909,1843.4785],[34.9243,0.0879,1863.1041],[34.9284,0.0891,1812.7242]]]]}
,"properties": {"GID_3": "KEN.32.1.1_1","GID_0": "KEN","country": "Kenya","GID_1": "KEN.32_1","province": "Nandi","NL_NAME_1": "NA","GID_2": "KEN.32.1_1","county": "Aldai","NL_NAME_2": "NA","city": "Kabwareng","VARNAME_3": "NA","NL_NAME_3": "NA","TYPE_3": "Ward","ENGTYPE_3": "Ward","CC_3": "755","HASC_3": "NA","name": "Kabwareng.city","area_km2": 52.58137,"hist_schema_id": "Elevation0-9000","hist_area_km2": {"1625": 0.33923,"1650": 1.56896,"1675": 3.9012,"1700": 7.39955,"1725": 7.67518,"1750": 7.06032,"1775": 7.18753,"1800": 7.18753,"1825": 7.06032,"1850": 2.86229,"1875": 0.33923}}}