{"type":"Feature","properties":{"GID_3":"KEN.21.2.3_1","GID_0":"KEN","country":"Kenya","GID_1":"KEN.21_1","province":"Lamu","NL_NAME_1":"NA","GID_2":"KEN.21.2_1","county":"LamuWest","NL_NAME_2":"NA","city":"Hongwe","VARNAME_3":"NA","NL_NAME_3":"NA","TYPE_3":"Ward","ENGTYPE_3":"Ward","CC_3":"108","HASC_3":"NA","name":"Hongwe.city"},
"geometry":{"type": "MultiPolygon","coordinates": [[[[40.6972,-2.3524,13.2782],[40.7011,-2.3496,12.4404],[40.6795,-2.3142,14.6184],[40.5703,-2.3545,14.8287],[40.5679,-2.3559,15.8225],[40.5695,-2.3598,14.2539],[40.5649,-2.3639,17.3767],[40.5593,-2.3661,20.8191],[40.5567,-2.363,18.0213],[40.5379,-2.3744,18.0859],[40.5373,-2.3975,19.5724],[40.5341,-2.3992,25.2294],[40.5285,-2.4249,16.1069],[40.6244,-2.4544,16.2715],[40.6277,-2.4547,14.1418],[40.6357,-2.4455,13.2912],[40.6461,-2.4453,11.422],[40.6543,-2.4418,10.6826],[40.6613,-2.4424,3.333],[40.6637,-2.4379,8.3695],[40.6791,-2.4301,10.8007],[40.6673,-2.4013,11.1941],[40.6601,-2.3789,26.3752],[40.6972,-2.3524,13.2782]]]]}}