{"type": "Feature","bbox": [37.2329,-0.655,37.3787,-0.546],"geometry": {"type": "MultiPolygon","coordinates": [[[[37.367,-0.5517,1354.1949],[37.3491,-0.5517,1345.6833],[37.3281,-0.5587,1303.8691],[37.326,-0.558,1290.6458],[37.3246,-0.5594,1290.6458],[37.3224,-0.5576,1298.7227],[37.3218,-0.5618,1297.7532],[37.2758,-0.5856,1286.6506],[37.2654,-0.596,1267.5142],[37.2609,-0.6092,1254.0184],[37.2535,-0.6209,1245.9747],[37.2415,-0.6324,1225.7512],[37.2345,-0.6364,1227.3578],[37.2329,-0.646,1208.74],[37.2345,-0.6404,1211.9697],[37.2415,-0.6364,1223.4386],[37.2527,-0.6259,1237.4624],[37.2618,-0.6108,1251.0559],[37.2729,-0.6191,1236.6318],[37.2732,-0.6225,1235.6001],[37.2791,-0.6299,1223.0099],[37.2786,-0.634,1219.0017],[37.2811,-0.6406,1215.189],[37.2947,-0.655,1190.1998],[37.301,-0.6468,1192.3063],[37.301,-0.6424,1194.0266],[37.305,-0.6399,1191.7811],[37.3182,-0.6434,1186.006],[37.3226,-0.6478,1184.7612],[37.3281,-0.6481,1184.3566],[37.3426,-0.6536,1179.339],[37.343,-0.6507,1182.7225],[37.3405,-0.6476,1181.1372],[37.3364,-0.6478,1182.0632],[37.3314,-0.6439,1182.6069],[37.3308,-0.6421,1182.6172],[37.3327,-0.6404,1182.9397],[37.3319,-0.6349,1182.9686],[37.3338,-0.6325,1186.9087],[37.3325,-0.6329,1186.9463],[37.3304,-0.6292,1188.5186],[37.3267,-0.6312,1186.4878],[37.325,-0.6271,1189.3101],[37.3268,-0.6292,1186.876],[37.328,-0.6275,1186.1143],[37.3248,-0.6256,1188.2002],[37.3255,-0.6243,1190.2041],[37.3213,-0.625,1203.9011],[37.3173,-0.6203,1212.5282],[37.3181,-0.6156,1218.4702],[37.316,-0.6097,1228.5903],[37.3188,-0.6072,1226.9067],[37.3136,-0.6025,1245.3137],[37.3144,-0.5927,1251.4331],[37.3116,-0.5893,1258.5707],[37.3127,-0.5885,1252.1296],[37.3115,-0.5853,1263.6646],[37.3137,-0.5817,1253.7328],[37.3116,-0.5796,1271.6066],[37.3119,-0.5773,1268.2499],[37.3144,-0.5766,1266.0579],[37.3164,-0.5791,1257.9167],[37.316,-0.5751,1265.2104],[37.3177,-0.5737,1270.0216],[37.3183,-0.5683,1285.4329],[37.3213,-0.5683,1280.0364],[37.3218,-0.5659,1289.5103],[37.3281,-0.5627,1288.9591],[37.3453,-0.5563,1334.5431],[37.3735,-0.5552,1338.0728],[37.3745,-0.5524,1330.1346],[37.378,-0.5496,1337.0864],[37.3787,-0.546,1349.1216],[37.3753,-0.5475,1350.1827],[37.3735,-0.5512,1351.958],[37.367,-0.5517,1354.1949]]]]}
,"properties": {"GID_3": "KEN.15.3.2_1","GID_0": "KEN","country": "Kenya","GID_1": "KEN.15_1","province": "Kirinyaga","NL_NAME_1": "NA","GID_2": "KEN.15.3_1","county": "Mwea","NL_NAME_2": "NA","city": "Kangai","VARNAME_3": "NA","NL_NAME_3": "NA","TYPE_3": "Ward","ENGTYPE_3": "Ward","CC_3": "497","HASC_3": "NA","name": "Kangai.city","area_km2": 46.81182,"hist_schema_id": "Elevation0-9000","hist_area_km2": {"1175": 3.32854,"1200": 7.48392,"1225": 13.50501,"1250": 10.3249,"1275": 9.30729,"1300": 0.59363,"1325": 1.29327,"1350": 0.97526}}}