{"type":"Feature","properties":{"GID_3":"KEN.3.2.3_1","GID_0":"KEN","country":"Kenya","GID_1":"KEN.3_1","province":"Bungoma","NL_NAME_1":"NA","GID_2":"KEN.3.2_1","county":"Kabuchai","NL_NAME_2":"NA","city":"Mukuyuni","VARNAME_3":"NA","NL_NAME_3":"NA","TYPE_3":"Ward","ENGTYPE_3":"Ward","CC_3":"1088","HASC_3":"NA","name":"Mukuyuni.city"},
"geometry":{"type": "MultiPolygon","coordinates": [[[[34.6264,0.7169,1567.105],[34.6327,0.7205,1556.2578],[34.6465,0.7426,1518.2637],[34.6477,0.7404,1518.0989],[34.652,0.7395,1520.8574],[34.6564,0.7329,1517.7866],[34.6596,0.734,1504.8979],[34.6612,0.7374,1515.1912],[34.6595,0.7386,1518.1042],[34.6612,0.7441,1528.1814],[34.6605,0.7473,1525.389],[34.6628,0.7495,1532.8551],[34.6611,0.7504,1526.5186],[34.6606,0.7558,1539.1837],[34.6574,0.7564,1534.3645],[34.6591,0.7591,1557.9485],[34.6585,0.7623,1572.9202],[34.6544,0.7668,1576.0942],[34.656,0.7761,1593.1245],[34.6533,0.7801,1606.0221],[34.6556,0.7876,1618.5391],[34.6525,0.7912,1612.6758],[34.6521,0.7957,1644.1404],[34.6452,0.798,1618.2838],[34.6371,0.8074,1675.7416],[34.6031,0.8015,1631.6266],[34.5913,0.7946,1697.6228],[34.5882,0.7885,1686.4531],[34.5855,0.7875,1747.9015],[34.5839,0.7892,1745.7502],[34.5788,0.7886,1951.3478],[34.5804,0.7824,1858.8846],[34.5774,0.782,1935.8562],[34.5747,0.7793,1831.8264],[34.5745,0.7769,1782.8922],[34.5698,0.7708,1681.6854],[34.5845,0.766,1710.754],[34.5928,0.7588,1708.8752],[34.5928,0.7446,1593.7919],[34.6,0.7377,1587.8938],[34.6006,0.7289,1557.4985],[34.599,0.7241,1554.9786],[34.6021,0.7258,1567.5352],[34.6093,0.7243,1579.5242],[34.6127,0.7255,1573.7542],[34.6205,0.7226,1570.802],[34.6238,0.7172,1571.0394],[34.6264,0.7169,1567.105]]]]}}