{"type": "Feature","bbox": [37.9469,0.2505,38.1691,0.3235],"geometry": {"type": "MultiPolygon","coordinates": [[[[37.9469,0.2779,1583.1559],[37.9555,0.2817,1567.3834],[37.9575,0.2843,1580.5948],[37.9783,0.2861,1441.8882],[38.0077,0.2983,1257.6333],[38.0309,0.2989,1096.1038],[38.0477,0.2505,872.9362],[38.0615,0.2549,855.1467],[38.0737,0.2519,813.9381],[38.0881,0.2509,782.0451],[38.0953,0.2519,790.8708],[38.0997,0.2542,792.1349],[38.1031,0.2533,784.1273],[38.1691,0.3235,740.8748],[38.0497,0.3199,1034.387],[38.0271,0.3117,1148.7681],[38.0133,0.3178,1255.663],[38.0053,0.3127,1318.7231],[37.9999,0.3063,1327.5415],[37.9811,0.3153,1469.3135],[37.9651,0.3145,1576.9985],[37.9563,0.3224,1685.1335],[37.9485,0.2965,1644.4741],[37.9469,0.2779,1583.1559]]]]}
,"properties": {"GID_3": "KEN.26.3.2_1","GID_0": "KEN","country": "Kenya","GID_1": "KEN.26_1","province": "Meru","NL_NAME_1": "NA","GID_2": "KEN.26.3_1","county": "IgembeCentral","NL_NAME_2": "NA","city": "AthiruRuujine","VARNAME_3": "NA","NL_NAME_3": "NA","TYPE_3": "Ward","ENGTYPE_3": "Ward","CC_3": "257","HASC_3": "NA","name": "Athiru_Ruujine.city","area_km2": 105.96723,"hist_schema_id": "Elevation0-9000","hist_area_km2": {"725": 0.21202,"750": 6.08495,"775": 10.55856,"800": 11.9367,"825": 10.72818,"850": 8.43837,"875": 7.14506,"900": 6.21217,"925": 5.10967,"950": 3.94356,"975": 3.77394,"1000": 2.50183,"1025": 2.03538,"1050": 1.69615,"1075": 1.54774,"1100": 1.06009,"1125": 0.76327,"1150": 0.76327,"1175": 0.44524,"1200": 0.74207,"1225": 0.95409,"1250": 0.89048,"1275": 0.72086,"1300": 0.80567,"1325": 0.67846,"1350": 0.76327,"1375": 0.74207,"1400": 0.80567,"1425": 0.86928,"1450": 1.27211,"1475": 0.93288,"1500": 1.0601,"1525": 1.31452,"1550": 1.35692,"1575": 1.80216,"1600": 2.41702,"1625": 1.78096,"1650": 0.72086,"1675": 0.29683,"1700": 0.0212,"1725": 0.0212,"1750": 0.0212,"1775": 0.0212}}}