{"type":"Feature","properties":{"GID_3":"KEN.36.4.4_1","GID_0":"KEN","country":"Kenya","GID_1":"KEN.36_1","province":"Nyeri","NL_NAME_1":"NA","GID_2":"KEN.36.4_1","county":"NyeriTown","NL_NAME_2":"NA","city":"Ruring'U","VARNAME_3":"NA","NL_NAME_3":"NA","TYPE_3":"Ward","ENGTYPE_3":"Ward","CC_3":"494","HASC_3":"NA","name":"Ruring'U.city"},
"geometry":{"type": "MultiPolygon","coordinates": [[[[36.9813,-0.4196,1728.5676],[36.9745,-0.4226,1750.6986],[36.9646,-0.4216,1719.4678],[36.9601,-0.427,1773.2007],[36.9624,-0.4333,1769.1505],[36.9668,-0.4342,1776.161],[36.9711,-0.4373,1770.2236],[36.9642,-0.4364,1773.5266],[36.956,-0.4386,1812.4312],[36.9534,-0.4367,1814.8208],[36.9404,-0.4396,1859.2877],[36.941,-0.444,1857.4698],[36.9462,-0.4476,1822.1461],[36.9455,-0.4504,1823.827],[36.9501,-0.4496,1810.8016],[36.947,-0.4594,1820.4651],[36.947,-0.4703,1801.1365],[36.9563,-0.4693,1825.3264],[36.9602,-0.4733,1821.4426],[36.9649,-0.4615,1778.686],[36.9714,-0.4626,1771.2457],[36.977,-0.4592,1759.1985],[36.9725,-0.4379,1770.2236],[36.9816,-0.4414,1748.6451],[36.985,-0.4379,1749.6196],[36.9885,-0.4431,1733.4016],[36.9883,-0.4355,1733.636],[36.9898,-0.4316,1673.751],[36.9876,-0.429,1699.9711],[36.9895,-0.4241,1743.1713],[36.9912,-0.4247,1733.4199],[36.9921,-0.4233,1752.3362],[36.9891,-0.4226,1749.639],[36.9869,-0.4189,1754.473],[36.9813,-0.4196,1728.5676]]]]}}