{"type":"Feature","properties":{"GID_3":"KEN.46.1.4_1","GID_0":"KEN","country":"Kenya","GID_1":"KEN.46_1","province":"Wajir","NL_NAME_1":"NA","GID_2":"KEN.46.1_1","county":"Eldas","NL_NAME_2":"NA","city":"LakoleySouth/Basir","VARNAME_3":"NA","NL_NAME_3":"NA","TYPE_3":"Ward","ENGTYPE_3":"Ward","CC_3":"182","HASC_3":"NA","name":"Lakoley_South_Basir.city"},
"geometry":{"type": "MultiPolygon","coordinates": [[[[38.9869,2.0485,341.7097],[39.0545,2.0557,341.2306],[39.1292,2.085,340.6078],[39.1481,2.0907,341.4288],[39.1695,2.0949,340.225],[39.2174,2.1154,345.9453],[39.2575,2.1262,349.1266],[39.289,2.1423,353.881],[39.2942,2.159,356.7189],[39.3489,2.1999,365.2474],[39.4289,2.4442,415.0303],[39.465,2.5496,434.3714],[39.262,2.5424,442.826],[39.2582,2.5485,444.6879],[39.184,2.5987,435.3004],[39.1781,2.5935,432.7561],[39.1653,2.5739,427.9589],[39.1631,2.5531,423.3126],[39.1535,2.5299,418.8787],[39.1532,2.5206,415.9167],[39.1561,2.4987,411.502],[39.1526,2.4712,403.8542],[39.1479,2.4541,401.157],[39.133,2.4319,398.6194],[39.1276,2.4213,397.5781],[39.0967,2.3361,391.8235],[39.0663,2.2953,376.6768],[39.0533,2.2923,376.7841],[39.0307,2.2839,375.9406],[39.0161,2.2855,375.474],[39.0099,2.2905,376.5097],[38.9951,2.3075,381.1418],[38.9831,2.3169,382.7291],[38.9531,2.3339,387.7933],[38.9423,2.3373,388.6888],[38.9313,2.3454,389.9798],[38.9357,2.3147,384.7049],[38.9299,2.2991,380.8773],[38.9257,2.2819,379.9125],[38.9281,2.2747,378.7448],[38.9285,2.2606,376.3842],[38.934,2.2427,372.9927],[38.9376,2.2143,368.4568],[38.936,2.1666,360.0818],[38.937,2.1596,359.2497],[38.9555,2.1057,349.6177],[38.9847,2.0706,344.1497],[38.9841,2.0543,342.6179],[38.9847,2.0507,342.346],[38.9869,2.0485,341.7097]]]]}}