{"type":"Feature","properties":{"GID_3":"KEN.29.5.1_1","GID_0":"KEN","country":"Kenya","GID_1":"KEN.29_1","province":"Murang'a","NL_NAME_1":"NA","GID_2":"KEN.29.5_1","county":"Kiharu","NL_NAME_2":"NA","city":"Gaturi","VARNAME_3":"NA","NL_NAME_3":"NA","TYPE_3":"Ward","ENGTYPE_3":"Ward","CC_3":"527","HASC_3":"NA","name":"Gaturi.city"},
"geometry":{"type": "MultiPolygon","coordinates": [[[[37.1694,-0.6312,1229.9612],[37.1671,-0.6297,1242.5073],[37.1595,-0.6322,1326.1532],[37.1547,-0.6312,1291.301],[37.1529,-0.636,1352.7858],[37.1449,-0.6325,1425.6788],[37.139,-0.6328,1414.4438],[37.1277,-0.6397,1408.3301],[37.1203,-0.6408,1398.4174],[37.1148,-0.6368,1392.6503],[37.1015,-0.6325,1449.6984],[37.1008,-0.6279,1456.8306],[37.1026,-0.6256,1478.3213],[37.0995,-0.622,1475.9404],[37.0961,-0.6223,1467.8435],[37.0951,-0.6202,1459.1964],[37.0878,-0.6179,1471.6222],[37.0855,-0.6191,1507.6464],[37.0826,-0.6146,1523.277],[37.0793,-0.6145,1532.4941],[37.0782,-0.6105,1507.0154],[37.0756,-0.611,1524.1821],[37.0676,-0.6055,1561.7168],[37.0616,-0.6093,1546.6766],[37.06,-0.614,1539.3441],[37.0562,-0.6118,1534.7462],[37.056,-0.6162,1607.6324],[37.0526,-0.6177,1609.1438],[37.0483,-0.618,1589.3455],[37.0406,-0.6126,1626.3049],[37.0368,-0.6141,1579.704],[37.0345,-0.6201,1634.3527],[37.0258,-0.6198,1647.9768],[37.0169,-0.6153,1718.9417],[37.0137,-0.6178,1693.4597],[37.0145,-0.6239,1591.1677],[37.0165,-0.625,1610.2432],[37.0173,-0.6342,1529.1893],[37.0255,-0.6365,1641.0031],[37.0275,-0.6408,1556.0223],[37.0309,-0.6417,1599.5015],[37.0389,-0.6382,1592.1157],[37.0414,-0.6403,1557.4109],[37.0445,-0.6397,1614.8473],[37.0518,-0.6424,1564.2944],[37.054,-0.6446,1535.1321],[37.0541,-0.6484,1451.8724],[37.0602,-0.648,1557.5465],[37.0615,-0.651,1531.5342],[37.0709,-0.658,1499.0712],[37.0687,-0.6596,1413.9658],[37.0709,-0.6614,1412.8427],[37.0765,-0.6608,1505.6433],[37.0766,-0.6632,1432.8455],[37.0845,-0.6618,1471.6443],[37.0864,-0.6659,1475.3217],[37.0918,-0.6626,1479.8066],[37.0927,-0.6668,1362.7943],[37.0956,-0.6671,1444.522],[37.0974,-0.6695,1426.7311],[37.0962,-0.6725,1369.4149],[37.0997,-0.6739,1388.8727],[37.0998,-0.6725,1382.9796],[37.103,-0.6729,1427.2172],[37.1076,-0.6761,1431.9719],[37.1096,-0.6802,1372.4312],[37.1119,-0.6798,1371.7719],[37.113,-0.6823,1382.4747],[37.1144,-0.6822,1382.4747],[37.1143,-0.6869,1295.0023],[37.1165,-0.6869,1315.8445],[37.1227,-0.6949,1360.7574],[37.1225,-0.7015,1286.566],[37.1339,-0.712,1356.1176],[37.1367,-0.7128,1337.3108],[37.1372,-0.707,1365.7145],[37.141,-0.7071,1361.6611],[37.1448,-0.7024,1318.2791],[37.1496,-0.7016,1380.9675],[37.1576,-0.7043,1292.2794],[37.1627,-0.7017,1274.6122],[37.1643,-0.7074,1269.9351],[37.1682,-0.7096,1304.4115],[37.1815,-0.707,1202.0125],[37.1804,-0.704,1220.0035],[37.1899,-0.6805,1236.3944],[37.1898,-0.6714,1204.8912],[37.1929,-0.6647,1206.3215],[37.1951,-0.6628,1205.9244],[37.2011,-0.6675,1198.8827],[37.2027,-0.6664,1198.8827],[37.2022,-0.66,1202.9573],[37.1988,-0.6581,1210.3969],[37.1901,-0.6616,1205.734],[37.1884,-0.6597,1205.8551],[37.1849,-0.6621,1205.78],[37.1833,-0.6592,1206.1627],[37.1827,-0.6616,1205.6754],[37.1786,-0.6619,1205.7517],[37.1808,-0.6603,1206.4144],[37.1793,-0.6535,1214.6934],[37.1768,-0.6522,1220.3851],[37.1772,-0.6498,1230.0911],[37.175,-0.6455,1239.9177],[37.169,-0.6437,1213.8981],[37.172,-0.6391,1209.9126],[37.1703,-0.6379,1209.6478],[37.1724,-0.6364,1240.3064],[37.1687,-0.6339,1241.3184],[37.1694,-0.6312,1229.9612]]]]}}