{"type":"Feature","properties":{"GID_3":"KEN.13.12.4_1","GID_0":"KEN","country":"Kenya","GID_1":"KEN.13_1","province":"Kiambu","NL_NAME_1":"NA","GID_2":"KEN.13.12_1","county":"ThikaTown","NL_NAME_2":"NA","city":"Ngoliba","VARNAME_3":"NA","NL_NAME_3":"NA","TYPE_3":"Ward","ENGTYPE_3":"Ward","CC_3":"568","HASC_3":"NA","name":"Ngoliba.city"},
"geometry":{"type": "MultiPolygon","coordinates": [[[[37.1754,-1.1134,1420.2253],[37.1809,-1.1071,1425.7119],[37.1879,-1.104,1419.0044],[37.1901,-1.0958,1452.063],[37.1927,-1.0922,1435.7031],[37.2013,-1.0883,1409.157],[37.2113,-1.078,1426.5652],[37.2239,-1.0765,1406.5007],[37.2281,-1.0739,1408.8237],[37.2323,-1.0734,1407.8984],[37.2435,-1.0782,1406.528],[37.2462,-1.0762,1412.3324],[37.2496,-1.0777,1409.395],[37.2625,-1.0676,1368.7133],[37.2814,-1.0651,1381.0131],[37.2878,-1.0695,1364.9189],[37.2954,-1.0704,1347.3633],[37.3018,-1.0745,1359.926],[37.3036,-1.0779,1339.5068],[37.3109,-1.0826,1357.876],[37.3187,-1.0932,1316.2682],[37.326,-1.0968,1327.4536],[37.3267,-1.0995,1319.1029],[37.3386,-1.1107,1302.135],[37.3425,-1.1168,1291.09],[37.3626,-1.0935,1286.3518],[37.3877,-1.0573,1282.2371],[37.4211,-1.0339,1267.6896],[37.4192,-1.0312,1197.2001],[37.3877,-1.0533,1266.1191],[37.3626,-1.0894,1323.1786],[37.3581,-1.0857,1336.9224],[37.3522,-1.0872,1316.6165],[37.3478,-1.0862,1316.0183],[37.3389,-1.0738,1316.658],[37.3343,-1.0767,1325.312],[37.3294,-1.0715,1335.0118],[37.3254,-1.0726,1326.6012],[37.3149,-1.0585,1364.4382],[37.3108,-1.0615,1344.6066],[37.2954,-1.0444,1402.5372],[37.2935,-1.0445,1384.1746],[37.2886,-1.0384,1413.1115],[37.2852,-1.0372,1385.9149],[37.2838,-1.033,1403.4233],[37.2797,-1.0308,1351.3042],[37.2788,-1.0274,1361.3425],[37.2732,-1.021,1407.5068],[37.2687,-1.0189,1357.9114],[37.2647,-1.0118,1429.7458],[37.2559,-1.0133,1435.7776],[37.2545,-1.0149,1437.0371],[37.2528,-1.0139,1434.2383],[37.2456,-1.019,1430.5814],[37.2469,-1.0294,1420.6118],[37.2448,-1.0424,1446.8069],[37.2385,-1.0544,1463.1023],[37.2367,-1.0544,1454.8254],[37.2402,-1.0639,1421.4871],[37.2439,-1.0649,1391.4163],[37.2469,-1.0678,1388.2469],[37.2454,-1.0726,1420.6079],[37.2435,-1.0742,1411.3571],[37.2323,-1.0694,1423.0317],[37.2281,-1.0699,1411.1637],[37.2239,-1.0725,1412.1943],[37.2113,-1.074,1459.1405],[37.2013,-1.0843,1445.6055],[37.1919,-1.089,1468.2788],[37.1885,-1.0991,1440.3846],[37.1795,-1.1043,1472.4359],[37.1755,-1.1091,1466.9275],[37.1754,-1.1134,1420.2253]]]]}}