{"type":"Feature","properties":{"GID_3":"KEN.44.6.2_1","GID_0":"KEN","country":"Kenya","GID_1":"KEN.44_1","province":"UasinGishu","NL_NAME_1":"NA","GID_2":"KEN.44.6_1","county":"Turbo","NL_NAME_2":"NA","city":"Kamagut","VARNAME_3":"NA","NL_NAME_3":"NA","TYPE_3":"Ward","ENGTYPE_3":"Ward","CC_3":"710","HASC_3":"NA","name":"Kamagut.city"},
"geometry":{"type": "MultiPolygon","coordinates": [[[[35.115,0.6466,1865.8694],[35.115,0.6397,1831.5056],[35.1169,0.638,1837.2545],[35.1185,0.6396,1843.75],[35.1202,0.6381,1848.5074],[35.1377,0.6047,1952.0334],[35.1175,0.596,1937.4634],[35.1135,0.5849,1950.0212],[35.0848,0.577,1848.8647],[35.0856,0.5747,1864.924],[35.0874,0.5761,1861.7189],[35.0935,0.5727,1876.2649],[35.096,0.5665,1854.6423],[35.1046,0.5616,1884.3174],[35.1093,0.5541,1870.8159],[35.1221,0.5496,1892.8402],[35.1264,0.5504,1904.2725],[35.1296,0.5473,1869.0967],[35.1332,0.5478,1873.7969],[35.1359,0.5436,1876.5667],[35.1414,0.5411,1888.6671],[35.1449,0.5438,1937.1653],[35.1484,0.5429,1885.1313],[35.149,0.5442,1887.4775],[35.1501,0.5426,1887.5015],[35.1567,0.5436,1939.2109],[35.162,0.547,1946.7944],[35.1638,0.5509,1922.2913],[35.1667,0.5517,1938.157],[35.1691,0.5493,1909.2825],[35.1744,0.5516,1946.2847],[35.1762,0.5528,1955.3387],[35.1776,0.5576,1973.4229],[35.1822,0.5589,1973.5665],[35.1853,0.5629,1961.2544],[35.1862,0.5611,1959.8895],[35.1891,0.5617,1964.3087],[35.1899,0.5654,1966.2458],[35.1929,0.5642,1975.8998],[35.1968,0.5684,1980.3032],[35.2058,0.5696,1977.7144],[35.2089,0.566,1964.3618],[35.2118,0.5654,1967.2578],[35.2159,0.5829,1996.7542],[35.2222,0.5856,1997.5161],[35.2158,0.5905,2008.0481],[35.2002,0.6106,2002.0544],[35.1956,0.6132,2003.6356],[35.1952,0.6178,1986.5908],[35.1778,0.6326,1971.7068],[35.1669,0.647,1957.1956],[35.1675,0.6531,1951.147],[35.1624,0.6701,1897.6926],[35.1623,0.6753,1933.4456],[35.1592,0.6746,1939.6798],[35.1546,0.6693,1937.3496],[35.155,0.6668,1930.7006],[35.1535,0.6655,1930.7006],[35.1465,0.6643,1919.667],[35.1414,0.6661,1931.7144],[35.1341,0.6603,1907.6718],[35.125,0.6594,1916.1802],[35.1195,0.654,1908.0259],[35.1174,0.6542,1903.6425],[35.1167,0.6469,1844.3059],[35.115,0.6466,1865.8694]]]]}}