{"type":"Feature","properties":{"GID_2":"KEN.31.9_1","GID_0":"KEN","country":"Kenya","GID_1":"KEN.31_1","province":"Nakuru","NL_NAME_1":"NA","county":"Njoro","VARNAME_2":"NA","NL_NAME_2":"NA","TYPE_2":"Constituency","ENGTYPE_2":"Constituency","CC_2":"167","HASC_2":"NA","name":"Njoro.county"},
"geometry":{"type": "MultiPolygon","coordinates": [[[[36.0772,-0.4866,1850.603],[36.0627,-0.4009,1864.7141],[36.0669,-0.4007,1812.4272],[36.0661,-0.3941,1772.9021],[36.0581,-0.3992,1879.0811],[36.0421,-0.3728,1911.4148],[36.0002,-0.3493,2037.4795],[35.9971,-0.3447,2060.1409],[35.9999,-0.3417,2039.2561],[35.9937,-0.336,2071.5889],[35.991,-0.339,2067.8931],[35.9772,-0.3333,2101.8215],[35.9745,-0.3307,2105.7139],[35.9626,-0.3336,2138.4011],[35.9533,-0.3304,2157.4583],[35.9537,-0.3204,2152.3679],[35.9502,-0.3135,2150.5574],[35.942,-0.3096,2148.0376],[35.8979,-0.2781,2124.1033],[35.8958,-0.2827,2134.676],[35.892,-0.2797,2126.2627],[35.8822,-0.2778,2110.3523],[35.8776,-0.2731,2100.2981],[35.8698,-0.2748,2097.1052],[35.8679,-0.2813,2122.717],[35.8684,-0.288,2151.1755],[35.8665,-0.2907,2172.8008],[35.8699,-0.2981,2183.8088],[35.868899999999996,-0.3124,2258.76],[35.8697,-0.3134,2252.6926],[35.8712,-0.3098,2226.8813],[35.8814,-0.3108,2228.6931],[35.8845,-0.3128,2236.7681],[35.8864,-0.3121,2236.0522],[35.8867,-0.3166,2250.405],[35.8825,-0.3303,2310.9976],[35.8781,-0.3369,2342.8311],[35.8763,-0.3481,2384.9719],[35.873,-0.3542,2416.1921],[35.8669,-0.3583,2457.5586],[35.8588,-0.3563,2512.5891],[35.8558,-0.3629,2535.8486],[35.8523,-0.3645,2581.5847],[35.8732,-0.3721,2475.667],[35.8637,-0.387,2569.501],[35.8556,-0.3935,2665.1772],[35.8563,-0.396,2695.7583],[35.8456,-0.4197,2806.4602],[35.8358,-0.4293,2840.8069],[35.8351,-0.4356,2913.8096],[35.8424,-0.4413,2927.8525],[35.8381,-0.4495,2978.5891],[35.8367,-0.4613,2971.2285],[35.8391,-0.4675,2972.8406],[35.8321,-0.4885,2942.5576],[35.8543,-0.4983,2968.5457],[35.8531,-0.5003,2956.4106],[35.8902,-0.5195,3028.6067],[35.9045,-0.5399,2956.2627],[35.9122,-0.5431,2831.0107],[35.933,-0.5445,2827.8296],[35.9359,-0.5503,2833.1423],[35.9447,-0.5487,2761.2754],[35.947,-0.5507,2789.3955],[35.9475,-0.5586,2722.3228],[35.9518,-0.5624,2785.9243],[35.9826,-0.6248,2845.6113],[35.9508,-0.6598,2780.9368],[35.9161,-0.6295,2857.625],[35.8762,-0.6317,2789.7239],[35.8783,-0.6444,2760.0327],[35.8931,-0.6432,2751.1453],[35.9301,-0.6893,2737.1128],[35.9313,-0.6943,2714.7102],[35.9303,-0.6992,2736.1753],[35.9458,-0.7074,2720.6006],[36.0117,-0.6571,2912.3594],[36.0281,-0.6728,2904.0527],[36.0554,-0.6548,2891.4839],[36.0974,-0.6333,2375.2058],[36.0631,-0.5845,2377.8352],[36.0543,-0.5554,2357.8926],[36.0742,-0.5498,2041.3965],[36.0668,-0.5267,2007.8699],[36.0723,-0.524,1960.6952],[36.0733,-0.5217,1946.9856],[36.0795,-0.5199,1900.9795],[36.0761,-0.505,1887.071],[36.077,-0.4924,1851.6417],[36.074,-0.4867,1862.7858],[36.0772,-0.4866,1850.603]]]]}}