{"type": "Feature","bbox": [36.84,-1.3707,36.9134,-1.3041],"geometry": {"type": "MultiPolygon","coordinates": [[[[36.9065,-1.361,1636.2999],[36.9075,-1.3601,1635.3135],[36.8814,-1.3338,1638.3834],[36.8993,-1.3214,1631.1013],[36.8887,-1.3041,1624.0151],[36.8723,-1.3112,1626.6686],[36.8679,-1.3098,1625.5961],[36.863,-1.3118,1630.6625],[36.8614,-1.3143,1626.4236],[36.8521,-1.3138,1635.3882],[36.8473,-1.3169,1640.2391],[36.84,-1.3185,1651.5917],[36.8822,-1.3473,1637.3113],[36.8924,-1.3586,1636.7662],[36.8949,-1.3565,1637.002],[36.9076,-1.3705,1633.3274],[36.9134,-1.3707,1630.4226],[36.9056,-1.3618,1635.9758],[36.9065,-1.361,1636.2999]]]]}
,"properties": {"GID_2": "KEN.30.6_1","GID_0": "KEN","country": "Kenya","GID_1": "KEN.30_1","province": "Nairobi","NL_NAME_1": "NA","county": "EmbakasiSouth","VARNAME_2": "NA","NL_NAME_2": "NA","TYPE_2": "Constituency","ENGTYPE_2": "Constituency","CC_2": "282","HASC_2": "NA","name": "Embakasi_South.county","area_km2": 17.88985,"hist_schema_id": "Elevation0-9000","hist_area_km2": {"1600": 0.08479,"1625": 11.19176,"1650": 6.6133}}}