{"type":"Feature","properties":{"GID_3":"KEN.12.2.2_1","GID_0":"KEN","country":"Kenya","GID_1":"KEN.12_1","province":"Kericho","NL_NAME_1":"NA","GID_2":"KEN.12.2_1","county":"Belgut","NL_NAME_2":"NA","city":"Cheptororiet/Seretut","VARNAME_3":"NA","NL_NAME_3":"NA","TYPE_3":"Ward","ENGTYPE_3":"Ward","CC_3":"959","HASC_3":"NA","name":"Cheptororiet_Seretut.city"},
"geometry":{"type": "MultiPolygon","coordinates": [[[[35.227,-0.4,1945.5338],[35.2265,-0.3969,1943.1414],[35.2211,-0.3893,1862.8354],[35.2204,-0.3844,1896.8215],[35.2104,-0.3864,1905.5181],[35.2038,-0.3802,1867.5627],[35.2006,-0.372,1880.7938],[35.1935,-0.3741,1880.5822],[35.1878,-0.3824,1889.6616],[35.1879,-0.3881,1839.9518],[35.1806,-0.3871,1842.491],[35.1756,-0.3906,1807.4756],[35.1755,-0.3963,1774.1321],[35.1678,-0.4072,1811.9384],[35.1648,-0.4189,1745.6067],[35.1648,-0.4219,1737.5333],[35.1705,-0.4267,1739.0736],[35.188,-0.4318,1842.3513],[35.1889,-0.4334,1837.4524],[35.1826,-0.4426,1810.9304],[35.1758,-0.443,1793.5731],[35.1643,-0.4507,1749.0459],[35.1656,-0.4549,1703.9961],[35.1682,-0.4554,1702.563],[35.1703,-0.4528,1731.1121],[35.173,-0.4568,1748.7848],[35.1755,-0.4575,1766.2834],[35.1769,-0.4553,1779.0306],[35.1768,-0.4578,1779.7157],[35.1786,-0.4584,1758.865],[35.1789,-0.4566,1778.6086],[35.183,-0.4554,1757.26],[35.1971,-0.4555,1827.8881],[35.2025,-0.451,1860.6849],[35.2068,-0.445,1884.7902],[35.2064,-0.4418,1867.3419],[35.2106,-0.4335,1889.9648],[35.2154,-0.4292,1900.6962],[35.218,-0.424,1902.6394],[35.227,-0.4,1945.5338]]]]}}