{"type":"Feature","properties":{"GID_3":"KEN.22.1.4_1","GID_0":"KEN","country":"Kenya","GID_1":"KEN.22_1","province":"Machakos","NL_NAME_1":"NA","GID_2":"KEN.22.1_1","county":"Kangundo","NL_NAME_2":"NA","city":"KangundoWest","VARNAME_3":"NA","NL_NAME_3":"NA","TYPE_3":"Ward","ENGTYPE_3":"Ward","CC_3":"384","HASC_3":"NA","name":"Kangundo_West.city"},
"geometry":{"type": "MultiPolygon","coordinates": [[[[37.3165,-1.3067,1529.989],[37.3079,-1.3055,1506.275],[37.3034,-1.3064,1499.9989],[37.2956,-1.3112,1495.6083],[37.286,-1.3253,1482.8914],[37.2793,-1.3252,1462.9143],[37.2727,-1.3304,1447.015],[37.2769,-1.3295,1446.214],[37.2794,-1.3319,1447.7206],[37.28,-1.3356,1435.4768],[37.2831,-1.3371,1437.1995],[37.2833,-1.34,1429.8068],[37.2917,-1.3423,1455.134],[37.2963,-1.3533,1405.5459],[37.3013,-1.3567,1399.5968],[37.3007,-1.3592,1406.0225],[37.3034,-1.3578,1402.0312],[37.3055,-1.3605,1404.686],[37.3038,-1.363,1390.246],[37.3067,-1.3649,1397.5272],[37.3086,-1.3636,1423.9371],[37.3077,-1.3678,1390.9265],[37.3088,-1.3694,1385.5664],[37.311,-1.369,1402.4523],[37.3102,-1.3707,1388.0088],[37.3161,-1.376,1394.5896],[37.3162,-1.3772,1401.7096],[37.3138,-1.3776,1401.0721],[37.3158,-1.3796,1376.0818],[37.3194,-1.3792,1390.0544],[37.3183,-1.382,1372.2908],[37.3209,-1.3839,1400.8373],[37.3194,-1.3861,1406.3577],[37.3219,-1.3878,1377.7687],[37.3222,-1.3857,1382.2609],[37.3241,-1.3847,1395.1406],[37.3324,-1.3917,1361.4999],[37.3346,-1.3963,1362.9757],[37.333,-1.403,1349.964],[37.3351,-1.4032,1353.674],[37.3362,-1.4065,1351.0872],[37.34,-1.4075,1372.4829],[37.3398,-1.4108,1344.8268],[37.3431,-1.4089,1379.6941],[37.3409,-1.4138,1344.8062],[37.3448,-1.4217,1342.4653],[37.3477,-1.4241,1346.6841],[37.3548,-1.4255,1340.1956],[37.3573,-1.4284,1336.1323],[37.3575,-1.4243,1366.8958],[37.3603,-1.4211,1410.5404],[37.3609,-1.4143,1435.65],[37.3651,-1.414,1500.0789],[37.3651,-1.4096,1514.4224],[37.3714,-1.4102,1412.954],[37.3754,-1.4076,1370.5869],[37.3725,-1.4058,1372.0178],[37.3731,-1.4024,1355.5643],[37.3703,-1.3992,1369.5718],[37.3658,-1.3981,1366.7988],[37.3626,-1.3942,1396.4246],[37.3589,-1.3931,1378.5803],[37.3576,-1.3859,1390.0471],[37.3523,-1.3771,1428.5084],[37.3532,-1.3689,1487.6824],[37.3505,-1.3638,1511.7671],[37.3443,-1.3638,1524.9851],[37.3456,-1.3552,1561.4497],[37.3405,-1.3429,1573.375],[37.3348,-1.3471,1521.2601],[37.323,-1.3441,1502.7939],[37.3288,-1.3369,1534.6735],[37.3246,-1.332,1533.6241],[37.3236,-1.3266,1528.2239],[37.3176,-1.3224,1519.0668],[37.3207,-1.3183,1537.9299],[37.3177,-1.3161,1525.3585],[37.3138,-1.3168,1510.9375],[37.3171,-1.3129,1528.9781],[37.314,-1.309,1520.3446],[37.3165,-1.3067,1529.989]]]]}}