{"type":"Feature","properties":{"GID_3":"KEN.11.7.4_1","GID_0":"KEN","country":"Kenya","GID_1":"KEN.11_1","province":"Kakamega","NL_NAME_1":"NA","GID_2":"KEN.11.7_1","county":"Matungu","NL_NAME_2":"NA","city":"Mayoni","VARNAME_3":"NA","NL_NAME_3":"NA","TYPE_3":"Ward","ENGTYPE_3":"Ward","CC_3":"1030","HASC_3":"NA","name":"Mayoni.city"},
"geometry":{"type": "MultiPolygon","coordinates": [[[[34.4634,0.4369,1312.1802],[34.4601,0.4338,1320.6893],[34.4635,0.4279,1337.96],[34.4612,0.4121,1323.1201],[34.4569,0.4063,1314.7177],[34.455,0.3967,1305.3998],[34.4495,0.3914,1313.7642],[34.4402,0.3875,1290.5845],[34.4317,0.3785,1296.0236],[34.429,0.378,1303.1017],[34.4171,0.3635,1287.4205],[34.4156,0.3582,1280.2526],[34.4195,0.3404,1264.074],[34.4191,0.3365,1261.3463],[34.4367,0.3399,1280.8074],[34.4421,0.3447,1291.7434],[34.4491,0.3459,1284.0693],[34.4697,0.3565,1281.7307],[34.477,0.3549,1281.4222],[34.4803,0.3573,1278.9502],[34.4817,0.3763,1290.6646],[34.4897,0.3741,1280.4517],[34.4919,0.3757,1280.0098],[34.4943,0.3943,1289.4098],[34.4931,0.4095,1301.8615],[34.4841,0.4258,1316.0653],[34.4822,0.4344,1333.5319],[34.483,0.4395,1334.5166],[34.4689,0.4392,1316.5009],[34.4634,0.4369,1312.1802]]]]}}