{"type":"Feature","properties":{"GID_3":"KEN.37.3.1_1","GID_0":"KEN","country":"Kenya","GID_1":"KEN.37_1","province":"Samburu","NL_NAME_1":"NA","GID_2":"KEN.37.3_1","county":"SamburuWest","NL_NAME_2":"NA","city":"Lodokejek","VARNAME_3":"NA","NL_NAME_3":"NA","TYPE_3":"Ward","ENGTYPE_3":"Ward","CC_3":"661","HASC_3":"NA","name":"Lodokejek.city"},
"geometry":{"type": "MultiPolygon","coordinates": [[[[36.9347,0.7579,1214.3335],[36.9312,0.7625,1429.1174],[36.9373,0.7732,1542.9115],[36.9412,0.7669,1486.7153],[36.9478,0.7677,1429.9012],[36.951,0.766,1436.2778],[36.9597,0.7756,1395.0012],[36.9678,0.7741,1458.0942],[36.9711,0.786,1501.6351],[36.9757,0.7953,1522.0288],[36.9791,0.7967,1534.0297],[36.9803,0.8,1536.2024],[36.9798,0.8039,1454.3059],[36.9766,0.8067,1447.7617],[36.9782,0.8224,1399.9125],[36.9868,0.8219,1515.8689],[36.9989,0.8324,1317.6991],[36.9976,0.8572,1285.4442],[37.0004,0.8668,1266.2382],[36.9955,0.8798,1237.3472],[36.9952,0.9003,1207.6364],[36.9902,0.9044,1211.9093],[36.9891,0.9129,1257.8962],[36.9869,0.9155,1243.9825],[36.9805,0.9162,1242.8344],[36.9765,0.919,1253.6257],[36.974,0.9162,1251.4758],[36.9743,0.9126,1260.693],[36.9703,0.9081,1261.7635],[36.952,0.9094,1366.7772],[36.9425,0.9148,1667.4329],[36.928,0.9196,1714.2035],[36.916,0.9331,1906.5044],[36.9112,0.9425,1734.5242],[36.9067,0.9457,1985.542],[36.9007,0.955,2108.6462],[36.8958,0.9573,2005.3495],[36.896,0.9943,2019.0485],[36.8971,0.9969,1881.3379],[36.8898,1.0022,1766.8947],[36.8785,1.0149,2076.8699],[36.8722,1.0153,2177.1755],[36.8691,1.0216,2193.3699],[36.8644,1.0229,2240.2231],[36.862,1.0218,2226.8469],[36.8498,1.01,1948.5753],[36.8491,1.0077,1952.5431],[36.842,1.0043,1862.6521],[36.8137,0.9966,1810.514],[36.8078,0.9793,1796.475],[36.8069,0.9836,1796.6454],[36.8085,0.9872,1794.9742],[36.8068,0.9951,1800.2659],[36.8079,0.9968,1806.9027],[36.8055,1.0023,1809.2378],[36.8054,1.013,1824.2302],[36.8013,1.0191,1842.4976],[36.8019,1.0211,1847.1451],[36.7982,1.0253,1845.7496],[36.7977,1.0313,1878.5173],[36.7897,1.0415,1892.2471],[36.788,1.0498,1950.1692],[36.7779,1.0671,2165.0256],[36.7758,1.079,2096.845],[36.7627,1.1155,2152.2651],[36.7563,1.1243,2075.4033],[36.751,1.1288,2082.9746],[36.7508,1.1334,2097.1409],[36.7436,1.1342,2038.6381],[36.7381,1.1409,2033.8885],[36.7496,1.0469,1975.2971],[36.7257,1.027,1888.2825],[36.7486,0.9922,1842.043],[36.7636,0.9552,1794.7971],[36.7574,0.9318,1785.6049],[36.7426,0.9164,1799.2075],[36.7454,0.8955,1810.2776],[36.7462,0.8665,1785.193],[36.7446,0.861,1791.2915],[36.7335,0.8545,1796.0043],[36.7298,0.8499,1818.5913],[36.709,0.8392,1817.2137],[36.6999,0.8355,1816.1243],[36.6906,0.834,1846.588],[36.6824,0.8249,1832.4794],[36.7019,0.8272,1786.5664],[36.7132,0.8238,1788.1604],[36.7353,0.8333,1762.8223],[36.7381,0.8349,1777.5481],[36.7569,0.8646,1764.084],[36.7811,0.8734,1759.4868],[36.7938,0.8753,1755.6348],[36.8192,0.86,1747.425],[36.8192,0.8467,1785.7927],[36.8331,0.8193,1753.5139],[36.8344,0.8065,1753.7322],[36.8442,0.8003,1740.2264],[36.8413,0.795,1773.184],[36.8481,0.7838,1736.0596],[36.865,0.7428,1744.7582],[36.8761,0.7412,1723.3459],[36.8765,0.7428,1724.6879],[36.8866,0.7399,1701.1393],[36.8895,0.743,1654.5471],[36.9026,0.7454,1572.4729],[36.9048,0.7421,1557.854],[36.9083,0.7411,1542.8997],[36.9078,0.7357,1529.6974],[36.9111,0.7326,1553.7158],[36.9119,0.7342,1560.6794],[36.9148,0.7328,1520.749],[36.9176,0.7337,1393.6157],[36.9166,0.7357,1496.9172],[36.9197,0.7404,1418.9636],[36.9187,0.7421,1500.8556],[36.9248,0.7456,1463.2032],[36.9284,0.745,1391.194],[36.9287,0.7467,1400.439],[36.9312,0.7475,1288.0436],[36.9314,0.7528,1191.1584],[36.9347,0.7579,1214.3335]]]]}}