{"type": "Feature","bbox": [37.857,-2.7874,38.159,-2.5579],"geometry": {"type": "MultiPolygon","coordinates": [[[[37.9375,-2.7708,1496.3254],[37.9744,-2.7874,1692.6051],[38.1001,-2.7207,835.3469],[38.1013,-2.7183,833.2986],[38.1153,-2.7126,808.6906],[38.1183,-2.7047,801.611],[38.1224,-2.7045,793.6829],[38.1287,-2.6981,785.5686],[38.1507,-2.699,762.7106],[38.1576,-2.6938,749.2619],[38.1573,-2.6881,747.7833],[38.159,-2.6851,741.0565],[38.1438,-2.6705,790.3053],[38.1356,-2.6574,812.5369],[38.1231,-2.6434,814.2669],[38.1185,-2.6341,813.105],[38.1097,-2.6281,840.6794],[38.1055,-2.6159,812.9733],[38.0949,-2.6112,824.2695],[38.0824,-2.603,849.5038],[38.0784,-2.5985,854.3783],[38.073,-2.5883,847.202],[38.0706,-2.578,832.2745],[38.0705,-2.5695,819.2567],[38.0649,-2.5655,816.8357],[38.0648,-2.5634,822.1537],[38.0543,-2.5639,834.272],[38.0438,-2.5605,868.09],[38.0375,-2.5642,881.4963],[38.0253,-2.559,901.4833],[38.0221,-2.5627,897.0095],[38.0202,-2.5629,909.5858],[38.0156,-2.5589,917.0074],[38.0107,-2.5579,918.2597],[38.0091,-2.5624,913.6603],[38.0017,-2.566,933.8651],[37.9966,-2.5669,944.3881],[37.9864,-2.5657,955.7034],[37.9831,-2.5698,958.6312],[37.9668,-2.5736,983.4877],[37.9515,-2.5971,1039.6415],[37.857,-2.6165,1814.0862],[37.8789,-2.6609,2068.3162],[37.8926,-2.6747,2071.5525],[37.9011,-2.7015,2026.1724],[37.9072,-2.7037,1954.8033],[37.9208,-2.7042,1930.0907],[37.9244,-2.7087,2029.095],[37.9301,-2.7218,1888.0023],[37.9291,-2.738,1817.2739],[37.9261,-2.7407,1836.5635],[37.9263,-2.7496,1846.6117],[37.9298,-2.7629,1588.869],[37.9375,-2.7708,1496.3254]]]]}
,"properties": {"GID_3": "KEN.23.2.1_1","GID_0": "KEN","country": "Kenya","GID_1": "KEN.23_1","province": "Makueni","NL_NAME_1": "NA","GID_2": "KEN.23.2_1","county": "KibweziEast","NL_NAME_2": "NA","city": "Ivingoni/Nzambani","VARNAME_3": "NA","NL_NAME_3": "NA","TYPE_3": "Ward","ENGTYPE_3": "Ward","CC_3": "440","HASC_3": "NA","name": "Ivingoni_Nzambani.city","area_km2": 484.7079,"hist_schema_id": "Elevation0-9000","hist_area_km2": {"750": 1.3343,"775": 4.2993,"800": 9.7636,"825": 27.1731,"850": 39.055,"875": 43.1639,"900": 40.2835,"925": 37.6149,"950": 33.4213,"975": 23.8481,"1000": 19.6756,"1025": 13.6182,"1050": 12.9828,"1075": 12.538,"1100": 11.5426,"1125": 11.6273,"1150": 9.5729,"1175": 8.8105,"1200": 7.688,"1225": 7.3067,"1250": 7.1797,"1275": 7.222,"1300": 6.6501,"1325": 5.3794,"1350": 4.5746,"1375": 4.4475,"1400": 4.6381,"1425": 4.2781,"1450": 6.4171,"1475": 8.5559,"1500": 4.6381,"1525": 3.198,"1550": 2.3932,"1575": 2.6262,"1600": 2.5838,"1625": 1.7367,"1650": 1.7578,"1675": 1.6943,"1700": 1.5461,"1725": 2.0967,"1750": 1.7579,"1775": 1.6732,"1800": 2.4991,"1825": 3.0922,"1850": 2.2238,"1875": 2.012,"1900": 4.2146,"1925": 2.4144,"1950": 1.8849,"1975": 1.419,"2000": 0.9954,"2025": 0.593,"2050": 0.5295,"2075": 0.1906,"2100": 0.1906,"2125": 0.0424,"2150": 0.0424}}}