{"type":"Feature","properties":{"GID_3":"KEN.11.8.1_1","GID_0":"KEN","country":"Kenya","GID_1":"KEN.11_1","province":"Kakamega","NL_NAME_1":"NA","GID_2":"KEN.11.8_1","county":"MumiasEast","NL_NAME_2":"NA","city":"EastWanga","VARNAME_3":"NA","NL_NAME_3":"NA","TYPE_3":"Ward","ENGTYPE_3":"Ward","CC_3":"1026","HASC_3":"NA","name":"East_Wanga.city"},
"geometry":{"type": "MultiPolygon","coordinates": [[[[34.5172,0.3814,1284.7626],[34.515,0.3744,1291.5554],[34.5078,0.3753,1290.2476],[34.5058,0.374,1286.7936],[34.5014,0.3813,1314.1334],[34.5013,0.3577,1304.8083],[34.498,0.353,1298.4779],[34.5016,0.3478,1297.1602],[34.5107,0.3447,1320.3488],[34.5155,0.3396,1321.9329],[34.5168,0.3358,1331.2024],[34.5214,0.3331,1343.5062],[34.5219,0.3306,1351.8264],[34.5335,0.3337,1345.1305],[34.5471,0.3325,1337.3573],[34.5733,0.3258,1362.4102],[34.5752,0.3234,1374.088],[34.5748,0.3145,1372.1388],[34.5789,0.3119,1370.8055],[34.5861,0.3031,1334.2379],[34.5906,0.2999,1324.2013],[34.5924,0.3007,1329.7642],[34.5922,0.3043,1339.4442],[34.5871,0.3129,1350.3734],[34.5898,0.3229,1370.1812],[34.5961,0.3263,1345.8958],[34.5962,0.3335,1374.8042],[34.603,0.342,1379.5469],[34.6043,0.3414,1370.8284],[34.6074,0.3491,1391.2319],[34.5999,0.3543,1353.2808],[34.5968,0.3612,1349.8151],[34.5824,0.3657,1315.3151],[34.5784,0.3694,1326.5793],[34.5763,0.3748,1330.4961],[34.5824,0.3727,1344.9778],[34.5904,0.3737,1347.7318],[34.5965,0.3724,1362.1597],[34.6003,0.3686,1356.7046],[34.6041,0.3716,1367.7849],[34.6089,0.372,1374.1816],[34.6166,0.3691,1362.1469],[34.613,0.3774,1333.6067],[34.6097,0.3791,1336.4215],[34.6057,0.3855,1334.9982],[34.6035,0.3873,1329.0748],[34.6009,0.3861,1335.0952],[34.5906,0.3865,1331.8889],[34.582,0.3887,1324.5801],[34.5794,0.3933,1301.4938],[34.5799,0.4004,1292.3083],[34.5776,0.4059,1300.1051],[34.575,0.4075,1303.3419],[34.5662,0.3996,1286.8892],[34.5646,0.4007,1287.5996],[34.5644,0.4058,1304.9973],[34.5627,0.4055,1305.8004],[34.558,0.3986,1297.7911],[34.5546,0.3975,1297.1255],[34.5505,0.3929,1291.6519],[34.5507,0.3886,1286.3199],[34.5368,0.3881,1290.5286],[34.5337,0.3946,1304.2695],[34.5282,0.3929,1303.3496],[34.5199,0.3818,1288.238],[34.5172,0.3814,1284.7626]]]]}}