{"type":"Feature","properties":{"GID_3":"KEN.32.4.3_1","GID_0":"KEN","country":"Kenya","GID_1":"KEN.32_1","province":"Nandi","NL_NAME_1":"NA","GID_2":"KEN.32.4_1","county":"Mosop","NL_NAME_2":"NA","city":"Kabiyet","VARNAME_3":"NA","NL_NAME_3":"NA","TYPE_3":"Ward","ENGTYPE_3":"Ward","CC_3":"777","HASC_3":"NA","name":"Kabiyet.city"},
"geometry":{"type": "MultiPolygon","coordinates": [[[[35.0949,0.3959,2017.7224],[35.1006,0.4176,2037.0764],[35.1059,0.421,1993.1711],[35.1098,0.4268,2022.0535],[35.1106,0.4315,2005.0625],[35.1075,0.4457,1961.8665],[35.1012,0.4545,1929.031],[35.1053,0.4609,1934.0637],[35.1023,0.4802,1884.2423],[35.0971,0.4773,1874.6732],[35.089,0.4835,1876.0745],[35.084,0.4824,1878.0403],[35.079,0.4856,1866.6328],[35.0755,0.4859,1854.6857],[35.0702,0.493,1875.6051],[35.0682,0.4901,1849.1387],[35.0682,0.4857,1847.3485],[35.0647,0.4763,1916.4362],[35.06,0.473,1906.4867],[35.0628,0.4666,1875.3063],[35.0566,0.4669,1875.3271],[35.0551,0.4625,1890.7188],[35.0537,0.4654,1876.0876],[35.051,0.4654,1864.8219],[35.0515,0.4732,1876.1553],[35.0485,0.4787,1856.6604],[35.0442,0.4652,1896.8792],[35.0385,0.4705,1888.939],[35.0316,0.4608,1981.7633],[35.0336,0.4568,1936.8555],[35.0366,0.4548,1938.3428],[35.0349,0.4484,1912.1908],[35.0278,0.4433,1956.2322],[35.0192,0.4431,1980.8346],[35.0156,0.4402,1996.2714],[35.0138,0.4277,2043.7249],[35.0186,0.4215,2040.6157],[35.0181,0.413,2065.2502],[35.0233,0.4073,2031.7821],[35.023,0.405,2010.2627],[35.0253,0.4061,2036.7271],[35.0427,0.402,1994.459],[35.0467,0.4054,1992.9023],[35.0547,0.4034,1992.1208],[35.0582,0.4019,1979.4617],[35.0628,0.3956,1977.585],[35.0731,0.3882,1978.9438],[35.0799,0.3962,2000.1345],[35.0914,0.3946,1981.3839],[35.0949,0.3959,2017.7224]]]]}}