{"type":"Feature","properties":{"GID_3":"KEN.26.4.2_1","GID_0":"KEN","country":"Kenya","GID_1":"KEN.26_1","province":"Meru","NL_NAME_1":"NA","GID_2":"KEN.26.4_1","county":"IgembeNorth","NL_NAME_2":"NA","city":"Antuambui","VARNAME_3":"NA","NL_NAME_3":"NA","TYPE_3":"Ward","ENGTYPE_3":"Ward","CC_3":"261","HASC_3":"NA","name":"Antuambui.city"},
"geometry":{"type": "MultiPolygon","coordinates": [[[[37.8203,0.5611,1475.16],[37.8379,0.4711,1065.7413],[37.8385,0.4621,1162.802],[37.8551,0.4375,1121.3186],[37.8869,0.3837,1379.2319],[37.8907,0.3763,1463.4651],[37.8899,0.3723,1478.9786],[37.9227,0.3543,1657.3701],[37.9273,0.3483,1691.3711],[37.9419,0.3359,1750.384],[37.9423,0.3339,1757.125],[37.9555,0.3263,1707.8683],[37.9551,0.3227,1701.1782],[37.9663,0.3145,1576.9985],[37.9685,0.3235,1589.1873],[37.9771,0.3329,1573.2798],[37.9773,0.3373,1573.1821],[37.9639,0.3389,1692.7728],[37.9617,0.3379,1690.4728],[37.9611,0.3473,1751.7107],[37.9631,0.3527,1765.9073],[37.9505,0.3607,1848.8982],[37.9479,0.3575,1780.1289],[37.9415,0.3679,1784.6799],[37.9443,0.3745,1833.676],[37.9255,0.3995,1463.2949],[37.9443,0.4127,1515.1737],[37.9298,0.4248,1325.5427],[37.9265,0.4301,1291.485],[37.9261,0.4357,1252.1552],[37.9201,0.4465,1191.1464],[37.9197,0.4569,1150.3484],[37.9123,0.4717,1107.02],[37.9125,0.4803,1083.0316],[37.9069,0.4885,1058.9833],[37.9093,0.5003,1030.9043],[37.8995,0.5161,981.3781],[37.8991,0.5245,963.7748],[37.8969,0.5307,957.6692],[37.8983,0.5339,954.0695],[37.8972,0.5452,934.4575],[37.8941,0.5481,927.6735],[37.8941,0.5499,926.3051],[37.8953,0.5629,911.7426],[37.9011,0.5721,891.272],[37.8999,0.5799,889.4356],[37.9019,0.5859,876.6467],[37.9017,0.5965,870.434],[37.8203,0.5611,1475.16]]]]}}