{"type": "Feature","bbox": [36.0672,-0.3132,36.0836,-0.2984],"geometry": {"type": "MultiPolygon","coordinates": [[[[36.0672,-0.3042,1806.3246],[36.0712,-0.3132,1793.5038],[36.0836,-0.3073,1807.335],[36.0802,-0.2984,1801.9185],[36.0672,-0.3042,1806.3246]]]]}
,"properties": {"GID_3": "KEN.31.7.2_1","GID_0": "KEN","country": "Kenya","GID_1": "KEN.31_1","province": "Nakuru","NL_NAME_1": "NA","GID_2": "KEN.31.7_1","county": "NakuruTownEast","NL_NAME_2": "NA","city": "Flamingo","VARNAME_3": "NA","NL_NAME_3": "NA","TYPE_3": "Ward","ENGTYPE_3": "Ward","CC_3": "878","HASC_3": "NA","name": "Flamingo.city","area_km2": 1.67495,"hist_schema_id": "Elevation0-9000","hist_area_km2": {"1800": 1.611345,"1825": 0.063606}}}