{"type":"Feature","properties":{"GID_3":"KEN.39.1.5_1","GID_0":"KEN","country":"Kenya","GID_1":"KEN.39_1","province":"TaitaTaveta","NL_NAME_1":"NA","GID_2":"KEN.39.1_1","county":"Mwatate","NL_NAME_2":"NA","city":"Wusi/Kishamba","VARNAME_3":"NA","NL_NAME_3":"NA","TYPE_3":"Ward","ENGTYPE_3":"Ward","CC_3":"124","HASC_3":"NA","name":"Wusi_Kishamba.city"},
"geometry":{"type": "MultiPolygon","coordinates": [[[[38.3327,-3.4567,1627.3187],[38.3383,-3.4578,1567.2354],[38.3473,-3.4625,1264.8335],[38.3547,-3.4573,1153.2046],[38.3597,-3.458,1088.6909],[38.3607,-3.4563,1083.5054],[38.3641,-3.4565,1064.7489],[38.3717,-3.4622,972.9743],[38.3761,-3.4633,891.2089],[38.3785,-3.4699,908.0249],[38.3783,-3.4745,901.2297],[38.3893,-3.4728,901.979],[38.3911,-3.4656,909.6234],[38.3897,-3.4605,904.7024],[38.3933,-3.4544,901.1494],[38.3931,-3.4461,889.9203],[38.3957,-3.4431,907.3141],[38.3921,-3.4358,875.4432],[38.3963,-3.4297,825.2958],[38.3921,-3.4289,875.7581],[38.3907,-3.4233,956.8273],[38.3935,-3.4197,986.2502],[38.3881,-3.4161,1011.16],[38.3841,-3.4173,1128.8223],[38.3807,-3.4139,1239.0732],[38.3775,-3.4132,1334.4283],[38.3629,-3.4191,1460.2623],[38.3575,-3.4168,1462.0623],[38.3549,-3.4197,1531.1448],[38.3501,-3.4177,1485.1162],[38.3469,-3.4201,1553.3433],[38.3439,-3.4199,1582.5972],[38.3381,-3.4107,1682.2502],[38.3337,-3.4109,1752.4714],[38.3323,-3.4255,1686.7915],[38.3359,-3.4318,1718.0066],[38.3339,-3.4353,1600.2667],[38.3349,-3.4402,1654.4023],[38.3331,-3.4437,1685.5032],[38.3327,-3.4567,1627.3187]]]]}}