{"type":"Feature","properties":{"GID_3":"KEN.4.4.5_1","GID_0":"KEN","country":"Kenya","GID_1":"KEN.4_1","province":"Busia","NL_NAME_1":"NA","GID_2":"KEN.4.4_1","county":"Matayos","NL_NAME_2":"NA","city":"Mayenje","VARNAME_3":"NA","NL_NAME_3":"NA","TYPE_3":"Ward","ENGTYPE_3":"Ward","CC_3":"1138","HASC_3":"NA","name":"Mayenje.city"},
"geometry":{"type": "MultiPolygon","coordinates": [[[[34.1186,0.4358,1184.3398],[34.1137,0.4394,1198.3909],[34.1096,0.4548,1213.1902],[34.0985,0.4591,1220.1416],[34.0902,0.4594,1209.6545],[34.0882,0.4567,1196.3569],[34.0916,0.4425,1189.8911],[34.0894,0.4387,1189.0652],[34.09,0.427,1176.5426],[34.0994,0.4159,1167.0907],[34.1036,0.4024,1166.9028],[34.11,0.4075,1180.0981],[34.116,0.421,1189.7283],[34.1202,0.4254,1178.8802],[34.1213,0.4287,1184.7677],[34.1185,0.4333,1180.6481],[34.1186,0.4358,1184.3398]]]]}}