{"type": "Feature","bbox": [37.1023,-2.7526,37.8735,-2.1852],"geometry": {"type": "MultiPolygon","coordinates": [[[[37.1023,-2.2367,1313.8307],[37.4201,-2.4539,1102.7925],[37.4168,-2.4544,1105.5363],[37.4166,-2.4592,1104.6631],[37.4117,-2.4626,1105.283],[37.4113,-2.4651,1103.7429],[37.4247,-2.4737,1116.6493],[37.4319,-2.4815,1126.8459],[37.4351,-2.4906,1134.92],[37.4349,-2.5143,1155.3086],[37.4308,-2.5165,1158.4246],[37.4285,-2.5238,1162.874],[37.4295,-2.5309,1167.2029],[37.4332,-2.5372,1172.5364],[37.433,-2.5409,1176.5559],[37.4372,-2.5474,1180.9384],[37.4314,-2.5691,1215.521],[37.4309,-2.5866,1240.1587],[37.4356,-2.5951,1283.0173],[37.4523,-2.6033,1255.1318],[37.4581,-2.6138,1233.8461],[37.4594,-2.692,1165.0396],[37.4616,-2.6987,1158.4213],[37.4608,-2.7212,1167.8206],[37.4641,-2.7286,1179.2836],[37.469,-2.7339,1190.9659],[37.469,-2.7387,1196.1199],[37.4716,-2.7458,1208.8527],[37.4762,-2.7479,1215.7224],[37.4787,-2.7526,1228.5513],[37.4911,-2.752,1239.1382],[37.5025,-2.7435,1222.2736],[37.5034,-2.7405,1227.7429],[37.5049,-2.7413,1219.4353],[37.5061,-2.7385,1213.9009],[37.5101,-2.7364,1211.4885],[37.5116,-2.7319,1205.0441],[37.5152,-2.7309,1201.7783],[37.5261,-2.7167,1198.0884],[37.5348,-2.7111,1197.1639],[37.5408,-2.7094,1199.16],[37.5613,-2.71,1195.4253],[37.5687,-2.7005,1197.4214],[37.5714,-2.7011,1195.9734],[37.5733,-2.704,1194.0548],[37.5742,-2.7125,1195.3628],[37.5824,-2.7069,1188.657],[37.5847,-2.7014,1185.5981],[37.5888,-2.7005,1192.0625],[37.5934,-2.7047,1175.5138],[37.5965,-2.7039,1169.4971],[37.6012,-2.6983,1170.4564],[37.6021,-2.6938,1161.1604],[37.602,-2.6911,1156.5479],[37.5981,-2.6894,1154.9658],[37.5979,-2.6873,1166.047],[37.6076,-2.6903,1148.2363],[37.6097,-2.6881,1136.7515],[37.6119,-2.688,1124.037],[37.613,-2.6823,1118.9138],[37.6177,-2.6832,1115.094],[37.6207,-2.6786,1106.9177],[37.6219,-2.6813,1103.9727],[37.6293,-2.6807,1098.8917],[37.6368,-2.6862,1085.5566],[37.6465,-2.6859,1063.2404],[37.6512,-2.683,1061.0673],[37.6538,-2.6851,1058.0657],[37.6638,-2.6835,1056.6084],[37.6705,-2.686,1053.8671],[37.6765,-2.6839,1052.2128],[37.6884,-2.6755,1050.3026],[37.6994,-2.679,1047.9193],[37.7071,-2.6753,1048.7462],[37.7134,-2.678,1048.0153],[37.7181,-2.6842,1048.2649],[37.7297,-2.6885,1050.3984],[37.7369,-2.695,1049.4738],[37.7386,-2.699,1041.4092],[37.7373,-2.7062,1037.4388],[37.7425,-2.7095,1042.6683],[37.7483,-2.7198,1030.7721],[37.8735,-2.6512,1996.7593],[37.8605,-2.6223,1794.6064],[37.8497,-2.6039,1967.3331],[37.6469,-2.37,1135.631],[37.6187,-2.3692,1071.1357],[37.602,-2.3738,1203.6403],[37.5839,-2.3814,1115.3491],[37.5709,-2.3844,1104.9309],[37.5653,-2.3843,1118.4065],[37.5527,-2.3794,1066.7244],[37.5415,-2.3782,1057.3943],[37.5364,-2.3808,1061.4033],[37.5332,-2.3883,1058.5051],[37.5298,-2.3911,1063.2826],[37.5292,-2.3957,1062.91],[37.5255,-2.3992,1064.2902],[37.5227,-2.3987,1065.069],[37.5189,-2.4024,1066.6389],[37.5129,-2.4025,1069.2649],[37.5087,-2.3985,1070.8058],[37.5031,-2.3977,1071.3442],[37.4511,-2.395,1107.2922],[37.4344,-2.3813,1120.8785],[37.4052,-2.3497,1164.7961],[37.3926,-2.341,1181.8315],[37.3846,-2.3391,1189.6455],[37.3776,-2.3353,1206.5317],[37.3629,-2.2929,1260.235],[37.3596,-2.2749,1281.3782],[37.3503,-2.2602,1278.2753],[37.3396,-2.2378,1271.2759],[37.3168,-2.2275,1276.2543],[37.3134,-2.228,1277.6787],[37.3065,-2.2246,1287.3608],[37.3024,-2.2205,1276.7557],[37.2851,-2.2144,1273.6062],[37.2744,-2.2062,1287.5651],[37.2639,-2.205,1266.1011],[37.2573,-2.2075,1259.4369],[37.2453,-2.2082,1255.8433],[37.2392,-2.2018,1262.5223],[37.207,-2.2058,1258.4888],[37.2076,-2.2039,1263.0502],[37.2022,-2.1983,1259.3826],[37.1988,-2.1977,1264.0779],[37.1984,-2.1932,1264.6888],[37.1956,-2.1942,1262.8706],[37.1919,-2.1874,1270.5505],[37.1878,-2.1852,1273.1282],[37.1553,-2.1967,1303.417],[37.1384,-2.2103,1309.7297],[37.1174,-2.2205,1298.4646],[37.1023,-2.2367,1313.8307]]]]}
,"properties": {"GID_3": "KEN.10.4.4_1","GID_0": "KEN","country": "Kenya","GID_1": "KEN.10_1","province": "Kajiado","NL_NAME_1": "NA","GID_2": "KEN.10.4_1","county": "KajiadoSouth","NL_NAME_2": "NA","city": "Mbirikani/Eselenkei","VARNAME_3": "NA","NL_NAME_3": "NA","TYPE_3": "Ward","ENGTYPE_3": "Ward","CC_3": "932","HASC_3": "NA","name": "Mbirikani_Eselenkei.city","area_km2": 1789.015,"hist_schema_id": "Elevation0-9000","hist_area_km2": {"1025": 1.419,"1050": 50.428,"1075": 109.763,"1100": 170.494,"1125": 223.531,"1150": 284.598,"1175": 253.69,"1200": 190.463,"1225": 172.216,"1250": 134.627,"1275": 82.854,"1300": 34.743,"1325": 9.32,"1350": 5.549,"1375": 4.829,"1400": 3.855,"1425": 4.384,"1450": 4.321,"1475": 3.918,"1500": 3.346,"1525": 2.838,"1550": 2.775,"1575": 2.605,"1600": 3.071,"1625": 2.542,"1650": 3.156,"1675": 3.071,"1700": 2.457,"1725": 1.821,"1750": 1.652,"1775": 1.97,"1800": 2.457,"1825": 2.118,"1850": 1.694,"1875": 1.483,"1900": 0.868,"1925": 0.974,"1950": 0.868,"1975": 0.826,"2000": 0.89,"2025": 0.254,"2050": 0.148,"2075": 0.085,"2100": 0.042}}}