{"type": "Feature","bbox": [34.9722,0.1428,35.053,0.2459],"geometry": {"type": "MultiPolygon","coordinates": [[[[35.0429,0.2354,1924.5897],[35.0326,0.2342,1947.6631],[35.0233,0.236,1970.277],[35.0223,0.2345,1982.3397],[35.0169,0.2339,1978.8472],[35.0052,0.2436,2021.8486],[34.9785,0.2459,2071.3569],[34.9828,0.232,2114.127],[34.9879,0.2045,1983.2708],[34.9852,0.1966,1900.1741],[34.9848,0.1895,1905.2917],[34.9868,0.1819,1854.559],[34.9839,0.176,1839.6448],[34.9722,0.1689,1766.5281],[34.9747,0.1629,1764.8969],[34.976,0.1653,1758.2192],[34.9809,0.164,1791.5129],[34.9819,0.1663,1784.8746],[34.9871,0.166,1809.0438],[34.9892,0.1643,1819.6005],[34.9906,0.166,1826.6963],[34.9918,0.1647,1818.767],[34.9892,0.1597,1771.4172],[34.9989,0.1503,1795.6414],[35.0051,0.1483,1838.4941],[35.0104,0.1511,1851.4138],[35.0111,0.1536,1863.1819],[35.0117,0.1504,1829.6779],[35.0101,0.1482,1821.9053],[35.0179,0.149,1874.0498],[35.0208,0.1467,1869.2738],[35.0236,0.1475,1859.8789],[35.025,0.1455,1842.3618],[35.0267,0.1472,1881.3602],[35.0305,0.1428,1834.0027],[35.0319,0.1447,1854.6202],[35.0377,0.1459,1873.7947],[35.0382,0.1472,1877.0984],[35.0361,0.1482,1891.153],[35.0386,0.1489,1865.9318],[35.0382,0.1509,1887.9666],[35.0408,0.1544,1885.642],[35.0473,0.1553,1878.1282],[35.0499,0.1584,1853.9071],[35.0477,0.1605,1886.8165],[35.048,0.1662,1892.4983],[35.0498,0.1657,1880.1578],[35.0499,0.1675,1882.7972],[35.053,0.1688,1901.693],[35.0459,0.1819,1872.3778],[35.0439,0.19,1899.5688],[35.0463,0.1928,1907.4292],[35.049,0.192,1888.5868],[35.0506,0.1955,1895.9021],[35.0483,0.1985,1889.7102],[35.0492,0.203,1882.183],[35.048,0.2116,1890.462],[35.0494,0.2194,1897.9556],[35.051,0.2196,1915.1615],[35.0431,0.2296,1888.5962],[35.0429,0.2354,1924.5897]]]]}
,"properties": {"GID_3": "KEN.32.2.3_1","GID_0": "KEN","country": "Kenya","GID_1": "KEN.32_1","province": "Nandi","NL_NAME_1": "NA","GID_2": "KEN.32.2_1","county": "Chesumei","NL_NAME_2": "NA","city": "Kiptuya","VARNAME_3": "NA","NL_NAME_3": "NA","TYPE_3": "Ward","ENGTYPE_3": "Ward","CC_3": "769","HASC_3": "NA","name": "Kiptuya.city","area_km2": 69.64884,"hist_schema_id": "Elevation0-9000","hist_area_km2": {"1750": 0.06361,"1775": 0.9965,"1800": 3.71037,"1825": 5.93659,"1850": 7.97199,"1875": 11.34312,"1900": 12.63644,"1925": 9.68935,"1950": 4.47363,"1975": 3.1167,"2000": 2.50184,"2025": 2.18381,"2050": 1.67496,"2075": 1.18731,"2100": 0.95409,"2125": 0.84808,"2150": 0.27563,"2175": 0.08481}}}