{"type": "Feature","bbox": [38.445,-4.3261,39.6035,-3.5645],"geometry": {"type": "MultiPolygon","coordinates": [[[[39.5976,-4.0504,0.0],[39.5896,-4.0515,0.0],[39.5965,-4.0529,0.0],[39.5896,-4.0537,0.0],[39.5882,-4.0568,0.0],[39.5893,-4.0588,0.0],[39.5915,-4.059,0.0],[39.5929,-4.0568,0.0],[39.6035,-4.0526,0.0],[39.6024,-4.0501,0.0],[39.5976,-4.0504,0.0]]],
[[[39.5279,-3.9447,151.9732],[39.5303,-3.9346,159.7468],[39.5283,-3.931,175.8227],[39.5221,-3.9285,190.2788],[39.5201,-3.9151,198.9703],[39.5125,-3.9115,186.9661],[39.5065,-3.905,194.7683],[39.5023,-3.9045,195.514],[39.5001,-3.9022,198.8829],[39.4975,-3.8877,193.9393],[39.4937,-3.8841,200.4045],[39.4857,-3.8809,197.7899],[39.4677,-3.8595,202.8394],[39.4589,-3.8546,211.5546],[39.4509,-3.8533,204.3119],[39.4493,-3.8499,206.349],[39.4355,-3.8362,213.5986],[39.4343,-3.8323,209.5095],[39.4217,-3.8256,196.5519],[39.4195,-3.8205,190.9118],[39.4135,-3.8201,187.357],[39.4073,-3.8234,190.5096],[39.4039,-3.8213,186.8993],[39.3995,-3.8256,194.2119],[39.3935,-3.8178,186.0461],[39.3905,-3.8174,190.1052],[39.3795,-3.8061,170.2434],[39.3813,-3.7971,175.2104],[39.3773,-3.7933,174.8542],[39.3833,-3.7856,181.8377],[39.3879,-3.785,180.8031],[39.3897,-3.782,183.017],[39.3889,-3.7757,185.416],[39.3845,-3.7744,182.5282],[39.3835,-3.7714,181.0821],[39.3857,-3.7688,187.6873],[39.3917,-3.7675,187.3876],[39.3951,-3.7536,186.4206],[39.3919,-3.7472,187.9847],[39.3919,-3.7387,189.472],[39.3907,-3.7367,190.6952],[39.3881,-3.7367,195.1728],[39.3763,-3.7405,198.7713],[39.3697,-3.7356,210.1795],[39.3635,-3.7338,206.7256],[39.3581,-3.7269,200.6081],[39.3583,-3.7192,203.0614],[39.3531,-3.7104,205.7489],[39.3537,-3.708,206.4207],[39.3488,-3.7045,207.1205],[39.3473,-3.7015,207.1168],[39.3485,-3.6921,210.3288],[39.3519,-3.6919,211.2885],[39.3531,-3.6886,212.1776],[39.3533,-3.6739,217.0246],[39.3553,-3.6692,217.9565],[39.3541,-3.6612,221.8581],[39.3567,-3.6536,220.8439],[39.3523,-3.64,224.4935],[39.3499,-3.6374,226.3349],[39.3451,-3.6365,226.7964],[39.3439,-3.6331,227.5057],[39.3471,-3.6199,232.4764],[39.3473,-3.5986,245.3772],[39.3455,-3.5955,242.6211],[39.3359,-3.5899,246.9294],[39.3299,-3.5885,249.3281],[39.3251,-3.5843,250.9049],[39.3217,-3.578,253.887],[39.3183,-3.5754,259.2528],[39.3203,-3.568,259.861],[39.3183,-3.5645,263.4403],[39.3065,-3.5666,265.6523],[39.3035,-3.5685,266.9409],[39.2827,-3.5696,279.711],[39.0873,-3.5696,369.0495],[39.0561,-3.6845,380.2025],[38.9685,-3.6336,423.2684],[38.9305,-3.6958,409.6035],[39.0353,-3.7582,360.0426],[38.9461,-3.9595,749.2744],[38.8651,-3.9873,405.0933],[38.445,-4.1388,623.1754],[38.6054,-4.2509,477.6581],[39.0003,-4.251,244.2612],[38.9937,-4.2116,265.2506],[38.9991,-4.2113,261.5168],[39.0035,-4.2165,258.9739],[39.0047,-4.2204,255.6408],[39.0063,-4.2196,259.4924],[39.0093,-4.2217,253.1334],[39.0097,-4.2242,248.343],[39.0179,-4.2224,253.8731],[39.0203,-4.2252,241.6013],[39.0251,-4.226,237.8743],[39.0291,-4.2232,231.4016],[39.0337,-4.213,226.5052],[39.0373,-4.2123,223.1635],[39.0407,-4.2088,213.7545],[39.0411,-4.1973,209.0355],[39.0463,-4.1934,209.1445],[39.0495,-4.1941,204.2194],[39.0509,-4.1923,208.0297],[39.0537,-4.1939,211.1656],[39.0543,-4.2057,197.8333],[39.0619,-4.2112,195.7812],[39.0659,-4.2011,198.2012],[39.0725,-4.2017,192.6767],[39.0759,-4.2038,186.0159],[39.0761,-4.2008,194.0482],[39.0719,-4.1948,189.3281],[39.0733,-4.1926,198.3776],[39.0797,-4.1913,191.123],[39.0849,-4.1952,195.621],[39.0859,-4.2049,172.3916],[39.0889,-4.2101,170.6617],[39.0819,-4.209,188.0468],[39.0801,-4.2103,179.625],[39.0799,-4.214,165.3459],[39.0807,-4.2151,164.4056],[39.0819,-4.2141,168.3937],[39.0835,-4.2171,163.6056],[39.0797,-4.2221,165.6092],[39.0803,-4.2248,161.1736],[39.0853,-4.2251,167.349],[39.0865,-4.2274,158.6852],[39.0939,-4.2288,153.7653],[39.0963,-4.2342,157.1021],[39.0979,-4.2345,157.1021],[39.1011,-4.2334,151.2074],[39.1049,-4.2271,158.2761],[39.1093,-4.228,150.2388],[39.1097,-4.2344,151.1145],[39.1069,-4.2357,158.1547],[39.1077,-4.2391,143.1398],[39.1127,-4.2446,137.3013],[39.1205,-4.2476,133.8988],[39.1215,-4.2519,132.4295],[39.1249,-4.252,130.5536],[39.1291,-4.2565,128.0229],[39.1291,-4.2612,127.9562],[39.1265,-4.2658,125.2929],[39.1289,-4.2655,126.0544],[39.1307,-4.2672,125.4383],[39.1293,-4.2837,118.503],[39.1319,-4.2858,119.2615],[39.1323,-4.2885,116.4327],[39.1303,-4.2928,115.4661],[39.1285,-4.2929,115.7032],[39.1275,-4.2971,113.1924],[39.1325,-4.3056,113.4782],[39.1335,-4.3119,108.9716],[39.1395,-4.3175,106.7421],[39.1455,-4.3191,105.9352],[39.1503,-4.3158,114.4124],[39.1547,-4.3174,115.5167],[39.1565,-4.3217,94.4025],[39.1597,-4.3238,100.1125],[39.1597,-4.3261,91.1728],[39.1631,-4.3225,114.2852],[39.1639,-4.3249,90.8528],[39.1673,-4.3242,94.9032],[39.1659,-4.3217,107.9028],[39.1673,-4.3174,117.5077],[39.1713,-4.3128,102.2422],[39.1713,-4.3102,103.3618],[39.1683,-4.3079,103.6793],[39.1691,-4.3063,103.6793],[39.1667,-4.3024,111.9617],[39.1685,-4.3004,108.7165],[39.1683,-4.2976,120.6427],[39.1815,-4.2885,133.0026],[39.1947,-4.2714,144.3877],[39.2103,-4.2598,161.4747],[39.2151,-4.2509,186.2641],[39.2249,-4.2394,181.2277],[39.2277,-4.234,183.739],[39.2295,-4.2249,200.5192],[39.2367,-4.2147,198.0549],[39.2373,-4.2188,195.198],[39.2435,-4.2269,183.7898],[39.2497,-4.2256,191.8145],[39.2535,-4.2291,195.4496],[39.2559,-4.2372,182.6465],[39.2611,-4.2416,181.9917],[39.2673,-4.2627,175.2499],[39.2805,-4.282,205.1842],[39.3193,-4.2879,241.5015],[39.3257,-4.2791,232.9893],[39.3305,-4.2642,212.396],[39.3383,-4.2575,211.0095],[39.3399,-4.2535,207.1773],[39.3437,-4.25,204.2194],[39.3507,-4.2229,195.4409],[39.3615,-4.1993,161.7893],[39.3629,-4.1967,164.7144],[39.3705,-4.1916,144.7428],[39.3597,-4.1839,155.6083],[39.3513,-4.1859,163.4303],[39.3387,-4.1796,202.295],[39.3361,-4.1767,214.0526],[39.3359,-4.1724,238.4946],[39.3383,-4.1682,223.7424],[39.3285,-4.1549,179.6233],[39.3275,-4.1496,177.5454],[39.3339,-4.1482,170.8885],[39.3475,-4.1534,174.7359],[39.3555,-4.1527,185.0703],[39.3589,-4.1535,173.4124],[39.3603,-4.1567,160.2823],[39.3639,-4.1576,159.3371],[39.3711,-4.1484,172.7672],[39.3743,-4.1471,193.6529],[39.3781,-4.1552,152.3832],[39.3695,-4.1649,161.0003],[39.3761,-4.1681,143.4105],[39.3885,-4.1556,133.8248],[39.3921,-4.1556,147.8351],[39.3941,-4.1591,125.692],[39.4009,-4.1602,123.3475],[39.4073,-4.1551,118.6596],[39.4103,-4.1555,125.122],[39.4117,-4.1574,126.5676],[39.4177,-4.155,112.3154],[39.4181,-4.1522,143.664],[39.4235,-4.1489,118.9053],[39.4245,-4.1443,140.4382],[39.4285,-4.1432,108.4766],[39.4313,-4.1386,120.0999],[39.4377,-4.137,112.7393],[39.4375,-4.1342,105.4009],[39.4327,-4.1316,105.2688],[39.4363,-4.1301,99.7564],[39.4371,-4.126,125.2849],[39.4415,-4.1261,113.6824],[39.4421,-4.1327,98.1734],[39.4463,-4.1353,115.5137],[39.4491,-4.1321,93.5529],[39.4485,-4.126,111.6849],[39.4535,-4.1185,214.2803],[39.4601,-4.1198,99.2762],[39.4673,-4.1128,171.3029],[39.4725,-4.1224,59.0622],[39.4761,-4.1238,78.2483],[39.4803,-4.1168,142.0894],[39.4905,-4.1151,66.2578],[39.4963,-4.1121,55.1929],[39.4949,-4.1068,54.1551],[39.4965,-4.1025,41.7138],[39.4987,-4.1018,55.482],[39.5015,-4.1059,55.5819],[39.5035,-4.103,55.989],[39.5093,-4.1043,37.9825],[39.5141,-4.0971,32.8519],[39.5203,-4.0936,20.7405],[39.5201,-4.091,21.0091],[39.5131,-4.0857,14.8339],[39.5095,-4.0895,15.7709],[39.5077,-4.0894,15.7709],[39.5055,-4.0864,37.6231],[39.5067,-4.0791,25.664],[39.5153,-4.0738,34.1528],[39.5217,-4.0732,15.5858],[39.5269,-4.0745,9.9483],[39.5283,-4.0724,22.9995],[39.5345,-4.076,15.6319],[39.5543,-4.0761,2.6264],[39.5693,-4.0824,2.9984],[39.579,-4.0801,0.5],[39.5882,-4.0676,0.0],[39.5821,-4.0707,0.0],[39.5749,-4.0685,2.5004],[39.5724,-4.0635,0.4831],[39.5715,-4.056,0.0],[39.5679,-4.0518,0.0],[39.5665,-4.0468,0.0],[39.5696,-4.0424,0.0],[39.5726,-4.041,0.0],[39.5793,-4.0415,0.0],[39.581,-4.0432,0.0],[39.5824,-4.0396,0.0],[39.5801,-4.0337,0.0],[39.5738,-4.0279,0.0],[39.5685,-4.0262,0.0],[39.566,-4.0382,2.2032],[39.5624,-4.0412,1.8151],[39.559,-4.0415,1.4214],[39.5638,-4.0396,2.2634],[39.5657,-4.0371,2.61],[39.5663,-4.0257,0.0],[39.5732,-4.0257,0.4274],[39.5793,-4.0296,0.0],[39.5851,-4.0368,0.5859],[39.5862,-4.0291,1.8923],[39.5835,-4.0257,19.0134],[39.574,-4.0237,9.7671],[39.5681,-4.02,8.3642],[39.5642,-4.0125,20.9228],[39.5678,-4.0074,11.4306],[39.5699,-3.9913,49.124],[39.5645,-3.9875,61.6711],[39.5545,-3.9842,73.312],[39.5501,-3.986,104.4194],[39.5451,-3.9913,123.7725],[39.5397,-3.9885,87.3669],[39.5459,-3.9759,163.4081],[39.5483,-3.9633,164.5741],[39.5453,-3.9574,162.5551],[39.5393,-3.9569,167.1068],[39.5313,-3.9518,173.6169],[39.5279,-3.9447,151.9732]]],
[[[39.5807,-4.0476,0.0],[39.5801,-4.0465,0.0],[39.5796,-4.0507,0.0],[39.5812,-4.0549,0.0],[39.5857,-4.0582,0.0],[39.5857,-4.0562,0.0],[39.5807,-4.0476,0.0]]]]}
,"properties": {"GID_2": "KEN.19.1_1","GID_0": "KEN","country": "Kenya","GID_1": "KEN.19_1","province": "Kwale","NL_NAME_1": "NA","county": "Kinango","VARNAME_2": "NA","NL_NAME_2": "NA","TYPE_2": "Constituency","ENGTYPE_2": "Constituency","CC_2": "10","HASC_2": "NA","name": "Kinango.county","area_km2": 4970.257,"hist_schema_id": "Elevation0-9000","hist_area_km2": {"0": 23.286,"25": 19.267,"50": 19.881,"75": 17.745,"100": 35.342,"125": 97.667,"150": 199.141,"175": 317.921,"200": 385.223,"225": 453.78,"250": 440.305,"275": 435.891,"300": 464.161,"325": 409.03,"350": 317.184,"375": 228.442,"400": 147.837,"425": 95.986,"450": 66.488,"475": 85.007,"500": 106.427,"525": 106.851,"550": 106.514,"575": 97.147,"600": 88.668,"625": 85.709,"650": 67.122,"675": 36.353,"700": 13.577,"725": 1.903,"750": 0.233,"775": 0.063,"800": 0.106}}}