{"type":"Feature","properties":{"GID_3":"KEN.24.2.1_1","GID_0":"KEN","country":"Kenya","GID_1":"KEN.24_1","province":"Mandera","NL_NAME_1":"NA","GID_2":"KEN.24.2_1","county":"Lafey","NL_NAME_2":"NA","city":"AlangoGof","VARNAME_3":"NA","NL_NAME_3":"NA","TYPE_3":"Ward","ENGTYPE_3":"Ward","CC_3":"220","HASC_3":"NA","name":"Alango_Gof.city"},
"geometry":{"type": "MultiPolygon","coordinates": [[[[41.0491,3.1656,505.8165],[41.0483,3.1688,509.4754],[41.0345,3.1599,493.666],[41.0069,3.1471,486.6711],[40.9516,3.1354,470.6745],[40.9323,3.1334,462.214],[40.9395,3.1183,453.2858],[40.9507,3.1016,444.3037],[40.9626,3.0959,443.0038],[40.9852,3.0904,436.8101],[41.1458,3.0287,380.845],[41.1395,3.0507,392.0322],[41.1335,3.0617,396.8217],[41.1297,3.0751,401.8286],[41.1209,3.0927,411.8437],[41.1153,3.1115,423.8853],[41.0921,3.1275,447.378],[41.0827,3.1303,458.1106],[41.0679,3.1431,472.427],[41.0641,3.1509,483.2652],[41.0491,3.1631,502.6228],[41.0491,3.1656,505.8165]]]]}}