{"type":"Feature","properties":{"GID_3":"KEN.43.1.4_1","GID_0":"KEN","country":"Kenya","GID_1":"KEN.43_1","province":"Turkana","NL_NAME_1":"NA","GID_2":"KEN.43.1_1","county":"Loima","NL_NAME_2":"NA","city":"Turkwel","VARNAME_3":"NA","NL_NAME_3":"NA","TYPE_3":"Ward","ENGTYPE_3":"Ward","CC_3":"630","HASC_3":"NA","name":"Turkwel.city"},
"geometry":{"type": "MultiPolygon","coordinates": [[[[35.4726,2.829,701.7032],[35.4965,2.8229,688.9464],[35.5297,2.8054,685.7796],[35.535,2.8043,682.404],[35.5387,2.8055,681.4845],[35.5404,2.8183,672.0622],[35.5455,2.8267,666.109],[35.5472,2.8371,655.921],[35.5559,2.8472,645.5317],[35.5575,2.8549,640.6895],[35.5663,2.8758,619.4894],[35.5841,2.8974,599.4077],[35.587,2.9058,593.2432],[35.5855,2.9139,594.2016],[35.5916,2.9254,585.0787],[35.5975,2.9309,583.7564],[35.6141,2.9396,573.0067],[35.6211,2.9491,561.0327],[35.6239,2.9599,554.8039],[35.6289,2.9654,549.6837],[35.6405,2.9737,540.6671],[35.6456,2.9831,533.8318],[35.647,2.9939,528.4183],[35.6517,3.0025,522.1498],[35.6247,3.0298,526.105],[35.6207,3.0389,530.9995],[35.6196,3.0544,539.7343],[35.6164,3.0623,538.2488],[35.6,3.0722,536.7796],[35.5841,3.0869,530.8],[35.5689,3.107,502.739],[35.5493,3.1393,502.7365],[35.5507,3.1466,503.6757],[35.5546,3.1517,505.3797],[35.574,3.1664,611.9011],[35.581,3.1845,673.4646],[35.584,3.1866,577.9816],[35.5964,3.1845,586.506],[35.5983,3.1859,623.3245],[35.6067,3.204,565.3131],[35.6034,3.2063,566.9005],[35.5954,3.2058,579.4434],[35.5919,3.2109,633.6516],[35.6019,3.2284,664.6112],[35.6034,3.2392,564.1874],[35.5989,3.2486,577.3246],[35.5609,3.2712,579.8512],[35.5578,3.2785,594.0045],[35.5561,3.2902,585.3081],[35.5574,3.3169,592.7609],[35.555,3.3316,585.9468],[35.5508,3.3373,586.5457],[35.543,3.3422,569.0452],[35.5381,3.3523,570.0858],[35.533,3.3566,574.569],[35.5252,3.3676,556.5835],[35.5136,3.3763,533.3804],[35.4897,3.4041,549.5492],[35.483,3.4073,550.3014],[35.4762,3.4182,555.3293],[35.4736,3.4322,554.4659],[35.473,3.4498,564.2101],[35.4771,3.4747,555.5955],[35.4771,3.4849,552.3798],[35.4763,3.4945,547.5217],[35.4735,3.5007,556.9426],[35.4612,3.5063,560.2112],[35.4534,3.5066,556.3835],[35.45,3.52,562.187],[35.442,3.5275,568.4069],[35.4365,3.5275,565.889],[35.4274,3.5241,574.2754],[35.4212,3.5269,577.3304],[35.4112,3.5267,581.167],[35.408,3.5285,587.0231],[35.4033,3.5285,583.6043],[35.3996,3.5277,584.9406],[35.3988,3.5244,585.5657],[35.3967,3.5239,588.7621],[35.392,3.5312,592.4369],[35.389,3.5321,594.0257],[35.3625,3.5263,613.9073],[35.34,3.5586,646.8386],[35.3352,3.5851,628.4971],[35.3316,3.594,625.7914],[35.3263,3.6016,625.2619],[35.3253,3.6143,630.7914],[35.3212,3.6225,630.4767],[35.2787,3.6261,653.8599],[35.2506,3.6412,636.1434],[35.2189,3.6452,630.1291],[35.212,3.6486,626.3737],[35.1823,3.6558,618.601],[35.1746,3.6467,622.4033],[35.1715,3.6367,625.4073],[35.1651,3.6264,628.4482],[35.1493,3.6087,635.7132],[35.135,3.5861,643.6409],[35.1278,3.5625,644.4745],[35.1253,3.541,639.8541],[35.1167,3.5092,632.0255],[35.1182,3.4494,618.7787],[35.1212,3.4274,613.6321],[35.1275,3.4174,611.0858],[35.1321,3.4017,609.0927],[35.1417,3.3877,605.7344],[35.155,3.3772,601.5367],[35.1688,3.3716,600.1311],[35.1673,3.3665,600.6069],[35.1636,3.3591,600.2918],[35.1626,3.353,601.4743],[35.1528,3.3377,607.4539],[35.1511,3.3319,611.1642],[35.1465,3.3275,613.7308],[35.1428,3.3007,626.6716],[35.133,3.2848,633.557],[35.117,3.27,647.8762],[35.088,3.2643,674.1986],[35.0766,3.2556,689.0822],[35.0714,3.2469,703.1461],[35.0715,3.2389,755.3436],[35.062,3.2263,740.2757],[35.0469,3.1969,960.4789],[35.0407,3.1882,1227.6812],[35.0288,3.1761,1655.2404],[35.0165,3.1585,1908.2451],[35.0098,3.141,1780.6265],[35.0094,3.1276,2177.8696],[35.0116,3.1235,2185.3196],[35.0165,3.1203,2134.1887],[35.0759,3.1008,1568.2767],[35.0919,3.097,1205.1577],[35.1033,3.0904,878.5405],[35.1056,3.0843,911.0422],[35.1017,3.0761,875.6108],[35.1017,3.0644,950.2063],[35.1032,3.0588,1000.4125],[35.1012,3.0503,909.0496],[35.1049,3.0468,894.4928],[35.1056,3.0419,881.0233],[35.102,3.0297,866.588],[35.1016,3.0228,855.9987],[35.1099,2.9858,898.2127],[35.1132,2.9562,797.2245],[35.1176,2.943,747.7896],[35.133,2.9126,701.2775],[35.1407,2.8907,679.046],[35.1388,2.8804,675.2582],[35.129,2.8647,687.055],[35.1174,2.8555,697.8755],[35.1055,2.8521,691.206],[35.0997,2.8488,693.1027],[35.0892,2.8335,698.9156],[35.089,2.8282,699.7764],[35.0921,2.8265,700.0139],[35.0931,2.8237,701.3491],[35.0894,2.8146,705.7717],[35.0905,2.8049,711.9711],[35.0892,2.7953,721.0783],[35.0929,2.7677,744.8295],[35.0917,2.7535,885.7154],[35.0874,2.7318,754.2236],[35.0721,2.6898,781.1094],[35.072,2.6809,784.3768],[35.076,2.6886,778.8319],[35.0846,2.693,773.2424],[35.0879,2.6995,767.6733],[35.0942,2.7052,761.9567],[35.0954,2.7105,758.4981],[35.1046,2.7188,749.4865],[35.1103,2.7302,742.9716],[35.1243,2.7427,732.3878],[35.1551,2.7826,700.2584],[35.1643,2.7886,694.2602],[35.1774,2.7933,687.5032],[35.1819,2.7972,683.3427],[35.1889,2.8114,673.138],[35.1905,2.8194,668.355],[35.1971,2.8295,659.309],[35.2082,2.838,650.569],[35.2117,2.8473,644.3887],[35.222,2.8558,639.2452],[35.2281,2.8563,634.8268],[35.2308,2.8582,632.9687],[35.2484,2.8557,632.3667],[35.2603,2.8681,627.7825],[35.2793,2.8753,617.6074],[35.287,2.8726,614.6573],[35.2965,2.8666,607.963],[35.3003,2.8614,606.036],[35.3061,2.8589,602.4583],[35.3192,2.8573,596.1234],[35.3658,2.8611,576.4022],[35.3789,2.868,571.1051],[35.3907,2.8821,560.9948],[35.4005,2.8846,567.3948],[35.4173,2.9115,557.1804],[35.4234,2.9128,555.064],[35.43,2.9113,562.6675],[35.4347,2.9082,566.4655],[35.4395,2.8956,578.1288],[35.448,2.885,591.7703],[35.4692,2.8653,628.2939],[35.4728,2.8521,647.9115],[35.4809,2.8382,671.5495],[35.4679,2.829,702.8784],[35.4726,2.829,701.7032]]]]}}