{"type": "Feature","bbox": [34.2907,-0.6685,34.4482,-0.4496],"geometry": {"type": "MultiPolygon","coordinates": [[[[34.4433,-0.4984,1133.0],[34.4482,-0.4919,1133.0],[34.4123,-0.4496,1133.0],[34.3716,-0.4811,1136.2],[34.3666,-0.4966,1175.1134],[34.361,-0.5036,1150.0348],[34.3513,-0.4985,1133.5334],[34.3427,-0.5037,1160.8456],[34.3194,-0.5124,1189.9791],[34.2916,-0.5317,1150.3229],[34.2937,-0.5379,1155.8035],[34.2918,-0.5425,1153.4843],[34.297,-0.5452,1162.4877],[34.2996,-0.5525,1161.01],[34.3039,-0.557,1161.5376],[34.3045,-0.5651,1157.218],[34.3082,-0.5702,1161.3276],[34.3065,-0.5722,1158.7195],[34.2907,-0.6685,1323.5607],[34.2963,-0.6645,1382.8879],[34.3265,-0.6583,1292.2074],[34.3486,-0.6512,1325.7458],[34.3495,-0.6328,1367.9568],[34.352,-0.622,1232.3342],[34.3622,-0.5944,1200.4622],[34.3683,-0.5898,1207.3162],[34.3649,-0.584,1222.2311],[34.3748,-0.5848,1227.1406],[34.3773,-0.5832,1232.4099],[34.3791,-0.5849,1228.0701],[34.3857,-0.5794,1210.9388],[34.3887,-0.5725,1209.7666],[34.3974,-0.5682,1169.9259],[34.4045,-0.5519,1150.694],[34.4024,-0.5491,1150.5112],[34.4102,-0.5387,1140.0857],[34.4178,-0.5232,1133.0],[34.4433,-0.4984,1133.0]]]]}
,"properties": {"GID_3": "KEN.8.5.3_1","GID_0": "KEN","country": "Kenya","GID_1": "KEN.8_1","province": "HomaBay","NL_NAME_1": "NA","GID_2": "KEN.8.5_1","county": "Mbita","NL_NAME_2": "NA","city": "Lambwe","VARNAME_3": "NA","NL_NAME_3": "NA","TYPE_3": "Ward","ENGTYPE_3": "Ward","CC_3": "1256","HASC_3": "NA","name": "Lambwe.city","area_km2": 189.348,"hist_schema_id": "Elevation0-9000","hist_area_km2": {"1125": 17.2156,"1150": 19.3992,"1175": 57.3491,"1200": 39.6674,"1225": 17.703,"1250": 10.4946,"1275": 7.4416,"1300": 5.0247,"1325": 3.9434,"1350": 2.9046,"1375": 1.9717,"1400": 1.5689,"1425": 0.9965,"1450": 0.8693,"1475": 0.5724,"1500": 0.53,"1525": 0.4664,"1550": 0.424,"1575": 0.318,"1600": 0.2544,"1625": 0.1272,"1650": 0.0848,"1675": 0.0212}}}