{"type": "Feature","bbox": [34.3865,-0.4594,34.5528,-0.2945],"geometry": {"type": "MultiPolygon","coordinates": [[[[34.5263,-0.4145,1262.4672],[34.5154,-0.394,1413.1398],[34.5071,-0.3938,1489.3479],[34.504,-0.391,1505.0145],[34.5044,-0.382,1434.6101],[34.5073,-0.3818,1411.0935],[34.5084,-0.3775,1356.3884],[34.5053,-0.3752,1393.3687],[34.5074,-0.3701,1303.1847],[34.517,-0.3665,1259.6157],[34.5109,-0.3604,1227.8586],[34.5112,-0.3465,1170.5356],[34.5052,-0.3364,1134.0339],[34.5012,-0.3341,1133.0],[34.4833,-0.2945,1133.0],[34.4218,-0.3308,1133.0],[34.3865,-0.3605,1133.0],[34.4828,-0.4573,1133.0],[34.5101,-0.4594,1135.6421],[34.5161,-0.4562,1136.7031],[34.5332,-0.4542,1140.5977],[34.5344,-0.4512,1145.6317],[34.5405,-0.4581,1142.2676],[34.5488,-0.4573,1154.0454],[34.5528,-0.4512,1149.4661],[34.5435,-0.447,1161.3492],[34.5325,-0.4284,1210.2848],[34.5336,-0.4221,1217.8439],[34.5274,-0.4192,1243.7057],[34.5263,-0.4145,1262.4672]]]]}
,"properties": {"GID_3": "KEN.8.3.7_1","GID_0": "KEN","country": "Kenya","GID_1": "KEN.8_1","province": "HomaBay","NL_NAME_1": "NA","GID_2": "KEN.8.3_1","county": "Karachuonyo","NL_NAME_2": "NA","city": "WestKarachuonyo","VARNAME_3": "NA","NL_NAME_3": "NA","TYPE_3": "Ward","ENGTYPE_3": "Ward","CC_3": "1230","HASC_3": "NA","name": "West_Karachuonyo.city","area_km2": 162.5325,"hist_schema_id": "Elevation0-9000","hist_area_km2": {"1125": 84.8707,"1150": 15.9012,"1175": 13.1874,"1200": 10.2192,"1225": 8.6291,"1250": 6.5301,"1275": 4.8976,"1300": 3.7315,"1325": 2.6502,"1350": 1.8021,"1375": 1.8445,"1400": 1.3993,"1425": 0.9753,"1450": 0.8905,"1475": 0.6573,"1500": 0.6997,"1525": 0.5936,"1550": 0.4028,"1575": 0.424,"1600": 0.5512,"1625": 0.5724,"1650": 0.53,"1675": 0.2332,"1700": 0.2756,"1725": 0.0424,"1750": 0.0212}}}