{"type": "Feature","bbox": [34.9603,0.8792,35.1171,0.9925],"geometry": {"type": "MultiPolygon","coordinates": [[[[35.1138,0.8878,1800.4935],[35.1171,0.8906,1786.8262],[35.1135,0.8961,1787.6543],[35.1002,0.9093,1834.5958],[35.0984,0.9182,1825.5112],[35.089,0.927,1840.7787],[35.0783,0.9336,1877.8403],[35.0705,0.9546,1848.7742],[35.0563,0.9674,1880.0497],[35.0438,0.9913,1843.8887],[35.0357,0.9925,1873.1952],[35.0371,0.989,1857.4324],[35.0239,0.9892,1870.7808],[35.0259,0.9783,1872.0466],[35.0153,0.9829,1898.6052],[35.0112,0.9744,1859.7352],[34.9878,0.988,1866.733],[34.9849,0.9916,1848.8495],[34.976,0.9611,1816.2806],[34.9772,0.9568,1808.0977],[34.9603,0.9538,1828.3961],[34.9905,0.927,1850.4282],[34.9931,0.9061,1817.6392],[34.9815,0.9035,1780.1525],[34.988,0.8905,1780.1466],[34.9852,0.8848,1774.7668],[35.0191,0.8918,1770.2115],[35.0189,0.8946,1771.7578],[35.0241,0.9008,1791.3143],[35.0277,0.9017,1792.3849],[35.0319,0.8986,1780.7821],[35.0322,0.9011,1787.7772],[35.0394,0.9032,1783.7616],[35.0408,0.9066,1787.2643],[35.0464,0.9068,1787.427],[35.0476,0.9041,1781.5627],[35.0515,0.9076,1810.5315],[35.0618,0.9022,1789.1558],[35.0666,0.9035,1798.2419],[35.0688,0.9014,1794.5404],[35.0738,0.9047,1808.6052],[35.0781,0.9027,1823.9735],[35.0806,0.9006,1809.4307],[35.08,0.8993,1801.8103],[35.0826,0.8984,1788.8694],[35.081,0.8979,1793.6093],[35.0822,0.8971,1788.8694],[35.0805,0.8951,1776.2335],[35.082,0.8949,1778.6191],[35.0809,0.8929,1777.1785],[35.0825,0.8914,1776.3367],[35.084,0.8922,1777.1864],[35.0849,0.888,1782.769],[35.0864,0.8892,1799.989],[35.0873,0.8874,1794.5496],[35.0861,0.8863,1790.3698],[35.0886,0.8853,1787.2952],[35.0884,0.8876,1801.1218],[35.0894,0.8863,1795.5231],[35.0928,0.8866,1804.856],[35.0934,0.8843,1797.8726],[35.0976,0.8851,1809.9111],[35.098,0.8815,1806.5735],[35.1018,0.8792,1804.4948],[35.1083,0.8821,1804.5353],[35.1085,0.8852,1804.3772],[35.1138,0.8878,1800.4935]]]]}
,"properties": {"GID_3": "KEN.42.3.6_1","GID_0": "KEN","country": "Kenya","GID_1": "KEN.42_1","province": "TransNzoia","NL_NAME_1": "NA","GID_2": "KEN.42.3_1","county": "Kiminini","NL_NAME_2": "NA","city": "Waitaluk","VARNAME_3": "NA","NL_NAME_3": "NA","TYPE_3": "Ward","ENGTYPE_3": "Ward","CC_3": "689","HASC_3": "NA","name": "Waitaluk.city","area_km2": 108.73162,"hist_schema_id": "Elevation0-9000","hist_area_km2": {"1775": 3.56153,"1800": 23.34062,"1825": 42.3564,"1850": 25.75719,"1875": 11.93517,"1900": 1.78073}}}