{"type": "Feature","bbox": [37.0834,-0.7817,37.2702,-0.6622],"geometry": {"type": "MultiPolygon","coordinates": [[[[37.2392,-0.6742,1157.0327],[37.2367,-0.6725,1159.0712],[37.2379,-0.6665,1162.5978],[37.2362,-0.6636,1165.1797],[37.2379,-0.6625,1167.286],[37.2335,-0.6622,1165.5044],[37.2284,-0.6675,1176.6497],[37.2253,-0.6681,1181.2976],[37.2141,-0.685,1189.1096],[37.2106,-0.6769,1192.8677],[37.204,-0.6712,1196.9265],[37.203,-0.6643,1203.8773],[37.2017,-0.6678,1198.8827],[37.1963,-0.6633,1204.113],[37.1937,-0.6635,1204.9136],[37.1898,-0.6714,1204.8912],[37.19,-0.6801,1236.3944],[37.1864,-0.6912,1208.0999],[37.1804,-0.704,1220.0035],[37.1828,-0.7104,1177.3173],[37.1773,-0.7123,1185.3036],[37.179,-0.7137,1163.1809],[37.1878,-0.714,1154.6616],[37.1927,-0.717,1155.2281],[37.1887,-0.7163,1180.9019],[37.1737,-0.7214,1205.5774],[37.1714,-0.7273,1238.8932],[37.1747,-0.729,1203.7395],[37.1776,-0.7334,1228.8998],[37.1715,-0.7412,1286.8517],[37.1671,-0.7423,1299.675],[37.165,-0.742,1279.4102],[37.161,-0.7315,1263.818],[37.1516,-0.7312,1320.8055],[37.1487,-0.7292,1300.8558],[37.1477,-0.7262,1318.5203],[37.1513,-0.7215,1316.5366],[37.1501,-0.7204,1336.7603],[37.1465,-0.7218,1359.3221],[37.1363,-0.7203,1308.701],[37.1291,-0.7221,1389.1946],[37.12,-0.7222,1369.2369],[37.1157,-0.7249,1398.6367],[37.0971,-0.7212,1432.2717],[37.0954,-0.7181,1401.8365],[37.0984,-0.7184,1374.9657],[37.1031,-0.7149,1362.7161],[37.1112,-0.7124,1308.0807],[37.1177,-0.7136,1394.8361],[37.1287,-0.7102,1281.3501],[37.1304,-0.7081,1348.1117],[37.1276,-0.705,1366.4087],[37.1181,-0.7009,1361.3499],[37.1153,-0.7033,1303.6024],[37.1127,-0.7019,1290.4517],[37.1098,-0.7038,1338.6871],[37.1084,-0.7018,1323.0784],[37.1043,-0.7009,1355.6733],[37.0992,-0.7046,1353.3273],[37.0977,-0.7022,1334.2913],[37.0936,-0.7013,1379.7179],[37.0869,-0.7076,1361.5496],[37.0876,-0.7135,1357.791],[37.0914,-0.7191,1418.4984],[37.0914,-0.7285,1503.7517],[37.0899,-0.7325,1453.8049],[37.0869,-0.7304,1492.3098],[37.0841,-0.7322,1474.087],[37.0834,-0.7468,1450.3738],[37.0965,-0.7429,1384.6985],[37.0936,-0.7471,1409.9216],[37.0972,-0.7533,1403.8182],[37.0984,-0.7613,1424.6968],[37.1034,-0.7614,1393.7606],[37.1112,-0.7663,1401.0801],[37.1242,-0.7606,1330.3855],[37.1328,-0.762,1359.3395],[37.1385,-0.7578,1321.6992],[37.1442,-0.7571,1283.8213],[37.1479,-0.7532,1260.7738],[37.1476,-0.7483,1227.4653],[37.1495,-0.7476,1270.3977],[37.1503,-0.7442,1308.5723],[37.1542,-0.7413,1243.2419],[37.1587,-0.7437,1257.5286],[37.1622,-0.7423,1240.9026],[37.1681,-0.7439,1303.9702],[37.1746,-0.7434,1248.98],[37.1784,-0.7457,1253.5132],[37.1884,-0.7434,1208.3057],[37.1924,-0.7449,1182.2473],[37.1949,-0.7596,1142.7358],[37.2011,-0.7585,1178.3782],[37.2076,-0.7638,1149.5879],[37.2123,-0.7604,1144.9962],[37.2144,-0.7601,1142.1837],[37.2166,-0.7622,1138.1344],[37.2167,-0.76,1141.3584],[37.2197,-0.7603,1148.8751],[37.2218,-0.7639,1154.2137],[37.2214,-0.7679,1136.4469],[37.2243,-0.7674,1144.683],[37.2285,-0.7721,1133.9105],[37.2331,-0.7696,1139.007],[37.2362,-0.773,1132.1289],[37.2391,-0.7733,1132.7814],[37.2382,-0.7753,1131.5288],[37.2438,-0.7744,1141.6099],[37.2474,-0.7776,1130.2422],[37.2533,-0.7779,1126.1292],[37.2548,-0.78,1126.4662],[37.2645,-0.7817,1074.6765],[37.2648,-0.7806,1118.3148],[37.2622,-0.7797,1101.5632],[37.2618,-0.7667,1114.674],[37.26,-0.7662,1130.7401],[37.2592,-0.7611,1116.8712],[37.2554,-0.7559,1120.5146],[37.2567,-0.7518,1124.9758],[37.2596,-0.7514,1124.8262],[37.2603,-0.7493,1141.0801],[37.2635,-0.7526,1118.8315],[37.2694,-0.754,1114.1439],[37.2702,-0.752,1116.7574],[37.2629,-0.7456,1115.4578],[37.2657,-0.7416,1115.0164],[37.2576,-0.7329,1115.656],[37.2571,-0.7241,1124.6898],[37.2506,-0.723,1117.0785],[37.2511,-0.7185,1120.799],[37.2536,-0.7211,1119.6359],[37.2564,-0.7197,1117.4529],[37.2512,-0.7151,1134.7507],[37.248,-0.7098,1124.5388],[37.2487,-0.7056,1146.7787],[37.2466,-0.7071,1137.5421],[37.2437,-0.7059,1124.0389],[37.2421,-0.7005,1134.5479],[37.2445,-0.6975,1156.6794],[37.2415,-0.693,1145.8542],[37.2443,-0.6907,1162.9471],[37.2411,-0.688,1144.2844],[37.2392,-0.6831,1145.2432],[37.2392,-0.6742,1157.0327]]]]}
,"properties": {"GID_3": "KEN.29.5.2_1","GID_0": "KEN","country": "Kenya","GID_1": "KEN.29_1","province": "Murang'a","NL_NAME_1": "NA","GID_2": "KEN.29.5_1","county": "Kiharu","NL_NAME_2": "NA","city": "Mbiri","VARNAME_3": "NA","NL_NAME_3": "NA","TYPE_3": "Ward","ENGTYPE_3": "Ward","CC_3": "524","HASC_3": "NA","name": "Mbiri.city","area_km2": 118.08677,"hist_schema_id": "Elevation0-9000","hist_area_km2": {"1075": 0.0212,"1100": 0.1696,"1125": 13.33508,"1150": 27.00937,"1175": 14.07715,"1200": 11.36352,"1225": 6.36018,"1250": 4.89733,"1275": 4.24011,"1300": 5.99974,"1325": 6.82656,"1350": 6.61456,"1375": 6.19054,"1400": 5.17291,"1425": 3.51927,"1450": 1.67483,"1475": 0.50881,"1500": 0.106}}}