{"type": "Feature","bbox": [37.175,-0.9782,37.3192,-0.8388],"geometry": {"type": "MultiPolygon","coordinates": [[[[37.2484,-0.8613,1365.0034],[37.2261,-0.8819,1428.7163],[37.2218,-0.874,1415.8995],[37.2303,-0.8664,1401.5161],[37.222,-0.8503,1344.9448],[37.2143,-0.8556,1314.6353],[37.2168,-0.8619,1383.6986],[37.2113,-0.864,1372.9391],[37.1995,-0.8388,1286.0844],[37.1962,-0.84,1303.8826],[37.1954,-0.8429,1319.6919],[37.1913,-0.8467,1336.642],[37.1875,-0.8458,1345.3986],[37.1856,-0.8478,1343.7155],[37.1831,-0.8462,1335.5763],[37.1794,-0.8484,1337.1158],[37.1816,-0.8558,1336.2493],[37.1764,-0.8626,1340.5326],[37.1753,-0.8679,1355.9222],[37.175,-0.8758,1348.1091],[37.1768,-0.8817,1353.4315],[37.1827,-0.8881,1368.7217],[37.1833,-0.8932,1368.8132],[37.1869,-0.897,1388.4597],[37.187,-0.8993,1391.6621],[37.1965,-0.901,1388.5154],[37.2006,-0.9069,1413.6978],[37.2142,-0.9095,1412.5339],[37.2134,-0.9529,1437.8921],[37.219,-0.9627,1430.0316],[37.2302,-0.9702,1417.6403],[37.2301,-0.9782,1408.4943],[37.2423,-0.9696,1418.0913],[37.245,-0.9625,1419.7802],[37.2507,-0.9616,1427.1797],[37.2553,-0.9633,1434.7998],[37.2613,-0.9567,1457.6458],[37.2676,-0.9539,1483.6667],[37.273,-0.954,1532.9609],[37.2778,-0.9568,1554.6538],[37.2922,-0.9521,1477.6589],[37.2867,-0.9389,1324.4321],[37.3192,-0.9153,1142.4924],[37.3009,-0.9028,1233.7336],[37.2822,-0.8928,1314.1099],[37.2562,-0.864,1360.9425],[37.2527,-0.8572,1302.3558],[37.2484,-0.8613,1365.0034]]]]}
,"properties": {"GID_3": "KEN.29.6.5_1","GID_0": "KEN","country": "Kenya","GID_1": "KEN.29_1","province": "Murang'a","NL_NAME_1": "NA","GID_2": "KEN.29.6_1","county": "Maragwa","NL_NAME_2": "NA","city": "Makuyu","VARNAME_3": "NA","NL_NAME_3": "NA","TYPE_3": "Ward","ENGTYPE_3": "Ward","CC_3": "534","HASC_3": "NA","name": "Makuyu.city","area_km2": 115.17711,"hist_schema_id": "Elevation0-9000","hist_area_km2": {"1125": 0.0848,"1150": 0.1908,"1175": 0.63599,"1200": 1.65356,"1225": 2.62874,"1250": 2.96794,"1275": 3.83712,"1300": 4.57912,"1325": 7.65309,"1350": 16.19658,"1375": 13.90698,"1400": 13.03776,"1425": 25.63007,"1450": 8.98855,"1475": 6.38102,"1500": 4.49427,"1525": 1.22956,"1550": 0.69958,"1575": 0.38159}}}