{"type":"Feature","properties":{"GID_3":"KEN.27.7.4_1","GID_0":"KEN","country":"Kenya","GID_1":"KEN.27_1","province":"Migori","NL_NAME_1":"NA","GID_2":"KEN.27.7_1","county":"SunaWest","NL_NAME_2":"NA","city":"Wiga","VARNAME_3":"NA","NL_NAME_3":"NA","TYPE_3":"Ward","ENGTYPE_3":"Ward","CC_3":"1273","HASC_3":"NA","name":"Wiga.city"},
"geometry":{"type": "MultiPolygon","coordinates": [[[[34.2697,-1.033,1229.1759],[34.2812,-1.0391,1255.5779],[34.28,-1.0459,1260.5126],[34.2768,-1.0456,1260.1934],[34.2729,-1.0483,1274.6642],[34.2745,-1.0518,1256.9178],[34.2776,-1.0528,1255.2159],[34.2794,-1.0632,1273.2965],[34.2751,-1.071,1259.9987],[34.2778,-1.0735,1250.1997],[34.2831,-1.0734,1270.5051],[34.2856,-1.0753,1286.4978],[34.2855,-1.078,1269.3438],[34.2904,-1.0768,1324.959],[34.2964,-1.0787,1302.9174],[34.2985,-1.0778,1320.8658],[34.2985,-1.085,1269.3027],[34.3006,-1.0836,1275.0527],[34.3065,-1.0846,1304.9082],[34.3107,-1.0819,1330.0828],[34.3118,-1.0834,1316.0134],[34.3098,-1.0851,1301.8049],[34.3125,-1.087,1293.3411],[34.315,-1.0865,1307.8824],[34.3161,-1.0931,1305.0078],[34.3151,-1.0965,1302.9221],[34.3197,-1.1022,1311.272],[34.323,-1.1034,1334.6292],[34.327,-1.0969,1352.9181],[34.3267,-1.0928,1373.2191],[34.3305,-1.0942,1366.0104],[34.3411,-1.093,1404.1901],[34.3478,-1.0941,1379.7615],[34.3491,-1.0897,1397.2932],[34.3661,-1.0947,1364.2314],[34.3715,-1.0903,1366.9664],[34.3776,-1.0718,1320.1102],[34.3768,-1.0564,1305.4127],[34.3727,-1.039,1341.7661],[34.3758,-1.0343,1414.6367],[34.3775,-1.0343,1414.6367],[34.3786,-1.029,1331.4011],[34.3824,-1.0223,1293.4036],[34.3803,-1.0189,1302.0289],[34.3839,-1.0114,1258.0905],[34.3844,-1.0066,1284.3984],[34.3786,-1.0027,1327.5907],[34.3774,-1.0035,1307.6711],[34.3779,-1.0065,1283.5698],[34.3733,-1.0038,1314.1539],[34.3715,-1.0079,1286.0295],[34.3697,-1.0025,1321.0591],[34.3655,-1.0048,1290.866],[34.3607,-1.0015,1259.0726],[34.3588,-1.006,1274.318],[34.3545,-1.0015,1291.0457],[34.3485,-1.0034,1240.4579],[34.3468,-0.999,1280.6191],[34.3407,-0.9969,1260.9265],[34.3399,-0.994,1265.1571],[34.3361,-0.993,1217.6276],[34.3343,-0.9946,1216.3025],[34.3331,-0.9929,1212.5378],[34.3304,-0.9928,1211.0673],[34.3095,-1.0093,1270.0894],[34.3042,-1.0091,1266.0555],[34.2984,-1.0186,1258.5284],[34.2915,-1.0154,1200.3979],[34.2861,-1.0153,1189.1475],[34.2833,-1.0203,1227.1719],[34.2788,-1.021,1222.7694],[34.2794,-1.0222,1230.8369],[34.2767,-1.0272,1221.1909],[34.2705,-1.027,1220.842],[34.2697,-1.033,1229.1759]]]]}}