{"type": "Feature","bbox": [35.0713,2.3712,35.4809,2.9129],"geometry": {"type": "MultiPolygon","coordinates": [[[[35.1091,2.6527,775.0713],[35.1106,2.6499,775.0427],[35.1126,2.6526,771.7042],[35.1203,2.6504,773.4691],[35.1427,2.6384,784.0856],[35.1575,2.6284,789.9794],[35.1668,2.6167,784.9636],[35.1784,2.598,812.849],[35.1858,2.5789,921.0684],[35.1869,2.5716,1094.4719],[35.2129,2.5425,782.1886],[35.2153,2.4965,764.629],[35.2205,2.4788,778.087],[35.2205,2.469,775.1982],[35.2233,2.4591,756.8002],[35.2288,2.4498,744.7393],[35.2325,2.4469,738.8054],[35.2459,2.4455,729.3654],[35.2513,2.4395,718.3337],[35.2721,2.4374,707.7397],[35.2917,2.4285,699.4232],[35.2951,2.4255,697.1385],[35.3024,2.4018,696.6586],[35.3031,2.403,696.8162],[35.3056,2.3712,708.4633],[35.3236,2.3891,694.0862],[35.328,2.3962,691.0435],[35.34,2.4046,682.0962],[35.3491,2.4061,672.6884],[35.3569,2.4184,669.0621],[35.3725,2.4313,655.4317],[35.3869,2.4378,654.4083],[35.3891,2.4352,651.8738],[35.3939,2.4384,642.9786],[35.3878,2.4467,652.0262],[35.386,2.4573,650.9045],[35.3881,2.4606,646.3346],[35.3932,2.4635,650.9608],[35.3913,2.4783,642.5074],[35.3938,2.4812,636.069],[35.3996,2.4818,634.9138],[35.3994,2.4876,633.2717],[35.3973,2.4939,635.6591],[35.3904,2.4939,630.6819],[35.3896,2.4987,630.0833],[35.3847,2.5058,629.6812],[35.3852,2.5088,629.7681],[35.3902,2.5143,628.8855],[35.3887,2.5166,631.8716],[35.3822,2.5178,628.6653],[35.3863,2.5316,628.178],[35.3909,2.5335,629.5923],[35.3918,2.5362,623.064],[35.3884,2.5417,622.7745],[35.3871,2.5562,623.3295],[35.3825,2.561,624.9161],[35.3861,2.5671,620.9626],[35.3801,2.5705,619.7965],[35.3807,2.5775,615.2266],[35.3754,2.5787,613.7177],[35.3768,2.5887,612.8775],[35.3729,2.5946,614.1964],[35.3766,2.5954,613.6126],[35.3841,2.5916,615.2881],[35.3952,2.5943,627.1388],[35.4178,2.5831,656.0274],[35.4269,2.5828,665.8623],[35.431,2.5805,672.7938],[35.4355,2.5738,689.2911],[35.4376,2.5631,707.3901],[35.44,2.5616,712.9149],[35.4488,2.564,820.6135],[35.4685,2.5767,813.6843],[35.4683,2.5888,797.1525],[35.4668,2.5939,794.4061],[35.4712,2.6079,781.649],[35.4696,2.6115,781.1434],[35.4703,2.62,774.9288],[35.4731,2.6246,768.3201],[35.4739,2.6328,764.1889],[35.4798,2.6442,746.5189],[35.4784,2.6548,737.5677],[35.4789,2.6666,725.4],[35.472,2.681,786.7927],[35.4649,2.7089,763.2143],[35.4604,2.7403,747.9955],[35.4587,2.7727,670.8789],[35.4611,2.7927,677.9092],[35.4679,2.825,793.8035],[35.4726,2.829,701.7032],[35.4679,2.829,702.8784],[35.4809,2.8382,671.5495],[35.4728,2.8521,647.9115],[35.4692,2.8653,628.2939],[35.448,2.885,591.7703],[35.4395,2.8956,578.1288],[35.4347,2.9082,566.4655],[35.4288,2.9117,560.9304],[35.4204,2.9129,551.5],[35.4173,2.9115,557.1804],[35.4005,2.8846,567.3948],[35.3907,2.8821,560.9948],[35.3789,2.868,571.1051],[35.3658,2.8611,576.4022],[35.3192,2.8573,596.1234],[35.3061,2.8589,602.4583],[35.3003,2.8614,606.036],[35.2965,2.8666,607.963],[35.287,2.8726,614.6573],[35.2793,2.8753,617.6074],[35.2603,2.8681,627.7825],[35.2484,2.8557,632.3667],[35.2308,2.8582,632.9687],[35.2281,2.8563,634.8268],[35.2214,2.8556,639.2452],[35.2117,2.8473,644.3887],[35.2082,2.838,650.569],[35.1971,2.8295,659.309],[35.1905,2.8194,668.355],[35.1884,2.8103,673.9584],[35.1812,2.7964,683.4639],[35.1765,2.7929,687.5032],[35.1605,2.7867,695.702],[35.1551,2.7826,700.2584],[35.1243,2.7427,732.3878],[35.1103,2.7302,742.9716],[35.1046,2.7188,749.4865],[35.0954,2.7105,758.4981],[35.0942,2.7052,761.9567],[35.0879,2.6995,767.6733],[35.0846,2.693,773.2424],[35.0773,2.6897,778.0062],[35.0748,2.6869,781.326],[35.0713,2.6799,785.4861],[35.074,2.6733,787.4478],[35.0808,2.669,781.35],[35.1045,2.6609,778.5499],[35.1091,2.6527,775.0713]]]]}
,"properties": {"GID_3": "KEN.43.1.1_1","GID_0": "KEN","country": "Kenya","GID_1": "KEN.43_1","province": "Turkana","NL_NAME_1": "NA","GID_2": "KEN.43.1_1","county": "Loima","NL_NAME_2": "NA","city": "Kotaruk/Lobei","VARNAME_3": "NA","NL_NAME_3": "NA","TYPE_3": "Ward","ENGTYPE_3": "Ward","CC_3": "629","HASC_3": "NA","name": "Kotaruk_Lobei.city","area_km2": 1493.277,"hist_schema_id": "Elevation0-9000","hist_area_km2": {"550": 5.654,"575": 79.263,"600": 189.435,"625": 251.518,"650": 285.837,"675": 227.725,"700": 160.819,"725": 119.286,"750": 86.541,"775": 46.659,"800": 17.092,"825": 9.044,"850": 5.592,"875": 3.495,"900": 1.652,"925": 0.953,"950": 0.36,"975": 0.318,"1000": 0.275,"1025": 0.381,"1050": 0.254,"1075": 0.191,"1100": 0.191,"1125": 0.254,"1150": 0.169,"1175": 0.212,"1200": 0.106}}}