{"type":"Feature","properties":{"GID_3":"KEN.30.4.1_1","GID_0":"KEN","country":"Kenya","GID_1":"KEN.30_1","province":"Nairobi","NL_NAME_1":"NA","GID_2":"KEN.30.4_1","county":"EmbakasiEast","NL_NAME_2":"NA","city":"Embakasi","VARNAME_3":"NA","NL_NAME_3":"NA","TYPE_3":"Ward","ENGTYPE_3":"Ward","CC_3":"1423","HASC_3":"NA","name":"Embakasi.city"},
"geometry":{"type": "MultiPolygon","coordinates": [[[[36.9738,-1.2872,1585.776],[36.962,-1.2916,1593.2118],[36.9601,-1.2892,1592.5504],[36.9512,-1.2954,1599.0474],[36.9321,-1.3028,1611.9172],[36.9191,-1.2936,1612.3734],[36.9173,-1.29,1606.5402],[36.9111,-1.2955,1611.6631],[36.9134,-1.2985,1615.2878],[36.8936,-1.3123,1626.4434],[36.8993,-1.3214,1631.1013],[36.8814,-1.3338,1638.3834],[36.9075,-1.3601,1635.3135],[36.9339,-1.3364,1614.3257],[36.9604,-1.346,1605.4683],[36.9658,-1.3518,1606.6002],[36.9836,-1.3125,1584.9427],[36.9738,-1.2872,1585.776]]]]}}