{"type":"Feature","properties":{"GID_3":"KEN.38.3.4_1","GID_0":"KEN","country":"Kenya","GID_1":"KEN.38_1","province":"Siaya","NL_NAME_1":"NA","GID_2":"KEN.38.3_1","county":"Gem","NL_NAME_2":"NA","city":"SouthGem","VARNAME_3":"NA","NL_NAME_3":"NA","TYPE_3":"Ward","ENGTYPE_3":"Ward","CC_3":"1174","HASC_3":"NA","name":"South_Gem.city"},
"geometry":{"type": "MultiPolygon","coordinates": [[[[34.5192,-0.0179,1355.0079],[34.5172,-0.0111,1395.5156],[34.5197,-0.0083,1423.2781],[34.5199,-0.0052,1446.0967],[34.5118,0.0057,1387.3085],[34.5086,0.0071,1355.7224],[34.5075,0.0025,1364.5415],[34.5101,0.0003,1403.8267],[34.5073,-0.0029,1411.7484],[34.5028,0.0007,1385.2935],[34.5011,0.0044,1353.5339],[34.499,0.0041,1347.9058],[34.499,0.006,1332.9698],[34.4908,0.0027,1371.33],[34.4874,0.0042,1354.5408],[34.4876,0.0129,1304.3752],[34.4862,0.0149,1294.4542],[34.489,0.021,1318.8306],[34.488,0.0235,1306.3132],[34.4863,0.025,1310.8328],[34.4747,0.0263,1290.7695],[34.4674,0.0313,1277.7191],[34.4652,0.0286,1294.2169],[34.4612,0.0295,1300.1841],[34.4583,0.0272,1316.0391],[34.4579,0.0228,1266.9824],[34.4566,0.0234,1266.9824],[34.455,0.0214,1260.4451],[34.4548,0.0228,1271.0913],[34.4522,0.0232,1270.8358],[34.449,0.0183,1250.0502],[34.442,0.0183,1271.4287],[34.4322,0.0055,1265.4513],[34.4322,0.0005,1228.1101],[34.4284,-0.0025,1246.4227],[34.4229,-0.0013,1259.6074],[34.4197,-0.0027,1253.8245],[34.4187,-0.0014,1241.6945],[34.4153,-0.004,1252.8494],[34.4151,-0.0079,1266.1306],[34.4139,-0.0071,1274.1663],[34.4148,-0.0059,1261.3596],[34.4082,-0.0068,1277.2427],[34.4059,-0.01,1266.489],[34.4028,-0.0087,1274.9021],[34.3998,-0.0116,1241.9369],[34.3941,-0.0106,1243.2067],[34.3729,-0.0143,1250.1721],[34.3621,-0.0183,1220.0105],[34.3546,-0.0237,1255.9044],[34.3557,-0.034,1217.6047],[34.3576,-0.0369,1241.7279],[34.3634,-0.0378,1257.8499],[34.3691,-0.0409,1273.0214],[34.382,-0.0565,1318.0956],[34.4062,-0.0619,1344.936],[34.4165,-0.0694,1334.2532],[34.4171,-0.0723,1331.3784],[34.4251,-0.0627,1316.3547],[34.4319,-0.0586,1339.478],[34.4312,-0.0571,1328.7782],[34.4396,-0.0541,1345.7484],[34.4617,-0.0385,1327.4204],[34.472,-0.0355,1312.6591],[34.4854,-0.0266,1355.9642],[34.5072,-0.0222,1356.9646],[34.5192,-0.0179,1355.0079]]]]}}