{"type": "Feature","bbox": [34.5169,0.7037,34.5774,0.8033],"geometry": {"type": "MultiPolygon","coordinates": [[[[34.5698,0.7708,1681.6854],[34.5774,0.782,1935.8562],[34.574,0.7854,1829.2762],[34.5748,0.7948,1933.5901],[34.5717,0.8022,1954.9088],[34.5692,0.8032,1914.3201],[34.565,0.7982,1974.6327],[34.56,0.7987,2013.269],[34.5533,0.8033,2048.855],[34.553,0.7991,1966.2325],[34.5493,0.7965,2036.7004],[34.5453,0.7968,2099.8542],[34.535,0.8018,1760.6666],[34.5268,0.8014,1645.8937],[34.5242,0.7996,1631.6151],[34.5213,0.7924,1611.0479],[34.522,0.7816,1572.9618],[34.5191,0.7781,1589.7834],[34.5169,0.7697,1539.073],[34.5197,0.7631,1604.5453],[34.5239,0.7603,1601.9469],[34.5214,0.759,1573.924],[34.521,0.7569,1593.1139],[34.5211,0.7535,1602.2073],[34.5234,0.7511,1583.6476],[34.5201,0.7497,1577.8535],[34.5245,0.7306,1572.3395],[34.5239,0.7242,1507.7661],[34.5281,0.7152,1477.2653],[34.5287,0.7071,1455.0277],[34.5273,0.7037,1448.0352],[34.5292,0.7058,1451.4541],[34.5411,0.7057,1477.4766],[34.5506,0.713,1492.9355],[34.5499,0.7169,1520.3506],[34.5545,0.7239,1528.6265],[34.5536,0.7385,1594.8942],[34.5629,0.757,1611.5342],[34.5634,0.7625,1635.3171],[34.5664,0.7631,1634.2056],[34.5698,0.7708,1681.6854]]]]}
,"properties": {"GID_3": "KEN.3.8.3_1","GID_0": "KEN","country": "Kenya","GID_1": "KEN.3_1","province": "Bungoma","NL_NAME_1": "NA","GID_2": "KEN.3.8_1","county": "Sirisia","NL_NAME_2": "NA","city": "Namwela","VARNAME_3": "NA","NL_NAME_3": "NA","TYPE_3": "Ward","ENGTYPE_3": "Ward","CC_3": "1082","HASC_3": "NA","name": "Namwela.city","area_km2": 46.04713,"hist_schema_id": "Elevation0-9000","hist_area_km2": {"1450": 0.1272,"1475": 0.82682,"1500": 1.67484,"1525": 1.75964,"1550": 2.31085,"1575": 3.43446,"1600": 4.91848,"1625": 6.0845,"1650": 7.14451,"1675": 5.76648,"1700": 3.15884,"1725": 2.16243,"1750": 1.52642,"1775": 0.76321,"1800": 0.63601,"1825": 0.5088,"1850": 0.57241,"1875": 0.53,"1900": 0.3604,"1925": 0.3604,"1950": 0.3392,"1975": 0.2756,"2000": 0.2968,"2025": 0.1908,"2050": 0.1484,"2075": 0.0848,"2100": 0.0848}}}