{"type": "Feature","bbox": [34.9817,-1.0907,35.1401,-0.9717],"geometry": {"type": "MultiPolygon","coordinates": [[[[35.0908,-1.071,1784.7251],[35.1045,-1.062,1811.2744],[35.1114,-1.0611,1815.0323],[35.1206,-1.0532,1804.275],[35.1206,-1.0515,1808.7549],[35.1241,-1.0494,1814.912],[35.1239,-1.0417,1826.4374],[35.1291,-1.0434,1834.1799],[35.1307,-1.0425,1839.6028],[35.1388,-1.0299,1797.6399],[35.1401,-1.0227,1816.0143],[35.1335,-1.0212,1824.6693],[35.1287,-1.0174,1816.5872],[35.1231,-1.0161,1827.6381],[35.1209,-1.0134,1835.1261],[35.094,-1.002,1810.1334],[35.0548,-0.9717,1755.9576],[35.055,-0.9758,1753.5892],[35.0473,-0.9785,1759.26],[35.0465,-0.981,1758.1066],[35.0378,-0.9832,1756.6516],[35.034,-0.9867,1746.041],[35.0239,-0.988,1749.8196],[35.0233,-0.9909,1750.7808],[35.0253,-0.9925,1747.0017],[35.0253,-0.9954,1742.4901],[35.0212,-0.9953,1743.0615],[35.02,-0.9977,1741.4894],[35.0188,-0.9971,1745.2236],[35.0162,-1.0023,1746.167],[35.0174,-1.0041,1743.7063],[35.0147,-1.0059,1747.7372],[35.0142,-1.0083,1741.8154],[35.0065,-1.0156,1741.6622],[35.003,-1.0159,1740.1353],[34.9997,-1.0218,1736.6471],[34.9919,-1.0204,1739.8383],[34.989,-1.0181,1737.9565],[34.986,-1.0197,1733.0428],[34.9869,-1.0217,1733.4933],[34.9842,-1.0265,1726.3629],[34.9851,-1.0282,1725.401],[34.9817,-1.0311,1725.504],[34.9836,-1.0312,1725.2734],[34.9842,-1.0346,1723.3507],[34.9852,-1.0335,1725.3868],[34.9992,-1.0396,1734.8317],[35.001,-1.0451,1734.2112],[35.0084,-1.0497,1764.0876],[35.0086,-1.0592,1752.3564],[35.0119,-1.0697,1774.8877],[35.0148,-1.072,1789.3265],[35.017,-1.0773,1801.9766],[35.0209,-1.0907,1805.4712],[35.0268,-1.0881,1859.863],[35.0302,-1.0782,1850.667],[35.0408,-1.0637,1830.3566],[35.0524,-1.0351,1849.1451],[35.0664,-1.0428,1850.0402],[35.0764,-1.0465,1815.5546],[35.0859,-1.0463,1813.0652],[35.0915,-1.048,1802.333],[35.0945,-1.0568,1785.5332],[35.0913,-1.0645,1801.4231],[35.0908,-1.071,1784.7251]]]]}
,"properties": {"GID_3": "KEN.33.1.3_1","GID_0": "KEN","country": "Kenya","GID_1": "KEN.33_1","province": "Narok","NL_NAME_1": "NA","GID_2": "KEN.33.1_1","county": "EmuruaDikirr","NL_NAME_2": "NA","city": "Mogondo","VARNAME_3": "NA","NL_NAME_3": "NA","TYPE_3": "Ward","ENGTYPE_3": "Ward","CC_3": "889","HASC_3": "NA","name": "Mogondo.city","area_km2": 101.83904,"hist_schema_id": "Elevation0-9000","hist_area_km2": {"1725": 4.43055,"1750": 19.39699,"1775": 16.11109,"1800": 25.07814,"1825": 27.72798,"1850": 8.54311,"1875": 0.55117}}}