{"type":"Feature","properties":{"GID_3":"KEN.34.1.3_1","GID_0":"KEN","country":"Kenya","GID_1":"KEN.34_1","province":"Nyamira","NL_NAME_1":"NA","GID_2":"KEN.34.1_1","county":"Borabu","NL_NAME_2":"NA","city":"Mekenene","VARNAME_3":"NA","NL_NAME_3":"NA","TYPE_3":"Ward","ENGTYPE_3":"Ward","CC_3":"1362","HASC_3":"NA","name":"Mekenene.city"},
"geometry":{"type": "MultiPolygon","coordinates": [[[[35.0592,-0.6166,1807.1024],[35.0568,-0.6136,1805.0702],[35.0582,-0.6104,1850.626],[35.0572,-0.6092,1881.4355],[35.0618,-0.6041,1831.3882],[35.0619,-0.5976,1814.1072],[35.0566,-0.5914,1864.2819],[35.0548,-0.5849,1823.6306],[35.0509,-0.5793,1930.3699],[35.0498,-0.5673,1892.1428],[35.0474,-0.5661,1862.8287],[35.0508,-0.5598,1946.842],[35.0497,-0.5504,1885.5505],[35.0513,-0.5482,1926.4882],[35.0496,-0.5411,1815.5972],[35.0528,-0.5397,1934.0085],[35.0491,-0.5325,1770.7833],[35.053,-0.53,1762.613],[35.0517,-0.5231,1732.7512],[35.048,-0.5195,1646.7039],[35.0479,-0.5166,1654.7964],[35.0506,-0.5131,1648.2943],[35.0522,-0.5136,1648.2943],[35.0529,-0.5069,1635.4878],[35.0571,-0.502,1635.7941],[35.0541,-0.4994,1581.0309],[35.0554,-0.4982,1584.6125],[35.0497,-0.4924,1697.3265],[35.0466,-0.4944,1704.9017],[35.0328,-0.4926,1578.5533],[35.0326,-0.6288,1873.825],[35.0037,-0.629,1989.7079],[35.0039,-0.6405,2095.0312],[35.0103,-0.6483,2008.3918],[35.0179,-0.6521,1982.8583],[35.0198,-0.6637,2162.4854],[35.0169,-0.6676,2070.3433],[35.0199,-0.6762,2099.7976],[35.0162,-0.6846,2134.9746],[35.0131,-0.7011,2123.8276],[35.0352,-0.7083,1950.3199],[35.0422,-0.7086,1884.8857],[35.0486,-0.704,1838.4681],[35.0477,-0.7021,1851.5245],[35.0498,-0.6968,1849.9087],[35.0603,-0.6906,1785.0969],[35.0676,-0.6903,1775.9321],[35.0724,-0.6871,1765.8037],[35.0693,-0.6783,1772.1409],[35.0668,-0.6773,1817.1305],[35.0623,-0.6708,1843.0189],[35.0632,-0.6659,1848.8762],[35.0572,-0.6592,1843.5454],[35.055,-0.6515,1844.8978],[35.0569,-0.6432,1824.1438],[35.0554,-0.6395,1836.9973],[35.059,-0.6312,1807.9219],[35.0641,-0.6267,1804.6272],[35.0641,-0.6237,1814.0084],[35.0592,-0.6166,1807.1024]]]]}}