{"type": "Feature","bbox": [37.7934,-1.1684,38.1561,-0.8097],"geometry": {"type": "MultiPolygon","coordinates": [[[[38.0678,-1.1585,958.055],[38.1561,-1.151,1089.7581],[38.1422,-1.0873,1090.0562],[38.1327,-1.0585,1122.3994],[38.1561,-1.0262,796.032],[38.1553,-1.0185,799.7289],[38.1488,-1.0125,811.3254],[38.148,-1.0066,825.9522],[38.1418,-1.0045,869.1983],[38.1368,-1.0003,859.7444],[38.1354,-0.9971,874.0175],[38.1315,-0.9975,877.3776],[38.1293,-0.9998,864.1498],[38.1255,-0.9995,873.6598],[38.1241,-1.0013,881.3469],[38.1216,-1.0014,886.2168],[38.1211,-1.0049,877.199],[38.1175,-1.0067,895.4692],[38.1186,-1.0116,900.9193],[38.1158,-1.0146,902.092],[38.1104,-1.0159,932.7476],[38.1093,-1.0196,939.7047],[38.1059,-1.0187,959.1314],[38.1026,-1.0152,961.9165],[38.0986,-1.016,980.3643],[38.0968,-1.0235,1035.2856],[38.0933,-1.0257,1055.7771],[38.0901,-1.0334,1078.949],[38.0837,-1.035,1039.5972],[38.0817,-1.0339,1017.3801],[38.0735,-1.0098,1015.0658],[38.0707,-1.0083,1003.7958],[38.0714,-1.0054,1015.887],[38.0648,-1.004,996.7141],[38.0614,-1.0053,991.7941],[38.0611,-1.0006,998.9392],[38.056,-0.999,982.3613],[38.0533,-0.9955,987.822],[38.049,-0.9986,999.1222],[38.0343,-1.0019,1112.7963],[38.0337,-1.0034,1118.8185],[38.0302,-1.0042,1170.0697],[38.0252,-1.0024,1157.3438],[38.0164,-1.0037,1165.2354],[38.0141,-0.9994,1146.3014],[38.0113,-1.0,1169.3982],[38.006,-1.0052,1200.0397],[38.0035,-0.9959,1187.5739],[37.9911,-0.9821,1174.8926],[37.9904,-0.9769,1171.2814],[37.9814,-0.9844,1211.2495],[37.977,-0.9911,1178.91],[37.9573,-0.999,1138.0614],[37.9518,-0.9907,1121.6021],[37.9454,-0.9682,1149.4058],[37.9503,-0.9553,1118.9897],[37.9497,-0.9492,1113.3715],[37.9525,-0.9444,1091.881],[37.9504,-0.9384,1087.3447],[37.9477,-0.9168,1031.9144],[37.9434,-0.9125,1026.0922],[37.9378,-0.9031,1013.2432],[37.9295,-0.9037,1001.2374],[37.9285,-0.9011,1005.1411],[37.9258,-0.9,994.1022],[37.9252,-0.8954,1006.8417],[37.9275,-0.8921,982.0568],[37.9249,-0.8879,989.7406],[37.9183,-0.8891,976.9529],[37.9102,-0.8851,955.3724],[37.9085,-0.8825,957.0027],[37.9059,-0.8844,950.8421],[37.904,-0.8823,943.5991],[37.9043,-0.8792,937.5417],[37.9026,-0.88,953.4068],[37.9038,-0.8762,933.4614],[37.9025,-0.8757,937.5162],[37.9045,-0.8729,927.696],[37.9017,-0.8704,922.2158],[37.8993,-0.8705,908.4642],[37.8996,-0.8692,912.3519],[37.8977,-0.87,904.4089],[37.8976,-0.8673,898.027],[37.8953,-0.8684,906.2475],[37.8948,-0.8646,894.585],[37.8963,-0.8632,887.1156],[37.8934,-0.8605,911.11],[37.8886,-0.8623,873.8935],[37.885,-0.861,853.9518],[37.8838,-0.8574,838.2505],[37.885,-0.8565,840.9642],[37.8825,-0.8556,835.0377],[37.8848,-0.8544,843.9622],[37.8817,-0.8534,843.498],[37.8801,-0.8497,836.5731],[37.8837,-0.8463,815.1869],[37.883,-0.8411,801.4629],[37.8817,-0.8413,801.8791],[37.8823,-0.8385,813.4109],[37.8746,-0.8352,782.8881],[37.8693,-0.8356,763.9943],[37.8682,-0.8344,758.0256],[37.8701,-0.8338,751.9642],[37.8703,-0.8297,748.0035],[37.8673,-0.8272,756.3337],[37.8689,-0.8244,736.1319],[37.8662,-0.8184,738.8349],[37.8698,-0.8141,727.5531],[37.8704,-0.8107,732.676],[37.8665,-0.8097,729.1513],[37.8614,-0.8117,736.9692],[37.8555,-0.8098,738.3256],[37.8453,-0.8108,745.2958],[37.846,-0.814,735.3127],[37.843,-0.8185,749.264],[37.8475,-0.8213,751.2487],[37.8475,-0.8254,748.8835],[37.8456,-0.8281,764.3287],[37.8491,-0.8325,752.635],[37.8408,-0.835,786.3975],[37.8415,-0.8404,786.5217],[37.8447,-0.8421,779.1264],[37.841,-0.845,796.4064],[37.8373,-0.845,814.2292],[37.8365,-0.8466,814.1852],[37.8382,-0.8485,800.8707],[37.8365,-0.8515,813.9799],[37.831,-0.8536,827.0291],[37.833,-0.855,808.5882],[37.833,-0.8575,810.5475],[37.8299,-0.8572,836.756],[37.8284,-0.8607,831.7607],[37.8318,-0.8641,828.705],[37.8262,-0.8666,870.6809],[37.8274,-0.8722,840.6356],[37.8238,-0.8728,851.4018],[37.8257,-0.8761,852.5969],[37.8216,-0.8798,878.7238],[37.8219,-0.8829,875.285],[37.8198,-0.8826,900.0001],[37.8216,-0.8849,876.6735],[37.8221,-0.8909,897.0701],[37.8243,-0.8908,892.515],[37.8225,-0.8953,902.6809],[37.8185,-0.8962,926.0416],[37.8183,-0.8998,914.9718],[37.8284,-0.9014,916.9715],[37.8322,-0.9057,928.1594],[37.8369,-0.9052,958.3369],[37.8367,-0.9073,937.5591],[37.8331,-0.9078,934.9207],[37.8331,-0.9126,948.6611],[37.8386,-0.9098,941.8979],[37.8375,-0.9202,969.6044],[37.8427,-0.9198,967.7705],[37.8405,-0.9237,966.4997],[37.8438,-0.9236,962.4672],[37.8443,-0.9249,965.5533],[37.8416,-0.9277,969.4866],[37.847,-0.9285,970.9523],[37.8512,-0.9335,980.846],[37.8489,-0.9348,977.3666],[37.8488,-0.9366,989.3364],[37.8513,-0.9352,978.5115],[37.8523,-0.938,981.1839],[37.8502,-0.9418,995.1078],[37.8468,-0.9402,1003.7235],[37.846,-0.9423,1012.5322],[37.8488,-0.9434,991.002],[37.8463,-0.9473,1009.24],[37.8515,-0.9503,1011.3912],[37.8491,-0.9528,1016.7715],[37.8539,-0.9586,1009.8721],[37.8541,-0.9623,1020.1473],[37.8527,-0.9627,1017.901],[37.8511,-0.959,1028.2107],[37.8507,-0.961,1026.3589],[37.8445,-0.964,1050.3005],[37.8532,-0.9668,1032.5447],[37.8572,-0.9655,1044.022],[37.8596,-0.9679,1037.0217],[37.864,-0.9689,1048.5203],[37.8622,-0.9738,1052.1353],[37.8677,-0.9735,1047.4075],[37.868,-0.9778,1040.6538],[37.8623,-0.9784,1062.1332],[37.8622,-0.98,1060.1696],[37.8641,-0.9802,1049.1245],[37.8655,-0.9827,1042.5295],[37.8609,-0.9827,1063.9282],[37.8588,-0.9857,1061.3505],[37.854,-0.9866,1068.833],[37.8496,-0.9911,1062.156],[37.8503,-0.9943,1060.2428],[37.8462,-0.9947,1079.1431],[37.847,-0.9995,1066.5034],[37.8512,-1.0032,1072.488],[37.8491,-1.0136,1075.9434],[37.8488,-1.0264,1077.3057],[37.8463,-1.0293,1082.4446],[37.8483,-1.0415,1083.4755],[37.8458,-1.0449,1094.9272],[37.846,-1.0475,1092.8247],[37.8435,-1.0513,1096.7363],[37.84,-1.0524,1105.3539],[37.832,-1.0677,1105.5647],[37.8278,-1.0711,1117.1886],[37.8261,-1.07,1118.7698],[37.8206,-1.0708,1120.2195],[37.8188,-1.0802,1116.7274],[37.808,-1.0922,1130.7009],[37.8079,-1.0994,1137.4995],[37.8046,-1.1091,1140.756],[37.8025,-1.111,1151.4291],[37.8019,-1.1165,1145.3218],[37.798,-1.1182,1154.1483],[37.7978,-1.1207,1150.1014],[37.7934,-1.1257,1161.7872],[37.8086,-1.1211,1166.2269],[37.8584,-1.1202,1144.1912],[37.8672,-1.1281,1162.9425],[37.8785,-1.1238,1180.5868],[37.8878,-1.1257,1195.1091],[37.8892,-1.1306,1199.0756],[37.9016,-1.1301,1179.5061],[37.9069,-1.1327,1192.9697],[37.9095,-1.1319,1197.1821],[37.9224,-1.1343,1209.134],[37.9281,-1.1332,1223.7267],[37.9333,-1.1352,1230.7217],[37.9371,-1.1341,1251.0424],[37.9402,-1.136,1243.8691],[37.9463,-1.1339,1278.4016],[37.9487,-1.1372,1281.8724],[37.9553,-1.1347,1241.6219],[37.9579,-1.1378,1246.5582],[37.9605,-1.1373,1257.4766],[37.9656,-1.1396,1258.0803],[37.9685,-1.1427,1262.1912],[37.9714,-1.1432,1267.0997],[37.9726,-1.1415,1283.9644],[37.9814,-1.1495,1312.3208],[37.9912,-1.1466,1333.2122],[37.9952,-1.1476,1336.4233],[37.9987,-1.1537,1347.474],[38.0064,-1.1555,1386.8877],[38.0041,-1.1593,1432.8262],[38.0355,-1.1667,1147.144],[38.0439,-1.1635,1129.1963],[38.0475,-1.1639,1105.1611],[38.0472,-1.1664,1139.5923],[38.051,-1.1636,1077.9065],[38.0622,-1.1684,993.4348],[38.0682,-1.1684,916.7396],[38.0678,-1.1585,958.055]]]]}
,"properties": {"GID_2": "KEN.18.8_1","GID_0": "KEN","country": "Kenya","GID_1": "KEN.18_1","province": "Kitui","NL_NAME_1": "NA","county": "MwingiWest","VARNAME_2": "NA","NL_NAME_2": "NA","TYPE_2": "Constituency","ENGTYPE_2": "Constituency","CC_2": "68","HASC_2": "NA","name": "Mwingi_West.county","area_km2": 743.566,"hist_schema_id": "Elevation0-9000","hist_area_km2": {"725": 1.2084,"750": 5.0879,"775": 5.533,"800": 7.1441,"825": 9.4759,"850": 10.7691,"875": 12.2531,"900": 15.009,"925": 16.1326,"950": 19.9059,"975": 24.2306,"1000": 30.6327,"1025": 32.6677,"1050": 43.4579,"1075": 55.1595,"1100": 65.6737,"1125": 81.9114,"1150": 93.8458,"1175": 71.4814,"1200": 54.0984,"1225": 36.0372,"1250": 19.2692,"1275": 11.447,"1300": 7.4617,"1325": 5.5115,"1350": 3.4765,"1375": 2.2682,"1400": 1.6746,"1425": 0.4876,"1450": 0.106,"1475": 0.1272,"1500": 0.0212}}}