{"type": "Feature","bbox": [36.4026,-0.9146,36.7367,-0.4432],"geometry": {"type": "MultiPolygon","coordinates": [[[[36.6226,-0.8252,2614.3679],[36.622,-0.8215,2618.6667],[36.6742,-0.7728,2476.1003],[36.6597,-0.7667,2519.6177],[36.6505,-0.7688,2524.0381],[36.6446,-0.767,2533.1199],[36.6537,-0.7586,2525.8633],[36.6576,-0.7619,2503.1428],[36.6622,-0.762,2512.4385],[36.6718,-0.7526,2500.3152],[36.6872,-0.758,2504.4692],[36.701,-0.7754,2401.0569],[36.7048,-0.7782,2372.3135],[36.7071,-0.7778,2424.7266],[36.7103,-0.7839,2347.6858],[36.7119,-0.7843,2408.251],[36.7114,-0.7867,2358.3579],[36.7153,-0.7892,2400.2468],[36.7147,-0.7908,2324.5132],[36.7193,-0.7953,2360.9963],[36.7185,-0.797,2320.2368],[36.7223,-0.8006,2325.4111],[36.7241,-0.7853,2453.5359],[36.7205,-0.7805,2458.4084],[36.7194,-0.7731,2428.6245],[36.7237,-0.7777,2415.5547],[36.7278,-0.7741,2476.0051],[36.7367,-0.7738,2407.6609],[36.7232,-0.7603,2543.1616],[36.7193,-0.7517,2644.0381],[36.7163,-0.7286,2877.0078],[36.7133,-0.7202,2927.134],[36.7134,-0.7091,2928.9617],[36.7066,-0.6912,3011.8198],[36.7087,-0.681,3146.3696],[36.7078,-0.6718,3291.9844],[36.7094,-0.6578,3409.1382],[36.7058,-0.6405,3519.2842],[36.7081,-0.6276,3845.0142],[36.7076,-0.6212,3633.8394],[36.7007,-0.6154,3568.3301],[36.6898,-0.5983,3422.6772],[36.6844,-0.5924,3336.1089],[36.6796,-0.5817,3286.3975],[36.6806,-0.5728,3191.2661],[36.6728,-0.5697,3154.698],[36.6703,-0.5671,3245.7041],[36.6689,-0.5525,3277.5127],[36.67,-0.5436,3285.7483],[36.6684,-0.5362,3203.7275],[36.6639,-0.5287,3236.4446],[36.6644,-0.522,3188.2393],[36.6589,-0.5114,3182.8838],[36.6579,-0.5046,3181.5146],[36.6585,-0.4999,3186.2654],[36.662,-0.4962,3182.3853],[36.6608,-0.4863,3166.1379],[36.6668,-0.475,3076.0393],[36.6671,-0.4675,3108.9099],[36.6618,-0.4566,3128.6709],[36.6515,-0.4533,3178.1465],[36.6508,-0.4432,3297.7197],[36.6464,-0.4436,3238.5789],[36.6419,-0.447,3173.5388],[36.6328,-0.4457,2942.8752],[36.6217,-0.4582,2712.896],[36.6187,-0.4542,2764.7319],[36.615,-0.4553,2704.7231],[36.604,-0.4732,2578.123],[36.599,-0.4715,2589.1504],[36.5969,-0.4687,2589.4553],[36.5974,-0.4632,2623.3682],[36.5933,-0.4595,2630.8237],[36.5901,-0.451,2669.1719],[36.5367,-0.4664,2651.2139],[36.5331,-0.4732,2552.7881],[36.5475,-0.4832,2603.4065],[36.5363,-0.4926,2470.0454],[36.5274,-0.4847,2480.8999],[36.5013,-0.53,2423.4292],[36.5,-0.5283,2425.8289],[36.4972,-0.5293,2423.6167],[36.4973,-0.5264,2427.0356],[36.4911,-0.5251,2404.793],[36.4912,-0.5233,2418.6011],[36.4881,-0.522,2423.2039],[36.4841,-0.5235,2418.6604],[36.4828,-0.5218,2419.552],[36.48,-0.5249,2408.5742],[36.48,-0.5222,2414.6135],[36.4784,-0.5231,2388.9448],[36.4765,-0.52,2380.2009],[36.4738,-0.5199,2368.2212],[36.4754,-0.5186,2394.9741],[36.4734,-0.5177,2404.509],[36.4737,-0.5157,2410.4043],[36.4679,-0.5137,2383.3367],[36.4675,-0.5145,2383.3367],[36.4686,-0.5161,2391.6917],[36.4278,-0.5326,2302.0039],[36.4046,-0.5359,1979.418],[36.4027,-0.5407,1966.3674],[36.407,-0.5467,1973.5753],[36.4039,-0.5498,1981.3773],[36.4032,-0.5549,1966.3362],[36.4049,-0.5598,1961.911],[36.4032,-0.5599,1963.4521],[36.4043,-0.563,1965.6337],[36.4026,-0.565,1959.4491],[36.4062,-0.569,1957.8909],[36.443,-0.5641,2288.9099],[36.4514,-0.5596,2393.3806],[36.456,-0.6058,2399.311],[36.4679,-0.6205,2449.2375],[36.5061,-0.6169,2441.189],[36.5119,-0.6045,2434.4299],[36.5123,-0.6149,2427.4692],[36.5163,-0.6197,2447.0627],[36.5201,-0.6193,2456.0059],[36.5182,-0.6228,2448.6484],[36.5159,-0.6227,2445.1675],[36.5162,-0.6262,2431.1792],[36.5247,-0.6317,2453.2314],[36.5248,-0.6363,2451.2898],[36.5266,-0.6388,2448.7161],[36.5263,-0.6432,2457.2832],[36.5212,-0.647,2451.5508],[36.5441,-0.6907,2511.6245],[36.5207,-0.7046,2496.0076],[36.5303,-0.7226,2515.3789],[36.5589,-0.8317,2689.9106],[36.5616,-0.8358,2696.293],[36.5523,-0.849,2614.1807],[36.5545,-0.8666,2714.79],[36.5442,-0.9018,2445.1343],[36.5543,-0.9146,2393.6433],[36.5719,-0.9045,2427.2595],[36.5632,-0.8999,2678.1543],[36.58,-0.8864,2680.5442],[36.5896,-0.883,2677.2104],[36.6014,-0.8573,2669.1367],[36.5913,-0.8428,2691.771],[36.5887,-0.8218,2661.9595],[36.6226,-0.8252,2614.3679]]]]}
,"properties": {"GID_2": "KEN.35.1_1","GID_0": "KEN","country": "Kenya","GID_1": "KEN.35_1","province": "Nyandarua","NL_NAME_1": "NA","county": "Kinangop","VARNAME_2": "NA","NL_NAME_2": "NA","TYPE_2": "Constituency","ENGTYPE_2": "Constituency","CC_2": "89","HASC_2": "NA","name": "Kinangop.county","area_km2": 838.5995,"hist_schema_id": "Elevation0-9000","hist_area_km2": {"1950": 0.1484,"1975": 3.689,"2000": 0.9329,"2025": 1.1873,"2050": 0.8905,"2075": 0.6572,"2100": 0.53,"2125": 0.5088,"2150": 0.3604,"2175": 0.2968,"2200": 0.7844,"2225": 1.1449,"2250": 1.3993,"2275": 1.4205,"2300": 1.9717,"2325": 3.159,"2350": 3.7314,"2375": 5.5971,"2400": 24.9961,"2425": 73.8011,"2450": 60.529,"2475": 48.8047,"2500": 53.1082,"2525": 83.5308,"2550": 94.0251,"2575": 62.3302,"2600": 44.5425,"2625": 36.5286,"2650": 20.4163,"2675": 35.7012,"2700": 18.826,"2725": 11.83,"2750": 7.2932,"2775": 7.2083,"2800": 6.8691,"2825": 6.9539,"2850": 6.4875,"2875": 6.5299,"2900": 6.4239,"2925": 6.6783,"2950": 5.3003,"2975": 6.0211,"3000": 5.5759,"3025": 5.4063,"3050": 6.4239,"3075": 6.2119,"3100": 5.7031,"3125": 5.5971,"3150": 5.4911,"3175": 5.3639,"3200": 4.5794,"3225": 3.795,"3250": 2.9257,"3275": 2.4593,"3300": 2.2897,"3325": 2.1413,"3350": 1.3993,"3375": 1.2509,"3400": 0.848,"3425": 1.0176,"3450": 0.8268,"3475": 0.636,"3500": 0.6996,"3525": 0.5512,"3550": 0.2968,"3575": 0.6572,"3600": 0.5724,"3625": 0.5512,"3650": 0.4876,"3675": 0.4664,"3700": 0.3816,"3725": 0.318,"3750": 0.212,"3775": 0.1696,"3800": 0.0848,"3825": 0.0424,"3850": 0.0212}}}