{"type":"Feature","properties":{"GID_3":"KEN.3.1.1_1","GID_0":"KEN","country":"Kenya","GID_1":"KEN.3_1","province":"Bungoma","NL_NAME_1":"NA","GID_2":"KEN.3.1_1","county":"Bumula","NL_NAME_2":"NA","city":"Bumula","VARNAME_3":"NA","NL_NAME_3":"NA","TYPE_3":"Ward","ENGTYPE_3":"Ward","CC_3":"1090","HASC_3":"NA","name":"Bumula.city"},
"geometry":{"type": "MultiPolygon","coordinates": [[[[34.4548,0.4729,1265.8771],[34.4619,0.4739,1281.1809],[34.4648,0.4783,1286.3596],[34.4678,0.4794,1288.9529],[34.4692,0.4831,1295.2701],[34.4732,0.4852,1283.0414],[34.4745,0.4905,1285.4474],[34.4736,0.4999,1297.9487],[34.468,0.511,1341.3818],[34.4675,0.5164,1357.5388],[34.4634,0.5225,1345.8951],[34.46,0.5245,1339.1912],[34.4525,0.5228,1330.8208],[34.4478,0.5243,1324.0239],[34.4447,0.5465,1291.4797],[34.4617,0.5427,1316.7185],[34.4629,0.5399,1317.4655],[34.4773,0.5361,1348.677],[34.4796,0.5398,1334.3923],[34.479,0.5539,1309.1099],[34.4773,0.5545,1305.4744],[34.4749,0.5596,1303.3781],[34.4671,0.5652,1282.2878],[34.4629,0.573,1294.927],[34.4506,0.5748,1279.1659],[34.4381,0.5821,1275.8636],[34.4338,0.58,1275.2039],[34.4281,0.5809,1271.8927],[34.424,0.5792,1265.5626],[34.4151,0.579,1277.2231],[34.4095,0.574,1265.0619],[34.4029,0.5699,1259.7507],[34.3963,0.5681,1247.3127],[34.3928,0.5647,1249.9067],[34.3873,0.5443,1235.1803],[34.3908,0.5428,1241.2404],[34.401,0.5215,1257.119],[34.4067,0.5161,1263.522],[34.4085,0.51,1257.0851],[34.4075,0.5074,1255.0847],[34.4122,0.5063,1247.3223],[34.4342,0.5079,1283.8799],[34.4428,0.5064,1301.4272],[34.4444,0.5039,1292.5739],[34.4505,0.5026,1314.6793],[34.4548,0.4729,1265.8771]]]]}}