{"type": "Feature","bbox": [36.8878,-1.2411,36.9113,-1.231],"geometry": {"type": "MultiPolygon","coordinates": [[[[36.8996,-1.2395,1592.1447],[36.9017,-1.2397,1571.9042],[36.9016,-1.2374,1583.7888],[36.9032,-1.2363,1582.2012],[36.9113,-1.235,1582.0509],[36.9055,-1.231,1594.1991],[36.9016,-1.2329,1593.7257],[36.897,-1.2319,1599.5021],[36.8939,-1.2353,1592.2849],[36.89,-1.2354,1605.8239],[36.8903,-1.2388,1576.0479],[36.8878,-1.2389,1593.6572],[36.8879,-1.2411,1601.7374],[36.8996,-1.2395,1592.1447]]]]}
,"properties": {"GID_3": "KEN.30.15.3_1","GID_0": "KEN","country": "Kenya","GID_1": "KEN.30_1","province": "Nairobi","NL_NAME_1": "NA","GID_2": "KEN.30.15_1","county": "Ruaraka","NL_NAME_2": "NA","city": "LuckySummer","VARNAME_3": "NA","NL_NAME_3": "NA","TYPE_3": "Ward","ENGTYPE_3": "Ward","CC_3": "1404","HASC_3": "NA","name": "Lucky_Summer.city","area_km2": 1.377823,"hist_schema_id": "Elevation0-9000","hist_area_km2": {"1550": 0.084789,"1575": 0.93268,"1600": 0.360354}}}