{"type": "Feature","bbox": [39.3273,-3.9753,39.5303,-3.7846],"geometry": {"type": "MultiPolygon","coordinates": [[[[39.3797,-3.8052,170.2434],[39.3785,-3.8067,169.1291],[39.3755,-3.8019,174.7151],[39.3701,-3.8012,205.8647],[39.3733,-3.7937,211.8158],[39.3731,-3.7909,196.359],[39.3709,-3.7892,208.6839],[39.3605,-3.788,218.3548],[39.3543,-3.7846,224.0112],[39.3457,-3.7848,243.2206],[39.3409,-3.7896,229.9467],[39.3369,-3.7877,223.0661],[39.3347,-3.792,225.574],[39.3365,-3.8006,213.1432],[39.3387,-3.8041,207.6197],[39.3395,-3.8218,194.3906],[39.3349,-3.8408,188.9474],[39.3323,-3.8453,187.3106],[39.3321,-3.8517,186.2938],[39.3365,-3.8631,182.6581],[39.3373,-3.8739,178.9716],[39.3339,-3.8794,177.5359],[39.3333,-3.8997,169.6904],[39.3317,-3.9043,168.1618],[39.3287,-3.9072,166.7089],[39.3273,-3.914,166.1151],[39.3285,-3.9226,166.495],[39.3317,-3.9272,160.6616],[39.3341,-3.9272,160.1153],[39.3363,-3.9296,158.7369],[39.3381,-3.9357,157.9026],[39.3417,-3.9364,169.3079],[39.3383,-3.9423,159.6682],[39.3359,-3.9431,159.7498],[39.3321,-3.9486,162.2236],[39.3379,-3.9592,166.5454],[39.3469,-3.9693,212.8809],[39.3495,-3.971,214.9296],[39.3573,-3.9705,195.073],[39.3613,-3.9738,187.5415],[39.3653,-3.9723,183.7977],[39.3715,-3.9728,178.3119],[39.3731,-3.9753,193.7765],[39.3747,-3.9733,194.3805],[39.3789,-3.9732,186.0292],[39.3799,-3.971,194.4677],[39.3869,-3.9671,181.852],[39.3921,-3.9664,168.8961],[39.3949,-3.9693,166.5947],[39.3981,-3.9682,167.0929],[39.3999,-3.9656,157.9762],[39.4019,-3.9663,144.8242],[39.4045,-3.9563,154.7596],[39.4089,-3.953,147.5918],[39.4131,-3.9547,127.3242],[39.4143,-3.9514,139.6439],[39.4183,-3.9557,120.1424],[39.4255,-3.9556,125.4368],[39.4323,-3.9593,124.4489],[39.4407,-3.9548,144.0629],[39.4437,-3.9558,144.6403],[39.4479,-3.9612,118.4109],[39.4445,-3.9648,112.1953],[39.4465,-3.9709,112.0325],[39.4561,-3.962,104.3244],[39.4565,-3.9592,114.1286],[39.4655,-3.9499,140.6337],[39.4679,-3.9515,107.2981],[39.4689,-3.9575,99.999],[39.4737,-3.9616,99.2514],[39.4753,-3.9608,99.4041],[39.4739,-3.9525,129.1655],[39.4749,-3.9495,109.9336],[39.4783,-3.9489,99.5885],[39.4899,-3.9542,95.9322],[39.4941,-3.9518,93.2731],[39.4999,-3.9434,92.3833],[39.5057,-3.9402,87.3863],[39.5087,-3.9405,95.1882],[39.5107,-3.943,90.0404],[39.5129,-3.9422,96.2036],[39.5169,-3.9477,126.2654],[39.5213,-3.9489,138.3257],[39.5283,-3.9476,168.2906],[39.5273,-3.9443,154.069],[39.5303,-3.9346,159.7468],[39.5283,-3.931,175.8227],[39.5221,-3.9285,190.2788],[39.5201,-3.9151,198.9703],[39.5125,-3.9115,186.9661],[39.5065,-3.905,194.7683],[39.5023,-3.9045,195.514],[39.5001,-3.9022,198.8829],[39.4975,-3.8877,193.9393],[39.4942,-3.8844,200.4045],[39.4857,-3.8809,197.7899],[39.4677,-3.8595,202.8394],[39.4589,-3.8546,211.5546],[39.4509,-3.8533,204.3119],[39.4493,-3.8499,206.349],[39.4355,-3.8362,213.5986],[39.4343,-3.8323,209.5095],[39.4217,-3.8256,196.5519],[39.4195,-3.8205,190.9118],[39.4135,-3.8201,187.357],[39.4073,-3.8234,190.5096],[39.4039,-3.8213,186.8993],[39.3995,-3.8256,194.2119],[39.3935,-3.8178,186.0461],[39.3905,-3.8174,190.1052],[39.3797,-3.8052,170.2434]]]]}
,"properties": {"GID_3": "KEN.19.1.4_1","GID_0": "KEN","country": "Kenya","GID_1": "KEN.19_1","province": "Kwale","NL_NAME_1": "NA","GID_2": "KEN.19.1_1","county": "Kinango","NL_NAME_2": "NA","city": "Mwavumbo","VARNAME_3": "NA","NL_NAME_3": "NA","TYPE_3": "Ward","ENGTYPE_3": "Ward","CC_3": "49","HASC_3": "NA","name": "Mwavumbo.city","area_km2": 279.1808,"hist_schema_id": "Elevation0-9000","hist_area_km2": {"100": 4.0823,"125": 21.9771,"150": 63.141,"175": 86.7287,"200": 62.8265,"225": 27.7752,"250": 11.0423,"275": 1.6077}}}