{"type":"Feature","properties":{"GID_3":"KEN.33.4.2_1","GID_0":"KEN","country":"Kenya","GID_1":"KEN.33_1","province":"Narok","NL_NAME_1":"NA","GID_2":"KEN.33.4_1","county":"NarokNorth","NL_NAME_2":"NA","city":"NarokTown","VARNAME_3":"NA","NL_NAME_3":"NA","TYPE_3":"Ward","ENGTYPE_3":"Ward","CC_3":"893","HASC_3":"NA","name":"Narok_Town.city"},
"geometry":{"type": "MultiPolygon","coordinates": [[[[35.7467,-1.0455,1978.4905],[35.7082,-1.0714,1904.6152],[35.7146,-1.0761,1900.4102],[35.7164,-1.0811,1887.8805],[35.7214,-1.0852,1893.915],[35.721,-1.088,1878.5476],[35.7253,-1.0897,1881.4353],[35.7239,-1.0941,1876.7172],[35.7259,-1.0985,1877.101],[35.7303,-1.1053,1883.0977],[35.7326,-1.1052,1888.5591],[35.7313,-1.1119,1871.2323],[35.733,-1.1156,1864.718],[35.7317,-1.1177,1863.755],[35.7354,-1.1199,1865.8977],[35.7339,-1.1217,1864.2068],[35.7374,-1.1265,1860.5607],[35.7364,-1.1287,1859.6025],[35.7388,-1.131,1857.6217],[35.746,-1.1332,1865.0215],[35.7474,-1.1357,1860.8955],[35.7493,-1.1344,1868.2419],[35.752,-1.1354,1865.178],[35.7551,-1.1433,1855.3101],[35.7596,-1.1449,1859.411],[35.7578,-1.1483,1846.3318],[35.7589,-1.1513,1846.1174],[35.7567,-1.1526,1847.3086],[35.7595,-1.1565,1843.196],[35.7591,-1.1596,1841.6543],[35.7628,-1.1604,1845.3049],[35.7666,-1.1584,1848.9242],[35.7748,-1.1664,1840.3533],[35.775,-1.1692,1838.3579],[35.7764,-1.1683,1838.3579],[35.7781,-1.1734,1834.3335],[35.7925,-1.1777,1841.1835],[35.7948,-1.1764,1841.8452],[35.7955,-1.1785,1835.2958],[35.801,-1.1746,1832.1438],[35.802,-1.1766,1829.7085],[35.8045,-1.1765,1835.458],[35.8066,-1.1799,1830.1177],[35.8107,-1.1801,1833.2838],[35.8138,-1.1858,1829.0911],[35.8182,-1.1879,1835.1982],[35.8173,-1.1937,1817.9102],[35.8188,-1.1945,1817.5621],[35.8184,-1.1974,1818.2445],[35.8211,-1.1984,1817.7942],[35.8208,-1.2014,1816.0276],[35.8284,-1.2069,1821.9893],[35.8288,-1.212,1811.5811],[35.8334,-1.2169,1805.9574],[35.8372,-1.2161,1818.3521],[35.8389,-1.2189,1814.3707],[35.841,-1.2183,1812.6451],[35.8403,-1.2242,1802.3805],[35.846,-1.2234,1795.0007],[35.8471,-1.2201,1791.053],[35.844,-1.2189,1808.2195],[35.844,-1.2159,1815.5095],[35.8474,-1.2129,1820.3781],[35.8532,-1.2146,1807.6899],[35.8568,-1.2127,1807.172],[35.857,-1.21,1814.2026],[35.8593,-1.2084,1811.8217],[35.8614,-1.2086,1814.8872],[35.8641,-1.2126,1804.299],[35.8657,-1.2097,1812.3525],[35.8692,-1.2077,1817.9667],[35.8739,-1.2099,1804.0469],[35.8751,-1.2132,1794.881],[35.8792,-1.2116,1787.8215],[35.8764,-1.2078,1795.9236],[35.882,-1.2064,1790.3567],[35.9147,-1.1731,1905.6224],[35.9554,-1.1189,1846.8094],[35.9482,-1.1128,1884.0743],[35.9289,-1.1123,1947.7258],[35.9213,-1.1105,1932.848],[35.9163,-1.1075,1934.0923],[35.91,-1.1067,1930.4691],[35.8915,-1.0964,1920.0525],[35.8862,-1.09,1892.0802],[35.8857,-1.0851,1905.4478],[35.8867,-1.0727,1941.9515],[35.8876,-1.0699,1949.3716],[35.8927,-1.0655,1989.6982],[35.8929,-1.0603,1999.6837],[35.8865,-1.0558,2018.7567],[35.863,-1.0504,1988.0355],[35.8525,-1.0502,1904.3081],[35.8513,-1.0517,1904.4382],[35.8493,-1.0509,1916.3976],[35.8494,-1.0527,1918.9954],[35.8472,-1.0521,1931.5809],[35.8472,-1.0538,1930.7372],[35.8447,-1.0525,1921.6733],[35.8461,-1.0505,1934.6897],[35.8444,-1.0486,1924.3906],[35.8429,-1.0492,1924.3906],[35.8419,-1.0475,1908.282],[35.8408,-1.0495,1911.2347],[35.8397,-1.0479,1906.2415],[35.8379,-1.0484,1909.5549],[35.8409,-1.0456,1922.3951],[35.8384,-1.0423,1920.3074],[35.8416,-1.0416,1947.4623],[35.8389,-1.0402,1947.1185],[35.8345,-1.0419,1914.274],[35.8347,-1.0393,1913.3783],[35.8369,-1.0381,1918.1859],[35.8362,-1.0366,1924.4053],[35.8167,-1.0354,1985.4017],[35.8143,-1.0299,1959.3298],[35.7749,-1.0311,1985.8002],[35.7746,-1.0506,1957.2925],[35.7581,-1.0503,1952.4165],[35.7467,-1.0455,1978.4905]]]]}}