{"type": "Feature","bbox": [35.2207,0.8394,35.3784,0.95],"geometry": {"type": "MultiPolygon","coordinates": [[[[35.3593,0.95,2078.8076],[35.3489,0.9263,1988.8624],[35.3341,0.934,2084.8896],[35.3297,0.9389,2185.4685],[35.3054,0.8959,1893.2849],[35.303,0.8984,1885.6375],[35.303,0.903,1891.7661],[35.2987,0.9038,1883.1453],[35.2957,0.9087,1876.6863],[35.2957,0.9128,1887.2185],[35.2941,0.9127,1873.9592],[35.2941,0.9158,1884.8125],[35.2922,0.9182,1880.3723],[35.2936,0.9195,1886.1511],[35.2849,0.9256,1884.0121],[35.2784,0.9266,1868.8745],[35.2779,0.9291,1876.9697],[35.2725,0.9347,1867.8494],[35.2706,0.9408,1881.4691],[35.262,0.941,1872.7844],[35.2604,0.9435,1867.8027],[35.2509,0.9459,1877.7977],[35.2465,0.9438,1870.0702],[35.2443,0.9386,1856.473],[35.2384,0.9378,1842.0892],[35.2292,0.9276,1870.0481],[35.224,0.9259,1868.8231],[35.2207,0.8924,1964.4238],[35.2497,0.8898,1937.7917],[35.2552,0.8721,1984.9933],[35.2789,0.9038,1995.7168],[35.2819,0.9001,1951.2402],[35.2835,0.9019,1929.1727],[35.2893,0.8984,1935.3989],[35.2959,0.8882,1950.1465],[35.3077,0.8832,1890.6133],[35.293,0.8737,2023.2632],[35.2941,0.866,1999.6287],[35.2993,0.8628,1952.4557],[35.2882,0.8463,2007.8575],[35.2963,0.8394,1947.5187],[35.304,0.8426,2027.6458],[35.2994,0.8458,1928.0446],[35.3075,0.856,1912.0884],[35.3161,0.8522,1962.0151],[35.3212,0.8521,2003.6915],[35.3192,0.859,1937.9869],[35.3487,0.8819,1961.9075],[35.3523,0.9016,1931.2123],[35.3539,0.898,1933.1725],[35.3587,0.9004,1950.5645],[35.3678,0.9197,2030.4028],[35.3733,0.9165,2041.3049],[35.3766,0.9212,2015.9526],[35.3762,0.9325,2058.363],[35.3784,0.9388,2058.8999],[35.3778,0.9422,2081.6448],[35.3593,0.95,2078.8076]]]]}
,"properties": {"GID_3": "KEN.44.5.5_1","GID_0": "KEN","country": "Kenya","GID_1": "KEN.44_1","province": "UasinGishu","NL_NAME_1": "NA","GID_2": "KEN.44.5_1","county": "Soy","NL_NAME_2": "NA","city": "Segero/Barsombe","VARNAME_3": "NA","NL_NAME_3": "NA","TYPE_3": "Ward","ENGTYPE_3": "Ward","CC_3": "704","HASC_3": "NA","name": "Segero_Barsombe.city","area_km2": 89.54695,"hist_schema_id": "Elevation0-9000","hist_area_km2": {"1825": 0.36039,"1850": 6.16903,"1875": 12.2321,"1900": 14.22494,"1925": 14.94576,"1950": 11.87179,"1975": 10.66338,"2000": 8.96742,"2025": 3.22233,"2050": 2.11994,"2075": 1.82315,"2100": 1.50516,"2125": 0.72078,"2150": 0.38159,"2175": 0.0848,"2200": 0.1484,"2225": 0.0848,"2250": 0.0212}}}