{"type":"Feature","properties":{"GID_3":"KEN.26.7.6_1","GID_0":"KEN","country":"Kenya","GID_1":"KEN.26_1","province":"Meru","NL_NAME_1":"NA","GID_2":"KEN.26.7_1","county":"SouthImenti","NL_NAME_2":"NA","city":"Nkuene","VARNAME_3":"NA","NL_NAME_3":"NA","TYPE_3":"Ward","ENGTYPE_3":"Ward","CC_3":"295","HASC_3":"NA","name":"Nkuene.city"},
"geometry":{"type": "MultiPolygon","coordinates": [[[[37.3111,-0.1487,4707.9248],[37.5663,-0.074,2212.7637],[37.5891,-0.0719,1972.806],[37.5963,-0.0718,1877.4685],[37.5999,-0.0733,1891.3958],[37.6117,-0.0721,1826.7891],[37.6211,-0.0732,1755.7859],[37.6229,-0.0741,1740.4456],[37.6237,-0.0779,1755.4192],[37.6333,-0.0817,1642.0741],[37.6353,-0.0814,1634.0028],[37.6401,-0.0738,1610.2804],[37.6515,-0.0736,1554.9167],[37.6519,-0.0802,1541.6678],[37.6633,-0.0816,1503.6135],[37.6657,-0.0852,1471.031],[37.6707,-0.0873,1442.4248],[37.6783,-0.0875,1410.8274],[37.6843,-0.0811,1405.5089],[37.6865,-0.0808,1397.4771],[37.6825,-0.0785,1408.946],[37.6803,-0.0734,1416.4467],[37.6827,-0.0714,1396.7639],[37.6771,-0.0637,1447.3134],[37.6639,-0.0609,1500.3452],[37.6619,-0.0578,1524.1906],[37.6587,-0.0573,1533.6897],[37.6587,-0.0535,1533.2324],[37.6557,-0.0468,1539.7347],[37.6511,-0.039,1553.9473],[37.6463,-0.0348,1586.0618],[37.6353,-0.0348,1623.3643],[37.6331,-0.032,1656.1046],[37.6279,-0.0311,1678.1375],[37.6213,-0.0266,1723.7896],[37.6173,-0.0272,1759.8076],[37.6019,-0.0232,1884.2646],[37.5838,-0.0214,1955.8467],[37.5781,-0.0229,1990.9921],[37.5733,-0.0271,2044.5743],[37.3111,-0.1487,4707.9248]]]]}}