{"type": "Feature","bbox": [39.8001,-3.5055,39.9699,-3.2913],"geometry": {"type": "MultiPolygon","coordinates": [[[[39.8069,-3.4971,177.7585],[39.8737,-3.4978,26.7038],[39.8767,-3.4881,25.7989],[39.9246,-3.5055,5.0178],[39.926,-3.5035,0.0],[39.9265,-3.4949,0.0],[39.9338,-3.484,0.0],[39.9424,-3.4607,5.2427],[39.9476,-3.4535,3.0068],[39.9568,-3.4354,0.0],[39.9579,-3.4279,6.2447],[39.9615,-3.424,0.0],[39.9635,-3.416,2.2995],[39.9682,-3.4099,3.0581],[39.9699,-3.4049,0.0],[39.9693,-3.4026,0.0],[39.9674,-3.4029,0.9347],[39.966,-3.4013,5.8212],[39.9679,-3.3935,2.3842],[39.9668,-3.3907,0.0],[39.9624,-3.3896,6.5093],[39.9597,-3.3865,3.1417],[39.9575,-3.3872,4.696],[39.9513,-3.3842,4.6191],[39.9479,-3.3783,4.8411],[39.9428,-3.376,10.5733],[39.9429,-3.3728,3.5125],[39.9413,-3.3719,2.7185],[39.9369,-3.3736,1.2468],[39.9245,-3.3642,13.8708],[39.8086,-3.2913,127.7043],[39.8099,-3.3135,132.6179],[39.8075,-3.3159,126.9281],[39.8061,-3.3309,126.659],[39.8001,-3.3453,140.8534],[39.8103,-3.3756,154.9703],[39.8069,-3.4971,177.7585]]]]}
,"properties": {"GID_3": "KEN.14.3.3_1","GID_0": "KEN","country": "Kenya","GID_1": "KEN.14_1","province": "Kilifi","NL_NAME_1": "NA","GID_2": "KEN.14.3_1","county": "KilifiNorth","NL_NAME_2": "NA","city": "Matsangoni","VARNAME_3": "NA","NL_NAME_3": "NA","TYPE_3": "Ward","ENGTYPE_3": "Ward","CC_3": "55","HASC_3": "NA","name": "Matsangoni.city","area_km2": 285.5318,"hist_schema_id": "Elevation0-9000","hist_area_km2": {"0": 44.9526,"25": 61.3128,"50": 46.5193,"75": 11.958,"100": 15.3232,"125": 28.0009,"150": 46.0129,"175": 30.4573,"200": 0.9523,"225": 0.0423}}}