{"type": "Feature","bbox": [39.5203,-3.9913,39.6115,-3.8958],"geometry": {"type": "MultiPolygon","coordinates": [[[[39.5203,-3.9155,198.9703],[39.5221,-3.9285,190.2788],[39.5283,-3.931,175.8227],[39.5303,-3.9346,159.7468],[39.5277,-3.9436,154.069],[39.5283,-3.9472,168.2906],[39.5339,-3.9538,172.191],[39.5393,-3.9569,167.1068],[39.5453,-3.9574,162.5551],[39.5483,-3.9633,164.5741],[39.5459,-3.9759,163.4081],[39.5397,-3.9885,87.3669],[39.5417,-3.9905,143.247],[39.5451,-3.9913,123.7725],[39.5501,-3.986,104.4194],[39.5545,-3.9842,73.312],[39.5645,-3.9875,61.6711],[39.5685,-3.9911,51.9749],[39.5751,-3.9842,39.0859],[39.5689,-3.9795,36.2214],[39.5693,-3.975,45.6807],[39.5827,-3.9699,78.3239],[39.5837,-3.9654,71.1387],[39.5971,-3.952,35.6132],[39.5995,-3.9499,26.5006],[39.6033,-3.9531,18.4564],[39.6115,-3.9438,10.2345],[39.6105,-3.9421,14.3345],[39.6055,-3.9449,14.9291],[39.6019,-3.9445,23.2609],[39.5975,-3.9409,105.6701],[39.5921,-3.9411,31.1071],[39.5935,-3.9362,79.5499],[39.5857,-3.9327,125.7486],[39.5917,-3.9287,84.6153],[39.5927,-3.9258,126.7597],[39.5841,-3.9223,109.8221],[39.5883,-3.9136,125.1916],[39.5853,-3.9131,118.7034],[39.5826,-3.9072,134.2478],[39.5781,-3.9099,129.6754],[39.5773,-3.9128,136.4581],[39.5669,-3.9096,137.6006],[39.5593,-3.9114,133.9917],[39.561,-3.9062,138.0887],[39.5583,-3.9027,138.7552],[39.5573,-3.8958,164.2473],[39.5523,-3.8993,159.3588],[39.5463,-3.8962,176.3124],[39.5403,-3.898,178.7344],[39.5309,-3.9045,187.2003],[39.5213,-3.9163,197.3869],[39.5203,-3.9155,198.9703]]]]}
,"properties": {"GID_3": "KEN.14.7.3_1","GID_0": "KEN","country": "Kenya","GID_1": "KEN.14_1","province": "Kilifi","NL_NAME_1": "NA","GID_2": "KEN.14.7_1","county": "Rabai","NL_NAME_2": "NA","city": "Rabai/Kisurutini","VARNAME_3": "NA","NL_NAME_3": "NA","TYPE_3": "Ward","ENGTYPE_3": "Ward","CC_3": "70","HASC_3": "NA","name": "Rabai_Kisurutini.city","area_km2": 54.78391,"hist_schema_id": "Elevation0-9000","hist_area_km2": {"0": 0.27498,"25": 1.48062,"50": 2.39011,"75": 3.6169,"100": 2.79201,"125": 4.14579,"150": 15.018,"175": 18.08524,"200": 6.3457,"225": 0.42304,"250": 0.16921,"275": 0.0423}}}