{"type": "Feature","bbox": [34.8066,0.4737,34.9154,0.6086],"geometry": {"type": "MultiPolygon","coordinates": [[[[34.8066,0.5557,1485.2734],[34.8152,0.5532,1492.9005],[34.8175,0.5509,1488.2314],[34.8169,0.5498,1479.3553],[34.8196,0.5499,1474.2026],[34.8238,0.5403,1477.2556],[34.8326,0.5356,1494.8147],[34.8349,0.5288,1490.3074],[34.8389,0.5293,1508.9202],[34.8404,0.5238,1494.5],[34.8381,0.5209,1483.0852],[34.8402,0.5193,1486.1312],[34.8444,0.5089,1500.2307],[34.8536,0.5044,1511.975],[34.8608,0.5061,1517.6029],[34.863,0.5031,1520.8706],[34.8672,0.5024,1524.0068],[34.8708,0.5003,1536.0538],[34.8707,0.498,1536.9801],[34.8749,0.4966,1538.6497],[34.8792,0.4878,1551.7034],[34.8817,0.4867,1568.9922],[34.8808,0.4806,1552.2949],[34.8838,0.4737,1601.6426],[34.8948,0.4777,1602.8962],[34.8963,0.4811,1620.8867],[34.8982,0.4805,1620.8867],[34.9003,0.4842,1604.5696],[34.902,0.4839,1616.0348],[34.902,0.4856,1617.6896],[34.9055,0.4832,1626.5232],[34.9077,0.4835,1627.407],[34.9084,0.4896,1670.1166],[34.9115,0.4907,1704.6028],[34.9154,0.4893,1739.1152],[34.9084,0.4959,1734.1519],[34.9065,0.5104,1919.9424],[34.8883,0.526,1902.0785],[34.8759,0.5326,1713.9316],[34.8707,0.5381,1689.1979],[34.8521,0.5518,1699.1522],[34.8976,0.6055,1733.4739],[34.8956,0.6073,1727.8136],[34.8882,0.605,1713.6431],[34.8889,0.6084,1701.6936],[34.8867,0.6086,1693.7932],[34.8732,0.6005,1656.6381],[34.8763,0.594,1618.0326],[34.8752,0.5936,1630.3645],[34.8737,0.5978,1637.6143],[34.8733,0.5951,1683.1755],[34.862,0.5893,1556.1938],[34.86,0.5889,1547.5879],[34.8592,0.5924,1559.1246],[34.8583,0.5883,1559.3356],[34.8531,0.5854,1575.3551],[34.8488,0.5841,1566.1492],[34.8458,0.5857,1558.8159],[34.8405,0.5835,1552.8049],[34.8336,0.585,1558.2288],[34.8204,0.5807,1523.1917],[34.8067,0.5696,1488.0417],[34.8066,0.5557,1485.2734]]]]}
,"properties": {"GID_3": "KEN.11.6.4_1","GID_0": "KEN","country": "Kenya","GID_1": "KEN.11_1","province": "Kakamega","NL_NAME_1": "NA","GID_2": "KEN.11.6_1","county": "Malava","NL_NAME_2": "NA","city": "Manda-Shivanga","VARNAME_3": "NA","NL_NAME_3": "NA","TYPE_3": "Ward","ENGTYPE_3": "Ward","CC_3": "1006","HASC_3": "NA","name": "Manda-Shivanga.city","area_km2": 66.06313,"hist_schema_id": "Elevation0-9000","hist_area_km2": {"1475": 1.52649,"1500": 9.20135,"1525": 6.25438,"1550": 6.36038,"1575": 9.62535,"1600": 9.96459,"1625": 6.33918,"1650": 3.3498,"1675": 2.20493,"1700": 2.45934,"1725": 2.05652,"1750": 1.6961,"1775": 1.08127,"1800": 0.86925,"1825": 0.57244,"1850": 0.48763,"1875": 0.33922,"1900": 0.69964,"1925": 0.48763,"1950": 0.33922,"1975": 0.12721,"2000": 0.0212}}}