{"type":"Feature","properties":{"GID_3":"KEN.18.1.4_1","GID_0":"KEN","country":"Kenya","GID_1":"KEN.18_1","province":"Kitui","NL_NAME_1":"NA","GID_2":"KEN.18.1_1","county":"KituiCentral","NL_NAME_2":"NA","city":"Township","VARNAME_3":"NA","NL_NAME_3":"NA","TYPE_3":"Ward","ENGTYPE_3":"Ward","CC_3":"355","HASC_3":"NA","name":"Township.city"},
"geometry":{"type": "MultiPolygon","coordinates": [[[[38.0054,-1.3535,1132.8904],[38.0056,-1.3576,1127.4255],[38.0027,-1.3624,1126.5905],[37.9988,-1.3636,1137.7061],[37.9988,-1.366,1128.9983],[37.993899999999996,-1.3654,1133.2593],[37.9916,-1.3678,1114.7236],[37.9893,-1.3749,1103.0865],[37.9921,-1.3819,1095.5386],[37.99,-1.3828,1103.6794],[37.9917,-1.3836,1088.0137],[37.9892,-1.3888,1085.8787],[37.9861,-1.3887,1118.0057],[37.9853,-1.3919,1085.3978],[37.9867,-1.3929,1085.3978],[37.9917,-1.3941,1093.2175],[37.9984,-1.3885,1095.6036],[37.9993,-1.3825,1112.611],[38.0037,-1.3803,1117.9021],[38.0078,-1.3745,1129.5155],[38.0227,-1.3692,1110.3503],[38.0246,-1.3673,1111.8147],[38.0234,-1.3642,1119.7639],[38.0254,-1.3621,1116.9773],[38.0235,-1.3582,1133.9872],[38.017,-1.3527,1133.2068],[38.0144,-1.3524,1138.8231],[38.0186,-1.345,1138.7512],[38.0169,-1.3432,1151.7628],[38.0195,-1.3431,1146.2021],[38.0216,-1.3406,1170.0702],[38.0198,-1.3329,1186.5806],[38.0129,-1.3358,1169.5347],[38.0094,-1.3483,1138.926],[38.0054,-1.3535,1132.8904]]]]}}