{"type": "Feature","bbox": [35.1164,-1.0312,35.2927,-0.8725],"geometry": {"type": "MultiPolygon","coordinates": [[[[35.2418,-0.9523,1756.9224],[35.2398,-0.9505,1767.8444],[35.2317,-0.9511,1809.4203],[35.2288,-0.9484,1801.3965],[35.2226,-0.9524,1812.7507],[35.218,-0.9392,1826.3042],[35.2192,-0.9357,1831.9182],[35.2141,-0.9308,1841.3262],[35.2063,-0.9343,1833.4689],[35.2002,-0.9333,1836.0393],[35.1951,-0.9349,1845.4391],[35.1974,-0.926,1854.001],[35.1975,-0.9171,1849.2366],[35.1957,-0.9165,1844.7196],[35.1899,-0.919,1830.2645],[35.1838,-0.9233,1834.6143],[35.1736,-0.9165,1826.1345],[35.155,-0.8949,1805.8521],[35.1448,-0.8775,1806.9857],[35.1403,-0.8725,1807.9113],[35.1394,-0.8782,1798.3812],[35.136,-0.8837,1797.5184],[35.1365,-0.8872,1798.1724],[35.13,-0.8968,1798.1174],[35.138,-0.9072,1800.1743],[35.1368,-0.9146,1789.5011],[35.1294,-0.9237,1787.0248],[35.1164,-0.9286,1778.6221],[35.2384,-1.0296,1699.839],[35.2411,-1.031,1696.2178],[35.2432,-1.029,1695.8875],[35.2446,-1.0312,1698.4797],[35.2492,-1.0279,1700.925],[35.2479,-1.0272,1698.113],[35.2487,-1.0249,1700.3459],[35.2515,-1.0249,1703.5568],[35.2512,-1.0221,1708.3176],[35.2545,-1.0241,1710.7189],[35.2583,-1.0225,1712.5938],[35.2602,-1.0162,1734.4193],[35.2642,-1.0113,1718.1135],[35.2673,-1.0104,1716.728],[35.2683,-1.0075,1724.1201],[35.2704,-1.0071,1715.2448],[35.2719,-1.0033,1722.2866],[35.2706,-1.0014,1733.8898],[35.2775,-0.9972,1743.6617],[35.2779,-0.9943,1764.9282],[35.2789,-0.9951,1757.0568],[35.2834,-0.9888,1754.9426],[35.2874,-0.9872,1737.0588],[35.2927,-0.9801,1741.6794],[35.2818,-0.9713,1791.4117],[35.2772,-0.9624,1801.1763],[35.275,-0.9631,1786.1545],[35.2725,-0.9728,1772.5339],[35.2732,-0.9749,1754.9524],[35.2708,-0.98,1751.53],[35.2614,-0.9895,1731.4836],[35.2597,-0.9816,1750.0541],[35.2558,-0.9793,1738.1912],[35.257,-0.9777,1744.0667],[35.2542,-0.9734,1744.6379],[35.2551,-0.9707,1745.0045],[35.2539,-0.9701,1749.8257],[35.2578,-0.9662,1753.2192],[35.2566,-0.963,1758.9976],[35.2525,-0.9593,1772.5967],[35.2465,-0.9599,1773.3711],[35.2457,-0.9571,1759.1697],[35.2435,-0.9573,1755.5508],[35.2413,-0.9547,1761.688],[35.2418,-0.9523,1756.9224]]]]}
,"properties": {"GID_3": "KEN.2.3.1_1","GID_0": "KEN","country": "Kenya","GID_1": "KEN.2_1","province": "Bomet","NL_NAME_1": "NA","GID_2": "KEN.2.3_1","county": "Chepalungu","NL_NAME_2": "NA","city": "Chebunyo","VARNAME_3": "NA","NL_NAME_3": "NA","TYPE_3": "Ward","ENGTYPE_3": "Ward","CC_3": "974","HASC_3": "NA","name": "Chebunyo.city","area_km2": 116.10813,"hist_schema_id": "Elevation0-9000","hist_area_km2": {"1700": 3.85819,"1725": 7.61042,"1750": 13.80057,"1775": 21.64432,"1800": 34.76691,"1825": 27.45314,"1850": 6.97457}}}