{"type": "Feature","bbox": [34.5912,0.0054,34.6592,0.0482],"geometry": {"type": "MultiPolygon","coordinates": [[[[34.6253,0.0084,1691.3325],[34.6312,0.0153,1565.9587],[34.6445,0.0217,1584.9863],[34.6592,0.0463,1511.7236],[34.6552,0.0474,1495.8506],[34.6529,0.0456,1488.0422],[34.6523,0.0476,1482.2969],[34.649,0.0446,1519.8269],[34.6471,0.0459,1526.7843],[34.6428,0.0439,1517.8873],[34.6418,0.0466,1516.6177],[34.6394,0.0436,1516.4742],[34.633,0.0482,1505.4254],[34.6323,0.0466,1505.6826],[34.627,0.0471,1521.7152],[34.6263,0.0424,1532.4684],[34.6207,0.0416,1509.3726],[34.6167,0.0373,1539.1243],[34.6138,0.0275,1540.9331],[34.6041,0.0262,1501.4492],[34.5991,0.0224,1494.3855],[34.5957,0.0234,1498.8276],[34.5956,0.0164,1535.6565],[34.5912,0.0083,1496.8979],[34.6024,0.0174,1517.3652],[34.6083,0.0091,1559.7516],[34.6111,0.0101,1608.8812],[34.6135,0.0088,1674.9247],[34.6129,0.0068,1661.552],[34.6108,0.0062,1585.2649],[34.6117,0.0054,1575.1997],[34.6253,0.0084,1691.3325]]]]}
,"properties": {"GID_3": "KEN.45.3.1_1","GID_0": "KEN","country": "Kenya","GID_1": "KEN.45_1","province": "Vihiga","NL_NAME_1": "NA","GID_2": "KEN.45.3_1","county": "Luanda","NL_NAME_2": "NA","city": "Emabungo","VARNAME_3": "NA","NL_NAME_3": "NA","TYPE_3": "Ward","ENGTYPE_3": "Ward","CC_3": "1072","HASC_3": "NA","name": "Emabungo.city","area_km2": 16.66493,"hist_schema_id": "Elevation0-9000","hist_area_km2": {"1500": 1.08131,"1525": 4.38886,"1550": 5.85181,"1575": 2.60787,"1600": 0.78448,"1625": 0.44525,"1650": 0.27563,"1675": 0.48765,"1700": 0.25443,"1725": 0.38164,"1750": 0.08481,"1775": 0.0212}}}