{"type":"Feature","properties":{"GID_2":"KEN.35.5_1","GID_0":"KEN","country":"Kenya","GID_1":"KEN.35_1","province":"Nyandarua","NL_NAME_1":"NA","county":"OlKalou","VARNAME_2":"NA","NL_NAME_2":"NA","TYPE_2":"Constituency","ENGTYPE_2":"Constituency","CC_2":"91","HASC_2":"NA","name":"Ol_Kalou.county"},
"geometry":{"type": "MultiPolygon","coordinates": [[[[36.387,-0.4538,2031.6686],[36.3884,-0.4523,2010.676],[36.3907,-0.4543,2023.7261],[36.3918,-0.452,2019.54],[36.3934,-0.452,2110.1545],[36.3962,-0.4478,2096.8208],[36.3956,-0.4412,2142.6279],[36.3981,-0.4374,2136.6641],[36.4023,-0.4368,2188.9097],[36.4059,-0.4304,2149.0642],[36.4095,-0.4298,2099.842],[36.4098,-0.4235,2192.0198],[36.4148,-0.4177,2175.9551],[36.4133,-0.4156,2186.1724],[36.4211,-0.413,2144.3613],[36.4225,-0.4076,2192.0837],[36.4274,-0.4055,2160.3809],[36.4289,-0.4025,2191.9583],[36.4267,-0.3996,2230.6621],[36.4263,-0.3946,2229.7002],[36.4279,-0.3913,2243.2507],[36.4233,-0.3824,2196.6936],[36.4242,-0.3794,2239.5459],[36.4223,-0.378,2203.4348],[36.4189,-0.366,2240.7383],[36.4209,-0.3628,2264.9807],[36.4198,-0.36,2257.4165],[36.4177,-0.3594,2251.3401],[36.4171,-0.3553,2248.5654],[36.4177,-0.3526,2260.2644],[36.4194,-0.3528,2279.8208],[36.4156,-0.3426,2271.8369],[36.4188,-0.3427,2263.312],[36.4198,-0.3388,2283.3982],[36.4158,-0.333,2274.0408],[36.4176,-0.3312,2282.9199],[36.4154,-0.3269,2266.0244],[36.4168,-0.3256,2265.3447],[36.4126,-0.3141,2290.4365],[36.4152,-0.309,2274.0667],[36.4149,-0.3059,2275.4849],[36.4117,-0.3012,2283.1719],[36.4156,-0.2945,2276.7002],[36.4142,-0.2864,2303.8882],[36.415,-0.2784,2302.1021],[36.4115,-0.2735,2299.0786],[36.4128,-0.2721,2329.9319],[36.41,-0.2681,2304.1978],[36.4101,-0.2559,2309.1313],[36.4081,-0.2542,2339.813],[36.4097,-0.2546,2309.1313],[36.4105,-0.2526,2318.6289],[36.4112,-0.2537,2305.8862],[36.414,-0.2516,2296.6306],[36.4176,-0.259,2303.1682],[36.435,-0.2601,2346.5483],[36.4353,-0.2577,2344.7798],[36.4368,-0.2592,2337.2246],[36.4388,-0.2579,2331.7832],[36.4391,-0.2541,2331.8936],[36.4412,-0.2535,2324.2065],[36.4413,-0.2479,2338.0271],[36.439,-0.2415,2347.0071],[36.4529,-0.2366,2337.8242],[36.4673,-0.2348,2340.3286],[36.4782,-0.2313,2342.3076],[36.4692,-0.2179,2337.2866],[36.4624,-0.2204,2337.2715],[36.4598,-0.2108,2333.9612],[36.4487,-0.1951,2330.5],[36.4434,-0.1737,2330.5],[36.4498,-0.1768,2330.5],[36.4446,-0.1625,2330.5],[36.4289,-0.1655,2337.3811],[36.4217,-0.1869,2342.1182],[36.4202,-0.1871,2342.7258],[36.4158,-0.1808,2339.814],[36.4124,-0.1687,2342.5439],[36.3818,-0.1728,2376.4124],[36.382,-0.1808,2393.1621],[36.3787,-0.1811,2398.1323],[36.3758,-0.1709,2386.3391],[36.3732,-0.1687,2403.6821],[36.3741,-0.1633,2392.4624],[36.3726,-0.1566,2407.7754],[36.3482,-0.1553,2531.1868],[36.3484,-0.1606,2531.5168],[36.3448,-0.1603,2569.4185],[36.3429,-0.1666,2592.1589],[36.3453,-0.1751,2562.8196],[36.344,-0.1782,2595.3652],[36.3403,-0.1738,2639.8298],[36.3361,-0.1792,2615.0503],[36.3331,-0.1796,2635.7959],[36.3289,-0.1729,2604.1426],[36.3316,-0.1699,2623.1743],[36.3278,-0.1709,2643.0088],[36.3259,-0.1693,2630.5369],[36.3242,-0.1718,2660.4788],[36.321,-0.1685,2661.0835],[36.32,-0.1699,2669.8218],[36.3133,-0.166,2685.8501],[36.3075,-0.1743,2705.312],[36.3086,-0.1761,2709.5439],[36.3062,-0.1776,2721.8464],[36.3045,-0.1754,2724.2153],[36.3013,-0.1804,2682.9338],[36.3048,-0.1823,2718.7998],[36.3102,-0.1935,2663.1704],[36.3104,-0.2,2622.4668],[36.3083,-0.2064,2625.8906],[36.2944,-0.2208,2692.5466],[36.2919,-0.2122,2721.7371],[36.2892,-0.214,2718.833],[36.2825,-0.2083,2635.071],[36.2717,-0.2045,2698.7668],[36.266,-0.1941,2726.2441],[36.2561,-0.1966,2763.8965],[36.2542,-0.1872,2777.6624],[36.2551,-0.1779,2744.2251],[36.2521,-0.1671,2733.1003],[36.2537,-0.1623,2800.1553],[36.2442,-0.166,2705.9971],[36.2413,-0.16,2692.1069],[36.2376,-0.1572,2684.9639],[36.2382,-0.1538,2715.4763],[36.2357,-0.1517,2688.4915],[36.2363,-0.1496,2696.1514],[36.2316,-0.1479,2676.3379],[36.2291,-0.14,2664.5447],[36.2233,-0.1429,2654.4536],[36.2203,-0.1376,2608.3313],[36.2235,-0.1271,2520.531],[36.2124,-0.1155,2467.9165],[36.2008,-0.1302,2431.6067],[36.2115,-0.1815,2595.9429],[36.2118,-0.1972,2587.9297],[36.2202,-0.2052,2562.6914],[36.2242,-0.2045,2532.0193],[36.2371,-0.2235,2550.0471],[36.2461,-0.2486,2518.7837],[36.2128,-0.2635,2189.7095],[36.2138,-0.288,2127.0132],[36.2249,-0.3401,2057.2935],[36.2286,-0.3475,2033.4745],[36.2317,-0.3374,2021.4458],[36.2411,-0.3384,2202.2114],[36.246,-0.3407,2230.4648],[36.249,-0.3399,2235.9546],[36.2524,-0.3363,2389.2959],[36.2629,-0.3364,2451.9927],[36.2758,-0.3864,2289.0464],[36.293,-0.3673,2433.4402],[36.3116,-0.3627,2366.3318],[36.3139,-0.3798,2384.3862],[36.3343,-0.3827,2387.6865],[36.3601,-0.372,2282.9521],[36.3648,-0.3893,2255.6904],[36.378,-0.398,2207.397],[36.3808,-0.4047,2183.6243],[36.3792,-0.4164,2174.1648],[36.3812,-0.4201,2116.3481],[36.3861,-0.4211,2140.9712],[36.3868,-0.4336,2043.8875],[36.3892,-0.4372,2041.948],[36.3878,-0.4466,2043.7604],[36.389,-0.4484,2019.9812],[36.3856,-0.4503,2074.1519],[36.387,-0.4538,2031.6686]]]]}}