{"type": "Feature","bbox": [35.1373,-0.2434,35.343,-0.1013],"geometry": {"type": "MultiPolygon","coordinates": [[[[35.3127,-0.2419,1591.4277],[35.3159,-0.2434,1626.5581],[35.3204,-0.2422,1669.0386],[35.3316,-0.2368,1761.9725],[35.342,-0.234,1757.626],[35.343,-0.2317,1741.342],[35.3364,-0.2029,1628.1348],[35.331,-0.1864,1752.3484],[35.3307,-0.1707,1679.6111],[35.2961,-0.1701,1543.9971],[35.2787,-0.1402,1521.7637],[35.2772,-0.1399,1521.7637],[35.2712,-0.1473,1510.0759],[35.2536,-0.1143,1580.5956],[35.2349,-0.1139,1441.0768],[35.2263,-0.1029,1451.176],[35.2264,-0.1013,1451.176],[35.2185,-0.105,1408.9355],[35.2158,-0.1128,1394.2087],[35.2132,-0.1154,1384.5858],[35.2046,-0.1164,1355.0977],[35.2055,-0.115,1360.4315],[35.1979,-0.1131,1354.0085],[35.1908,-0.1187,1339.1963],[35.1807,-0.1218,1318.2491],[35.1732,-0.1259,1292.0413],[35.1667,-0.1233,1281.5659],[35.1622,-0.126,1270.5326],[35.155,-0.1222,1275.1255],[35.1373,-0.1567,1241.5328],[35.1397,-0.157,1242.804],[35.1397,-0.1554,1246.1641],[35.1466,-0.1562,1257.6582],[35.1537,-0.1582,1250.7937],[35.156,-0.1603,1251.4294],[35.1618,-0.1588,1257.665],[35.164,-0.1562,1265.9852],[35.1657,-0.1574,1263.9385],[35.1675,-0.156,1267.1633],[35.1662,-0.1585,1261.6647],[35.1671,-0.1597,1262.7417],[35.1703,-0.1569,1266.3263],[35.1734,-0.1568,1274.5671],[35.184,-0.1597,1276.3519],[35.1865,-0.1568,1274.3193],[35.1846,-0.1549,1290.1493],[35.186,-0.1535,1300.053],[35.1919,-0.1572,1285.5592],[35.1979,-0.1566,1291.5035],[35.2014,-0.1607,1295.222],[35.2044,-0.1602,1285.8376],[35.2034,-0.1624,1280.5342],[35.2055,-0.1643,1283.9791],[35.2111,-0.166,1303.3416],[35.2101,-0.1676,1295.3634],[35.2123,-0.1668,1302.1459],[35.2154,-0.169,1302.704],[35.2156,-0.1745,1292.7897],[35.218,-0.1754,1306.4468],[35.219,-0.1804,1307.4832],[35.2176,-0.1815,1301.1093],[35.2202,-0.1869,1310.2993],[35.218,-0.1884,1304.5728],[35.2211,-0.1892,1310.4279],[35.2218,-0.188,1325.0214],[35.2266,-0.191,1334.8521],[35.2314,-0.1888,1367.2661],[35.236,-0.1911,1357.9395],[35.2368,-0.1955,1329.262],[35.2408,-0.1941,1338.5392],[35.2443,-0.1987,1350.9968],[35.2462,-0.1967,1357.9919],[35.2456,-0.1978,1353.3687],[35.2491,-0.2025,1341.9182],[35.2473,-0.2047,1336.5215],[35.2493,-0.2056,1346.7684],[35.2488,-0.208,1339.1133],[35.2506,-0.2065,1348.1921],[35.2506,-0.2086,1344.5337],[35.2532,-0.2102,1352.7415],[35.2541,-0.213,1352.103],[35.2561,-0.2132,1358.4044],[35.2573,-0.2162,1371.3],[35.2635,-0.2183,1404.5061],[35.2613,-0.2202,1380.9626],[35.2608,-0.2239,1361.6385],[35.2634,-0.2285,1376.1301],[35.2648,-0.2271,1373.7871],[35.2659,-0.2292,1388.6372],[35.2685,-0.2293,1403.2314],[35.2689,-0.2312,1452.3214],[35.2722,-0.2325,1418.3824],[35.2731,-0.2312,1474.7983],[35.2779,-0.2322,1445.032],[35.2861,-0.2303,1540.3828],[35.2928,-0.2307,1573.2739],[35.2982,-0.2333,1521.5258],[35.2997,-0.2321,1577.8954],[35.3014,-0.235,1571.483],[35.3063,-0.2342,1657.0732],[35.3127,-0.2419,1591.4277]]]]}
,"properties": {"GID_3": "KEN.17.4.4_1","GID_0": "KEN","country": "Kenya","GID_1": "KEN.17_1","province": "Kisumu","NL_NAME_1": "NA","GID_2": "KEN.17.4_1","county": "Muhoroni","NL_NAME_2": "NA","city": "Muhoroni/Koru","VARNAME_3": "NA","NL_NAME_3": "NA","TYPE_3": "Ward","ENGTYPE_3": "Ward","CC_3": "1215","HASC_3": "NA","name": "Muhoroni_Koru.city","area_km2": 150.7258,"hist_schema_id": "Elevation0-9000","hist_area_km2": {"1250": 2.1202,"1275": 7.9932,"1300": 13.9086,"1325": 10.0498,"1350": 10.9403,"1375": 11.6612,"1400": 10.7707,"1425": 11.5551,"1450": 11.852,"1475": 12.3608,"1500": 11.4279,"1525": 9.1169,"1550": 6.4454,"1575": 4.9613,"1600": 3.7528,"1625": 3.3923,"1650": 3.4771,"1675": 2.2474,"1700": 1.2085,"1725": 0.6785,"1750": 0.5937,"1775": 0.1908,"1800": 0.0212}}}