{"type":"Feature","properties":{"GID_3":"KEN.5.4.5_1","GID_0":"KEN","country":"Kenya","GID_1":"KEN.5_1","province":"Elgeyo-Marakwet","NL_NAME_1":"NA","GID_2":"KEN.5.4_1","county":"MarakwetWest","NL_NAME_2":"NA","city":"Sengwer","VARNAME_3":"NA","NL_NAME_3":"NA","TYPE_3":"Ward","ENGTYPE_3":"Ward","CC_3":"736","HASC_3":"NA","name":"Sengwer.city"},
"geometry":{"type": "MultiPolygon","coordinates": [[[[35.3428,1.0656,2397.7822],[35.3464,1.0745,2438.8362],[35.3498,1.0781,2401.2578],[35.3485,1.0832,2472.6089],[35.3511,1.0837,2420.114],[35.3524,1.0881,2425.3955],[35.3503,1.0971,2500.6899],[35.3451,1.1036,2468.5044],[35.3439,1.1088,2500.1213],[35.3336,1.1277,2460.3464],[35.3253,1.124,2444.0427],[35.2484,1.1583,2243.5791],[35.1517,1.2045,2217.6162],[35.1607,1.1845,2276.5193],[35.1782,1.1602,2190.6787],[35.2021,1.1222,2273.3391],[35.2177,1.1209,2248.7856],[35.2421,1.0792,2129.5281],[35.271,1.0677,2162.75],[35.312,1.0425,2207.6675],[35.3259,1.0373,2260.9561],[35.3304,1.0394,2248.9531],[35.3319,1.0426,2268.1868],[35.3325,1.0494,2261.7781],[35.3311,1.0527,2331.3025],[35.3324,1.0562,2320.3401],[35.3404,1.0597,2393.8701],[35.3428,1.0656,2397.7822]]]]}}