{"type":"Feature","properties":{"GID_2":"KEN.32.3_1","GID_0":"KEN","country":"Kenya","GID_1":"KEN.32_1","province":"Nandi","NL_NAME_1":"NA","county":"Emgwen","VARNAME_2":"NA","NL_NAME_2":"NA","TYPE_2":"Constituency","ENGTYPE_2":"Constituency","CC_2":"155","HASC_2":"NA","name":"Emgwen.county"},
"geometry":{"type": "MultiPolygon","coordinates": [[[[34.9291,0.0933,1802.0964],[34.9331,0.0917,1822.4105],[34.9363,0.0875,1860.2478],[34.9421,0.0854,1843.1479],[34.9466,0.0886,1869.2826],[34.9704,0.0838,1988.6625],[34.9915,0.0862,2029.0793],[35.0015,0.0896,1967.0969],[35.0037,0.0917,1959.6577],[35.0048,0.1023,1955.1628],[35.0019,0.1051,1937.7174],[35.0019,0.1106,1927.046],[35.0108,0.1223,1857.2526],[35.0153,0.1229,1843.8992],[35.0183,0.1261,1807.8005],[35.0182,0.1314,1828.9174],[35.0202,0.1315,1844.9186],[35.0228,0.1271,1844.8632],[35.0341,0.1296,1874.2585],[35.0444,0.1263,1909.6002],[35.0512,0.1281,1927.2505],[35.0543,0.1244,1906.8124],[35.0582,0.1244,1922.9149],[35.0612,0.1262,1903.0463],[35.0639,0.1258,1909.0156],[35.067,0.1334,1946.5345],[35.0704,0.1358,1906.0923],[35.0698,0.1384,1916.4803],[35.0719,0.1379,1911.0553],[35.0727,0.1423,1954.172],[35.0794,0.1392,1898.8367],[35.0826,0.1461,1904.3],[35.0884,0.1487,1933.0723],[35.0901,0.148,1925.1772],[35.092,0.1505,1946.9806],[35.094,0.1488,1920.2319],[35.0957,0.1504,1920.2319],[35.1033,0.1482,1936.6118],[35.104,0.1493,1943.0061],[35.1146,0.1387,1946.6279],[35.1202,0.142,1989.8103],[35.1309,0.1404,1950.7378],[35.1366,0.1468,1976.9486],[35.1401,0.1573,2023.4651],[35.1542,0.1451,1930.0088],[35.1615,0.1479,1963.0017],[35.1736,0.1541,1956.931],[35.1795,0.1589,1973.9752],[35.1865,0.1747,1936.2644],[35.1861,0.1789,1940.5973],[35.1965,0.1801,1974.439],[35.2036,0.1853,1954.8308],[35.2044,0.1934,1980.7639],[35.2085,0.1981,1990.0701],[35.2109,0.1994,1985.078],[35.216,0.1982,1998.4866],[35.2154,0.1919,1976.0374],[35.2231,0.1919,2008.2976],[35.2266,0.1934,2032.1658],[35.227,0.1981,2043.8896],[35.2235,0.2078,2054.3818],[35.2322,0.2117,2034.4769],[35.2404,0.2116,2080.3264],[35.2444,0.2099,2093.5098],[35.2592,0.2127,2097.0608],[35.2734,0.2122,2097.5591],[35.2749,0.2156,2107.3706],[35.2871,0.2232,2141.6838],[35.289,0.2343,2122.1064],[35.26,0.2772,2126.8789],[35.2615,0.279,2127.2478],[35.241,0.3084,2154.3726],[35.2329,0.3108,2143.1094],[35.2252,0.3082,2129.238],[35.2221,0.3099,2128.3076],[35.2183,0.3066,2126.8169],[35.2184,0.3028,2087.8052],[35.2164,0.3019,2059.6284],[35.2162,0.2986,2032.5353],[35.214,0.2959,2008.3123],[35.2145,0.2883,1964.3162],[35.2115,0.2775,1962.2126],[35.2045,0.2824,1964.7772],[35.2008,0.2821,1965.7885],[35.1951,0.278,1956.1401],[35.1824,0.2762,1951.6832],[35.1696,0.2686,1947.6189],[35.1683,0.272,1949.9402],[35.1657,0.2724,1952.3257],[35.1639,0.2758,1955.0193],[35.1635,0.2735,1952.224],[35.1649,0.2707,1951.0564],[35.168,0.2694,1948.6394],[35.1679,0.2677,1947.6189],[35.1572,0.2599,1945.1145],[35.1659,0.2586,1944.4432],[35.1677,0.2486,1944.3862],[35.1717,0.2438,1945.3359],[35.1694,0.2421,1945.6202],[35.1688,0.238,1958.5067],[35.1726,0.2324,1956.6176],[35.1719,0.2308,1956.377],[35.165,0.236,1965.3849],[35.1607,0.2345,1966.5233],[35.1593,0.2314,1963.9453],[35.1601,0.2288,1963.3652],[35.1558,0.2233,1976.5339],[35.1559,0.2161,2008.179],[35.1505,0.2111,2002.4127],[35.1437,0.2091,1965.5583],[35.1338,0.2184,1974.7946],[35.126,0.2221,1953.2816],[35.124,0.2217,1960.2649],[35.123,0.2239,1985.459],[35.115,0.2218,1980.6995],[35.1115,0.2234,1955.5487],[35.1026,0.2218,1940.9868],[35.0951,0.2225,1967.2264],[35.0897,0.2254,1924.0164],[35.0852,0.2242,1916.2577],[35.076,0.2265,1937.5773],[35.0763,0.218,1898.1401],[35.0798,0.2151,1941.9985],[35.0794,0.2111,1942.6909],[35.0838,0.2076,1942.1885],[35.0725,0.2007,1949.579],[35.0648,0.2003,1922.5861],[35.0579,0.198,1898.5164],[35.0491,0.2006,1880.076],[35.0483,0.1982,1889.7102],[35.0507,0.1962,1895.9021],[35.049,0.1921,1885.1066],[35.0463,0.1928,1907.4292],[35.0439,0.1897,1899.5688],[35.0459,0.1819,1872.3778],[35.0529,0.1695,1901.693],[35.0499,0.1675,1882.7972],[35.0498,0.1657,1880.1578],[35.0479,0.1661,1892.4983],[35.0477,0.1605,1886.8165],[35.0498,0.1581,1853.9071],[35.0466,0.1549,1878.1282],[35.0408,0.1544,1885.642],[35.0382,0.1509,1887.9666],[35.0386,0.1489,1865.9318],[35.0361,0.1482,1891.153],[35.0382,0.1472,1877.0984],[35.0377,0.1459,1873.7947],[35.0319,0.1447,1854.6202],[35.0305,0.1428,1834.0027],[35.0267,0.1472,1881.3602],[35.025,0.1455,1842.3618],[35.0236,0.1475,1859.8789],[35.0208,0.1467,1869.2738],[35.0179,0.149,1874.0498],[35.0101,0.1482,1821.9053],[35.0117,0.1504,1829.6779],[35.0111,0.1536,1863.1819],[35.0104,0.1511,1851.4138],[35.0051,0.1483,1838.4941],[34.9989,0.1503,1795.6414],[34.9892,0.1597,1771.4172],[34.9918,0.1647,1818.767],[34.9906,0.166,1826.6963],[34.9892,0.1643,1819.6005],[34.9871,0.166,1809.0438],[34.9819,0.1663,1784.8746],[34.9809,0.164,1791.5129],[34.976,0.1653,1758.2192],[34.9754,0.1626,1764.8969],[34.9744,0.1632,1750.8939],[34.9722,0.1689,1766.5281],[34.9839,0.176,1839.6448],[34.9868,0.1819,1854.559],[34.9848,0.1895,1905.2917],[34.9852,0.1966,1900.1741],[34.9879,0.2045,1983.2708],[34.9876,0.2109,2027.8872],[34.9785,0.2459,2071.3569],[34.9565,0.2458,1664.1973],[34.9432,0.2131,1645.4448],[34.929,0.2136,1597.5612],[34.9203,0.1861,1597.4744],[34.916,0.1774,1614.1638],[34.9206,0.1739,1677.9053],[34.9141,0.1603,1729.0431],[34.9092,0.1589,1703.7886],[34.9053,0.1448,1716.2231],[34.9352,0.1326,1773.0272],[34.9366,0.1304,1779.1301],[34.929,0.1222,1836.77],[34.93,0.1089,1849.2928],[34.9315,0.1069,1854.8638],[34.9284,0.0995,1822.3888],[34.9291,0.0933,1802.0964]]]]}}