{"type": "Feature","bbox": [35.0797,-0.6581,35.1616,-0.5868],"geometry": {"type": "MultiPolygon","coordinates": [[[[35.1536,-0.6535,1859.8949],[35.1556,-0.6429,1900.4227],[35.159,-0.6413,1903.718],[35.1616,-0.6376,1906.3965],[35.1594,-0.6351,1891.5696],[35.1552,-0.6354,1856.2188],[35.1518,-0.6333,1850.5288],[35.1543,-0.6282,1867.2744],[35.1508,-0.6268,1846.761],[35.1495,-0.623,1869.7262],[35.143,-0.622,1849.6633],[35.1337,-0.6231,1823.2499],[35.1256,-0.6269,1825.6838],[35.1212,-0.6265,1815.7635],[35.1192,-0.6297,1815.5354],[35.1088,-0.6333,1802.708],[35.109,-0.6134,1822.8392],[35.1115,-0.6079,1826.1676],[35.1106,-0.603,1835.5714],[35.1089,-0.6037,1825.4628],[35.102,-0.6011,1759.8784],[35.0981,-0.5967,1770.0752],[35.0974,-0.5936,1751.1738],[35.0948,-0.5937,1721.7267],[35.0928,-0.5868,1752.4025],[35.0857,-0.5872,1735.1196],[35.0853,-0.5888,1687.2352],[35.081,-0.5907,1736.8657],[35.0847,-0.5934,1708.135],[35.0819,-0.5947,1687.4603],[35.0814,-0.6005,1741.0746],[35.0869,-0.6037,1743.1709],[35.084,-0.6108,1724.7603],[35.0856,-0.6143,1713.709],[35.0823,-0.6162,1760.0432],[35.0879,-0.6195,1734.0168],[35.0842,-0.6271,1757.1733],[35.081,-0.6298,1775.5538],[35.0831,-0.6338,1739.078],[35.0797,-0.6334,1782.1808],[35.0832,-0.6369,1719.1235],[35.0809,-0.6399,1716.9106],[35.0798,-0.6465,1731.9336],[35.0819,-0.6464,1720.9678],[35.0929,-0.653,1790.0665],[35.0992,-0.6511,1771.9644],[35.1089,-0.6514,1801.7401],[35.1148,-0.6488,1821.1863],[35.1196,-0.6516,1826.8302],[35.1216,-0.6581,1815.3301],[35.1314,-0.6557,1841.7415],[35.1323,-0.6538,1844.7134],[35.141,-0.6551,1838.7452],[35.1472,-0.6529,1863.2767],[35.1506,-0.6542,1858.3728],[35.1536,-0.6535,1859.8949]]]]}
,"properties": {"GID_3": "KEN.12.3.3_1","GID_0": "KEN","country": "Kenya","GID_1": "KEN.12_1","province": "Kericho","NL_NAME_1": "NA","GID_2": "KEN.12.3_1","county": "Bureti","NL_NAME_2": "NA","city": "Cheplanget","VARNAME_3": "NA","NL_NAME_3": "NA","TYPE_3": "Ward","ENGTYPE_3": "Ward","CC_3": "955","HASC_3": "NA","name": "Cheplanget.city","area_km2": 33.87907,"hist_schema_id": "Elevation0-9000","hist_area_km2": {"1675": 0.36042,"1700": 0.95405,"1725": 2.41691,"1750": 3.18014,"1775": 3.90097,"1800": 5.83025,"1825": 8.14116,"1850": 5.06701,"1875": 3.09533,"1900": 0.91164,"1925": 0.0212}}}