{"type": "Feature","bbox": [34.3837,0.1832,34.485,0.274],"geometry": {"type": "MultiPolygon","coordinates": [[[[34.4559,0.274,1364.3081],[34.4459,0.2631,1330.9658],[34.4388,0.2482,1292.7754],[34.4322,0.2441,1299.436],[34.4242,0.2422,1300.0581],[34.4199,0.2375,1284.3318],[34.4115,0.2365,1299.6747],[34.4089,0.234,1295.4248],[34.3984,0.2375,1270.2438],[34.3928,0.2369,1269.3145],[34.3837,0.233,1262.3621],[34.3905,0.2209,1255.2723],[34.3921,0.2115,1276.0063],[34.3899,0.2042,1298.4425],[34.3904,0.1974,1311.8063],[34.3847,0.1852,1265.8374],[34.3853,0.1832,1265.6672],[34.3975,0.1878,1291.0726],[34.4013,0.1912,1290.623],[34.404,0.1912,1286.7449],[34.4079,0.1956,1277.4006],[34.4111,0.2031,1293.8313],[34.4208,0.2081,1305.1567],[34.428,0.2166,1319.238],[34.4362,0.2201,1330.0706],[34.4433,0.2222,1342.0007],[34.4462,0.2202,1346.3571],[34.4499,0.2119,1329.5173],[34.4545,0.2101,1316.8962],[34.4659,0.212,1321.3591],[34.467,0.2152,1341.9009],[34.4719,0.2174,1346.441],[34.4768,0.222,1345.4226],[34.4838,0.2232,1350.5653],[34.485,0.2325,1379.2542],[34.478,0.2451,1333.5807],[34.4559,0.274,1364.3081]]]]}
,"properties": {"GID_3": "KEN.11.9.4_1","GID_0": "KEN","country": "Kenya","GID_1": "KEN.11_1","province": "Kakamega","NL_NAME_1": "NA","GID_2": "KEN.11.9_1","county": "MumiasWest","NL_NAME_2": "NA","city": "Musanda","VARNAME_3": "NA","NL_NAME_3": "NA","TYPE_3": "Ward","ENGTYPE_3": "Ward","CC_3": "1023","HASC_3": "NA","name": "Musanda.city","area_km2": 45.73279,"hist_schema_id": "Elevation0-9000","hist_area_km2": {"1250": 3.34992,"1275": 9.07448,"1300": 12.04276,"1325": 8.90485,"1350": 9.24408,"1375": 3.1167}}}