{"type":"Feature","properties":{"GID_3":"KEN.32.1.4_1","GID_0":"KEN","country":"Kenya","GID_1":"KEN.32_1","province":"Nandi","NL_NAME_1":"NA","GID_2":"KEN.32.1_1","county":"Aldai","NL_NAME_2":"NA","city":"Kobujoi","VARNAME_3":"NA","NL_NAME_3":"NA","TYPE_3":"Ward","ENGTYPE_3":"Ward","CC_3":"758","HASC_3":"NA","name":"Kobujoi.city"},
"geometry":{"type": "MultiPolygon","coordinates": [[[[34.9284,0.0891,1812.7242],[34.9309,0.0872,1813.2468],[34.9323,0.0816,1838.028],[34.9254,0.0685,1871.9889],[34.9282,0.0571,1832.6123],[34.9248,0.0462,1759.5515],[34.9249,0.0345,1701.0967],[34.9327,0.0377,1757.658],[34.9375,0.0349,1764.0676],[34.9394,0.0318,1757.0137],[34.9393,0.0246,1768.4901],[34.9436,0.0192,1852.0029],[34.9423,0.017,1773.8195],[34.944,0.0112,1831.2213],[34.9409,0.0052,1824.1179],[34.9434,-0.0018,1813.9125],[34.9484,-0.0051,1846.5758],[34.9574,-0.0041,1791.3149],[34.972,-0.0055,1759.0109],[34.9906,-0.0046,1682.1353],[34.9996,-0.001,1671.764],[34.9991,0.0025,1782.2131],[34.9944,0.0039,1847.2502],[34.9923,0.0061,1872.6687],[34.9894,0.006,1770.8176],[34.9888,0.009,1730.2371],[34.9815,0.019,1772.5615],[34.9838,0.0211,1788.9137],[34.9834,0.024,1822.7404],[34.9906,0.0273,1807.7098],[34.9915,0.0296,1822.8021],[34.9992,0.0282,1879.8387],[35.0092,0.034,1876.3821],[35.011,0.0361,1868.1143],[35.0103,0.0384,1872.4968],[35.012,0.042,1873.5959],[35.0181,0.0511,1889.7269],[35.0185,0.0538,1910.4515],[35.0108,0.0655,1991.2397],[35.0083,0.0786,2055.4001],[35.004,0.0898,1960.1897],[35.0027,0.0905,1962.9946],[34.9915,0.0862,2029.0793],[34.9713,0.0837,1986.4108],[34.9469,0.0886,1869.2826],[34.9441,0.0857,1850.3448],[34.9412,0.0855,1851.7817],[34.9363,0.0875,1860.2478],[34.9331,0.0917,1822.4105],[34.9302,0.0928,1804.8784],[34.9284,0.0891,1812.7242]]]]}}