{"type": "Feature","bbox": [35.4139,-0.4503,35.5964,-0.2545],"geometry": {"type": "MultiPolygon","coordinates": [[[[35.5073,-0.4503,2453.1501],[35.5116,-0.4495,2413.4929],[35.5132,-0.4429,2455.7532],[35.5213,-0.4339,2433.7703],[35.5308,-0.4314,2411.5356],[35.5365,-0.4259,2448.3984],[35.5378,-0.4226,2443.0229],[35.5396,-0.4231,2437.2837],[35.5341,-0.4168,2461.2876],[35.5437,-0.4078,2489.8752],[35.548,-0.399,2474.2119],[35.5545,-0.3987,2531.813],[35.5549,-0.3948,2529.9238],[35.5586,-0.3884,2489.8481],[35.5735,-0.3795,2558.8479],[35.5758,-0.3756,2584.6997],[35.5806,-0.3727,2565.4338],[35.5843,-0.3727,2595.1592],[35.5888,-0.3692,2610.5464],[35.5923,-0.3607,2612.95],[35.5964,-0.3557,2570.8408],[35.589,-0.3488,2612.2898],[35.5802,-0.3496,2581.5403],[35.5751,-0.3524,2649.7822],[35.5714,-0.3515,2650.7683],[35.5688,-0.3424,2662.3413],[35.5663,-0.3438,2651.7332],[35.5648,-0.3416,2617.6646],[35.5646,-0.3371,2590.7271],[35.566,-0.3355,2609.2048],[35.565,-0.3338,2580.2722],[35.5689,-0.3328,2631.0872],[35.5684,-0.328,2600.1858],[35.5774,-0.3173,2648.8538],[35.5783,-0.3114,2663.5254],[35.5712,-0.3142,2618.0732],[35.5661,-0.3033,2639.7656],[35.5572,-0.2986,2642.9724],[35.5517,-0.2924,2650.041],[35.5638,-0.2713,2712.8154],[35.5291,-0.2545,2222.3333],[35.5255,-0.2646,2270.769],[35.5106,-0.2651,2259.6926],[35.5048,-0.2633,2244.1995],[35.4877,-0.2693,2279.4937],[35.4707,-0.2723,2362.4238],[35.4545,-0.2819,2334.7622],[35.4139,-0.2969,2277.4248],[35.5073,-0.4503,2453.1501]]]]}
,"properties": {"GID_3": "KEN.31.3.2_1","GID_0": "KEN","country": "Kenya","GID_1": "KEN.31_1","province": "Nakuru","NL_NAME_1": "NA","GID_2": "KEN.31.3_1","county": "KuresoiNorth","NL_NAME_2": "NA","city": "Kiptororo","VARNAME_3": "NA","NL_NAME_3": "NA","TYPE_3": "Ward","ENGTYPE_3": "Ward","CC_3": "853","HASC_3": "NA","name": "Kiptororo.city","area_km2": 228.1741,"hist_schema_id": "Elevation0-9000","hist_area_km2": {"2200": 0.106,"2225": 0.7421,"2250": 1.8022,"2275": 3.2227,"2300": 4.7704,"2325": 6.8694,"2350": 8.2899,"2375": 9.6893,"2400": 14.4172,"2425": 23.5128,"2450": 26.2266,"2475": 19.9509,"2500": 17.8519,"2525": 17.9791,"2550": 19.2725,"2575": 18.6788,"2600": 16.0074,"2625": 10.8978,"2650": 5.9577,"2675": 1.7174,"2700": 0.212}}}