{"type": "Feature","bbox": [37.8824,-0.7601,38.7869,-0.0519],"geometry": {"type": "MultiPolygon","coordinates": [[[[37.9013,-0.5997,584.2863],[37.9013,-0.6015,559.7757],[37.9228,-0.6247,592.5977],[37.9072,-0.6392,697.0128],[37.8933,-0.6456,698.0],[37.8929,-0.6556,698.0],[37.8953,-0.6681,698.0],[37.8972,-0.6698,698.0],[37.8953,-0.6735,698.0],[37.8962,-0.6765,698.0],[37.8949,-0.6811,698.0],[37.8974,-0.6843,698.0],[37.904,-0.6853,698.0],[37.8986,-0.7037,698.0],[37.8995,-0.7084,698.0],[37.9005,-0.7098,698.0],[37.9051,-0.709,698.0],[37.9074,-0.7113,698.0],[37.9103,-0.7071,698.0],[37.9116,-0.7075,698.3441],[37.9137,-0.7246,698.8532],[37.9159,-0.728,698.0],[37.9126,-0.7357,703.1623],[37.9139,-0.7382,698.5],[37.9124,-0.7426,702.06],[37.9175,-0.746,703.5631],[37.9238,-0.745,719.49],[37.9264,-0.7476,714.4392],[37.9274,-0.7442,718.4535],[37.9259,-0.7409,728.3581],[37.9273,-0.7387,729.4763],[37.9314,-0.7393,730.5029],[37.9337,-0.7406,732.2202],[37.9345,-0.7451,725.6092],[37.9361,-0.7461,731.1545],[37.9352,-0.7472,730.4149],[37.9368,-0.7519,727.9203],[37.942,-0.7506,754.5441],[37.9434,-0.7522,745.7687],[37.9478,-0.7516,745.6281],[37.9529,-0.7555,759.3934],[37.9542,-0.7588,753.1138],[37.958,-0.7564,765.9846],[37.9626,-0.7601,767.1902],[37.9693,-0.7575,771.685],[37.9668,-0.7548,776.9438],[37.9704,-0.7536,778.4431],[37.9718,-0.7549,780.1408],[37.9738,-0.7503,794.3738],[37.9768,-0.7526,785.8933],[37.9777,-0.7503,796.0334],[37.9786,-0.7525,785.8933],[37.9772,-0.7547,810.8158],[37.9809,-0.7535,796.7838],[37.9803,-0.7563,787.4097],[37.9824,-0.7575,788.5528],[37.9853,-0.7555,795.24],[37.9875,-0.7563,795.2579],[37.99,-0.7513,804.3704],[37.9953,-0.7517,824.3672],[37.9975,-0.7479,846.3654],[38.0005,-0.7485,843.6476],[38.0011,-0.7513,828.4727],[38.007,-0.7475,847.2673],[38.0058,-0.7453,860.387],[38.0072,-0.743,872.8523],[38.0098,-0.7457,879.2448],[38.0132,-0.7452,900.1881],[38.0147,-0.7471,876.0155],[38.0171,-0.7456,896.789],[38.0167,-0.7444,907.7574],[38.0205,-0.7446,882.0293],[38.0193,-0.742,900.7097],[38.022,-0.7441,896.9269],[38.0238,-0.7415,901.8416],[38.0305,-0.7437,907.3414],[38.031,-0.7412,931.1872],[38.0357,-0.7421,917.3342],[38.0359,-0.7437,912.0311],[38.0431,-0.741,937.3306],[38.0466,-0.742,934.6891],[38.05,-0.7411,939.2233],[38.0495,-0.7377,951.656],[38.0523,-0.7351,954.9291],[38.0584,-0.7384,953.0895],[38.0623,-0.7369,970.9565],[38.0662,-0.7402,957.9937],[38.0722,-0.733,975.1976],[38.0753,-0.7335,980.0107],[38.0771,-0.7316,974.8474],[38.0802,-0.7188,993.7908],[38.0832,-0.7143,1002.6321],[38.096,-0.7342,1029.3646],[38.0993,-0.7304,1039.3558],[38.1035,-0.7342,1041.0614],[38.1138,-0.7342,1077.825],[38.1235,-0.738,1030.1824],[38.1278,-0.7353,1068.2446],[38.1344,-0.7395,1035.8381],[38.1426,-0.7374,961.8426],[38.1467,-0.7336,936.4066],[38.1532,-0.731,909.4598],[38.1586,-0.7236,888.4163],[38.1677,-0.7195,860.7748],[38.1735,-0.7128,884.2824],[38.2319,-0.689,830.2025],[38.2487,-0.6753,834.7262],[38.2682,-0.6506,798.434],[38.2731,-0.6502,794.5553],[38.2796,-0.652,791.6501],[38.2851,-0.6585,776.2046],[38.297,-0.659,768.0734],[38.297,-0.6646,777.0529],[38.3022,-0.679,792.9996],[38.311,-0.6735,778.8452],[38.3254,-0.669,766.3235],[38.3465,-0.6658,733.3371],[38.3408,-0.6759,746.9934],[38.3358,-0.6896,746.6914],[38.3407,-0.6984,734.9332],[38.3474,-0.6964,732.7769],[38.3507,-0.7008,727.5964],[38.355,-0.7024,724.7852],[38.3675,-0.7035,713.1649],[38.3753,-0.7008,712.5087],[38.3799,-0.7032,703.3286],[38.3824,-0.6996,704.4613],[38.3833,-0.7024,702.5933],[38.3914,-0.7044,696.9388],[38.3993,-0.6982,687.1899],[38.4104,-0.6957,684.1902],[38.4194,-0.6882,676.9026],[38.43,-0.6865,669.7993],[38.4347,-0.69,664.7043],[38.4398,-0.6875,661.7203],[38.4761,-0.6889,670.7426],[38.5072,-0.702,646.1877],[38.5161,-0.6954,636.7927],[38.5228,-0.6946,632.7496],[38.5309,-0.696,633.0881],[38.5435,-0.6953,618.9159],[38.555,-0.7018,609.6064],[38.5596,-0.7013,605.5457],[38.5726,-0.7039,599.8656],[38.5776,-0.7006,596.0869],[38.5848,-0.7001,592.0598],[38.6051,-0.7058,582.361],[38.6067,-0.7099,577.2441],[38.61,-0.7123,578.7235],[38.6215,-0.7122,572.397],[38.6282,-0.7162,566.9039],[38.6399,-0.7121,559.6537],[38.6464,-0.7136,556.3947],[38.6508,-0.7203,549.5667],[38.6513,-0.7282,546.4495],[38.6537,-0.7342,545.1725],[38.6689,-0.7438,533.0519],[38.6747,-0.7435,532.1539],[38.6949,-0.7362,529.2682],[38.6982,-0.733,528.592],[38.6988,-0.7259,533.4561],[38.7008,-0.7235,531.4487],[38.7195,-0.7089,506.6321],[38.7293,-0.7034,502.1727],[38.7322,-0.6984,502.5017],[38.738,-0.6957,500.5374],[38.743899999999996,-0.694,496.3087],[38.7491,-0.6947,494.4194],[38.7502,-0.6929,497.2661],[38.7538,-0.6935,498.2779],[38.7569,-0.6983,490.775],[38.7616,-0.6987,488.6636],[38.7728,-0.7034,484.0115],[38.7783,-0.7021,481.5021],[38.7869,-0.6945,476.2665],[38.4193,-0.0702,331.6728],[38.4145,-0.0739,336.0355],[38.4057,-0.0761,347.3098],[38.3959,-0.0737,342.5378],[38.3923,-0.0742,342.0739],[38.3887,-0.0833,342.2346],[38.3833,-0.0872,344.6911],[38.3805,-0.0865,341.0],[38.377,-0.0814,344.5935],[38.3683,-0.079,349.3765],[38.3485,-0.0639,348.7057],[38.339,-0.0624,352.1811],[38.3311,-0.0683,355.7665],[38.3277,-0.0676,354.2539],[38.3126,-0.0519,362.3812],[38.3047,-0.0546,357.7527],[38.3085,-0.0557,353.197],[38.3039,-0.0616,355.7923],[38.3007,-0.0707,354.7958],[38.289,-0.0797,362.7791],[38.2867,-0.087,357.5238],[38.2813,-0.0861,364.2706],[38.276,-0.0885,362.2426],[38.2731,-0.0956,364.9196],[38.2707,-0.0965,364.25],[38.2636,-0.0948,368.0874],[38.2541,-0.0889,370.0],[38.2477,-0.088,373.6884],[38.2431,-0.0915,374.9672],[38.2344,-0.0946,374.7871],[38.2279,-0.1015,378.3968],[38.2217,-0.1048,379.1857],[38.2141,-0.1151,383.1108],[38.2127,-0.1246,393.7068],[38.2073,-0.1292,381.9347],[38.2069,-0.1427,390.2725],[38.2039,-0.1459,396.8657],[38.1959,-0.1468,396.5369],[38.1937,-0.1515,400.1968],[38.1877,-0.1518,409.4969],[38.1861,-0.1535,407.0281],[38.1841,-0.1682,406.1949],[38.1853,-0.1733,402.5367],[38.1827,-0.1899,402.5],[38.1657,-0.2196,419.608],[38.1633,-0.2254,419.4104],[38.1637,-0.2329,416.5434],[38.1585,-0.2382,417.8719],[38.154,-0.2389,423.144],[38.1513,-0.2413,418.167],[38.1465,-0.239,424.1523],[38.1431,-0.2412,437.906],[38.1392,-0.2461,435.5156],[38.1369,-0.2556,432.2353],[38.1298,-0.2606,429.3993],[38.1259,-0.2672,447.8849],[38.1143,-0.2767,438.1035],[38.1058,-0.276,463.7341],[38.1041,-0.2793,451.82619999999997],[38.1018,-0.2793,461.5984],[38.0894,-0.2745,467.2053],[38.0724,-0.2736,464.3722],[38.0471,-0.2761,486.3683],[38.0321,-0.2732,451.16],[38.0279,-0.2686,467.557],[38.0234,-0.2666,473.1199],[38.0127,-0.2668,474.975],[37.9994,-0.2642,486.3837],[37.9968,-0.2673,483.1383],[37.9931,-0.2748,482.3134],[37.9923,-0.287,476.6609],[37.9843,-0.2983,478.6927],[37.9823,-0.3067,479.802],[37.9795,-0.3108,482.7232],[37.9801,-0.3135,475.0695],[37.9859,-0.3186,474.3506],[37.9857,-0.3239,487.8028],[37.9799,-0.3272,481.1455],[37.9717,-0.3448,482.051],[37.9781,-0.3542,478.5],[37.9682,-0.3629,497.9796],[37.9685,-0.3652,483.0722],[37.9727,-0.3678,497.3369],[37.9745,-0.3764,502.6963],[37.9702,-0.3811,499.7818],[37.9693,-0.3979,500.0103],[37.9647,-0.4022,503.3862],[37.9659,-0.4065,500.0566],[37.9649,-0.4108,513.0375],[37.9611,-0.4135,518.1431],[37.9599,-0.4179,526.072],[37.9513,-0.4254,544.6225],[37.9475,-0.4245,552.9528],[37.9452,-0.4276,558.7468],[37.9401,-0.4251,534.5018],[37.9359,-0.4282,537.8963],[37.9355,-0.4344,531.9062],[37.9313,-0.4443,545.5776],[37.9137,-0.4667,541.1696],[37.8955,-0.5072,550.3157],[37.8923,-0.5104,565.0159],[37.8825,-0.5349,538.473],[37.8824,-0.5405,535.2443],[37.8875,-0.553,554.0677],[37.8878,-0.56,556.7498],[37.8835,-0.5827,556.8003],[37.9023,-0.5976,595.9279],[37.9013,-0.5997,584.2863]]]]}
,"properties": {"GID_2": "KEN.18.7_1","GID_0": "KEN","country": "Kenya","GID_1": "KEN.18_1","province": "Kitui","NL_NAME_1": "NA","county": "MwingiNorth","VARNAME_2": "NA","NL_NAME_2": "NA","TYPE_2": "Constituency","ENGTYPE_2": "Constituency","CC_2": "67","HASC_2": "NA","name": "Mwingi_North.county","area_km2": 4716.873,"hist_schema_id": "Elevation0-9000","hist_area_km2": {"325": 1.103,"350": 33.16,"375": 49.952,"400": 56.864,"425": 73.508,"450": 86.717,"475": 112.031,"500": 169.296,"525": 311.366,"550": 388.793,"575": 339.755,"600": 317.62,"625": 292.517,"650": 274.41,"675": 265.188,"700": 255.561,"725": 239.66,"750": 208.579,"775": 177.518,"800": 159.921,"825": 126.825,"850": 116.246,"875": 101.765,"900": 87.73,"925": 82.281,"950": 76.557,"975": 61.419,"1000": 50.67,"1025": 42.826,"1050": 38.84,"1075": 27.858,"1100": 14.523,"1125": 9.286,"1150": 6.678,"1175": 6.233,"1200": 5.576,"1225": 5.385,"1250": 5.258,"1275": 5.025,"1300": 4.219,"1325": 4.261,"1350": 3.689,"1375": 3.265,"1400": 2.523,"1425": 2.65,"1450": 2.184,"1475": 2.247,"1500": 1.632,"1525": 1.293,"1550": 0.89,"1575": 1.06,"1600": 0.827,"1625": 0.466,"1650": 0.466,"1675": 0.424,"1700": 0.148,"1725": 0.064,"1750": 0.064}}}