{"type":"Feature","properties":{"GID_3":"KEN.37.1.1_1","GID_0":"KEN","country":"Kenya","GID_1":"KEN.37_1","province":"Samburu","NL_NAME_1":"NA","GID_2":"KEN.37.1_1","county":"SamburuEast","NL_NAME_2":"NA","city":"WambaEast","VARNAME_3":"NA","NL_NAME_3":"NA","TYPE_3":"Ward","ENGTYPE_3":"Ward","CC_3":"674","HASC_3":"NA","name":"Wamba_East.city"},
"geometry":{"type": "MultiPolygon","coordinates": [[[[37.1082,1.0717,1159.1021],[37.1143,1.0732,1195.783],[37.1189,1.0686,1211.0166],[37.1256,1.0662,1215.7666],[37.1344,1.0557,1222.0094],[37.1378,1.0544,1262.804],[37.1393,1.0509,1269.9204],[37.1425,1.0492,1258.7936],[37.1441,1.0445,1276.0295],[37.1536,1.0334,1267.0562],[37.1586,1.0305,1268.0259],[37.1704,1.0348,1242.3047],[37.1821,1.0453,1282.8564],[37.1938,1.0469,1247.2162],[37.1987,1.0509,1264.5106],[37.2078,1.054,1283.4843],[37.2281,1.0548,1303.7693],[37.2402,1.0459,1278.4082],[37.2445,1.0243,1245.0012],[37.2496,1.0234,1237.9198],[37.2577,1.0162,1228.9531],[37.2684,1.014,1233.7184],[37.2755,1.0026,1244.8535],[37.2844,0.9813,1288.8265],[37.288,0.9761,1287.5135],[37.2905,0.9592,1320.4271],[37.2996,0.9363,1286.7598],[37.3011,0.9229,1262.7096],[37.3076,0.9115,1233.0579],[37.3159,0.8785,1172.7183],[37.3506,0.8801,1206.6481],[37.3822,0.8693,1198.8309],[37.3913,0.8645,1194.6604],[37.4183,0.8572,1245.9873],[37.428,0.8626,1140.8109],[37.4382,0.865,1097.1697],[37.4429,0.8566,1115.3462],[37.4445,0.8459,1147.6749],[37.4513,0.8401,1093.762],[37.4539,0.8338,1074.0122],[37.4816,0.8108,970.315],[37.4981,0.7983,942.8873],[37.5002,0.7982,941.2362],[37.5017,0.7954,939.3545],[37.5297,0.7828,920.8972],[37.5514,0.7778,908.088],[37.5562,0.7785,906.1292],[37.5487,0.8068,993.8175],[37.5612,0.8406,1021.1125],[37.569,0.8553,1003.0896],[37.559,0.9044,911.5212],[37.5629,0.9188,900.4795],[37.569,0.9292,897.0663],[37.579,0.9819,867.3171],[37.5747,0.9932,854.5154],[37.5671,1.0035,846.6345],[37.5623,1.0192,835.4067],[37.5596,1.05,808.0872],[37.5605,1.0621,798.1245],[37.57,1.0809,790.8015],[37.5743,1.0989,767.8111],[37.5849,1.1078,754.0491],[37.5907,1.1157,743.8157],[37.5993,1.1315,732.2665],[37.5996,1.1357,729.4534],[37.5964,1.1479,743.7612],[37.5973,1.1572,753.6667],[37.5906,1.163,763.125],[37.5831,1.1659,774.4998],[37.5813,1.1689,771.3262],[37.5733,1.1716,777.4354],[37.5589,1.1825,786.9822],[37.5547,1.1888,794.8254],[37.5341,1.2346,780.834],[37.5252,1.247,756.3755],[37.521,1.244,760.4244],[37.5115,1.2457,774.0422],[37.5014,1.2431,778.2947],[37.4997,1.2448,780.2348],[37.4973,1.2413,773.0532],[37.4973,1.2381,773.7571],[37.4853,1.23,789.3226],[37.479,1.2235,797.2613],[37.4672,1.2227,813.0975],[37.4615,1.2183,823.2101],[37.4579,1.2196,821.9803],[37.4516,1.2165,833.6459],[37.447,1.2188,832.2037],[37.4356,1.2161,840.4299],[37.4306,1.2116,857.3394],[37.4182,1.2095,935.2142],[37.4173,1.2061,980.3564],[37.4131,1.2044,963.4775],[37.4078,1.2057,951.008],[37.4042,1.2029,968.3862],[37.4022,1.2049,1085.1411],[37.3974,1.2048,1009.1177],[37.3958,1.2023,1037.6045],[37.3925,1.2009,1010.0283],[37.3888,1.2016,1095.2233],[37.3824,1.201,1108.8049],[37.3773,1.1986,1075.1244],[37.3736,1.1992,1021.1595],[37.36,1.1903,1393.9226],[37.3526,1.1889,1422.968],[37.3504,1.1906,1419.698],[37.3475,1.1875,1417.6885],[37.346,1.1889,1450.7075],[37.3385,1.1849,1497.1836],[37.3236,1.1832,1455.9485],[37.3164,1.1892,1387.4569],[37.3045,1.1883,1309.1501],[37.2977,1.1851,1328.351],[37.2949,1.182,1274.2329],[37.295,1.1791,1269.8198],[37.2901,1.1748,1298.0034],[37.2912,1.1668,1362.9132],[37.2891,1.1369,1474.1823],[37.2897,1.094,1483.5781],[37.2925,1.0888,1526.498],[37.2911,1.0882,1508.6497],[37.2856,1.0886,1370.9238],[37.2813,1.0923,1354.4114],[37.2759,1.0922,1319.4617],[37.2727,1.0941,1335.546],[37.2615,1.0939,1316.8311],[37.2571,1.0953,1288.5885],[37.2519,1.0941,1278.8457],[37.2437,1.1007,1294.1411],[37.2325,1.0978,1241.3098],[37.2287,1.1016,1243.1829],[37.227,1.1015,1243.7667],[37.2272,1.1047,1232.3329],[37.2245,1.1051,1211.4189],[37.2236,1.1029,1224.2126],[37.2208,1.103,1197.3025],[37.2204,1.1111,1167.7598],[37.2183,1.1121,1166.6132],[37.2203,1.1135,1175.1381],[37.2179,1.1142,1191.0138],[37.2174,1.1168,1186.4142],[37.2117,1.1152,1169.364],[37.2133,1.1164,1211.9269],[37.212,1.1202,1214.6516],[37.1973,1.1205,1236.1322],[37.1982,1.1168,1175.6016],[37.1969,1.1139,1154.3873],[37.1787,1.1122,1118.9364],[37.1746,1.1095,1148.8418],[37.1646,1.1111,1133.4067],[37.1518,1.1076,1086.3748],[37.1502,1.1087,1084.0046],[37.1514,1.1122,1099.3232],[37.1411,1.1108,1062.1747],[37.1409,1.1134,1083.8643],[37.1473,1.1159,1130.2891],[37.1462,1.1193,1166.1577],[37.1442,1.1203,1144.1583],[37.1395,1.1162,1115.1582],[37.1353,1.1165,1083.928],[37.1317,1.1141,1100.2377],[37.1289,1.1155,1074.9937],[37.1283,1.1133,1030.5016],[37.1226,1.114,1040.1377],[37.1072,1.1104,1105.9591],[37.1072,1.1016,1113.5222],[37.1059,1.1005,1127.3164],[37.1073,1.0978,1117.5208],[37.1057,1.0971,1132.9053],[37.1071,1.0947,1122.5182],[37.105,1.0933,1140.5333],[37.106,1.0863,1137.3492],[37.1043,1.0762,1151.1011],[37.1049,1.0739,1149.8129],[37.1074,1.0737,1161.8384],[37.1082,1.0717,1159.1021]]]]}}