{"type": "Feature","bbox": [36.6635,-1.4421,36.9621,-1.2936],"geometry": {"type": "MultiPolygon","coordinates": [[[[36.8902,-1.4107,1538.251],[36.8899,-1.4123,1540.0248],[36.9314,-1.4305,1524.6731],[36.9428,-1.4306,1520.5773],[36.9501,-1.4356,1519.6985],[36.9558,-1.435,1518.4526],[36.9578,-1.4404,1508.9514],[36.961,-1.4421,1510.7031],[36.9621,-1.4364,1526.024],[36.9595,-1.4351,1522.5232],[36.9548,-1.4262,1521.655],[36.9472,-1.4202,1552.39],[36.9453,-1.4065,1571.9996],[36.9422,-1.4014,1588.5289],[36.9364,-1.3968,1595.1729],[36.9316,-1.3963,1605.775],[36.9281,-1.392,1614.0391],[36.9227,-1.392,1607.3999],[36.921,-1.3845,1621.8542],[36.9134,-1.3707,1630.4226],[36.9076,-1.3705,1633.3274],[36.8949,-1.3565,1637.002],[36.8924,-1.3586,1636.7662],[36.8822,-1.3473,1637.3113],[36.851,-1.3269,1651.7004],[36.8517,-1.3256,1649.6213],[36.8316,-1.3134,1659.4006],[36.8234,-1.2975,1658.5991],[36.8222,-1.2975,1662.5001],[36.823,-1.3003,1664.444],[36.821,-1.3029,1684.8615],[36.815,-1.3028,1707.4414],[36.806,-1.3064,1718.0618],[36.8156,-1.3092,1668.8416],[36.8151,-1.3103,1665.6907],[36.8119,-1.3105,1677.5303],[36.8051,-1.3146,1696.8838],[36.8004,-1.3143,1704.5729],[36.7997,-1.3159,1690.7474],[36.7942,-1.3177,1708.6765],[36.7893,-1.3142,1712.1111],[36.7892,-1.3122,1733.7496],[36.7782,-1.3151,1746.9835],[36.7771,-1.3138,1758.101],[36.7725,-1.314,1772.543],[36.7707,-1.3102,1766.9513],[36.7682,-1.3112,1782.6047],[36.7667,-1.3078,1789.6036],[36.7555,-1.3092,1805.0339],[36.7527,-1.3047,1800.4836],[36.7473,-1.3059,1814.7767],[36.7474,-1.3011,1811.6884],[36.7312,-1.3061,1845.6091],[36.7303,-1.2996,1828.9092],[36.737,-1.298,1815.2406],[36.7362,-1.2942,1823.4496],[36.7267,-1.2943,1834.939],[36.7234,-1.3008,1841.4011],[36.7085,-1.2951,1871.1245],[36.7063,-1.3027,1880.6842],[36.6941,-1.295,1886.5312],[36.6892,-1.2951,1880.6415],[36.6868,-1.2936,1883.2726],[36.6846,-1.2982,1889.6331],[36.678,-1.2984,1930.7959],[36.6747,-1.3048,1874.1666],[36.6702,-1.3036,1913.1359],[36.6635,-1.3173,1894.7708],[36.6728,-1.3219,1896.0309],[36.6691,-1.3236,1888.7355],[36.6749,-1.3278,1883.8958],[36.6789,-1.326,1886.8342],[36.6826,-1.3349,1872.6783],[36.6849,-1.3348,1879.4216],[36.6894,-1.3471,1864.1313],[36.6928,-1.3506,1852.5566],[36.7022,-1.3495,1852.8745],[36.728,-1.3725,1801.8282],[36.7415,-1.3794,1763.8975],[36.7442,-1.3785,1761.3521],[36.7489,-1.3824,1743.4344],[36.7607,-1.3823,1739.1183],[36.7642,-1.3833,1729.1477],[36.7665,-1.3863,1709.699],[36.7724,-1.3866,1713.7686],[36.7801,-1.3839,1705.3407],[36.7829,-1.3868,1691.3035],[36.7868,-1.3848,1690.5618],[36.7896,-1.3858,1685.7479],[36.7937,-1.3829,1686.9253],[36.7954,-1.3834,1686.698],[36.796,-1.3859,1684.3677],[36.8002,-1.385,1683.152],[36.8026,-1.3864,1675.0571],[36.8051,-1.3844,1676.1184],[36.8057,-1.387,1663.7358],[36.8088,-1.3857,1657.3032],[36.8094,-1.383,1669.6899],[36.8116,-1.3843,1667.2456],[36.8148,-1.3797,1659.7058],[36.8197,-1.379,1650.4918],[36.8221,-1.383,1619.1532],[36.8282,-1.3855,1620.933],[36.8363,-1.3864,1626.2617],[36.837,-1.3846,1629.5983],[36.8395,-1.386,1630.1575],[36.8419,-1.3843,1632.3438],[36.8443,-1.3848,1624.4626],[36.8449,-1.3892,1621.0031],[36.8497,-1.3943,1605.9585],[36.8573,-1.3966,1614.7734],[36.8638,-1.4017,1603.9359],[36.8695,-1.4011,1601.0044],[36.8708,-1.4052,1548.2789],[36.8755,-1.4035,1566.323],[36.8785,-1.4048,1562.1732],[36.8819,-1.4037,1579.662],[36.8951,-1.4094,1559.7241],[36.8944,-1.411,1546.9141],[36.8902,-1.4107,1538.251]]]]}
,"properties": {"GID_2": "KEN.30.11_1","GID_0": "KEN","country": "Kenya","GID_1": "KEN.30_1","province": "Nairobi","NL_NAME_1": "NA","county": "Langata","VARNAME_2": "NA","NL_NAME_2": "NA","TYPE_2": "Constituency","ENGTYPE_2": "Constituency","CC_2": "277","HASC_2": "NA","name": "Langata.county","area_km2": 210.1611,"hist_schema_id": "Elevation0-9000","hist_area_km2": {"1500": 0.0636,"1525": 8.6902,"1550": 8.7751,"1575": 3.9636,"1600": 8.0333,"1625": 30.8615,"1650": 29.0602,"1675": 18.9919,"1700": 8.203,"1725": 5.511,"1750": 7.0796,"1775": 9.6231,"1800": 18.0805,"1825": 17.6354,"1850": 15.2827,"1875": 15.1343,"1900": 5.0872,"1925": 0.0848}}}