{"type": "Feature","bbox": [37.5322,-1.0868,37.7564,-0.8386],"geometry": {"type": "MultiPolygon","coordinates": [[[[37.5332,-0.9112,1054.5],[37.5347,-0.9136,1054.5],[37.5329,-0.917,1054.5],[37.534,-0.9183,1054.5],[37.5407,-0.9183,1054.5],[37.5436,-0.9221,1054.5],[37.5443,-0.9286,1054.5],[37.5422,-0.9297,1054.5],[37.545,-0.9313,1054.5],[37.5427,-0.9331,1054.5],[37.5435,-0.9359,1054.5],[37.5423,-0.9368,1054.5],[37.5389,-0.9351,1057.3015],[37.5378,-0.937,1054.8359],[37.5404,-0.9376,1054.5],[37.5392,-0.9412,1056.6165],[37.5414,-0.9415,1054.822],[37.5427,-0.9452,1057.9703],[37.5461,-0.9448,1060.5726],[37.544,-0.9482,1058.7675],[37.548,-0.9508,1061.572],[37.5454,-0.9513,1060.0526],[37.5448,-0.954,1062.629],[37.5484,-0.9578,1065.3284],[37.5485,-0.9622,1068.3064],[37.5539,-0.9632,1075.9702],[37.5516,-0.9662,1066.563],[37.5546,-0.966,1066.7576],[37.5552,-0.9674,1077.1044],[37.5569,-0.9659,1070.6492],[37.5585,-0.9677,1082.813],[37.5579,-0.9704,1074.1797],[37.5614,-0.9713,1083.9722],[37.5608,-0.9734,1076.2825],[37.5622,-0.9757,1078.385],[37.5608,-0.9791,1094.7834],[37.5643,-0.989,1091.5304],[37.5629,-0.9906,1101.2928],[37.5658,-0.9938,1098.1315],[37.5645,-0.9969,1101.4912],[37.5659,-1.0005,1099.5916],[37.5706,-1.0035,1105.0795],[37.5677,-1.0125,1109.1163],[37.5705,-1.013,1112.4635],[37.5735,-1.0181,1111.9786],[37.5782,-1.0195,1126.9893],[37.5787,-1.0221,1114.1749],[37.582,-1.0235,1124.4387],[37.58,-1.0269,1124.4854],[37.5837,-1.0278,1128.9072],[37.5848,-1.0313,1122.4742],[37.5842,-1.0341,1124.2751],[37.5813,-1.036,1136.2412],[37.5808,-1.045,1137.7007],[37.5761,-1.0493,1145.7327],[37.5759,-1.0558,1143.0811],[37.5693,-1.0623,1159.3115],[37.5693,-1.0661,1151.5697],[37.5658,-1.0691,1159.2114],[37.5613,-1.0815,1166.6417],[37.5957,-1.0868,1195.8677],[37.7336,-1.08,1488.9043],[37.7372,-1.0679,1416.2024],[37.7413,-1.0637,1447.3329],[37.7423,-1.0512,1396.0437],[37.7397,-1.0487,1460.0547],[37.7436,-1.0426,1510.6174],[37.7478,-1.0304,1385.5403],[37.7444,-1.0259,1349.2562],[37.7452,-1.021,1239.6353],[37.7563,-1.0032,1110.7781],[37.7564,-0.9983,1102.4636],[37.7545,-0.9942,1095.291],[37.741,-0.9957,1130.5857],[37.7366,-0.9937,1156.3447],[37.7281,-0.974,1143.3445],[37.7227,-0.9697,1097.3315],[37.7173,-0.9621,1117.677],[37.7148,-0.9645,1133.6334],[37.7004,-0.9688,1298.7554],[37.6867,-0.9684,1263.9801],[37.675,-0.9516,1158.1235],[37.6734,-0.9398,1133.3196],[37.6695,-0.9356,1119.8999],[37.6695,-0.9289,1112.7751],[37.6653,-0.9277,1104.5336],[37.6596,-0.9227,1090.6234],[37.6569,-0.9149,1082.8475],[37.6576,-0.904,1069.9495],[37.6545,-0.8935,1074.9247],[37.6618,-0.8907,1064.8729],[37.6586,-0.8817,1064.0536],[37.6629,-0.88,1056.873],[37.6632,-0.8772,1037.3875],[37.6661,-0.878,1044.4917],[37.6677,-0.8752,1048.2306],[37.6648,-0.8744,1056.0148],[37.6645,-0.8727,1071.4821],[37.6624,-0.8745,1043.6982],[37.6603,-0.8737,1034.3132],[37.66,-0.8716,1050.1272],[37.6567,-0.8693,1030.553],[37.6596,-0.8614,1023.2062],[37.658,-0.8616,1023.2062],[37.6578,-0.8598,1024.9331],[37.6561,-0.8608,1019.1809],[37.6542,-0.8572,1016.9692],[37.6593,-0.8477,1006.9659],[37.6558,-0.8471,1006.6494],[37.6526,-0.8445,1021.5234],[37.6486,-0.8444,1009.7515],[37.6461,-0.842,1010.9083],[37.6394,-0.8454,1008.884],[37.6353,-0.8386,1008.9028],[37.6289,-0.8387,1023.3677],[37.6279,-0.8497,1010.7027],[37.6263,-0.8518,1026.5862],[37.6179,-0.8515,1020.2512],[37.6147,-0.8552,1017.3988],[37.6049,-0.8551,1023.1243],[37.6008,-0.8627,1017.9532],[37.5961,-0.8606,1019.0988],[37.5891,-0.8627,1019.5222],[37.5869,-0.8663,1013.0868],[37.5901,-0.868,1015.8823],[37.5914,-0.8709,1010.8716],[37.5882,-0.8729,1031.5205],[37.5872,-0.8782,1047.0305],[37.5749,-0.8768,1054.5],[37.5647,-0.8808,1054.5],[37.5614,-0.8754,1054.5],[37.5589,-0.8751,1054.5],[37.5509,-0.8844,1054.5],[37.5459,-0.8823,1054.5],[37.5428,-0.887,1054.5],[37.5372,-0.8887,1054.5],[37.5322,-0.8956,1054.5],[37.5355,-0.9063,1054.5],[37.5332,-0.9112,1054.5]]]]}
,"properties": {"GID_3": "KEN.22.4.3_1","GID_0": "KEN","country": "Kenya","GID_1": "KEN.22_1","province": "Machakos","NL_NAME_1": "NA","GID_2": "KEN.22.4_1","county": "Masinga","NL_NAME_2": "NA","city": "MasingaCentral","VARNAME_3": "NA","NL_NAME_3": "NA","TYPE_3": "Ward","ENGTYPE_3": "Ward","CC_3": "372","HASC_3": "NA","name": "Masinga_Central.city","area_km2": 406.7468,"hist_schema_id": "Elevation0-9000","hist_area_km2": {"1000": 3.7736,"1025": 10.3243,"1050": 34.2374,"1075": 37.9684,"1100": 51.1753,"1125": 46.405,"1150": 49.6904,"1175": 51.0892,"1200": 34.766,"1225": 28.6183,"1250": 18.5701,"1275": 12.2529,"1300": 8.0343,"1325": 7.3983,"1350": 5.4904,"1375": 2.0775,"1400": 1.3779,"1425": 1.4203,"1450": 1.3143,"1475": 0.4876,"1500": 0.2332,"1525": 0.0424}}}