{"type":"Feature","properties":{"GID_3":"KEN.13.5.1_1","GID_0":"KEN","country":"Kenya","GID_1":"KEN.13_1","province":"Kiambu","NL_NAME_1":"NA","GID_2":"KEN.13.5_1","county":"Kabete","NL_NAME_2":"NA","city":"Gitaru","VARNAME_3":"NA","NL_NAME_3":"NA","TYPE_3":"Ward","ENGTYPE_3":"Ward","CC_3":"591","HASC_3":"NA","name":"Gitaru.city"},
"geometry":{"type": "MultiPolygon","coordinates": [[[[36.7107,-1.215,1890.7925],[36.7023,-1.2144,1938.1707],[36.6964,-1.211,1956.4524],[36.6942,-1.2062,1961.7168],[36.6902,-1.2057,1952.2788],[36.6823,-1.2128,1970.3354],[36.6826,-1.2194,1953.4536],[36.679,-1.2219,1970.4503],[36.6726,-1.2211,2001.8562],[36.6665,-1.2174,2062.3386],[36.6674,-1.2429,2007.0383],[36.6754,-1.2414,1987.7052],[36.6805,-1.2354,1977.9263],[36.6829,-1.2365,1955.1853],[36.6878,-1.2332,1950.4844],[36.694,-1.2391,1937.0605],[36.7038,-1.2388,1905.8822],[36.7074,-1.2418,1885.0033],[36.7143,-1.2437,1881.8315],[36.7205,-1.2391,1846.9459],[36.7249,-1.2393,1847.0408],[36.7252,-1.2361,1849.3396],[36.7236,-1.2344,1851.8309],[36.7081,-1.2289,1899.038],[36.7016,-1.2214,1911.8434],[36.7013,-1.2201,1907.5752],[36.7107,-1.215,1890.7925]]]]}}