{"type": "Feature","bbox": [34.4833,-0.4145,34.5842,-0.2625],"geometry": {"type": "MultiPolygon","coordinates": [[[[34.5837,-0.2625,1133.0],[34.5304,-0.2666,1133.0],[34.4833,-0.2945,1133.0],[34.5012,-0.3341,1133.0],[34.5052,-0.3364,1134.0339],[34.5112,-0.3465,1170.5356],[34.5109,-0.3604,1227.8586],[34.517,-0.3665,1259.6157],[34.5074,-0.3701,1303.1847],[34.5053,-0.3752,1393.3687],[34.5084,-0.3775,1356.3884],[34.5073,-0.3818,1411.0935],[34.5044,-0.382,1434.6101],[34.504,-0.391,1505.0145],[34.5071,-0.3938,1489.3479],[34.5154,-0.394,1413.1398],[34.5263,-0.4145,1262.4672],[34.5382,-0.4016,1245.8224],[34.5456,-0.39,1243.8112],[34.552,-0.3902,1223.5249],[34.5647,-0.3875,1190.5923],[34.5717,-0.3883,1168.6515],[34.573,-0.3597,1166.0001],[34.5842,-0.3474,1140.3566],[34.5837,-0.2625,1133.0]]]]}
,"properties": {"GID_3": "KEN.8.9.1_1","GID_0": "KEN","country": "Kenya","GID_1": "KEN.8_1","province": "HomaBay","NL_NAME_1": "NA","GID_2": "KEN.8.9_1","county": "unknown6","NL_NAME_2": "NA","city": "unknown6","VARNAME_3": "NA","NL_NAME_3": "NA","TYPE_3": "Ward","ENGTYPE_3": "Ward","CC_3": "0","HASC_3": "NA","name": "unknown6.city","area_km2": 124.47609,"hist_schema_id": "Elevation0-9000","hist_area_km2": {"1125": 71.81088,"1150": 10.81294,"1175": 12.40305,"1200": 8.67153,"1225": 5.21563,"1250": 3.26507,"1275": 3.43468,"1300": 2.60781,"1325": 1.42052,"1350": 1.06009,"1375": 0.95408,"1400": 0.80567,"1425": 0.57245,"1450": 0.65725,"1475": 0.36043,"1500": 0.16961,"1525": 0.08481,"1550": 0.10601,"1575": 0.06361}}}