{"type":"Feature","properties":{"GID_3":"KEN.41.2.1_1","GID_0":"KEN","country":"Kenya","GID_1":"KEN.41_1","province":"Tharaka-Nithi","NL_NAME_1":"NA","GID_2":"KEN.41.2_1","county":"IgembeSouth","NL_NAME_2":"NA","city":"Akachiu","VARNAME_3":"NA","NL_NAME_3":"NA","TYPE_3":"Ward","ENGTYPE_3":"Ward","CC_3":"254","HASC_3":"NA","name":"Akachiu.city"},
"geometry":{"type": "MultiPolygon","coordinates": [[[[38.0002,-0.2643,486.3837],[38.0025,-0.2646,473.8427],[38.0017,-0.2605,480.3585],[38.0045,-0.253,478.1387],[38.0027,-0.2487,491.67],[38.0065,-0.2421,486.0824],[38.0061,-0.2367,494.8337],[38.0099,-0.2337,498.343],[38.0119,-0.2292,505.3361],[38.0121,-0.2209,520.785],[38.0143,-0.2144,524.9636],[38.0111,-0.2083,528.5898],[38.0103,-0.2003,531.7233],[38.0125,-0.1995,531.8342],[38.0129,-0.1921,538.4509],[38.0161,-0.1809,542.0255],[38.0125,-0.1763,542.0064],[38.0133,-0.1696,544.4174],[38.0117,-0.1607,548.7467],[38.0139,-0.1453,561.6323],[38.0171,-0.1433,559.8622],[38.0149,-0.142,569.6308],[38.0165,-0.139,561.9547],[38.0147,-0.134,571.6751],[38.0173,-0.1284,568.2815],[38.0137,-0.1239,585.9364],[38.0079,-0.1003,588.8196],[37.9945,-0.0974,642.6086],[37.9897,-0.098,657.3265],[37.9847,-0.1022,669.1495],[37.9837,-0.109,663.9816],[37.9805,-0.1094,644.7239],[37.9777,-0.1091,642.7422],[37.9769,-0.1063,649.171],[37.9733,-0.1042,656.3271],[37.9639,-0.104,671.0511],[37.9611,-0.1022,671.6934],[37.9589,-0.0949,676.1083],[37.9511,-0.0849,694.4646],[37.9441,-0.0797,708.6102],[37.9405,-0.0728,717.5234],[37.9317,-0.0638,733.5922],[37.8697,-0.1295,747.3196],[37.8717,-0.1324,742.563],[37.8709,-0.1366,742.1428],[37.8661,-0.1441,754.3015],[37.8731,-0.1578,727.7199],[37.8749,-0.1607,729.4978],[37.8859,-0.1662,734.5056],[37.8891,-0.1664,720.7292],[37.8877,-0.1716,705.4258],[37.8891,-0.1764,723.5511],[37.8881,-0.1945,842.9872],[37.8901,-0.1969,819.2336],[37.8911,-0.2035,811.1176],[37.8843,-0.2108,784.4374],[37.8841,-0.2171,812.8443],[37.8871,-0.2226,759.7783],[37.8941,-0.2289,741.5793],[37.9001,-0.2387,686.9445],[37.9037,-0.241,674.0805],[37.9095,-0.2528,654.2277],[37.9163,-0.2605,672.0005],[37.9179,-0.2674,699.2328],[37.9237,-0.271,758.2563],[37.9295,-0.2719,861.3431],[37.9341,-0.2699,1027.5337],[37.9485,-0.2696,1293.9482],[37.9617,-0.264,1178.3289],[37.9697,-0.2628,742.248],[37.9879,-0.2636,494.3706],[37.993899999999996,-0.2661,487.2205],[37.9959,-0.2688,477.6819],[38.0002,-0.2643,486.3837]]]]}}