{"type":"Feature","properties":{"GID_3":"KEN.12.1.2_1","GID_0":"KEN","country":"Kenya","GID_1":"KEN.12_1","province":"Kericho","NL_NAME_1":"NA","GID_2":"KEN.12.1_1","county":"Ainamoi","NL_NAME_2":"NA","city":"Kapkugerwet","VARNAME_3":"NA","NL_NAME_3":"NA","TYPE_3":"Ward","ENGTYPE_3":"Ward","CC_3":"946","HASC_3":"NA","name":"Kapkugerwet.city"},
"geometry":{"type": "MultiPolygon","coordinates": [[[[35.309,-0.3183,2135.009],[35.2886,-0.3227,2112.3228],[35.2831,-0.3211,2040.0197],[35.2725,-0.3217,1990.9304],[35.2776,-0.3308,2059.1743],[35.28,-0.3487,1979.7799],[35.2859,-0.3437,1979.4535],[35.2992,-0.3589,2026.6355],[35.3023,-0.3545,2037.7491],[35.3093,-0.3532,2017.0455],[35.3116,-0.3487,2052.7336],[35.3173,-0.3469,2037.449],[35.3179,-0.3451,2051.342],[35.3245,-0.3458,2043.2802],[35.3284,-0.3434,2067.7773],[35.3318,-0.3451,2056.3606],[35.3345,-0.3407,2059.667],[35.3397,-0.3409,2110.4419],[35.3276,-0.3271,2058.1553],[35.3248,-0.3278,2052.4785],[35.3217,-0.3238,2059.9473],[35.309,-0.3183,2135.009]]]]}}