{"type":"Feature","properties":{"GID_2":"KEN.31.6_1","GID_0":"KEN","country":"Kenya","GID_1":"KEN.31_1","province":"Nakuru","NL_NAME_1":"NA","county":"Naivasha","VARNAME_2":"NA","NL_NAME_2":"NA","TYPE_2":"Constituency","ENGTYPE_2":"Constituency","CC_2":"168","HASC_2":"NA","name":"Naivasha.county"},
"geometry":{"type": "MultiPolygon","coordinates": [[[[36.5324,-1.145,1706.4016],[36.537,-1.1488,1741.6729],[36.5445,-1.1207,1706.9431],[36.5672,-1.0944,1799.8569],[36.5699,-1.0965,1830.6394],[36.5912,-1.0579,1823.7292],[36.5902,-1.0435,1848.9485],[36.5878,-1.0365,1829.9996],[36.5951,-1.0059,1826.1453],[36.5966,-0.9913,1909.293],[36.6001,-0.9872,2024.9338],[36.5962,-0.9857,1939.3052],[36.5964,-0.9786,2017.1299],[36.5914,-0.9793,1917.9155],[36.5873,-0.9721,1868.4893],[36.5877,-0.9587,1963.4039],[36.5788,-0.9406,2039.4521],[36.5749,-0.938,2041.7085],[36.5687,-0.9392,2043.7181],[36.5615,-0.9329,1981.9722],[36.5726,-0.9257,2108.0703],[36.5676,-0.922,2139.8979],[36.5542,-0.9202,2264.6404],[36.5543,-0.9146,2393.6433],[36.5442,-0.9018,2445.1343],[36.5545,-0.8666,2714.79],[36.5523,-0.849,2614.1807],[36.5616,-0.8358,2696.293],[36.5589,-0.8317,2689.9106],[36.5303,-0.7226,2515.3789],[36.5207,-0.7046,2496.0076],[36.5441,-0.6907,2511.6245],[36.5212,-0.647,2451.5508],[36.5263,-0.6432,2457.2832],[36.5266,-0.6388,2448.7161],[36.5248,-0.6363,2451.2898],[36.5247,-0.6317,2453.2314],[36.5162,-0.6262,2431.1792],[36.5159,-0.6227,2445.1675],[36.5182,-0.6228,2448.6484],[36.5203,-0.6199,2453.543],[36.5194,-0.6187,2451.6079],[36.5163,-0.6197,2447.0627],[36.5123,-0.6149,2427.4692],[36.5119,-0.6045,2434.4299],[36.5061,-0.6169,2441.189],[36.4898,-0.6185,2454.9858],[36.4886,-0.6248,2458.9492],[36.4834,-0.6304,2452.8862],[36.4873,-0.6386,2426.2732],[36.4779,-0.657,2206.6394],[36.4774,-0.6775,2194.9309],[36.462,-0.679,2099.4116],[36.4593,-0.6776,2091.1177],[36.4515,-0.68,2025.616],[36.4476,-0.6789,2006.9055],[36.4448,-0.6713,1981.3374],[36.4344,-0.6661,1933.1938],[36.4348,-0.6463,1968.3721],[36.4296,-0.6352,1965.9355],[36.4301,-0.6301,1946.6431],[36.4248,-0.6346,1933.0394],[36.4197,-0.63,1973.936],[36.4212,-0.6343,1918.683],[36.4173,-0.6334,1938.8711],[36.42,-0.6461,1933.2324],[36.4181,-0.6467,1921.532],[36.4181,-0.6434,1921.5703],[36.416,-0.6419,1941.1221],[36.4133,-0.6434,1937.0137],[36.4123,-0.6459,1932.1049],[36.4134,-0.6481,1931.8164],[36.4117,-0.6471,1929.4828],[36.4102,-0.6482,1924.6489],[36.4112,-0.65,1926.5756],[36.4095,-0.6491,1924.6489],[36.4053,-0.6507,1918.0011],[36.4057,-0.6526,1919.9778],[36.408,-0.6524,1921.5217],[36.408,-0.6555,1916.8198],[36.4011,-0.6615,1910.7053],[36.4024,-0.6592,1919.9712],[36.4006,-0.6561,1914.8715],[36.3983,-0.6586,1910.9254],[36.3938,-0.6588,1909.8225],[36.3947,-0.6605,1908.0098],[36.3926,-0.6603,1907.7776],[36.3902,-0.6632,1910.0581],[36.3893,-0.6613,1906.3104],[36.3838,-0.6623,1903.0233],[36.3846,-0.665,1899.9022],[36.3825,-0.6646,1899.4961],[36.3808,-0.6672,1899.3853],[36.3806,-0.6657,1905.3687],[36.3794,-0.6661,1898.4941],[36.3777,-0.669,1895.0448],[36.3765,-0.6733,1897.2198],[36.3775,-0.6743,1897.2198],[36.3664,-0.6809,1906.0579],[36.3659,-0.6871,1897.8501],[36.3674,-0.6898,1900.0371],[36.3728,-0.6903,1893.1033],[36.3823,-0.702,1892.0448],[36.3805,-0.7017,1906.1965],[36.3741,-0.7063,1890.7935],[36.3517,-0.7091,1887.0082],[36.3513,-0.7195,1886.1416],[36.2819,-0.7203,1909.2152],[36.2819,-0.7288,1941.4736],[36.2746,-0.7352,2003.3472],[36.274,-0.7398,1957.9985],[36.2281,-0.7064,1991.558],[36.2309,-0.6768,2233.3347],[36.2583,-0.6698,2308.3662],[36.2816,-0.6594,2320.9126],[36.2709,-0.6526,2489.554],[36.2682,-0.6463,2514.5859],[36.2637,-0.6556,2600.8174],[36.1245,-0.6541,2389.9956],[36.0998,-0.6704,2615.502],[36.1427,-0.7091,2206.6191],[36.1438,-0.7052,2279.8486],[36.1474,-0.7051,2310.5364],[36.1538,-0.7085,2242.3413],[36.1527,-0.7143,2187.8989],[36.1542,-0.72,2157.9854],[36.1595,-0.7278,2229.3911],[36.1594,-0.7355,2162.9001],[36.1615,-0.7389,2119.8362],[36.1687,-0.7411,2173.9346],[36.1715,-0.7475,2126.1506],[36.1835,-0.7526,2085.6387],[36.1888,-0.7593,2068.4238],[36.1911,-0.7575,2050.2527],[36.1928,-0.7599,2037.0085],[36.1835,-0.7726,2081.5361],[36.1908,-0.7783,2094.4016],[36.1883,-0.7982,2191.1462],[36.1583,-0.8313,2674.3552],[36.1695,-0.8649,2814.8193],[36.1895,-0.9017,2554.2639],[36.1855,-0.9087,2708.8726],[36.1948,-0.9091,2462.8569],[36.2057,-0.9278,2238.1914],[36.2638,-0.9085,2103.9866],[36.3356,-1.0408,1609.3704],[36.4935,-1.1151,1547.3367],[36.5324,-1.145,1706.4016]]]]}}