{"type": "Feature","bbox": [34.6289,-1.3251,34.7004,-1.1884],"geometry": {"type": "MultiPolygon","coordinates": [[[[34.7004,-1.2638,1555.4159],[34.6867,-1.2053,1484.8301],[34.6799,-1.2079,1463.7059],[34.6726,-1.2057,1436.4657],[34.6714,-1.1933,1448.9486],[34.6642,-1.1884,1456.1635],[34.6673,-1.1939,1437.0444],[34.6674,-1.1972,1427.5011],[34.6643,-1.2071,1446.1846],[34.656,-1.2142,1484.262],[34.6553,-1.2307,1575.786],[34.6464,-1.2472,1593.2744],[34.6435,-1.2475,1602.8518],[34.638,-1.2447,1557.1985],[34.6311,-1.2379,1513.8519],[34.6289,-1.2417,1491.0156],[34.6307,-1.251,1504.1238],[34.6325,-1.2516,1527.8529],[34.635,-1.2574,1544.6818],[34.6431,-1.2633,1562.8104],[34.6412,-1.2648,1556.1797],[34.6405,-1.2697,1542.7242],[34.6428,-1.2731,1540.3082],[34.6409,-1.2804,1572.3284],[34.6427,-1.2882,1560.3284],[34.641,-1.2948,1591.9803],[34.6442,-1.2989,1597.6188],[34.6429,-1.3025,1582.3418],[34.6473,-1.3156,1684.2637],[34.6451,-1.3221,1683.6809],[34.6474,-1.3251,1672.0685],[34.6486,-1.3206,1652.2783],[34.6634,-1.31,1748.3917],[34.6632,-1.3048,1717.1353],[34.6707,-1.2983,1677.1431],[34.6784,-1.2851,1645.4896],[34.6865,-1.2808,1568.5066],[34.6872,-1.2743,1547.5111],[34.6897,-1.2704,1548.2305],[34.7004,-1.2638,1555.4159]]]]}
,"properties": {"GID_3": "KEN.27.2.4_1","GID_0": "KEN","country": "Kenya","GID_1": "KEN.27_1","province": "Migori","NL_NAME_1": "NA","GID_2": "KEN.27.2_1","county": "KuriaEast","NL_NAME_2": "NA","city": "NyabasiEast","VARNAME_3": "NA","NL_NAME_3": "NA","TYPE_3": "Ward","ENGTYPE_3": "Ward","CC_3": "1299","HASC_3": "NA","name": "Nyabasi_East.city","area_km2": 55.76958,"hist_schema_id": "Elevation0-9000","hist_area_km2": {"1425": 0.97509,"1450": 3.07363,"1475": 3.70954,"1500": 5.19333,"1525": 6.54994,"1550": 6.6771,"1575": 6.78306,"1600": 7.0798,"1625": 6.61345,"1650": 4.57852,"1675": 2.75558,"1700": 1.20821,"1725": 0.42393,"1750": 0.14838}}}