{"type":"Feature","properties":{"GID_3":"KEN.7.1.1_1","GID_0":"KEN","country":"Kenya","GID_1":"KEN.7_1","province":"Garissa","NL_NAME_1":"NA","GID_2":"KEN.7.1_1","county":"Balambala","NL_NAME_2":"NA","city":"Balambala","VARNAME_3":"NA","NL_NAME_3":"NA","TYPE_3":"Ward","ENGTYPE_3":"Ward","CC_3":"135","HASC_3":"NA","name":"Balambala.city"},
"geometry":{"type": "MultiPolygon","coordinates": [[[[39.0543,-0.0032,236.3994],[39.0553,-0.0047,235.1555],[39.0683,-0.0029,236.2352],[39.0807,-0.0044,240.5643],[39.0905,-0.0082,233.2355],[39.1013,-0.0174,230.7256],[39.1119,-0.0064,240.8673],[39.1151,-0.002,246.2668],[39.1167,0.0039,252.2219],[39.1253,0.0101,263.9731],[39.1395,0.0403,300.894],[39.1387,0.0495,317.3112],[39.1283,0.0677,352.7015],[39.1275,0.0767,355.7137],[39.1295,0.0845,353.6483],[39.1369,0.0897,351.442],[39.1503,0.0939,345.8578],[39.1555,0.0985,342.939],[39.1651,0.1139,336.4317],[39.2055,0.1013,337.4067],[39.2121,0.0971,335.404],[39.2277,0.0909,332.8461],[39.3283,0.0543,307.4714],[39.3901,0.0285,291.2032],[39.4221,0.0171,283.6472],[39.4218,0.0246,283.0201],[39.4255,0.0391,279.1767],[39.4229,0.0567,281.0639],[39.4255,0.0827,273.4553],[39.4339,0.1089,270.8953],[39.4293,0.1518,273.848],[39.4326,0.1717,265.8206],[39.4302,0.1824,266.3489],[39.4305,0.1994,260.3987],[39.4146,0.2133,259.7111],[39.4073,0.2251,257.7811],[39.4021,0.2299,253.1602],[39.3985,0.2391,249.409],[39.3871,0.2573,251.3329],[39.3755,0.2661,255.5702],[39.37,0.276,261.001],[39.368899999999996,0.3035,252.6842],[39.3653,0.3171,259.1528],[39.3567,0.3305,265.564],[39.3488,0.3731,238.8189],[39.3465,0.3719,239.5699],[39.3329,0.3731,241.9482],[39.3273,0.3719,243.2644],[39.3011,0.3807,249.4218],[39.2763,0.3765,254.7319],[39.2682,0.3788,256.955],[39.2595,0.3777,257.8391],[39.2521,0.3797,259.4254],[39.2457,0.3855,262.1215],[39.2205,0.3815,267.0691],[39.2121,0.3641,271.075],[39.2037,0.3539,274.4378],[39.2029,0.3467,275.9232],[39.1969,0.3391,278.2595],[39.1965,0.3351,279.0817],[39.1943,0.3327,280.5579],[39.1915,0.3151,284.5852],[39.1929,0.3081,285.7859],[39.1916,0.2984,288.1999],[39.1843,0.2849,291.8751],[39.1747,0.2739,295.0493],[39.1663,0.2695,297.1498],[39.1577,0.2591,300.2725],[39.1439,0.2531,304.397],[39.1397,0.2529,304.7696],[39.1347,0.2483,307.0503],[39.1211,0.2467,309.575],[39.1191,0.2479,310.3036],[39.1101,0.2461,312.5202],[39.1011,0.2481,314.5505],[39.0869,0.2479,318.6692],[39.0657,0.2457,324.7728],[39.0619,0.2439,326.3913],[39.0529,0.2351,331.7277],[39.0331,0.2043,343.1531],[39.0211,0.1935,348.639],[39.0149,0.1839,352.6804],[39.0049,0.1743,357.1901],[39.0043,0.1647,363.1226],[39.0093,0.1563,373.3387],[39.0415,0.1489,378.6788],[39.0459,0.1441,377.3893],[39.0465,0.1383,377.5117],[39.0449,0.1331,373.2802],[39.0373,0.1225,344.7073],[39.0353,0.1159,336.4901],[39.0265,0.1073,323.003],[39.0281,0.0911,307.7259],[39.0237,0.0825,298.7267],[39.0323,0.0681,284.5438],[39.0459,0.0539,271.9415],[39.0489,0.0441,261.9714],[39.0477,0.0389,260.5886],[39.0501,0.0305,253.9288],[39.0477,0.0237,248.495],[39.0481,0.0157,245.3414],[39.0509,0.0085,242.6639],[39.0505,0.0023,238.7908],[39.0543,-0.0032,236.3994]]]]}}