{"type": "Feature","bbox": [39.9155,-3.2506,40.0773,-3.1375],"geometry": {"type": "MultiPolygon","coordinates": [[[[40.0099,-3.2224,47.1754],[40.0091,-3.22,47.3604],[40.0146,-3.2203,47.4766],[40.0187,-3.2167,42.1265],[40.0239,-3.2156,45.6805],[40.0403,-3.2051,6.4409],[40.0509,-3.1916,9.2839],[40.0539,-3.1906,8.9886],[40.0541,-3.1859,10.0473],[40.0569,-3.1854,8.8653],[40.0603,-3.1772,8.5442],[40.0629,-3.1776,8.9948],[40.0647,-3.18,8.3732],[40.0679,-3.1766,7.7702],[40.0735,-3.1774,7.9653],[40.0736,-3.174,7.2568],[40.0754,-3.1718,7.2442],[40.0743,-3.1668,7.1954],[40.0773,-3.162,4.1085],[40.0736,-3.1579,10.8107],[40.0691,-3.1566,7.9583],[40.0633,-3.1598,5.5908],[40.0638,-3.1574,7.0435],[40.0615,-3.1558,8.222],[40.0493,-3.1558,11.6407],[40.0431,-3.1598,8.6122],[40.0407,-3.1596,10.2872],[40.0304,-3.1482,22.9364],[40.0199,-3.149,20.0337],[40.0195,-3.1556,13.0315],[40.0099,-3.1559,15.8653],[40.0081,-3.1554,11.5],[40.0081,-3.1497,16.8042],[40.0073,-3.1536,11.8206],[40.0055,-3.1467,15.0114],[40.0017,-3.1405,14.3275],[39.9985,-3.1375,16.2203],[39.9953,-3.1379,16.6694],[39.9869,-3.1412,19.483],[39.9869,-3.1439,19.5442],[39.9931,-3.1519,16.1352],[39.993899999999996,-3.1582,18.1037],[39.9903,-3.1598,18.5825],[39.9861,-3.1594,16.9856],[39.9855,-3.1566,18.1772],[39.9833,-3.1557,24.0382],[39.9719,-3.1675,18.8785],[39.9731,-3.1724,17.5],[39.9761,-3.1745,18.5226],[39.9737,-3.1768,18.5141],[39.9687,-3.1781,20.5772],[39.9569,-3.1893,23.3395],[39.9537,-3.1904,22.8192],[39.9501,-3.1858,28.2367],[39.9373,-3.186,26.7001],[39.9337,-3.1871,27.5168],[39.9258,-3.1935,30.4332],[39.9227,-3.1926,29.433],[39.9189,-3.1843,28.3294],[39.9155,-3.1915,29.6787],[39.9179,-3.2506,93.5581],[39.9789,-3.2469,63.9329],[39.9867,-3.2139,99.107],[40.0083,-3.2198,47.3604],[40.0099,-3.2224,47.1754]]]]}
,"properties": {"GID_3": "KEN.14.6.3_1","GID_0": "KEN","country": "Kenya","GID_1": "KEN.14_1","province": "Kilifi","NL_NAME_1": "NA","GID_2": "KEN.14.6_1","county": "Malindi","NL_NAME_2": "NA","city": "Kakuyuni","VARNAME_3": "NA","NL_NAME_3": "NA","TYPE_3": "Ward","ENGTYPE_3": "Ward","CC_3": "76","HASC_3": "NA","name": "Kakuyuni.city","area_km2": 112.40851,"hist_schema_id": "Elevation0-9000","hist_area_km2": {"0": 18.56578,"25": 43.58816,"50": 7.8537,"75": 12.55304,"100": 25.97398,"125": 3.68333,"150": 0.19052}}}