{"type": "Feature","bbox": [40.7415,0.386,40.9922,0.7564],"geometry": {"type": "MultiPolygon","coordinates": [[[[40.9887,0.4621,75.7305],[40.9888,0.5145,78.4583],[40.9922,0.6132,79.957],[40.9915,0.7146,83.6754],[40.9909,0.7107,83.456],[40.9793,0.7079,84.3011],[40.9469,0.6955,87.4897],[40.9439,0.6961,87.7137],[40.9359,0.7005,88.3995],[40.9255,0.7033,89.1261],[40.9201,0.7083,89.7242],[40.8919,0.7123,91.8741],[40.8733,0.7211,94.0179],[40.8657,0.7285,95.0068],[40.8611,0.7289,95.6022],[40.8591,0.7309,95.9058],[40.8586,0.7396,96.2321],[40.855,0.7413,96.5351],[40.849,0.7533,97.5856],[40.8441,0.7564,98.1665],[40.8391,0.7533,97.9429],[40.8367,0.7541,98.2199],[40.829,0.7079,95.563],[40.8265,0.6699,92.2744],[40.8181,0.6561,91.8348],[40.7991,0.6117,88.4587],[40.7665,0.5743,88.9143],[40.7647,0.5707,89.3439],[40.7613,0.5439,88.1221],[40.7557,0.5363,87.6072],[40.7541,0.5285,87.593],[40.7461,0.5261,88.3417],[40.7415,0.5269,87.9896],[40.7519,0.5159,88.1947],[40.7561,0.5085,88.8418],[40.7675,0.4975,89.4678],[40.7931,0.4853,88.2467],[40.8091,0.4841,87.0687],[40.8181,0.4753,86.5027],[40.8275,0.4709,86.6628],[40.8305,0.4677,86.0841],[40.8385,0.4553,85.6344],[40.8573,0.4179,86.0631],[40.8641,0.3991,86.0863],[40.8733,0.386,84.6921],[40.886,0.3933,84.961],[40.9201,0.4261,80.7332],[40.9343,0.434,79.5552],[40.9465,0.4384,78.755],[40.9618,0.449,77.9381],[40.9784,0.4545,76.8988],[40.9887,0.4621,75.7305]]]]}
,"properties": {"GID_3": "KEN.46.5.3_1","GID_0": "KEN","country": "Kenya","GID_1": "KEN.46_1","province": "Wajir","NL_NAME_1": "NA","GID_2": "KEN.46.5_1","county": "WajirSouth","NL_NAME_2": "NA","city": "DadajaBulla","VARNAME_3": "NA","NL_NAME_3": "NA","TYPE_3": "Ward","ENGTYPE_3": "Ward","CC_3": "186","HASC_3": "NA","name": "Dadaja_Bulla.city","area_km2": 684.9241,"hist_schema_id": "Elevation0-9000","hist_area_km2": {"75": 545.5923,"100": 139.3317}}}