{"type":"Feature","properties":{"GID_3":"KEN.30.13.2_1","GID_0":"KEN","country":"Kenya","GID_1":"KEN.30_1","province":"Nairobi","NL_NAME_1":"NA","GID_2":"KEN.30.13_1","county":"Mathare","NL_NAME_2":"NA","city":"Huruma","VARNAME_3":"NA","NL_NAME_3":"NA","TYPE_3":"Ward","ENGTYPE_3":"Ward","CC_3":"1447","HASC_3":"NA","name":"Huruma.city"},
"geometry":{"type": "MultiPolygon","coordinates": [[[[36.8735,-1.2596,1619.7764],[36.8735,-1.2554,1609.6277],[36.8748,-1.2545,1605.5568],[36.873,-1.2505,1617.392],[36.8633,-1.2557,1630.0675],[36.8653,-1.26,1626.1868],[36.8735,-1.2596,1619.7764]]]]}}