{"type": "Feature","bbox": [34.6253,-0.0197,34.7492,0.0909],"geometry": {"type": "MultiPolygon","coordinates": [[[[34.7243,-0.0001,1514.8351],[34.7261,0.0001,1514.88],[34.7138,0.0155,1452.6843],[34.7203,0.0236,1499.5107],[34.724,0.0252,1540.347],[34.7233,0.0276,1558.4794],[34.7275,0.035,1555.142],[34.726,0.0511,1604.1229],[34.7331,0.0569,1644.8721],[34.7434,0.0696,1625.0156],[34.7484,0.0706,1626.5093],[34.7492,0.0754,1624.6537],[34.7432,0.0881,1578.0847],[34.7402,0.0903,1551.416],[34.7324,0.0884,1586.134],[34.7197,0.0896,1597.6364],[34.6991,0.0862,1554.2831],[34.6875,0.0896,1526.0906],[34.6747,0.0909,1487.4365],[34.6729,0.0848,1494.7207],[34.6734,0.0713,1533.2439],[34.6656,0.0689,1532.3932],[34.6639,0.0597,1522.7983],[34.6595,0.0587,1509.3704],[34.6625,0.0533,1493.8545],[34.6501,0.0298,1551.873],[34.6445,0.0217,1584.9863],[34.6312,0.0153,1565.9587],[34.6253,0.0084,1691.3325],[34.6369,0.0062,1711.2223],[34.6403,0.0032,1744.2845],[34.6717,-0.0096,1455.8672],[34.6887,-0.0046,1414.8926],[34.6936,-0.0083,1410.6375],[34.6924,-0.0125,1389.9967],[34.6875,-0.0195,1383.8339],[34.6886,-0.0197,1375.9125],[34.6959,-0.0136,1381.5892],[34.7075,-0.0154,1447.6531],[34.7099,-0.0146,1439.1161],[34.7155,-0.0037,1490.2322],[34.7243,-0.0001,1514.8351]]]]}
,"properties": {"GID_2": "KEN.45.5_1","GID_0": "KEN","country": "Kenya","GID_1": "KEN.45_1","province": "Vihiga","NL_NAME_1": "NA","county": "Vihiga","VARNAME_2": "NA","NL_NAME_2": "NA","TYPE_2": "Constituency","ENGTYPE_2": "Constituency","CC_2": "211","HASC_2": "NA","name": "Vihiga.county","area_km2": 90.02454,"hist_schema_id": "Elevation0-9000","hist_area_km2": {"1375": 0.33924,"1400": 1.63257,"1425": 2.26864,"1450": 1.84459,"1475": 2.45946,"1500": 4.94011,"1525": 6.93312,"1550": 10.5799,"1575": 16.72853,"1600": 18.67914,"1625": 11.87323,"1650": 6.65749,"1675": 2.81989,"1700": 1.29333,"1725": 0.44525,"1750": 0.16962,"1775": 0.12721,"1800": 0.14842,"1825": 0.08481}}}