{"type": "Feature","bbox": [35.8133,0.5726,36.0334,0.8209],"geometry": {"type": "MultiPolygon","coordinates": [[[[35.8387,0.6051,1679.6171],[35.8442,0.6047,1626.4968],[35.8495,0.6015,1495.5627],[35.8653,0.6009,1404.2529],[35.8727,0.5988,1374.8461],[35.8779,0.5958,1351.1798],[35.8818,0.59,1340.2531],[35.8833,0.5901,1335.803],[35.8832,0.5877,1329.4865],[35.8904,0.5814,1340.5659],[35.908,0.5752,1244.1431],[35.9221,0.5726,1220.9427],[35.9255,0.5735,1211.4227],[35.9329,0.58,1192.2245],[35.9385,0.5894,1215.964],[35.9406,0.5975,1205.6382],[35.971,0.6157,1151.8164],[36.0063,0.6177,1017.4917],[36.0106,0.6279,1052.5342],[36.0091,0.6345,1109.4376],[36.0115,0.6435,1105.9211],[36.0108,0.6482,1072.8135],[36.0124,0.6504,1062.8862],[36.0131,0.669,1009.4137],[36.0236,0.6981,1004.5618],[36.024,0.7085,988.6879],[36.0256,0.7128,1001.3862],[36.0299,0.7166,982.5223],[36.0334,0.7275,993.9045],[36.0188,0.7424,1010.7121],[35.9986,0.7576,1007.317],[35.9861,0.7744,1004.0806],[35.986,0.7756,1004.0524],[35.9896,0.7766,1000.4221],[35.9921,0.7961,999.392],[35.9844,0.7961,1010.2554],[35.9693,0.7929,1018.1725],[35.959,0.795,923.7183],[35.9622,0.8013,933.2731],[35.9537,0.8006,945.3477],[35.9194,0.8105,1014.7547],[35.9125,0.8177,1027.8326],[35.9012,0.8209,1045.83],[35.8994,0.8188,1058.1663],[35.8918,0.8161,1116.0518],[35.8836,0.8152,1114.259],[35.8769,0.8167,1162.5828],[35.8671,0.8128,1143.4801],[35.8345,0.8122,1638.2805],[35.8149,0.8145,1767.3806],[35.8142,0.808,1820.2305],[35.8176,0.8028,1829.2723],[35.8153,0.7896,1931.1586],[35.819,0.7776,1841.9297],[35.8134,0.7704,1740.7721],[35.8133,0.7615,1727.1158],[35.817,0.7595,1856.2307],[35.8166,0.756,1829.3561],[35.8196,0.7572,1954.2595],[35.8214,0.76,1980.0474],[35.8253,0.76,1892.0308],[35.8271,0.7595,1854.9048],[35.8286,0.7562,1940.9785],[35.8306,0.7404,2068.0635],[35.8295,0.7392,2019.6989],[35.8326,0.734,2119.9602],[35.8314,0.7305,2141.9209],[35.8349,0.7307,2012.3871],[35.8379,0.7208,2200.2861],[35.8419,0.6958,2030.4834],[35.8452,0.6847,2079.667],[35.8462,0.6756,2172.5801],[35.8374,0.6519,2331.7407],[35.8413,0.649,2106.3054],[35.8416,0.6363,1892.4026],[35.839,0.618,1995.783],[35.8354,0.6132,1825.5647],[35.8337,0.6065,1753.4714],[35.8387,0.6051,1679.6171]]]]}
,"properties": {"GID_3": "KEN.1.3.5_1","GID_0": "KEN","country": "Kenya","GID_1": "KEN.1_1","province": "Baringo","NL_NAME_1": "NA","GID_2": "KEN.1.3_1","county": "BaringoNorth","NL_NAME_2": "NA","city": "Saimo/Soi","VARNAME_3": "NA","NL_NAME_3": "NA","TYPE_3": "Ward","ENGTYPE_3": "Ward","CC_3": "791","HASC_3": "NA","name": "Saimo_Soi.city","area_km2": 462.0033,"hist_schema_id": "Elevation0-9000","hist_area_km2": {"925": 3.6252,"950": 14.0134,"975": 28.4085,"1000": 45.051,"1025": 38.0762,"1050": 18.7837,"1075": 21.9425,"1100": 25.4619,"1125": 31.8434,"1150": 24.7199,"1175": 21.1158,"1200": 21.1794,"1225": 18.1478,"1250": 16.9182,"1275": 13.5261,"1300": 12.9961,"1325": 13.0597,"1350": 11.6181,"1375": 9.922,"1400": 6.8479,"1425": 4.3886,"1450": 3.3709,"1475": 2.6925,"1500": 2.9045,"1525": 2.6713,"1550": 2.5865,"1575": 2.2897,"1600": 2.3321,"1625": 2.2897,"1650": 2.6077,"1675": 2.5229,"1700": 3.0529,"1725": 2.5441,"1750": 2.9681,"1775": 2.9045,"1800": 2.7137,"1825": 2.6077,"1850": 2.7985,"1875": 2.4381,"1900": 2.3533,"1925": 1.802,"1950": 1.4204,"1975": 1.5476,"2000": 0.8692,"2025": 0.8268,"2050": 0.8268,"2075": 0.5512,"2100": 0.318,"2125": 0.318,"2150": 0.2332,"2175": 0.1696,"2200": 0.212,"2225": 0.1696,"2250": 0.0848,"2275": 0.0636,"2300": 0.0848,"2325": 0.106,"2350": 0.0212,"2375": 0.0636,"2400": 0.0212}}}