{"type":"Feature","properties":{"GID_3":"KEN.40.3.3_1","GID_0":"KEN","country":"Kenya","GID_1":"KEN.40_1","province":"TanaRiver","NL_NAME_1":"NA","GID_2":"KEN.40.3_1","county":"Garsen","NL_NAME_2":"NA","city":"GarsenSouth","VARNAME_3":"NA","NL_NAME_3":"NA","TYPE_3":"Ward","ENGTYPE_3":"Ward","CC_3":"87","HASC_3":"NA","name":"Garsen_South.city"},
"geometry":{"type": "MultiPolygon","coordinates": [[[[40.1029,-2.6076,20.4544],[40.1205,-2.5839,16.065],[40.1631,-2.536,10.7675],[40.2269,-2.4769,7.9096],[40.2581,-2.4513,6.2672],[40.2961,-2.4158,3.504],[40.2353,-2.4312,5.5874],[40.1951,-2.4439,9.5048],[40.1927,-2.4426,7.8351],[40.1935,-2.4398,7.6302],[40.1989,-2.4389,8.0816],[40.2009,-2.4365,12.8903],[40.1991,-2.4342,9.5196],[40.2019,-2.4308,12.0279],[40.2011,-2.4277,9.6574],[40.2071,-2.4231,14.7332],[40.2039,-2.4208,11.3414],[40.2071,-2.4177,13.338],[40.2027,-2.4074,8.9215],[40.2047,-2.4059,9.1182],[40.2043,-2.4025,10.2852],[40.2009,-2.4002,9.9732],[40.1913,-2.3992,12.4461],[40.1887,-2.397,9.5407],[40.1855,-2.3976,10.8868],[40.1731,-2.3852,11.3945],[40.1621,-2.3672,11.3753],[40.1637,-2.3268,13.046],[40.1477,-2.2955,14.0234],[40.1319,-2.2757,12.5854],[40.1273,-2.273,14.0882],[40.1279,-2.2754,14.9294],[40.1195,-2.2809,16.6775],[40.1193,-2.2832,13.3491],[40.1221,-2.2849,15.8522],[40.1195,-2.2882,14.3271],[40.0679,-2.3056,24.8639],[39.9085,-2.3323,85.3355],[39.9877,-2.4446,62.2168],[40.1029,-2.6076,20.4544]]]]}}