{"type": "Feature","bbox": [39.5835,-4.0507,39.6191,-4.0086],"geometry": {"type": "MultiPolygon","coordinates": [[[[39.5853,-4.0368,0.5859],[39.5835,-4.0401,0.0],[39.5835,-4.0463,0.0],[39.5865,-4.0507,0.0],[39.589,-4.0499,0.0],[39.5907,-4.0451,0.0],[39.6031,-4.0454,0.0],[39.6055,-4.0396,36.3036],[39.6035,-4.0354,57.7316],[39.6037,-4.0313,59.5396],[39.6162,-4.0285,54.5794],[39.6162,-4.0262,56.4658],[39.6116,-4.0264,56.6884],[39.6112,-4.0226,58.7627],[39.6191,-4.0205,52.4673],[39.6191,-4.019,52.5335],[39.6021,-4.0086,62.4226],[39.6017,-4.0149,59.2636],[39.5998,-4.0141,51.5988],[39.5981,-4.0212,36.0092],[39.5947,-4.0265,41.6525],[39.5924,-4.0262,15.5945],[39.5863,-4.03,1.8004],[39.5853,-4.0368,0.5859]]]]}
,"properties": {"GID_3": "KEN.28.1.1_1","GID_0": "KEN","country": "Kenya","GID_1": "KEN.28_1","province": "Mombasa","NL_NAME_1": "NA","GID_2": "KEN.28.1_1","county": "Changamwe","NL_NAME_2": "NA","city": "Airport","VARNAME_3": "NA","NL_NAME_3": "NA","TYPE_3": "Ward","ENGTYPE_3": "Ward","CC_3": "3","HASC_3": "NA","name": "Airport.city","area_km2": 7.952314,"hist_schema_id": "Elevation0-9000","hist_area_km2": {"0": 1.290117,"25": 0.613339,"50": 5.879657,"75": 0.169201}}}