{"type":"Feature","properties":{"GID_3":"KEN.12.6.3_1","GID_0":"KEN","country":"Kenya","GID_1":"KEN.12_1","province":"Kericho","NL_NAME_1":"NA","GID_2":"KEN.12.6_1","county":"Sigowet/Soin","NL_NAME_2":"NA","city":"Soin","VARNAME_3":"NA","NL_NAME_3":"NA","TYPE_3":"Ward","ENGTYPE_3":"Ward","CC_3":"965","HASC_3":"NA","name":"Soin.city"},
"geometry":{"type": "MultiPolygon","coordinates": [[[[35.2533,-0.2118,1353.7477],[35.2506,-0.2086,1344.5337],[35.2506,-0.2065,1348.1921],[35.2486,-0.2077,1338.6078],[35.2493,-0.2056,1346.7684],[35.2473,-0.2047,1336.5215],[35.2491,-0.2025,1341.9182],[35.2461,-0.1966,1357.9919],[35.2443,-0.1987,1350.9968],[35.2408,-0.1941,1338.5392],[35.2368,-0.1955,1329.262],[35.236,-0.1911,1357.9395],[35.2314,-0.1888,1367.2661],[35.2266,-0.191,1334.8521],[35.2218,-0.188,1325.0214],[35.2211,-0.1892,1310.4279],[35.218,-0.1884,1304.5728],[35.2202,-0.1869,1310.2993],[35.2176,-0.1815,1301.1093],[35.219,-0.1804,1307.4832],[35.218,-0.1754,1306.4468],[35.2156,-0.1745,1292.7897],[35.2154,-0.169,1302.704],[35.2123,-0.1668,1302.1459],[35.2101,-0.1676,1295.3634],[35.2111,-0.166,1303.3416],[35.2055,-0.1643,1283.9791],[35.2034,-0.1624,1280.5342],[35.2044,-0.1602,1285.8376],[35.2014,-0.1607,1295.222],[35.1979,-0.1566,1291.5035],[35.1919,-0.1572,1285.5592],[35.186,-0.1535,1300.053],[35.1846,-0.1549,1290.1493],[35.1865,-0.1568,1274.3193],[35.184,-0.1597,1276.3519],[35.1734,-0.1568,1274.5671],[35.1703,-0.1569,1266.3263],[35.1671,-0.1597,1262.7417],[35.1662,-0.1585,1261.6647],[35.1675,-0.156,1267.1633],[35.1657,-0.1574,1263.9385],[35.164,-0.1562,1265.9852],[35.1618,-0.1588,1257.665],[35.156,-0.1603,1251.4294],[35.1537,-0.1582,1250.7937],[35.1466,-0.1562,1257.6582],[35.1397,-0.1554,1246.1641],[35.1401,-0.1567,1242.804],[35.1382,-0.1572,1241.5328],[35.134,-0.1497,1243.6484],[35.1307,-0.1488,1235.3053],[35.1314,-0.1511,1237.042],[35.1301,-0.1514,1228.9143],[35.129,-0.1493,1235.3053],[35.1274,-0.1505,1225.7029],[35.1033,-0.1957,1290.7024],[35.0719,-0.2032,1280.4451],[35.0634,-0.2115,1303.2893],[35.0573,-0.2313,1315.6887],[35.0559,-0.2524,1274.1047],[35.0847,-0.2577,1325.2727],[35.0843,-0.2564,1325.2727],[35.0883,-0.2536,1326.4711],[35.0907,-0.2537,1320.1702],[35.0948,-0.2488,1365.1313],[35.0995,-0.2496,1333.7773],[35.1193,-0.2647,1383.6274],[35.1196,-0.267,1388.0465],[35.1234,-0.2709,1445.1587],[35.1295,-0.2743,1486.8004],[35.1352,-0.2714,1512.3336],[35.1495,-0.2472,1434.9441],[35.1516,-0.2523,1452.4946],[35.1566,-0.2547,1528.8213],[35.1668,-0.2529,1587.4932],[35.1803,-0.2554,1671.2173],[35.1864,-0.2544,1617.4182],[35.1875,-0.2466,1618.3362],[35.1904,-0.2461,1625.339],[35.1943,-0.2474,1650.3611],[35.1984,-0.2527,1712.1749],[35.2028,-0.2553,1728.5557],[35.2052,-0.2543,1721.3162],[35.2056,-0.2515,1713.2156],[35.2028,-0.2476,1633.9637],[35.2022,-0.2431,1612.6882],[35.2098,-0.2384,1585.1597],[35.2101,-0.244,1605.0494],[35.2114,-0.2404,1557.0002],[35.2162,-0.2437,1575.9493],[35.2188,-0.2431,1591.6096],[35.2195,-0.2453,1639.5837],[35.2229,-0.2444,1667.7555],[35.2261,-0.2505,1679.1982],[35.2267,-0.2471,1667.7521],[35.2282,-0.2465,1671.6222],[35.2291,-0.2493,1665.8119],[35.24,-0.2529,1580.0612],[35.2421,-0.26,1657.7213],[35.2458,-0.2608,1615.3851],[35.2481,-0.2482,1517.3422],[35.2526,-0.2442,1441.1526],[35.2509,-0.2383,1421.9572],[35.2519,-0.2281,1385.8699],[35.2493,-0.2223,1378.8505],[35.2512,-0.2183,1361.6267],[35.2496,-0.2169,1360.6802],[35.2533,-0.2118,1353.7477]]]]}}