{"type":"Feature","properties":{"GID_2":"KEN.11.2_1","GID_0":"KEN","country":"Kenya","GID_1":"KEN.11_1","province":"Kakamega","NL_NAME_1":"NA","county":"Ikolomani","VARNAME_2":"NA","NL_NAME_2":"NA","TYPE_2":"Constituency","ENGTYPE_2":"Constituency","CC_2":"210","HASC_2":"NA","name":"Ikolomani.county"},
"geometry":{"type": "MultiPolygon","coordinates": [[[[34.7372,0.2058,1511.7299],[34.7362,0.2068,1511.7299],[34.7381,0.2092,1503.6676],[34.7302,0.2143,1516.655],[34.7277,0.219,1503.8871],[34.7138,0.2227,1515.5011],[34.7175,0.2287,1522.1208],[34.7174,0.2322,1494.405],[34.7116,0.253,1459.5693],[34.7083,0.2564,1474.0165],[34.7082,0.263,1460.2856],[34.7049,0.2652,1472.1322],[34.7051,0.2668,1467.8054],[34.7029,0.2659,1470.8145],[34.6997,0.2678,1464.9924],[34.6948,0.2641,1467.9241],[34.6778,0.2588,1449.6892],[34.6774,0.2552,1474.4888],[34.6744,0.2549,1464.8938],[34.6739,0.2526,1449.6495],[34.6692,0.2525,1408.0831],[34.6671,0.2491,1433.8462],[34.6568,0.2453,1400.969],[34.6509,0.2463,1400.2083],[34.6507,0.2498,1403.1982],[34.6436,0.2482,1393.1042],[34.6429,0.2452,1386.7644],[34.6377,0.2454,1413.1467],[34.635,0.2399,1396.1013],[34.6306,0.2382,1404.202],[34.6319,0.224,1480.9241],[34.6388,0.2212,1480.8029],[34.643,0.2107,1488.9225],[34.6366,0.2031,1508.5546],[34.65,0.191,1524.1509],[34.6572,0.1809,1454.5488],[34.654,0.1721,1453.6224],[34.6585,0.1717,1436.6445],[34.6594,0.1696,1437.0002],[34.665,0.1672,1462.2617],[34.6685,0.1688,1476.4309],[34.6707,0.1682,1464.1796],[34.6738,0.1706,1444.0972],[34.6771,0.1656,1415.2542],[34.6774,0.1594,1422.1801],[34.6827,0.1547,1464.7427],[34.6797,0.1477,1474.6355],[34.6813,0.1436,1474.53],[34.6809,0.1363,1500.5447],[34.6781,0.1343,1531.0021],[34.6813,0.1287,1548.5486],[34.6873,0.1292,1524.9377],[34.6954,0.1386,1493.4414],[34.6963,0.1372,1493.4414],[34.7041,0.1361,1490.6099],[34.7036,0.1442,1512.8931],[34.7094,0.1433,1534.1277],[34.7178,0.1477,1495.7759],[34.7227,0.1453,1521.3323],[34.7254,0.1493,1486.2948],[34.7294,0.1492,1466.5909],[34.7377,0.154,1450.187],[34.7383,0.1502,1458.9475],[34.7367,0.1484,1478.4803],[34.7387,0.1463,1466.8303],[34.7402,0.147,1476.1841],[34.7453,0.1436,1511.8774],[34.7516,0.1433,1514.7592],[34.7554,0.1454,1476.0725],[34.7573,0.1434,1504.0088],[34.7613,0.1434,1498.1865],[34.7669,0.1502,1501.9897],[34.7659,0.1548,1468.8276],[34.77,0.1573,1447.511],[34.7764,0.1533,1489.783],[34.781,0.1579,1469.1423],[34.7811,0.1613,1483.8933],[34.7877,0.1643,1476.9308],[34.7879,0.1624,1472.0786],[34.7905,0.1616,1488.3428],[34.7939,0.1632,1518.9729],[34.7968,0.1674,1523.3337],[34.8039,0.167,1517.6796],[34.8061,0.1649,1512.7644],[34.8076,0.1595,1515.0748],[34.8114,0.1568,1535.0887],[34.8167,0.1584,1515.5701],[34.8155,0.1812,1463.1101],[34.8123,0.1871,1493.5964],[34.8075,0.1867,1482.3989],[34.8059,0.1884,1496.9824],[34.8035,0.1862,1507.1207],[34.7948,0.1851,1479.1404],[34.7941,0.1836,1465.5872],[34.7894,0.1836,1493.3721],[34.7861,0.1855,1483.6963],[34.7799,0.1808,1500.1281],[34.772,0.1817,1525.3958],[34.7694,0.1866,1549.4585],[34.7594,0.1932,1577.7219],[34.7551,0.199,1550.1779],[34.7507,0.2012,1530.946],[34.7453,0.201,1537.5881],[34.7414,0.2061,1522.7664],[34.7372,0.2058,1511.7299]]]]}}