{"type":"Feature","properties":{"GID_3":"KEN.46.4.7_1","GID_0":"KEN","country":"Kenya","GID_1":"KEN.46_1","province":"Wajir","NL_NAME_1":"NA","GID_2":"KEN.46.4_1","county":"WajirNorth","NL_NAME_2":"NA","city":"Malkagufu","VARNAME_3":"NA","NL_NAME_3":"NA","TYPE_3":"Ward","ENGTYPE_3":"Ward","CC_3":"164","HASC_3":"NA","name":"Malkagufu.city"},
"geometry":{"type": "MultiPolygon","coordinates": [[[[39.6726,2.6579,564.2083],[39.6678,2.7084,541.5344],[39.6752,2.7744,635.1979],[39.6714,2.7812,528.0543],[39.6731,2.7869,529.1115],[39.6655,2.8076,596.8016],[39.6709,2.8137,598.6868],[39.6687,2.8219,598.3595],[39.696,2.8389,578.6445],[39.6894,2.8453,589.4131],[39.6832,2.8548,572.4739],[39.6781,2.8809,566.9647],[39.6671,2.9029,566.9145],[39.6512,2.9201,555.1007],[39.6414,2.9264,549.6094],[39.6457,2.9333,554.3025],[39.6458,2.9411,553.8721],[39.6403,2.9525,554.3809],[39.6513,2.9651,560.8599],[39.6521,2.9679,562.0516],[39.6513,2.9757,563.6744],[39.6461,2.9856,565.5302],[39.6465,2.9947,567.2222],[39.6429,2.9983,565.2966],[39.6361,3.0191,569.8795],[39.6297,3.0279,571.4988],[39.6159,3.0365,572.9983],[39.6109,3.0413,575.2283],[39.6041,3.0439,575.7296],[39.5963,3.0563,580.127],[39.5937,3.0641,585.5553],[39.5895,3.0679,587.1673],[39.5777,3.0707,588.7533],[39.5633,3.0649,581.5991],[39.5521,3.0697,582.2462],[39.5401,3.0683,578.245],[39.5335,3.0691,578.4335],[39.5111,3.0749,575.1559],[39.4959,3.0681,567.8287],[39.4785,3.0631,587.2995],[39.4733,3.0641,562.3157],[39.4735,3.0674,563.9614],[39.4698,3.0673,557.498],[39.466,3.0646,555.2939],[39.4539,3.0653,554.5599],[39.4565,3.0595,552.4034],[39.4607,3.0555,551.4386],[39.4569,3.0223,544.9486],[39.4573,3.0185,544.2203],[39.4626,3.0093,542.2075],[39.4536,3.0064,542.2722],[39.4511,2.9958,540.409],[39.4514,2.9853,537.6162],[39.4428,2.974,535.8812],[39.4348,2.9521,530.507],[39.3225,2.8564,524.4114],[39.3312,2.8474,518.3932],[39.3351,2.8395,512.9043],[39.3365,2.8231,508.0789],[39.3393,2.8143,511.4272],[39.3369,2.8053,507.4877],[39.3311,2.7965,501.7295],[39.3225,2.7903,493.5156],[39.3179,2.7839,489.456],[39.3009,2.7763,488.9935],[39.2917,2.7625,484.2898],[39.2783,2.7511,478.6732],[39.2673,2.7429,470.6913],[39.2505,2.7353,463.6934],[39.2403,2.7251,464.8401],[39.2149,2.7201,466.0135],[39.2177,2.7057,461.7599],[39.2173,2.6979,457.253],[39.2087,2.6749,447.9052],[39.2039,2.6501,444.1107],[39.1979,2.6407,442.8535],[39.1923,2.6265,439.4247],[39.1887,2.6055,438.9816],[39.184,2.5987,435.3004],[39.2582,2.5485,444.6879],[39.262,2.5424,442.826],[39.4636,2.5493,434.676],[39.465,2.5496,434.3714],[39.4832,2.6018,439.4199],[39.5592,2.5963,437.3593],[39.5843,2.6103,442.202],[39.5855,2.6041,439.5964],[39.5947,2.585,434.7222],[39.5923,2.5747,431.179],[39.6489,2.5973,463.0689],[39.6691,2.6107,477.8078],[39.6787,2.6139,488.7357],[39.6771,2.6421,538.9002],[39.6726,2.6579,564.2083]]]]}}