{"type":"Feature","properties":{"GID_3":"KEN.18.5.4_1","GID_0":"KEN","country":"Kenya","GID_1":"KEN.18_1","province":"Kitui","NL_NAME_1":"NA","GID_2":"KEN.18.5_1","county":"KituiWest","NL_NAME_2":"NA","city":"Mutonguni","VARNAME_3":"NA","NL_NAME_3":"NA","TYPE_3":"Ward","ENGTYPE_3":"Ward","CC_3":"346","HASC_3":"NA","name":"Mutonguni.city"},
"geometry":{"type": "MultiPolygon","coordinates": [[[[38.0687,-1.1682,916.7396],[38.0622,-1.1684,993.4348],[38.051,-1.1636,1077.9065],[38.0472,-1.1664,1139.5923],[38.0475,-1.1639,1105.1611],[38.0439,-1.1635,1129.1963],[38.0355,-1.1667,1147.144],[38.0042,-1.1594,1432.8262],[38.0064,-1.1555,1386.8877],[37.9987,-1.1537,1347.474],[37.9952,-1.1476,1336.4233],[37.9912,-1.1466,1333.2122],[37.9814,-1.1495,1312.3208],[37.9726,-1.1415,1283.9644],[37.9714,-1.1432,1267.0997],[37.9685,-1.1427,1262.1912],[37.9656,-1.1396,1258.0803],[37.9605,-1.1373,1257.4766],[37.9579,-1.1378,1246.5582],[37.9553,-1.1347,1241.6219],[37.9487,-1.1372,1281.8724],[37.9463,-1.1339,1278.4016],[37.9402,-1.136,1243.8691],[37.9371,-1.1341,1251.0424],[37.9333,-1.1352,1230.7217],[37.9281,-1.1332,1223.7267],[37.9224,-1.1343,1209.134],[37.9095,-1.1319,1197.1821],[37.9069,-1.1327,1192.9697],[37.9016,-1.1301,1179.5061],[37.8892,-1.1306,1199.0756],[37.8878,-1.1257,1195.1091],[37.8785,-1.1238,1180.5868],[37.8672,-1.1281,1162.9425],[37.8585,-1.1212,1144.1912],[37.8583,-1.1237,1144.8149],[37.8612,-1.129,1151.0753],[37.8692,-1.1358,1159.1812],[37.8732,-1.1366,1166.562],[37.8739,-1.1417,1167.6431],[37.8764,-1.1427,1173.1122],[37.878,-1.1487,1176.0477],[37.8847,-1.1511,1190.6943],[37.8902,-1.1558,1192.5474],[37.8918,-1.1614,1191.6016],[37.8958,-1.157,1207.134],[37.9003,-1.1561,1218.9382],[37.9005,-1.1586,1216.5543],[37.9039,-1.1627,1223.9863],[37.9179,-1.1683,1232.3022],[37.9213,-1.1669,1240.9479],[37.9249,-1.1623,1225.7301],[37.933,-1.1596,1237.0603],[37.9265,-1.172,1247.9973],[37.9214,-1.1739,1230.0635],[37.9235,-1.1833,1231.4116],[37.9197,-1.1991,1258.9338],[37.9278,-1.1966,1267.6681],[37.9337,-1.2003,1261.6244],[37.9453,-1.1958,1272.4995],[37.9449,-1.2001,1277.7306],[37.942,-1.2045,1268.0555],[37.942,-1.2092,1257.2379],[37.939,-1.212,1245.8014],[37.9389,-1.217,1257.9948],[37.9366,-1.2202,1246.6871],[37.9366,-1.229,1213.0149],[37.9402,-1.2374,1204.1052],[37.9436,-1.2351,1220.293],[37.9488,-1.2387,1214.6057],[37.9534,-1.2379,1230.6757],[37.9587,-1.2396,1217.3594],[37.9672,-1.233,1232.5963],[37.9687,-1.2344,1233.9796],[37.9697,-1.2334,1233.9796],[37.9702,-1.235,1224.259],[37.9733,-1.2307,1247.4646],[37.9757,-1.2322,1230.3765],[37.979,-1.2281,1239.278],[37.9811,-1.2311,1237.1072],[37.9811,-1.2426,1242.7361],[37.9857,-1.2469,1244.6536],[37.9767,-1.2561,1219.8478],[37.9764,-1.2642,1225.5474],[37.9792,-1.27,1197.7119],[37.9819,-1.2647,1200.3488],[37.9814,-1.2608,1217.3468],[37.9864,-1.2591,1224.1711],[37.9863,-1.2569,1234.2144],[37.9894,-1.2556,1213.702],[37.989,-1.252,1232.0278],[37.9923,-1.2495,1247.1868],[37.9986,-1.251,1240.927],[38.0007,-1.247,1240.4314],[38.0039,-1.2473,1251.3668],[38.0061,-1.2446,1239.2212],[38.0133,-1.2441,1253.5991],[38.0156,-1.2456,1273.8549],[38.0211,-1.2445,1297.9738],[38.0246,-1.2466,1381.1273],[38.0246,-1.2529,1326.7219],[38.0265,-1.2539,1287.8754],[38.0282,-1.2437,1374.1499],[38.0276,-1.2367,1434.684],[38.0293,-1.2339,1449.8765],[38.034,-1.234,1454.0105],[38.0382,-1.2322,1394.4001],[38.0398,-1.2336,1339.3068],[38.0499,-1.2284,1120.917],[38.0558,-1.2283,1112.6743],[38.0593,-1.2263,1070.084],[38.0601,-1.228,1079.6028],[38.0621,-1.227,1040.6268],[38.0638,-1.2281,1045.4744],[38.0642,-1.2263,1028.691],[38.0665,-1.2272,1007.7264],[38.0697,-1.2248,962.7501],[38.0693,-1.222,974.8156],[38.0731,-1.2233,957.5262],[38.0782,-1.2223,1024.3995],[38.0687,-1.1682,916.7396]]]]}}