{"type":"Feature","properties":{"GID_3":"KEN.6.1.6_1","GID_0":"KEN","country":"Kenya","GID_1":"KEN.6_1","province":"Embu","NL_NAME_1":"NA","GID_2":"KEN.6.1_1","county":"Manyatta","NL_NAME_2":"NA","city":"Nginda","VARNAME_3":"NA","NL_NAME_3":"NA","TYPE_3":"Ward","ENGTYPE_3":"Ward","CC_3":"313","HASC_3":"NA","name":"Nginda.city"},
"geometry":{"type": "MultiPolygon","coordinates": [[[[37.4299,-0.4802,1517.0465],[37.4352,-0.4634,1564.3831],[37.44,-0.4591,1574.5349],[37.4403,-0.4549,1616.3704],[37.4436,-0.4524,1608.6967],[37.4463,-0.4468,1576.7728],[37.4462,-0.4434,1624.3223],[37.4514,-0.4396,1634.5037],[37.4548,-0.4285,1659.8975],[37.46,-0.4256,1632.8101],[37.4584,-0.4192,1662.3362],[37.4609,-0.407,1680.701],[37.4666,-0.4041,1691.5513],[37.4703,-0.3988,1775.8674],[37.4714,-0.394,1768.8015],[37.4681,-0.3856,1802.4211],[37.4693,-0.3822,1781.9525],[37.4717,-0.3821,1799.4795],[37.4686,-0.3746,1818.9652],[37.4706,-0.3721,1842.2198],[37.4698,-0.3688,1850.5066],[37.471,-0.3671,1868.9653],[37.4677,-0.3651,1850.1792],[37.468,-0.3635,1869.6228],[37.4642,-0.3622,1873.8514],[37.4601,-0.3507,1965.9519],[37.4447,-0.3334,2092.314],[37.3081,-0.146,4524.6895],[37.4251,-0.4171,1739.5187],[37.4245,-0.4208,1720.9817],[37.4263,-0.4273,1675.4875],[37.4259,-0.4297,1689.3529],[37.424,-0.4305,1708.4921],[37.4252,-0.4331,1696.4204],[37.4232,-0.4336,1696.4204],[37.4245,-0.4354,1690.7654],[37.4224,-0.4365,1675.8145],[37.4226,-0.4395,1652.34],[37.4256,-0.4418,1641.9934],[37.4281,-0.4412,1665.4166],[37.4263,-0.4588,1619.7815],[37.4287,-0.4605,1579.4348],[37.4269,-0.4624,1612.2097],[37.4256,-0.4689,1578.2839],[37.427,-0.4704,1563.1666],[37.4242,-0.4781,1512.4113],[37.4276,-0.4807,1534.8198],[37.4299,-0.4802,1517.0465]]],
[[[37.6819,-0.262,1305.8334],[37.6749,-0.2643,1351.2426],[37.6635,-0.2637,1412.4341],[37.6573,-0.265,1421.1235],[37.6421,-0.2587,1484.2249],[37.6343,-0.2573,1514.126],[37.6279,-0.2609,1511.7106],[37.6153,-0.2595,1583.0586],[37.6129,-0.2661,1603.3809],[37.6101,-0.2692,1626.9457],[37.6059,-0.2703,1656.6903],[37.5357,-0.2447,2106.4868],[37.3155,-0.1528,4739.4697],[37.4895,-0.2342,2331.5659],[37.5881,-0.2725,1773.9185],[37.5967,-0.2733,1658.8544],[37.6039,-0.2763,1523.937],[37.6125,-0.2831,1509.7627],[37.6447,-0.2845,1416.2466],[37.6519,-0.2822,1358.4878],[37.6625,-0.2851,1257.9977],[37.6887,-0.2831,1242.6394],[37.7051,-0.2894,1187.2428],[37.7115,-0.2962,1183.5654],[37.7175,-0.2973,1142.4387],[37.7308,-0.2902,1097.5546],[37.7455,-0.2896,1082.994],[37.7701,-0.2849,990.6946],[37.7757,-0.2873,953.8079],[37.7803,-0.2937,919.6022],[37.7855,-0.2962,933.3044],[37.7931,-0.3035,860.1897],[37.8077,-0.3097,841.1096],[37.8175,-0.312,804.8955],[37.8165,-0.3082,818.6643],[37.8129,-0.305,813.6414],[37.8091,-0.2936,827.4529],[37.8007,-0.2844,853.5132],[37.7967,-0.284,896.9886],[37.7857,-0.2732,914.2225],[37.7769,-0.2761,984.1505],[37.7717,-0.2758,982.8668],[37.7669,-0.2727,995.0126],[37.7505,-0.2743,1065.1641],[37.7475,-0.2704,1059.0522],[37.7381,-0.2727,1078.1667],[37.7241,-0.27,1135.4344],[37.6983,-0.2716,1149.6971],[37.6925,-0.2658,1290.4723],[37.6847,-0.2617,1327.6075],[37.6819,-0.262,1305.8334]]]]}}