{"type": "Feature","bbox": [36.8818,-1.323,36.8993,-1.3041],"geometry": {"type": "MultiPolygon","coordinates": [[[[36.8936,-1.3123,1626.4434],[36.8887,-1.3041,1624.0151],[36.8818,-1.3081,1624.3682],[36.8832,-1.3103,1618.9849],[36.8849,-1.3092,1614.0607],[36.8965,-1.323,1633.422],[36.8993,-1.3214,1631.1013],[36.8936,-1.3123,1626.4434]]]]}
,"properties": {"GID_3": "KEN.30.6.5_1","GID_0": "KEN","country": "Kenya","GID_1": "KEN.30_1","province": "Nairobi","NL_NAME_1": "NA","GID_2": "KEN.30.6_1","county": "EmbakasiSouth","NL_NAME_2": "NA","city": "Pipeline","VARNAME_3": "NA","NL_NAME_3": "NA","TYPE_3": "Ward","ENGTYPE_3": "Ward","CC_3": "1409","HASC_3": "NA","name": "Pipeline.city","area_km2": 1.2294053,"hist_schema_id": "Elevation0-9000","hist_area_km2": {"1600": 0.0211967,"1625": 1.187012,"1650": 0.0211966}}}