{"type":"Feature","properties":{"GID_3":"KEN.16.1.8_1","GID_0":"KEN","country":"Kenya","GID_1":"KEN.16_1","province":"Kisii","NL_NAME_1":"NA","GID_2":"KEN.16.1_1","county":"Bobasi","NL_NAME_2":"NA","city":"Sameta/Mokwerero","VARNAME_3":"NA","NL_NAME_3":"NA","TYPE_3":"Ward","ENGTYPE_3":"Ward","CC_3":"1321","HASC_3":"NA","name":"Sameta_Mokwerero.city"},
"geometry":{"type": "MultiPolygon","coordinates": [[[[34.7702,-0.7572,1797.4258],[34.7528,-0.758,1699.1265],[34.7485,-0.7563,1677.0131],[34.7413,-0.7487,1659.5688],[34.728,-0.7483,1619.1484],[34.7253,-0.7527,1624.2838],[34.73,-0.7585,1649.5211],[34.7292,-0.7687,1657.4315],[34.7341,-0.7805,1667.0994],[34.7351,-0.7956,1645.8127],[34.7437,-0.7933,1684.8784],[34.7495,-0.7941,1659.4636],[34.7517,-0.7913,1698.0931],[34.7552,-0.7924,1680.4198],[34.7546,-0.7905,1721.3268],[34.7605,-0.7948,1670.0498],[34.7719,-0.7887,1736.6084],[34.7732,-0.7904,1698.6188],[34.7749,-0.7896,1681.2322],[34.7781,-0.7933,1689.8328],[34.779,-0.7916,1707.5593],[34.7821,-0.7927,1706.5272],[34.7895,-0.7891,1732.7998],[34.7932,-0.7898,1707.5103],[34.7925,-0.7855,1731.0863],[34.7947,-0.786,1721.2191],[34.7948,-0.7834,1726.0891],[34.788,-0.7785,1814.4364],[34.7841,-0.7728,1909.3398],[34.7749,-0.7681,1955.6274],[34.764,-0.7651,1830.1265],[34.7702,-0.7572,1797.4258]]]]}}