{"type": "Feature","bbox": [37.218,-1.5484,37.3872,-1.2929],"geometry": {"type": "MultiPolygon","coordinates": [[[[37.3425,-1.4187,1338.488],[37.3409,-1.4128,1342.4751],[37.3433,-1.4094,1379.6941],[37.3421,-1.4084,1362.3721],[37.3398,-1.4108,1344.8268],[37.34,-1.4075,1372.4829],[37.3369,-1.407,1346.6322],[37.3351,-1.4032,1353.674],[37.3331,-1.4031,1349.964],[37.3346,-1.3963,1362.9757],[37.3324,-1.3917,1361.4999],[37.3241,-1.3847,1395.1406],[37.3222,-1.3857,1382.2609],[37.3219,-1.3878,1377.7687],[37.3194,-1.3861,1406.3577],[37.3209,-1.3839,1400.8373],[37.3183,-1.382,1372.2908],[37.3194,-1.3792,1390.0544],[37.3158,-1.3796,1376.0818],[37.3138,-1.3776,1401.0721],[37.3162,-1.3772,1401.7096],[37.3161,-1.376,1394.5896],[37.3102,-1.3707,1388.0088],[37.311,-1.369,1402.4523],[37.3088,-1.3694,1385.5664],[37.3077,-1.3678,1390.9265],[37.3086,-1.3636,1423.9371],[37.3067,-1.3649,1397.5272],[37.3038,-1.363,1390.246],[37.3055,-1.3605,1404.686],[37.3034,-1.3578,1402.0312],[37.3007,-1.3592,1406.0225],[37.3013,-1.3567,1399.5968],[37.2963,-1.3533,1405.5459],[37.2917,-1.3423,1455.134],[37.2833,-1.34,1429.8068],[37.2831,-1.3371,1437.1995],[37.28,-1.3356,1435.4768],[37.2794,-1.3319,1447.7206],[37.2769,-1.3295,1446.214],[37.2728,-1.3305,1447.015],[37.2728,-1.3264,1445.8916],[37.2744,-1.3257,1446.7522],[37.2704,-1.3242,1446.4264],[37.2713,-1.322,1469.5503],[37.2676,-1.3201,1451.9241],[37.2648,-1.3154,1474.6531],[37.2598,-1.3137,1461.6622],[37.258,-1.3063,1461.3003],[37.2549,-1.3041,1464.4916],[37.2538,-1.2986,1479.9385],[37.2465,-1.2942,1477.469],[37.2288,-1.2929,1510.5798],[37.218,-1.2999,1520.0953],[37.2204,-1.4012,1789.7899],[37.2322,-1.4007,1884.1631],[37.2384,-1.3894,1651.033],[37.2432,-1.387,1607.6357],[37.2533,-1.3838,1557.6681],[37.2631,-1.3859,1510.0132],[37.261,-1.3887,1550.1304],[37.261,-1.3917,1575.7227],[37.2567,-1.3943,1605.5806],[37.2559,-1.398,1646.7612],[37.2568,-1.3974,1653.3521],[37.2585,-1.4058,1720.5735],[37.2673,-1.4147,1868.4153],[37.2709,-1.416,1967.3335],[37.2753,-1.4229,1923.991],[37.2742,-1.4278,1969.5498],[37.276,-1.4366,2016.7825],[37.2814,-1.4408,1983.3691],[37.2796,-1.4467,2067.8135],[37.2805,-1.4529,2030.6243],[37.2832,-1.4522,1995.2062],[37.2935,-1.4805,2074.2585],[37.2923,-1.4943,2046.2974],[37.2954,-1.497,2044.5232],[37.298,-1.4969,1983.7931],[37.3004,-1.4996,1972.0709],[37.3002,-1.502,1961.6432],[37.3042,-1.5046,1906.7762],[37.3105,-1.4987,1935.3328],[37.3143,-1.4978,1872.1522],[37.3153,-1.5007,1803.3638],[37.3306,-1.5133,1520.6079],[37.3383,-1.5137,1384.0881],[37.3397,-1.5167,1367.1516],[37.3321,-1.5209,1417.6073],[37.3304,-1.5269,1631.0909],[37.3377,-1.5319,1366.0439],[37.3407,-1.5288,1342.4548],[37.3442,-1.5301,1327.1252],[37.3419,-1.5266,1354.5809],[37.3427,-1.5254,1363.741],[37.3462,-1.5279,1328.1941],[37.3448,-1.5234,1369.3987],[37.3482,-1.5246,1329.4772],[37.3507,-1.5225,1344.7065],[37.3538,-1.5235,1328.5104],[37.3559,-1.5218,1326.4313],[37.3569,-1.5253,1313.832],[37.354,-1.5287,1352.3744],[37.3495,-1.5399,1372.6677],[37.3501,-1.5484,1417.3353],[37.3541,-1.5471,1392.5656],[37.3551,-1.5414,1375.7273],[37.3585,-1.5412,1370.47],[37.3605,-1.5328,1366.6226],[37.3635,-1.5355,1366.3225],[37.3651,-1.5352,1366.3225],[37.3647,-1.5323,1365.271],[37.3712,-1.5288,1333.4343],[37.3722,-1.5258,1314.7866],[37.3765,-1.5227,1296.9623],[37.3767,-1.5206,1282.3477],[37.3826,-1.5181,1290.4786],[37.3867,-1.5197,1272.0266],[37.3872,-1.5173,1288.739],[37.3844,-1.5162,1300.9436],[37.3786,-1.5089,1290.8916],[37.3781,-1.5041,1317.2708],[37.3716,-1.5,1312.0848],[37.3708,-1.4959,1304.6616],[37.3682,-1.4967,1298.6747],[37.367,-1.4953,1319.6332],[37.3692,-1.4942,1300.5364],[37.3674,-1.4923,1318.8672],[37.3688,-1.4878,1312.5482],[37.3657,-1.4875,1303.1154],[37.3663,-1.4854,1300.3121],[37.3648,-1.484,1313.8486],[37.3695,-1.4811,1307.826],[37.3678,-1.4783,1312.8807],[37.3698,-1.4744,1304.9388],[37.3683,-1.473,1314.6862],[37.3701,-1.4714,1318.8247],[37.3675,-1.4708,1316.6163],[37.368,-1.4688,1316.5947],[37.3659,-1.4671,1312.0035],[37.3666,-1.4631,1317.8684],[37.364,-1.4605,1348.8972],[37.3674,-1.4603,1326.7075],[37.3685,-1.4541,1321.875],[37.3619,-1.4506,1323.4169],[37.3643,-1.4466,1335.7505],[37.3644,-1.4383,1345.1033],[37.366,-1.4361,1330.0397],[37.3593,-1.436,1347.7177],[37.3589,-1.4344,1336.6213],[37.3615,-1.4335,1332.5394],[37.3589,-1.4318,1339.804],[37.3592,-1.4268,1352.8378],[37.3567,-1.4284,1336.1323],[37.3548,-1.4255,1340.1956],[37.3473,-1.4239,1346.6841],[37.3425,-1.4187,1338.488]]]]}
,"properties": {"GID_2": "KEN.22.2_1","GID_0": "KEN","country": "Kenya","GID_1": "KEN.22_1","province": "Machakos","NL_NAME_1": "NA","county": "Kathiani","VARNAME_2": "NA","NL_NAME_2": "NA","TYPE_2": "Constituency","ENGTYPE_2": "Constituency","CC_2": "79","HASC_2": "NA","name": "Kathiani.county","area_km2": 206.9127,"hist_schema_id": "Elevation0-9000","hist_area_km2": {"1275": 0.7418,"1300": 2.5222,"1325": 6.5281,"1350": 13.247,"1375": 12.3993,"1400": 9.3261,"1425": 8.224,"1450": 12.7176,"1475": 17.0842,"1500": 25.6901,"1525": 16.2787,"1550": 7.0159,"1575": 4.2392,"1600": 3.3701,"1625": 3.3065,"1650": 3.5609,"1675": 4.7266,"1700": 5.1293,"1725": 6.0195,"1750": 6.7825,"1775": 7.0581,"1800": 5.7228,"1825": 5.2565,"1850": 3.8999,"1875": 2.713,"1900": 3.5184,"1925": 2.1619,"1950": 2.1619,"1975": 2.3315,"2000": 1.632,"2025": 0.975,"2050": 0.4451,"2075": 0.1272}}}