{"type": "Feature","bbox": [34.8012,0.8112,34.8919,0.9143],"geometry": {"type": "MultiPolygon","coordinates": [[[[34.809,0.8112,1660.4874],[34.8705,0.8303,1766.3058],[34.8669,0.8503,1775.0044],[34.8676,0.8687,1803.6426],[34.8833,0.8764,1747.7129],[34.8745,0.8877,1776.9338],[34.8689,0.9027,1786.9011],[34.8919,0.9104,1761.579],[34.889,0.9119,1757.7227],[34.8837,0.9116,1773.4073],[34.8817,0.9143,1785.4822],[34.8486,0.9062,1825.8521],[34.8495,0.9003,1812.1184],[34.8271,0.8851,1898.4991],[34.8356,0.8697,1819.3688],[34.8012,0.8522,1710.8875],[34.805,0.8494,1710.8164],[34.8051,0.8441,1682.9038],[34.8116,0.8262,1664.3689],[34.809,0.8112,1660.4874]]]]}
,"properties": {"GID_3": "KEN.42.3.4_1","GID_0": "KEN","country": "Kenya","GID_1": "KEN.42_1","province": "TransNzoia","NL_NAME_1": "NA","GID_2": "KEN.42.3_1","county": "Kiminini","NL_NAME_2": "NA","city": "Sikhendu","VARNAME_3": "NA","NL_NAME_3": "NA","TYPE_3": "Ward","ENGTYPE_3": "Ward","CC_3": "692","HASC_3": "NA","name": "Sikhendu.city","area_km2": 53.52954,"hist_schema_id": "Elevation0-9000","hist_area_km2": {"1650": 0.3816,"1675": 3.5828,"1700": 8.75558,"1725": 8.43756,"1750": 9.37032,"1775": 11.46905,"1800": 5.57551,"1825": 1.92917,"1850": 1.12359,"1875": 1.42038,"1900": 0.91159,"1925": 0.55119,"1950": 0.0212}}}