{"type": "Feature","bbox": [36.3945,-0.7434,36.4606,-0.6898],"geometry": {"type": "MultiPolygon","coordinates": [[[[36.4606,-0.7379,2018.2233],[36.4546,-0.7292,2046.4531],[36.4388,-0.7134,1930.0802],[36.4325,-0.7127,1904.3065],[36.4203,-0.6898,1901.2415],[36.4167,-0.6998,1895.1438],[36.4091,-0.6968,1893.1974],[36.4038,-0.7082,1891.3506],[36.4073,-0.7102,1889.2366],[36.3947,-0.7211,1887.6147],[36.3945,-0.7434,1882.0],[36.4283,-0.7434,1893.304],[36.4558,-0.7398,2012.1052],[36.4606,-0.7379,2018.2233]]]]}
,"properties": {"GID_3": "KEN.31.6.3_1","GID_0": "KEN","country": "Kenya","GID_1": "KEN.31_1","province": "Nakuru","NL_NAME_1": "NA","GID_2": "KEN.31.6_1","county": "Naivasha","NL_NAME_2": "NA","city": "LakeView","VARNAME_3": "NA","NL_NAME_3": "NA","TYPE_3": "Ward","ENGTYPE_3": "Ward","CC_3": "838","HASC_3": "NA","name": "Lake_View.city","area_km2": 25.0802,"hist_schema_id": "Elevation0-9000","hist_area_km2": {"1875": 7.97138,"1900": 12.08431,"1925": 1.14483,"1950": 1.18723,"1975": 1.39923,"2000": 1.25083,"2025": 0.0424}}}