{"type":"Feature","properties":{"GID_3":"KEN.29.4.1_1","GID_0":"KEN","country":"Kenya","GID_1":"KEN.29_1","province":"Murang'a","NL_NAME_1":"NA","GID_2":"KEN.29.4_1","county":"Kigumo","NL_NAME_2":"NA","city":"Kahumbu","VARNAME_3":"NA","NL_NAME_3":"NA","TYPE_3":"Ward","ENGTYPE_3":"Ward","CC_3":"528","HASC_3":"NA","name":"Kahumbu.city"},
"geometry":{"type": "MultiPolygon","coordinates": [[[[37.1251,-0.8814,1416.4115],[37.1406,-0.8686,1369.9614],[37.1399,-0.8578,1376.8386],[37.1357,-0.8585,1396.0175],[37.1259,-0.856,1398.479],[37.117,-0.8574,1447.0891],[37.1115,-0.8544,1465.4507],[37.1037,-0.8554,1482.4902],[37.0999,-0.8528,1461.9507],[37.0989,-0.8487,1502.3918],[37.0922,-0.8481,1427.8738],[37.0919,-0.8421,1487.5107],[37.0899,-0.839,1505.6157],[37.0822,-0.84,1468.9603],[37.0791,-0.835,1462.4363],[37.075,-0.8357,1498.5864],[37.0756,-0.8381,1496.3156],[37.0742,-0.8366,1516.6897],[37.0695,-0.8372,1532.7637],[37.0671,-0.834,1535.6831],[37.0617,-0.8312,1522.4578],[37.0595,-0.8323,1526.6221],[37.0515,-0.8304,1565.7097],[37.0475,-0.8324,1507.1453],[37.0423,-0.8313,1533.093],[37.0263,-0.8326,1623.501],[37.0216,-0.8345,1653.9939],[37.0199,-0.8332,1653.9939],[37.0179,-0.8381,1675.2341],[37.0249,-0.8421,1648.7487],[37.0299,-0.843,1651.0375],[37.0318,-0.8463,1588.9805],[37.0341,-0.8464,1640.828],[37.0363,-0.85,1602.4827],[37.041,-0.852,1569.4142],[37.0427,-0.8549,1580.938],[37.0464,-0.8523,1553.3658],[37.053,-0.8546,1524.3094],[37.0579,-0.853,1531.9694],[37.0688,-0.8589,1465.8397],[37.0717,-0.8636,1472.4243],[37.0826,-0.872,1453.3838],[37.0918,-0.8734,1429.0343],[37.0956,-0.8716,1486.9146],[37.103,-0.8728,1454.1472],[37.1189,-0.8808,1437.25],[37.1251,-0.8814,1416.4115]]]]}}