{"type": "Feature","bbox": [39.3665,2.2533,39.6855,2.6184],"geometry": {"type": "MultiPolygon","coordinates": [[[[39.6788,2.6184,493.7832],[39.6787,2.6139,488.7357],[39.6691,2.6107,477.8078],[39.6457,2.5957,461.6282],[39.5923,2.5747,431.179],[39.5947,2.585,434.7222],[39.5855,2.6041,439.5964],[39.5843,2.6103,442.202],[39.5592,2.5963,437.3593],[39.4832,2.6018,439.4199],[39.4289,2.4442,415.0303],[39.3665,2.2537,376.1764],[39.3775,2.2533,375.5283],[39.4055,2.2707,379.0087],[39.4222,2.2753,379.734],[39.4323,2.2819,380.1733],[39.4462,2.2713,377.4869],[39.4659,2.2646,373.427],[39.4757,2.2685,373.4323],[39.4891,2.2646,373.9789],[39.4955,2.2654,373.3274],[39.5051,2.2701,374.7751],[39.5241,2.2885,377.4919],[39.5322,2.2942,377.5173],[39.5559,2.304,376.7072],[39.5514,2.3081,377.089],[39.5515,2.3123,379.3652],[39.5467,2.3191,378.0366],[39.5456,2.3277,380.9363],[39.5476,2.3319,380.4512],[39.5472,2.3383,382.4727],[39.55,2.3455,385.9847],[39.5476,2.3631,387.3604],[39.5482,2.3683,388.5268],[39.5442,2.3729,388.9694],[39.5484,2.3767,389.7922],[39.5497,2.385,392.4043],[39.5532,2.3893,394.7087],[39.5542,2.394,393.7644],[39.5582,2.3958,396.2342],[39.5636,2.4054,396.8829],[39.5683,2.4082,399.0912],[39.5694,2.4135,399.5218],[39.5736,2.4152,400.5135],[39.5761,2.4202,400.2599],[39.5787,2.42,400.8028],[39.5851,2.429,404.2946],[39.5849,2.4347,404.6048],[39.5898,2.4408,405.4328],[39.5894,2.445,406.0855],[39.596,2.4607,410.9429],[39.5952,2.4622,411.4493],[39.6059,2.4797,414.682],[39.6069,2.4872,416.1839],[39.6686,2.5372,461.1127],[39.6788,2.5421,477.6182],[39.6855,2.5503,469.1936],[39.6835,2.5579,471.3099],[39.6788,2.6184,493.7832]]]]}
,"properties": {"GID_3": "KEN.46.1.2_1","GID_0": "KEN","country": "Kenya","GID_1": "KEN.46_1","province": "Wajir","NL_NAME_1": "NA","GID_2": "KEN.46.1_1","county": "Eldas","NL_NAME_2": "NA","city": "Eldas","VARNAME_3": "NA","NL_NAME_3": "NA","TYPE_3": "Ward","ENGTYPE_3": "Ward","CC_3": "180","HASC_3": "NA","name": "Eldas.city","area_km2": 685.902,"hist_schema_id": "Elevation0-9000","hist_area_km2": {"375": 113.0438,"400": 251.3865,"425": 247.9528,"450": 54.1383,"475": 14.6359,"500": 1.7792,"525": 0.7837,"550": 0.8049,"575": 0.699,"600": 0.5719,"625": 0.0635,"650": 0.0424}}}