{"type": "Feature","bbox": [34.5744,-0.7207,34.6419,-0.6451],"geometry": {"type": "MultiPolygon","coordinates": [[[[34.5744,-0.6568,1353.1732],[34.5757,-0.6756,1354.6523],[34.5819,-0.6815,1359.4634],[34.5838,-0.6865,1373.6827],[34.5835,-0.6987,1359.3821],[34.5816,-0.7012,1357.3766],[34.5953,-0.7075,1367.0366],[34.5989,-0.7112,1383.6228],[34.6064,-0.7105,1408.749],[34.6107,-0.7126,1418.2607],[34.6123,-0.7152,1419.5066],[34.6307,-0.7207,1456.172],[34.6419,-0.6993,1424.2556],[34.6398,-0.6953,1413.3899],[34.6389,-0.6807,1402.5289],[34.6361,-0.6756,1396.3553],[34.6377,-0.672,1398.2018],[34.6346,-0.6621,1402.3046],[34.6366,-0.657,1434.4404],[34.6303,-0.6548,1401.2656],[34.6267,-0.6506,1395.3641],[34.6199,-0.6498,1390.8406],[34.6083,-0.6453,1377.3042],[34.6059,-0.6473,1377.1038],[34.591,-0.6451,1370.2544],[34.5823,-0.6479,1360.6562],[34.5818,-0.6537,1362.3098],[34.5744,-0.6568,1353.1732]]]]}
,"properties": {"GID_3": "KEN.27.5.3_1","GID_0": "KEN","country": "Kenya","GID_1": "KEN.27_1","province": "Migori","NL_NAME_1": "NA","GID_2": "KEN.27.5_1","county": "Rongo","NL_NAME_2": "NA","city": "NorthKamagambo","VARNAME_3": "NA","NL_NAME_3": "NA","TYPE_3": "Ward","ENGTYPE_3": "Ward","CC_3": "1261","HASC_3": "NA","name": "North_Kamagambo.city","area_km2": 45.58153,"hist_schema_id": "Elevation0-9000","hist_area_km2": {"1350": 3.62533,"1375": 14.18329,"1400": 15.20092,"1425": 7.65344,"1450": 3.3921,"1475": 1.39924,"1500": 0.1272}}}