{"type": "Feature","bbox": [36.8751,-0.4804,37.0543,-0.3449],"geometry": {"type": "MultiPolygon","coordinates": [[[[36.977,-0.4569,1764.9336],[36.9767,-0.4552,1755.7583],[36.9802,-0.453,1749.1267],[36.9887,-0.4531,1759.2874],[36.9934,-0.4568,1757.2087],[36.9972,-0.4571,1759.0752],[37.001,-0.466,1728.9209],[37.0067,-0.465,1749.4724],[37.0118,-0.4673,1750.6947],[37.0233,-0.4609,1734.1725],[37.0237,-0.4643,1691.9626],[37.0269,-0.4631,1728.5293],[37.0295,-0.464,1726.3313],[37.0307,-0.4687,1665.5387],[37.036,-0.4716,1709.516],[37.0363,-0.4753,1654.52],[37.0406,-0.478,1696.2577],[37.0425,-0.4767,1694.5227],[37.0452,-0.4804,1671.718],[37.0506,-0.4784,1599.2463],[37.0512,-0.4745,1616.5414],[37.0492,-0.4752,1628.6509],[37.0481,-0.4739,1648.6697],[37.0543,-0.4668,1628.3672],[37.0533,-0.4642,1675.6716],[37.0508,-0.4672,1617.5674],[37.0467,-0.4654,1693.3998],[37.0514,-0.4602,1641.9663],[37.0498,-0.4579,1648.9718],[37.0475,-0.4575,1630.0779],[37.049,-0.4538,1651.4065],[37.046,-0.4496,1628.2181],[37.0478,-0.4482,1657.2869],[37.0446,-0.4462,1642.0543],[37.0401,-0.4389,1720.3367],[37.0428,-0.4385,1718.8701],[37.0447,-0.4358,1642.634],[37.0477,-0.4364,1638.1296],[37.0471,-0.4303,1634.8228],[37.045,-0.4283,1637.5262],[37.0463,-0.4234,1672.1807],[37.043,-0.4221,1700.5288],[37.0435,-0.4188,1708.4835],[37.0396,-0.4183,1655.8501],[37.0399,-0.4153,1655.5298],[37.0381,-0.4138,1653.9509],[37.0395,-0.4103,1684.1599],[37.0378,-0.4107,1689.1566],[37.0372,-0.4081,1685.8982],[37.0357,-0.4087,1691.0792],[37.0364,-0.4059,1717.2249],[37.0336,-0.4053,1698.4253],[37.0342,-0.4033,1713.9698],[37.0325,-0.404,1713.9698],[37.0325,-0.4005,1719.6863],[37.0307,-0.4018,1656.2378],[37.0305,-0.3964,1671.5378],[37.0173,-0.3956,1705.9573],[37.0163,-0.3926,1738.3022],[37.0125,-0.3916,1742.9016],[37.0136,-0.3891,1748.2371],[37.0115,-0.3899,1716.2323],[37.01,-0.3874,1748.6915],[37.0091,-0.3884,1740.3063],[37.0075,-0.3839,1741.5802],[37.0058,-0.384,1707.3843],[37.005,-0.382,1733.2776],[37.0067,-0.3805,1738.1567],[37.0039,-0.3706,1747.7299],[37.005,-0.3682,1750.9625],[36.9931,-0.3502,1758.7063],[36.9907,-0.3497,1751.0896],[36.9929,-0.3464,1763.4939],[36.9895,-0.3449,1758.9308],[36.9651,-0.3632,1754.3077],[36.9678,-0.367,1775.5938],[36.9638,-0.3675,1776.6633],[36.961,-0.3619,1776.718],[36.9314,-0.3532,1823.6927],[36.9301,-0.3544,1838.774],[36.9306,-0.366,1878.7091],[36.9267,-0.3712,1825.6527],[36.9186,-0.3672,1847.8002],[36.9126,-0.3733,1931.0376],[36.9066,-0.3701,1939.1133],[36.9019,-0.3737,1906.9467],[36.8951,-0.3751,1988.2135],[36.8934,-0.3734,2000.4218],[36.8894,-0.3758,2008.8005],[36.887,-0.3934,1998.9004],[36.8937,-0.3897,1980.0247],[36.8982,-0.3946,1901.6594],[36.9059,-0.3993,1954.3116],[36.8982,-0.4001,1979.1116],[36.8978,-0.404,1992.5515],[36.9011,-0.4139,2108.6509],[36.8994,-0.4167,1940.6382],[36.8975,-0.4155,1974.5267],[36.8948,-0.4177,1988.1711],[36.8936,-0.4163,1969.8494],[36.8914,-0.4168,1976.0048],[36.8872,-0.4189,1968.9995],[36.8871,-0.4214,2012.6118],[36.8847,-0.4226,2015.1827],[36.8751,-0.4214,2017.5057],[36.8798,-0.44,2018.9495],[36.8827,-0.4396,2034.9392],[36.8854,-0.4365,2006.1477],[36.89,-0.4357,1993.6553],[36.9023,-0.4494,1956.8777],[36.909,-0.4499,1948.9468],[36.9106,-0.4558,1940.6307],[36.9168,-0.4585,1860.4578],[36.9197,-0.4616,1863.9386],[36.9206,-0.4566,1883.6637],[36.925,-0.4563,1888.1515],[36.9311,-0.4528,1875.8641],[36.9351,-0.4531,1845.7148],[36.9387,-0.4509,1863.9709],[36.9421,-0.4522,1825.6438],[36.9478,-0.4491,1819.2917],[36.9501,-0.4496,1810.8016],[36.947,-0.4594,1820.4651],[36.9465,-0.4699,1801.1365],[36.9491,-0.4708,1798.0178],[36.9563,-0.4693,1825.3264],[36.9602,-0.4733,1821.4426],[36.9649,-0.4615,1778.686],[36.9714,-0.4626,1771.2457],[36.977,-0.4592,1759.1985],[36.977,-0.4569,1764.9336]]]]}
,"properties": {"GID_2": "KEN.36.4_1","GID_0": "KEN","country": "Kenya","GID_1": "KEN.36_1","province": "Nyeri","NL_NAME_1": "NA","county": "NyeriTown","VARNAME_2": "NA","NL_NAME_2": "NA","TYPE_2": "Constituency","ENGTYPE_2": "Constituency","CC_2": "99","HASC_2": "NA","name": "Nyeri_Town.county","area_km2": 170.122,"hist_schema_id": "Elevation0-9000","hist_area_km2": {"1575": 0.0212,"1600": 0.0212,"1625": 2.5866,"1650": 5.5124,"1675": 7.1449,"1700": 10.1132,"1725": 22.813,"1750": 30.4668,"1775": 23.7671,"1800": 13.0814,"1825": 10.8553,"1850": 9.5832,"1875": 9.4347,"1900": 6.5937,"1925": 5.0248,"1950": 4.2827,"1975": 4.2827,"2000": 2.7138,"2025": 0.6785,"2050": 0.4028,"2075": 0.1484,"2100": 0.1484,"2125": 0.1272,"2150": 0.0424,"2175": 0.1696,"2200": 0.106}}}