{"type": "Feature","bbox": [37.8875,-0.1091,38.0129,0.0111],"geometry": {"type": "MultiPolygon","coordinates": [[[[37.9331,-0.0658,725.1409],[37.9405,-0.0728,717.5234],[37.9441,-0.0797,708.6102],[37.9511,-0.0849,694.4646],[37.9589,-0.0949,676.1083],[37.9611,-0.1022,671.6934],[37.9639,-0.104,671.0511],[37.9733,-0.1042,656.3271],[37.9769,-0.1063,649.171],[37.9777,-0.1091,642.7422],[37.9837,-0.109,663.9816],[37.9847,-0.1022,669.1495],[37.9897,-0.098,657.3265],[37.9945,-0.0974,642.6086],[38.0049,-0.0995,599.6696],[38.0081,-0.0976,590.6344],[38.0087,-0.0887,592.8439],[38.0129,-0.0735,597.8109],[38.0105,-0.0691,600.5378],[38.0117,-0.0588,607.4512],[38.0097,-0.0578,605.5879],[38.0093,-0.0453,614.6263],[38.0119,-0.032,642.3531],[38.0101,-0.0261,657.6875],[38.0107,-0.0194,674.7268],[38.0079,-0.0181,675.7901],[38.0035,-0.0221,684.1439],[38.0009,-0.0212,701.0209],[37.9911,-0.0123,735.3439],[37.9759,-0.0037,733.5482],[37.9739,-0.0003,742.3152],[37.9635,-0.0011,761.3203],[37.9517,0.0077,785.995],[37.9451,0.0043,789.4526],[37.9413,0.0045,789.4218],[37.9385,0.0073,806.701],[37.9191,0.0071,834.3674],[37.9175,0.0055,834.5436],[37.9057,0.0077,849.8213],[37.8993,0.0109,861.1478],[37.8923,0.0095,874.2422],[37.8899,0.0111,875.9791],[37.8875,0.0017,877.0305],[37.8961,-0.0039,868.6527],[37.9289,0.0031,811.9481],[37.9351,-0.001,808.2025],[37.9285,-0.0064,798.1174],[37.9271,-0.0098,795.6884],[37.9283,-0.0126,790.4742],[37.9227,-0.0266,784.4812],[37.9251,-0.0321,759.7432],[37.9363,-0.0377,743.8661],[37.9367,-0.0551,731.3578],[37.9325,-0.0628,732.0911],[37.9331,-0.0658,725.1409]]]]}
,"properties": {"GID_3": "KEN.41.4.4_1","GID_0": "KEN","country": "Kenya","GID_1": "KEN.41_1","province": "Tharaka-Nithi","NL_NAME_1": "NA","GID_2": "KEN.41.4_1","county": "Tharaka","NL_NAME_2": "NA","city": "Nkondi","VARNAME_3": "NA","NL_NAME_3": "NA","TYPE_3": "Ward","ENGTYPE_3": "Ward","CC_3": "308","HASC_3": "NA","name": "Nkondi.city","area_km2": 92.54759,"hist_schema_id": "Elevation0-9000","hist_area_km2": {"600": 3.47716,"625": 5.27935,"650": 9.58339,"675": 12.27607,"700": 12.36088,"725": 14.37509,"750": 14.86274,"775": 10.24067,"800": 4.7705,"825": 1.63257,"850": 1.39935,"875": 1.97181,"900": 0.06361,"925": 0.08481,"950": 0.10601,"975": 0.0424,"1000": 0.0212}}}