{"type": "Feature","bbox": [37.9417,-2.3579,38.1197,-2.1467],"geometry": {"type": "MultiPolygon","coordinates": [[[[37.9657,-2.1662,730.553],[37.9653,-2.1685,727.3071],[37.9627,-2.1698,737.2202],[37.9612,-2.1754,758.0031],[37.9579,-2.1763,765.6269],[37.9573,-2.1786,765.5283],[37.9589,-2.1809,762.1216],[37.9585,-2.1856,770.1926],[37.9553,-2.1905,780.6188],[37.9581,-2.1944,782.2145],[37.9555,-2.1996,797.6172],[37.957,-2.2106,800.1431],[37.9515,-2.2185,823.0129],[37.9508,-2.2222,822.8397],[37.9528,-2.2258,826.4245],[37.9509,-2.2351,838.4177],[37.9527,-2.2481,850.4459],[37.9493,-2.2525,861.0109],[37.9478,-2.2636,879.1431],[37.9527,-2.2667,888.5087],[37.9478,-2.2717,895.86],[37.9503,-2.2795,909.223],[37.9664,-2.2955,894.3708],[37.9684,-2.3021,902.1798],[37.9631,-2.3055,906.7833],[37.9629,-2.3106,890.1798],[37.9589,-2.3161,914.2869],[37.9605,-2.3189,915.7877],[37.9571,-2.3225,930.231],[37.9559,-2.3305,901.867],[37.9533,-2.3267,913.9203],[37.9504,-2.3275,918.1082],[37.9417,-2.3244,950.1891],[37.9847,-2.3579,883.2092],[37.9888,-2.3519,858.8509],[38.0064,-2.3364,822.0779],[38.0085,-2.3367,829.8885],[38.0113,-2.3423,843.2317],[38.0357,-2.3527,806.764],[38.0543,-2.3492,788.3044],[38.0573,-2.3502,779.1885],[38.0636,-2.3457,775.4009],[38.0691,-2.3462,772.5707],[38.0939,-2.3396,742.8887],[38.1152,-2.318,684.5784],[38.1197,-2.3155,670.7877],[38.1166,-2.3131,682.931],[38.1153,-2.3026,682.8701],[38.1092,-2.3004,683.9636],[38.1116,-2.2862,690.7584],[38.1014,-2.2815,688.5123],[38.0975,-2.273,691.173],[38.0909,-2.2734,695.6544],[38.0874,-2.272,692.2228],[38.0833,-2.2616,690.4169],[38.0805,-2.2605,702.5634],[38.0764,-2.2621,696.296],[38.0753,-2.2609,701.0015],[38.0764,-2.255,698.4433],[38.0725,-2.2511,700.5446],[38.069,-2.2248,699.1192],[38.0633,-2.2217,707.7552],[38.064,-2.2184,715.396],[38.0693,-2.2159,701.8779],[38.0704,-2.2139,705.4755],[38.0635,-2.2109,709.9856],[38.0602,-2.2069,703.1228],[38.0558,-2.1957,706.1844],[38.0546,-2.1864,706.2612],[38.0482,-2.1801,720.8582],[38.0506,-2.1737,709.5918],[38.0499,-2.1703,715.9525],[38.0446,-2.1664,711.3138],[38.037,-2.1666,717.1936],[38.0277,-2.1619,715.3188],[38.0245,-2.1567,712.0],[38.0223,-2.148,722.6371],[38.0205,-2.1467,731.5274],[38.0093,-2.1518,734.4108],[37.9907,-2.1568,741.0348],[37.9828,-2.1611,741.6937],[37.9742,-2.1633,739.3317],[37.9698,-2.1669,748.2832],[37.9657,-2.1662,730.553]]]]}
,"properties": {"GID_3": "KEN.23.3.2_1","GID_0": "KEN","country": "Kenya","GID_1": "KEN.23_1","province": "Makueni","NL_NAME_1": "NA","GID_2": "KEN.23.3_1","county": "KibweziWest","NL_NAME_2": "NA","city": "KikumbulyuNorth","VARNAME_3": "NA","NL_NAME_3": "NA","TYPE_3": "Ward","ENGTYPE_3": "Ward","CC_3": "433","HASC_3": "NA","name": "Kikumbulyu_North.city","area_km2": 289.2268,"hist_schema_id": "Elevation0-9000","hist_area_km2": {"675": 1.1864,"700": 14.5121,"725": 34.9567,"750": 42.6682,"775": 43.9816,"800": 40.0199,"825": 35.5709,"850": 35.1469,"875": 26.6935,"900": 13.0924,"925": 1.3982}}}