{"type": "Feature","bbox": [36.3352,-1.1488,36.6001,-0.902],"geometry": {"type": "MultiPolygon","coordinates": [[[[36.537,-1.1488,1741.6729],[36.5445,-1.1207,1706.9431],[36.5672,-1.0944,1799.8569],[36.5699,-1.0965,1830.6394],[36.5912,-1.0579,1823.7292],[36.5902,-1.0435,1848.9485],[36.5878,-1.0365,1829.9996],[36.5951,-1.0059,1826.1453],[36.5966,-0.9913,1909.293],[36.6001,-0.9872,2024.9338],[36.5962,-0.9857,1939.3052],[36.5964,-0.9786,2017.1299],[36.5914,-0.9793,1917.9155],[36.5873,-0.9721,1868.4893],[36.5877,-0.9587,1963.4039],[36.5788,-0.9406,2039.4521],[36.5749,-0.938,2041.7085],[36.5687,-0.9392,2043.7181],[36.5615,-0.9329,1981.9722],[36.5726,-0.9257,2108.0703],[36.5676,-0.922,2139.8979],[36.5542,-0.9202,2264.6404],[36.5543,-0.9146,2393.6433],[36.5443,-0.902,2445.1343],[36.5118,-0.9611,1880.3488],[36.4983,-0.9943,1828.5214],[36.4944,-0.9696,1864.8893],[36.4734,-0.9704,1870.7177],[36.4682,-1.0056,1745.2869],[36.4735,-1.0135,1718.2942],[36.4496,-1.0235,1688.574],[36.4113,-1.0275,1676.0336],[36.3989,-1.0264,1660.8678],[36.34,-1.0374,1607.1805],[36.3352,-1.04,1609.3704],[36.4935,-1.1151,1547.3367],[36.537,-1.1488,1741.6729]]]]}
,"properties": {"GID_3": "KEN.31.6.4_1","GID_0": "KEN","country": "Kenya","GID_1": "KEN.31_1","province": "Nakuru","NL_NAME_1": "NA","GID_2": "KEN.31.6_1","county": "Naivasha","NL_NAME_2": "NA","city": "MaiMahiu","VARNAME_3": "NA","NL_NAME_3": "NA","TYPE_3": "Ward","ENGTYPE_3": "Ward","CC_3": "839","HASC_3": "NA","name": "Mai_Mahiu.city","area_km2": 323.7896,"hist_schema_id": "Elevation0-9000","hist_area_km2": {"1550": 11.4259,"1575": 31.0133,"1600": 39.4081,"1625": 29.6992,"1650": 34.3417,"1675": 26.5831,"1700": 19.7996,"1725": 14.9451,"1750": 13.0585,"1775": 15.136,"1800": 20.457,"1825": 18.5491,"1850": 13.9066,"1875": 9.9212,"1900": 6.8474,"1925": 5.2998,"1950": 3.2011,"1975": 1.7172,"2000": 1.0388,"2025": 1.2084,"2050": 0.6784,"2075": 0.5088,"2100": 0.6572,"2125": 0.5512,"2150": 0.3604,"2175": 0.4028,"2200": 0.2544,"2225": 0.2332,"2250": 0.2756,"2275": 0.1908,"2300": 0.1908,"2325": 0.1696,"2350": 0.2332,"2375": 0.1272,"2400": 0.0848,"2425": 0.1484,"2450": 0.1696,"2475": 0.1908,"2500": 0.106,"2525": 0.1484,"2550": 0.1696,"2575": 0.1272,"2600": 0.0424,"2625": 0.1696,"2650": 0.0424}}}