{"type": "Feature","bbox": [36.0027,-0.3376,36.2461,-0.1105],"geometry": {"type": "MultiPolygon","coordinates": [[[[36.2138,-0.2877,2114.9736],[36.2128,-0.2635,2189.7095],[36.2461,-0.2486,2518.7837],[36.2371,-0.2235,2550.0471],[36.2242,-0.2045,2532.0193],[36.2202,-0.2052,2562.6914],[36.2118,-0.1972,2587.9297],[36.2115,-0.1815,2595.9429],[36.2008,-0.1302,2431.6067],[36.2124,-0.1155,2467.9165],[36.2048,-0.1141,2409.7202],[36.1976,-0.1105,2410.3208],[36.1834,-0.1122,2342.7715],[36.1792,-0.1141,2319.8196],[36.1773,-0.1179,2292.8555],[36.1707,-0.1204,2262.0327],[36.1638,-0.1308,2180.8977],[36.1439,-0.1438,2042.4962],[36.1181,-0.1357,1853.5481],[36.1171,-0.1386,1859.1935],[36.117,-0.1315,1850.2928],[36.1106,-0.1272,1829.454],[36.1057,-0.1268,1807.9034],[36.0891,-0.1323,1810.7168],[36.0894,-0.1418,1841.8506],[36.0313,-0.123,1750.491],[36.0246,-0.1485,2024.6459],[36.0528,-0.1622,1979.0098],[36.0426,-0.1734,2010.0579],[36.0366,-0.1832,2005.7501],[36.0355,-0.1813,2001.1265],[36.0193,-0.2008,1945.0908],[36.0132,-0.2405,2030.6532],[36.0027,-0.2727,1993.7947],[36.0048,-0.2904,1961.8843],[36.0097,-0.2895,1929.0477],[36.0114,-0.2704,1947.1438],[36.0252,-0.2743,1925.8582],[36.0229,-0.2685,1937.5663],[36.0293,-0.2671,1934.6917],[36.0341,-0.2686,1931.3274],[36.0383,-0.2666,1956.0177],[36.0382,-0.2637,1974.6467],[36.0422,-0.2671,1984.2511],[36.0418,-0.2628,2022.49],[36.0438,-0.2625,2026.8563],[36.0434,-0.2522,2117.0261],[36.0535,-0.2451,2024.75],[36.0857,-0.2508,2229.5156],[36.1242,-0.2719,1876.9949],[36.1273,-0.2704,1879.5759],[36.1286,-0.2712,1879.5759],[36.1271,-0.2754,1873.9871],[36.1491,-0.2865,1897.8101],[36.1484,-0.2818,1902.504],[36.1652,-0.2832,1926.1525],[36.165,-0.298,1918.5115],[36.1544,-0.3003,1897.647],[36.1583,-0.315,1902.4189],[36.1765,-0.3251,1901.9662],[36.1943,-0.3376,1884.8469],[36.2226,-0.329,2152.9402],[36.2138,-0.2877,2114.9736]]]]}
,"properties": {"GID_2": "KEN.31.1_1","GID_0": "KEN","country": "Kenya","GID_1": "KEN.31_1","province": "Nakuru","NL_NAME_1": "NA","county": "Bahati","VARNAME_2": "NA","NL_NAME_2": "NA","TYPE_2": "Constituency","ENGTYPE_2": "Constituency","CC_2": "174","HASC_2": "NA","name": "Bahati.county","area_km2": 372.3716,"hist_schema_id": "Elevation0-9000","hist_area_km2": {"1725": 0.318,"1750": 2.2686,"1775": 5.0673,"1800": 12.0004,"1825": 14.057,"1850": 12.6577,"1875": 13.0817,"1900": 27.2021,"1925": 34.4744,"1950": 33.2024,"1975": 28.5379,"2000": 26.9478,"2025": 22.0925,"2050": 21.4141,"2075": 15.2231,"2100": 10.5586,"2125": 9.7317,"2150": 8.29,"2175": 7.2087,"2200": 6.3182,"2225": 5.873,"2250": 5.8094,"2275": 4.2828,"2300": 4.4312,"2325": 4.41,"2350": 6.1698,"2375": 8.4172,"2400": 7.2087,"2425": 5.2793,"2450": 3.2439,"2475": 1.887,"2500": 1.3145,"2525": 1.2721,"2550": 0.8269,"2575": 0.6361,"2600": 0.4452,"2625": 0.212}}}