{"type":"Feature","properties":{"GID_3":"KEN.27.3.3_1","GID_0":"KEN","country":"Kenya","GID_1":"KEN.27_1","province":"Migori","NL_NAME_1":"NA","GID_2":"KEN.27.3_1","county":"KuriaWest","NL_NAME_2":"NA","city":"Isibania","VARNAME_3":"NA","NL_NAME_3":"NA","TYPE_3":"Ward","ENGTYPE_3":"Ward","CC_3":"1291","HASC_3":"NA","name":"Isibania.city"},
"geometry":{"type": "MultiPolygon","coordinates": [[[[34.4783,-1.2192,1606.9327],[34.4568,-1.2266,1559.3488],[34.4577,-1.2284,1557.3367],[34.4552,-1.2331,1576.8445],[34.4866,-1.2508,1628.6389],[34.4897,-1.2467,1618.9595],[34.4873,-1.245,1637.252],[34.4975,-1.2404,1587.3049],[34.4928,-1.2345,1618.8003],[34.4919,-1.229,1584.696],[34.4925,-1.2275,1582.5505],[34.499,-1.2255,1565.3853],[34.491,-1.2242,1571.5161],[34.4783,-1.2192,1606.9327]]]]}}