{"type": "Feature","bbox": [36.9262,-1.248,37.0062,-1.2192],"geometry": {"type": "MultiPolygon","coordinates": [[[[36.9311,-1.2199,1532.1576],[36.9295,-1.2251,1531.23],[36.9262,-1.2291,1552.3729],[36.9275,-1.238,1552.3086],[36.9306,-1.2376,1551.595],[36.9346,-1.2395,1547.79],[36.9365,-1.2383,1543.0852],[36.9429,-1.2416,1524.6952],[36.9507,-1.2402,1525.7949],[36.9534,-1.2419,1513.8525],[36.9689,-1.2443,1516.2817],[36.9682,-1.2463,1508.0253],[36.9697,-1.248,1506.8813],[36.9731,-1.2465,1504.3574],[36.9747,-1.2425,1508.2556],[36.9807,-1.2399,1502.4104],[36.9869,-1.2424,1503.7515],[36.992,-1.2425,1497.767],[36.9953,-1.2397,1495.675],[36.9975,-1.2401,1493.009],[36.999,-1.2371,1494.136],[37.0062,-1.2341,1490.9819],[36.9951,-1.2303,1497.3673],[36.9915,-1.2228,1498.1226],[36.9864,-1.221,1500.8462],[36.9774,-1.2223,1507.5808],[36.9694,-1.2269,1519.1296],[36.9612,-1.2252,1514.255],[36.9568,-1.2271,1523.0861],[36.9531,-1.2242,1526.3081],[36.949,-1.2246,1518.7894],[36.9376,-1.2192,1532.4825],[36.9311,-1.2199,1532.1576]]]]}
,"properties": {"GID_3": "KEN.30.9.3_1","GID_0": "KEN","country": "Kenya","GID_1": "KEN.30_1","province": "Nairobi","NL_NAME_1": "NA","GID_2": "KEN.30.9_1","county": "Kasarani","NL_NAME_2": "NA","city": "Mwiki","VARNAME_3": "NA","NL_NAME_3": "NA","TYPE_3": "Ward","ENGTYPE_3": "Ward","CC_3": "1397","HASC_3": "NA","name": "Mwiki.city","area_km2": 15.83438,"hist_schema_id": "Elevation0-9000","hist_area_km2": {"1500": 5.65968,"1525": 7.97018,"1550": 2.20452}}}