{"type": "Feature","bbox": [39.2001,-4.4051,39.4809,-4.2951],"geometry": {"type": "MultiPolygon","coordinates": [[[[39.3053,-4.4041,39.4835],[39.3081,-4.4047,37.7245],[39.3141,-4.4023,40.8619],[39.3215,-4.4051,31.952],[39.3221,-4.3989,38.0919],[39.3207,-4.3969,38.1847],[39.3219,-4.3914,50.7376],[39.3257,-4.3899,50.1919],[39.3283,-4.3862,44.7498],[39.3275,-4.3844,44.9826],[39.3935,-4.3958,125.5262],[39.4247,-4.3683,77.9756],[39.4247,-4.3698,79.5751],[39.4249,-4.3676,79.2285],[39.4543,-4.3407,141.0324],[39.4613,-4.3388,86.5602],[39.4643,-4.3347,83.5165],[39.4677,-4.3334,76.4918],[39.4809,-4.3034,126.2873],[39.4769,-4.3066,125.4915],[39.4747,-4.3066,99.3856],[39.4727,-4.3014,120.8381],[39.4679,-4.2997,109.0292],[39.4637,-4.304,137.8529],[39.4515,-4.3041,138.3816],[39.4413,-4.2962,243.3784],[39.4345,-4.2951,156.7614],[39.4333,-4.3014,132.2917],[39.3727,-4.3116,243.3451],[39.2773,-4.3545,124.9694],[39.2627,-4.336,149.7477],[39.2579,-4.3387,191.0193],[39.2205,-4.3439,130.6835],[39.2081,-4.349,97.2281],[39.2027,-4.3535,100.5263],[39.2025,-4.3636,73.9491],[39.2001,-4.3668,85.6712],[39.2043,-4.3735,67.6503],[39.2041,-4.3781,63.3891],[39.2057,-4.3777,63.6282],[39.2072,-4.3813,61.7949],[39.2107,-4.3821,65.8098],[39.2149,-4.3772,70.8873],[39.2213,-4.3825,58.9623],[39.224,-4.379,60.0022],[39.2311,-4.3805,70.4776],[39.2343,-4.3843,62.8013],[39.2378,-4.3833,59.3618],[39.2441,-4.3968,51.3284],[39.2455,-4.3924,66.7165],[39.2507,-4.3888,64.8925],[39.2557,-4.392,52.951],[39.272,-4.3859,54.9707],[39.2831,-4.3889,50.0009],[39.2877,-4.3935,43.8861],[39.292,-4.3926,60.5306],[39.2971,-4.401,40.5583],[39.3014,-4.3997,39.3194],[39.3053,-4.4041,39.4835]]]]}
,"properties": {"GID_3": "KEN.19.3.1_1","GID_0": "KEN","country": "Kenya","GID_1": "KEN.19_1","province": "Kwale","NL_NAME_1": "NA","GID_2": "KEN.19.3_1","county": "Matuga","NL_NAME_2": "NA","city": "KuboSouth","VARNAME_3": "NA","NL_NAME_3": "NA","TYPE_3": "Ward","ENGTYPE_3": "Ward","CC_3": "42","HASC_3": "NA","name": "Kubo_South.city","area_km2": 187.9227,"hist_schema_id": "Elevation0-9000","hist_area_km2": {"25": 0.3171,"50": 9.0691,"75": 33.0003,"100": 56.4253,"125": 55.7707,"150": 25.0949,"175": 5.8774,"200": 1.5222,"225": 0.6977,"250": 0.1269,"275": 0.0211}}}