{"type": "Feature","bbox": [34.7779,-0.7787,35.0199,-0.5918],"geometry": {"type": "MultiPolygon","coordinates": [[[[34.9177,-0.7535,2062.9309],[34.9236,-0.7561,1994.5256],[34.9276,-0.7605,2005.7363],[34.9343,-0.7604,2085.5264],[34.9391,-0.7658,2094.219],[34.9431,-0.7668,2100.1963],[34.9503,-0.7787,2046.2888],[34.9805,-0.7592,2147.4917],[34.9752,-0.7569,2134.1155],[34.9887,-0.7275,1986.3392],[34.9938,-0.7189,2057.4822],[35.0002,-0.7145,2015.0491],[35.0064,-0.7037,2155.0022],[35.0119,-0.7031,2167.5542],[35.0136,-0.7,2117.3955],[35.0162,-0.6846,2134.9746],[35.0199,-0.6762,2099.7976],[35.0179,-0.6708,2072.1748],[35.0118,-0.6726,2050.3525],[34.9915,-0.669,1937.4958],[34.9712,-0.6714,1924.0367],[34.966,-0.6665,1889.663],[34.9514,-0.6641,1869.2021],[34.9476,-0.6604,1893.9272],[34.9425,-0.6632,1858.3438],[34.9419,-0.6613,1861.2368],[34.9318,-0.6578,1934.3744],[34.9082,-0.6406,2017.8994],[34.9011,-0.6295,2012.8271],[34.9027,-0.619,1999.0917],[34.9,-0.6134,1975.9214],[34.8895,-0.6053,1989.7003],[34.8867,-0.6081,1972.9055],[34.8745,-0.6014,1896.6285],[34.8664,-0.6026,1865.4729],[34.8538,-0.5927,1941.5295],[34.8501,-0.5942,1983.278],[34.8466,-0.5918,1959.5046],[34.8426,-0.5922,1893.5942],[34.8347,-0.599,1838.3547],[34.8314,-0.6092,1819.2906],[34.8214,-0.6192,1764.7646],[34.8139,-0.6302,1791.1193],[34.8104,-0.6393,1773.0266],[34.8092,-0.6551,1924.1787],[34.8098,-0.6577,1914.4136],[34.8119,-0.6583,1848.2332],[34.8114,-0.6609,1858.7375],[34.805,-0.658,1769.8726],[34.804,-0.6604,1745.511],[34.7984,-0.6592,1655.5889],[34.7918,-0.6609,1694.4343],[34.7892,-0.6684,1692.8979],[34.7828,-0.6683,1681.3921],[34.7779,-0.6702,1666.3352],[34.7844,-0.6739,1677.5996],[34.7865,-0.6706,1697.1017],[34.789,-0.6718,1707.3756],[34.7931,-0.678,1725.3062],[34.7924,-0.6818,1743.5701],[34.7959,-0.684,1844.5413],[34.8008,-0.6843,1881.608],[34.8083,-0.6817,1867.4453],[34.8207,-0.6881,1812.7543],[34.8229,-0.6919,1800.0197],[34.8235,-0.6993,1776.8387],[34.8252,-0.6972,1795.8525],[34.8271,-0.6999,1781.0961],[34.8277,-0.6984,1789.3716],[34.8348,-0.7019,1783.6758],[34.8403,-0.709,1775.1169],[34.8691,-0.7292,1927.3312],[34.8853,-0.7367,1999.3706],[34.8884,-0.7405,1943.9727],[34.8987,-0.7426,1975.3137],[34.9039,-0.7473,1968.5542],[34.907,-0.7551,1982.8994],[34.9177,-0.7535,2062.9309]]]]}
,"properties": {"GID_2": "KEN.34.2_1","GID_0": "KEN","country": "Kenya","GID_1": "KEN.34_1","province": "Nyamira","NL_NAME_1": "NA","county": "KitutuMasaba","VARNAME_2": "NA","NL_NAME_2": "NA","TYPE_2": "Constituency","ENGTYPE_2": "Constituency","CC_2": "270","HASC_2": "NA","name": "Kitutu_Masaba.county","area_km2": 255.1291,"hist_schema_id": "Elevation0-9000","hist_area_km2": {"1650": 0.1484,"1675": 0.6572,"1700": 1.0388,"1725": 1.1872,"1750": 0.7844,"1775": 3.2225,"1800": 6.0846,"1825": 9.3919,"1850": 22.494,"1875": 41.3202,"1900": 44.0974,"1925": 34.2179,"1950": 25.8224,"1975": 19.6954,"2000": 15.2221,"2025": 11.4908,"2050": 8.4379,"2075": 4.1553,"2100": 2.7561,"2125": 1.4628,"2150": 1.3568,"2175": 0.0848}}}