{"type":"Feature","properties":{"GID_3":"KEN.13.9.1_1","GID_0":"KEN","country":"Kenya","GID_1":"KEN.13_1","province":"Kiambu","NL_NAME_1":"NA","GID_2":"KEN.13.9_1","county":"Lari","NL_NAME_2":"NA","city":"Kamburu","VARNAME_3":"NA","NL_NAME_3":"NA","TYPE_3":"Ward","ENGTYPE_3":"Ward","CC_3":"609","HASC_3":"NA","name":"Kamburu.city"},
"geometry":{"type": "MultiPolygon","coordinates": [[[[36.7406,-1.0456,2009.3856],[36.7513,-1.043,1968.6862],[36.7669,-1.0335,1918.4792],[36.7683,-1.0308,1918.1638],[36.7775,-1.0303,1936.1907],[36.7846,-1.0348,1891.1896],[36.7977,-1.0368,1851.5188],[36.7984,-1.0387,1855.5641],[36.8044,-1.0385,1848.9285],[36.8087,-1.0283,1846.0339],[36.8061,-1.0252,1873.2891],[36.8014,-1.0239,1883.0796],[36.8006,-1.0219,1882.2607],[36.7998,-1.0231,1883.0796],[36.7963,-1.0225,1905.0863],[36.7958,-1.0191,1884.6011],[36.7903,-1.0185,1924.5349],[36.7904,-1.0163,1909.7446],[36.7886,-1.0139,1925.7357],[36.7873,-1.0144,1928.3453],[36.7875,-1.0124,1931.6301],[36.7858,-1.0126,1925.4711],[36.7829,-1.008,1943.2681],[36.7802,-1.01,1944.5126],[36.7777,-1.009,1960.5726],[36.7773,-1.0052,1949.53],[36.7737,-0.999,1989.2019],[36.7689,-0.9997,1953.4656],[36.7626,-1.0133,1989.2478],[36.7606,-1.0119,1991.1239],[36.7534,-1.0134,1998.7495],[36.7497,-1.0089,2036.8541],[36.7456,-1.0071,2044.6786],[36.7382,-1.0087,2074.8069],[36.7353,-1.007,2094.7578],[36.7328,-1.009,2082.9937],[36.7312,-1.0072,2101.688],[36.727,-1.0073,2093.7034],[36.7224,-1.0087,2115.2964],[36.7195,-1.0069,2132.0312],[36.7135,-1.007,2139.2173],[36.7113,-1.0048,2157.4277],[36.7021,-1.005,2191.0173],[36.6978,-1.002,2194.5657],[36.6946,-1.0022,2231.3723],[36.6928,-1.0049,2205.7876],[36.6901,-1.0038,2218.562],[36.6846,-1.0051,2244.5061],[36.6828,-1.0124,2242.1663],[36.6902,-1.0158,2253.9668],[36.7016,-1.03,2191.2178],[36.698,-1.0415,2195.7507],[36.7028,-1.0416,2150.6431],[36.7049,-1.0376,2149.8984],[36.707,-1.0374,2150.3457],[36.7097,-1.0406,2124.6023],[36.7135,-1.0407,2091.1245],[36.7202,-1.0456,2069.2573],[36.7227,-1.0427,2082.8589],[36.7295,-1.0408,2050.6675],[36.7364,-1.0449,2015.3101],[36.7398,-1.0439,2014.6528],[36.7406,-1.0456,2009.3856]]]]}}