{"type":"Feature","properties":{"GID_3":"KEN.31.1.1_1","GID_0":"KEN","country":"Kenya","GID_1":"KEN.31_1","province":"Nakuru","NL_NAME_1":"NA","GID_2":"KEN.31.1_1","county":"Bahati","NL_NAME_2":"NA","city":"Bahati","VARNAME_3":"NA","NL_NAME_3":"NA","TYPE_3":"Ward","ENGTYPE_3":"Ward","CC_3":"869","HASC_3":"NA","name":"Bahati.city"},
"geometry":{"type": "MultiPolygon","coordinates": [[[[36.2078,-0.1654,2559.5449],[36.2008,-0.1302,2431.6067],[36.2124,-0.1155,2467.9165],[36.2048,-0.1141,2409.7202],[36.1976,-0.1105,2410.3208],[36.1834,-0.1122,2342.7715],[36.1792,-0.1141,2319.8196],[36.1773,-0.1179,2292.8555],[36.1707,-0.1204,2262.0327],[36.1638,-0.1308,2180.8977],[36.1443,-0.1437,2042.4962],[36.1181,-0.1357,1853.5481],[36.115,-0.1467,1863.2263],[36.1173,-0.1906,1905.3413],[36.1141,-0.1968,1816.8367],[36.121,-0.2059,1963.1659],[36.1309,-0.1957,1976.7863],[36.1625,-0.1711,2119.3328],[36.1756,-0.1553,2192.9558],[36.1809,-0.1556,2210.6003],[36.1884,-0.152,2241.9836],[36.1905,-0.153,2245.7803],[36.1909,-0.1497,2342.0527],[36.1978,-0.1605,2380.9492],[36.2036,-0.1622,2549.9937],[36.2078,-0.1654,2559.5449]]]]}}