{"type":"Feature","properties":{"GID_3":"KEN.1.3.4_1","GID_0":"KEN","country":"Kenya","GID_1":"KEN.1_1","province":"Baringo","NL_NAME_1":"NA","GID_2":"KEN.1.3_1","county":"BaringoNorth","NL_NAME_2":"NA","city":"Saimo/Kipsaraman","VARNAME_3":"NA","NL_NAME_3":"NA","TYPE_3":"Ward","ENGTYPE_3":"Ward","CC_3":"790","HASC_3":"NA","name":"Saimo_Kipsaraman.city"},
"geometry":{"type": "MultiPolygon","coordinates": [[[[35.8337,0.6065,1753.4714],[35.8354,0.6132,1825.5647],[35.839,0.618,1995.783],[35.8416,0.6363,1892.4026],[35.8413,0.649,2106.3054],[35.8374,0.6519,2331.7407],[35.8462,0.6757,2172.5801],[35.8379,0.7208,2200.2861],[35.8349,0.7307,2012.3871],[35.8314,0.7305,2141.9209],[35.8325,0.7342,2126.2607],[35.8295,0.7392,2019.6989],[35.8306,0.7402,2068.0635],[35.8299,0.7484,1973.4786],[35.8271,0.7595,1854.9048],[35.8214,0.76,1980.0474],[35.817,0.7559,1829.3561],[35.817,0.7595,1856.2307],[35.8133,0.7615,1727.1158],[35.8056,0.7562,1626.2781],[35.7998,0.7611,1605.1801],[35.7931,0.7586,1547.8583],[35.7872,0.7631,1425.1451],[35.7826,0.7621,1406.8257],[35.7746,0.7667,1412.152],[35.7652,0.7626,1343.3572],[35.7598,0.7678,1333.7493],[35.7535,0.7684,1286.7852],[35.7535,0.7628,1259.6252],[35.7466,0.7453,1291.9648],[35.7618,0.7418,1287.6042],[35.7749,0.732,1343.5275],[35.7874,0.7181,1681.1016],[35.8005,0.7118,1919.292],[35.8153,0.7123,1994.7224],[35.8142,0.7067,2040.5347],[35.8041,0.7049,2007.5874],[35.8056,0.7017,2039.6326],[35.803,0.6987,1904.6576],[35.8056,0.6937,1774.7061],[35.8047,0.6855,1795.5759],[35.7979,0.6691,2037.5399],[35.7952,0.658,1950.3992],[35.7966,0.6513,2211.8584],[35.7989,0.6483,2187.4675],[35.7968,0.644,2229.4124],[35.7981,0.6422,2246.8777],[35.8026,0.641,2191.1318],[35.7973,0.6232,2244.3481],[35.8022,0.6193,2226.3325],[35.8093,0.6175,2154.9194],[35.8139,0.6044,2302.249],[35.8219,0.5997,2123.6716],[35.8337,0.6065,1753.4714]]]]}}