{"type": "Feature","bbox": [35.0544,0.8959,35.362,1.2046],"geometry": {"type": "MultiPolygon","coordinates": [[[[35.3276,1.0367,2258.4712],[35.312,1.0425,2207.6675],[35.271,1.0677,2162.75],[35.2421,1.0792,2129.5281],[35.2177,1.1209,2248.7856],[35.2021,1.1222,2273.3391],[35.1782,1.1602,2190.6787],[35.1607,1.1845,2276.5193],[35.1515,1.2046,2217.6162],[35.1254,1.1887,1911.3536],[35.1198,1.193,1923.3738],[35.1019,1.1901,1952.8268],[35.106,1.1881,1918.3153],[35.107,1.1819,1954.3947],[35.1117,1.1774,1943.0371],[35.1091,1.1447,1937.8151],[35.1013,1.1417,1880.0742],[35.0894,1.1275,1901.5802],[35.0806,1.1222,1898.3809],[35.0735,1.1203,1894.6636],[35.0692,1.1138,1915.9205],[35.0692,1.1098,1926.1421],[35.0767,1.0944,1939.5658],[35.0701,1.0843,1916.0326],[35.0642,1.0801,1914.0164],[35.0622,1.0737,1876.1526],[35.0544,1.0637,1816.3008],[35.0576,1.0593,1815.1052],[35.0561,1.0528,1815.7838],[35.0578,1.0459,1805.7975],[35.0662,1.0401,1821.0696],[35.0708,1.0279,1815.1221],[35.0695,1.0071,1799.3401],[35.0719,1.0036,1802.9561],[35.0776,1.0013,1816.3854],[35.0787,0.9983,1817.74],[35.0821,0.9963,1820.4504],[35.0862,0.9818,1807.6064],[35.0897,0.9766,1811.0858],[35.0881,0.9728,1796.6208],[35.0901,0.9659,1801.2499],[35.0915,0.9628,1797.5347],[35.0942,0.9617,1824.4414],[35.0951,0.955,1802.3479],[35.0975,0.9507,1794.7852],[35.1046,0.942,1808.9609],[35.1036,0.9355,1790.6748],[35.1054,0.9337,1791.2026],[35.1062,0.9112,1792.4736],[35.1134,0.8988,1791.698],[35.1148,0.8997,1789.7174],[35.1149,0.9031,1794.3401],[35.1174,0.9045,1791.7998],[35.1163,0.9125,1811.895],[35.1209,0.9149,1816.3772],[35.1204,0.9173,1828.7698],[35.1233,0.9167,1822.5187],[35.1237,0.9181,1832.3481],[35.1273,0.9187,1807.7312],[35.1282,0.9255,1827.9163],[35.1342,0.9244,1809.8278],[35.1406,0.9264,1816.5334],[35.144,0.9235,1823.6477],[35.1526,0.9248,1838.5118],[35.1551,0.9234,1833.7043],[35.1571,0.9254,1849.6063],[35.1633,0.9261,1843.782],[35.1665,0.9283,1843.9238],[35.1726,0.9253,1835.6348],[35.1791,0.9282,1848.7754],[35.1813,0.9272,1846.3826],[35.1832,0.9297,1852.0598],[35.1876,0.9297,1853.2292],[35.1904,0.9314,1854.6472],[35.1964,0.9305,1860.7048],[35.1984,0.928,1849.1744],[35.2075,0.9285,1858.1676],[35.2106,0.9266,1857.4885],[35.2158,0.9271,1850.2737],[35.219,0.925,1847.5444],[35.2224,0.9251,1858.9102],[35.2291,0.9275,1870.0481],[35.234,0.9322,1852.5496],[35.2355,0.9358,1850.4918],[35.2443,0.9386,1856.473],[35.2465,0.9438,1870.0702],[35.2525,0.9463,1876.5084],[35.2584,0.943,1863.2712],[35.2604,0.9435,1867.8027],[35.2613,0.9412,1872.7844],[35.2704,0.941,1881.4691],[35.2725,0.9347,1867.8494],[35.2779,0.9291,1876.9697],[35.2784,0.9266,1868.8745],[35.2849,0.9256,1884.0121],[35.2936,0.9195,1886.1511],[35.2922,0.9182,1880.3723],[35.2941,0.9158,1884.8125],[35.2941,0.9127,1873.9592],[35.2957,0.9128,1887.2185],[35.2957,0.9087,1876.6863],[35.2987,0.9038,1883.1453],[35.303,0.903,1891.7661],[35.303,0.8984,1885.6375],[35.3054,0.8959,1893.2849],[35.3297,0.9389,2185.4685],[35.3341,0.934,2084.8896],[35.3489,0.9263,1988.8624],[35.3593,0.95,2078.8076],[35.3438,0.953,2071.2703],[35.3403,0.9684,2086.8772],[35.3463,0.9718,2076.8667],[35.3373,0.9734,2104.356],[35.3396,0.9787,2138.5371],[35.3523,0.9848,2106.8477],[35.3423,1.0097,2287.4888],[35.3618,1.0139,2400.8792],[35.362,1.0247,2344.1821],[35.3276,1.0367,2258.4712]]]]}
,"properties": {"GID_2": "KEN.42.1_1","GID_0": "KEN","country": "Kenya","GID_1": "KEN.42_1","province": "TransNzoia","NL_NAME_1": "NA","county": "Cherangany","VARNAME_2": "NA","NL_NAME_2": "NA","TYPE_2": "Constituency","ENGTYPE_2": "Constituency","CC_2": "140","HASC_2": "NA","name": "Cherangany.county","area_km2": 629.0522,"hist_schema_id": "Elevation0-9000","hist_area_km2": {"1800": 7.8861,"1825": 33.9186,"1850": 80.7467,"1875": 118.2256,"1900": 118.9034,"1925": 76.6118,"1950": 30.4836,"1975": 18.2521,"2000": 14.2455,"2025": 12.0196,"2050": 10.9173,"2075": 12.3588,"2100": 11.956,"2125": 11.5109,"2150": 9.8362,"2175": 10.345,"2200": 11.7229,"2225": 12.5709,"2250": 11.405,"2275": 8.1827,"2300": 4.4729,"2325": 1.6323,"2350": 0.6148,"2375": 0.1908,"2400": 0.0424}}}