{"type":"Feature","properties":{"GID_3":"KEN.46.2.4_1","GID_0":"KEN","country":"Kenya","GID_1":"KEN.46_1","province":"Wajir","NL_NAME_1":"NA","GID_2":"KEN.46.2_1","county":"Tarbaj","NL_NAME_2":"NA","city":"Wargadud","VARNAME_3":"NA","NL_NAME_3":"NA","TYPE_3":"Ward","ENGTYPE_3":"Ward","CC_3":"175","HASC_3":"NA","name":"Wargadud.city"},
"geometry":{"type": "MultiPolygon","coordinates": [[[[40.5793,2.5427,369.611],[40.5791,2.5463,370.6029],[40.3923,2.3289,440.2434],[40.3579,2.3059,454.4941],[40.3511,2.2871,459.9091],[40.3455,2.2789,462.8201],[40.3381,2.2725,460.2127],[40.3221,2.2643,469.8744],[40.3159,2.2641,476.6042],[40.3105,2.2663,480.4377],[40.3013,2.2667,488.3578],[40.2875,2.2749,503.1013],[40.2841,2.2743,505.5734],[40.2757,2.2653,502.2116],[40.2695,2.2627,496.5359],[40.2627,2.2649,495.4691],[40.2435,2.2803,499.4614],[40.2359,2.2795,497.1376],[40.2269,2.2713,479.3444],[40.2069,2.2691,466.9427],[40.2051,2.2663,464.7758],[40.2055,2.2473,452.6232],[40.2023,2.2397,448.3329],[40.1825,2.2349,451.075],[40.1725,2.2295,444.2131],[40.1667,2.2233,439.2256],[40.1615,2.2209,438.7169],[40.152,2.2198,438.7693],[40.2257,2.0923,383.8943],[40.2435,2.1109,404.2795],[40.2581,2.1183,416.6303],[40.2635,2.1181,420.8759],[40.2717,2.1205,430.7996],[40.2865,2.1191,428.9266],[40.3019,2.1201,418.5521],[40.3097,2.1235,414.4906],[40.3155,2.1283,410.5231],[40.3281,2.1303,402.1183],[40.3481,2.1241,389.4731],[40.3537,2.1207,386.4418],[40.3579,2.1151,381.3823],[40.4115,2.1189,374.0699],[40.4073,2.1075,367.077],[40.4077,2.0995,362.3112],[40.4015,2.0885,357.9776],[40.3999,2.0767,357.5129],[40.3955,2.0667,355.9904],[40.3869,2.0569,350.4558],[40.3861,2.0505,348.1234],[40.3839,2.0477,344.9489],[40.3791,2.0467,345.3864],[40.3761,2.0439,344.2286],[40.3715,2.0179,333.1725],[40.3675,2.0099,331.9603],[40.3575,2.0021,330.084],[40.3573,1.9995,329.7331],[40.3619,1.9963,330.8975],[40.3749,1.9925,332.3117],[40.3833,1.9923,333.3638],[40.3935,1.9981,332.6212],[40.4156,1.9998,332.0771],[40.4219,2.0027,331.9939],[40.4313,2.0107,330.9092],[40.4411,2.0123,332.0909],[40.4521,2.0169,332.8469],[40.4589,2.0307,332.9004],[40.4663,2.0377,332.7182],[40.4773,2.0439,332.5535],[40.4933,2.0577,332.8712],[40.4981,2.0601,332.8098],[40.5051,2.0707,335.4707],[40.5277,2.0859,338.9856],[40.5583,2.1189,325.8854],[40.5617,2.1253,326.7325],[40.5625,2.1345,331.1718],[40.5531,2.1557,336.3445],[40.5481,2.1829,344.5658],[40.5433,2.1895,346.7317],[40.5437,2.1949,348.1132],[40.5467,2.2001,348.6489],[40.5473,2.2137,350.0121],[40.5421,2.2393,352.5938],[40.7225,2.3253,316.1779],[40.7161,2.3329,321.0717],[40.7131,2.3453,321.2182],[40.7105,2.3491,319.9211],[40.6905,2.3685,323.9361],[40.6763,2.3761,333.3521],[40.6749,2.3837,332.757],[40.6655,2.3911,335.3081],[40.6659,2.4065,336.7869],[40.6645,2.4099,334.2667],[40.6639,2.4249,336.2881],[40.6617,2.4283,336.378],[40.6557,2.4337,336.5409],[40.6411,2.4371,340.246],[40.6385,2.4421,340.399],[40.6363,2.4417,340.6628],[40.6319,2.4449,342.1561],[40.6291,2.4499,342.7625],[40.6215,2.4551,344.7731],[40.6135,2.4643,346.7852],[40.6033,2.4819,351.207],[40.6037,2.4927,352.4756],[40.5939,2.4997,356.3302],[40.5915,2.5031,361.7283],[40.5973,2.5099,360.7535],[40.5969,2.5131,357.0309],[40.5793,2.5303,363.3731],[40.5793,2.5427,369.611]]]]}}