{"type":"Feature","properties":{"GID_1":"KEN.34_1","GID_0":"KEN","country":"Kenya","province":"Nyamira","VARNAME_1":"NA","NL_NAME_1":"NA","TYPE_1":"County","ENGTYPE_1":"County","CC_1":"46","HASC_1":"KE.NM","ISO_1":"KE-34","name":"Nyamira.province"},
"geometry":{"type": "MultiPolygon","coordinates": [[[[35.0613,-0.8299,1820.5895],[35.0913,-0.7969,1802.574],[35.0477,-0.7021,1851.5245],[35.0502,-0.6966,1849.9087],[35.0603,-0.6906,1785.0969],[35.0676,-0.6903,1775.9321],[35.0724,-0.6871,1765.8037],[35.0693,-0.6783,1772.1409],[35.0668,-0.6773,1817.1305],[35.0623,-0.6708,1843.0189],[35.0632,-0.6659,1848.8762],[35.0572,-0.6592,1843.5454],[35.055,-0.6515,1844.8978],[35.0569,-0.6432,1824.1438],[35.0554,-0.6395,1836.9973],[35.059,-0.6312,1807.9219],[35.0641,-0.6267,1804.6272],[35.0619,-0.6193,1808.4546],[35.0568,-0.6133,1805.0702],[35.0582,-0.6104,1850.626],[35.0572,-0.6092,1881.4355],[35.0606,-0.6067,1903.5774],[35.0626,-0.6015,1821.8586],[35.0618,-0.5972,1814.1072],[35.0566,-0.5914,1864.2819],[35.0548,-0.5849,1823.6306],[35.0509,-0.5793,1930.3699],[35.0498,-0.5673,1892.1428],[35.0474,-0.5661,1862.8287],[35.0508,-0.5598,1946.842],[35.0497,-0.5504,1885.5505],[35.0513,-0.5482,1926.4882],[35.0496,-0.5411,1815.5972],[35.0528,-0.5397,1934.0085],[35.0491,-0.5325,1770.7833],[35.053,-0.53,1762.613],[35.0517,-0.5231,1732.7512],[35.048,-0.5195,1646.7039],[35.0479,-0.5166,1654.7964],[35.0506,-0.5131,1648.2943],[35.0522,-0.5136,1648.2943],[35.0529,-0.5069,1635.4878],[35.0571,-0.502,1635.7941],[35.0541,-0.4994,1581.0309],[35.0554,-0.4982,1584.6125],[35.0497,-0.4924,1697.3265],[35.0466,-0.4944,1704.9017],[35.0328,-0.4926,1578.5533],[35.0336,-0.4788,1699.2593],[35.0394,-0.4787,1665.8623],[35.041,-0.4737,1571.4927],[35.0421,-0.4511,1563.7131],[35.0461,-0.449,1540.7135],[35.0443,-0.4449,1536.4177],[35.0451,-0.44,1581.866],[35.0384,-0.4321,1525.5131],[35.0388,-0.425,1559.6221],[35.0337,-0.4158,1555.6553],[35.0316,-0.4136,1542.8506],[35.0301,-0.4142,1542.8506],[35.0269,-0.4088,1581.9255],[35.0206,-0.4082,1507.4869],[35.0197,-0.4065,1510.488],[34.9996,-0.4232,1589.9897],[34.9667,-0.4366,1580.781],[34.9403,-0.459,1531.8364],[34.9062,-0.476,1539.5342],[34.8799,-0.4828,1524.8994],[34.8597,-0.4978,1629.3871],[34.8636,-0.497,1633.0923],[34.8705,-0.5014,1591.0128],[34.8686,-0.5037,1585.3879],[34.8708,-0.5311,1741.1671],[34.8756,-0.5398,1797.6836],[34.8762,-0.5513,1875.4961],[34.8789,-0.5525,1833.968],[34.8722,-0.5698,1867.5065],[34.876,-0.5733,1875.9167],[34.8805,-0.5827,1951.726],[34.8785,-0.5864,1935.9739],[34.8827,-0.5879,1887.9702],[34.8904,-0.5987,1985.7379],[34.8895,-0.6053,1989.7003],[34.8867,-0.6081,1972.9055],[34.8745,-0.6014,1896.6285],[34.8664,-0.6026,1865.4729],[34.8538,-0.5927,1941.5295],[34.8501,-0.5942,1983.278],[34.8466,-0.5918,1959.5046],[34.8426,-0.5922,1893.5942],[34.8347,-0.599,1838.3547],[34.8314,-0.6092,1819.2906],[34.8214,-0.6192,1764.7646],[34.8139,-0.6302,1791.1193],[34.8104,-0.6393,1773.0266],[34.8092,-0.6551,1924.1787],[34.8098,-0.6577,1914.4136],[34.8119,-0.6583,1848.2332],[34.8114,-0.6609,1858.7375],[34.805,-0.658,1769.8726],[34.804,-0.6604,1745.511],[34.7984,-0.6592,1655.5889],[34.7918,-0.6609,1694.4343],[34.7892,-0.6684,1692.8979],[34.7828,-0.6683,1681.3921],[34.7779,-0.6702,1666.3352],[34.7844,-0.6739,1677.5996],[34.7865,-0.6706,1697.1017],[34.789,-0.6718,1707.3756],[34.7931,-0.678,1725.3062],[34.7924,-0.6818,1743.5701],[34.7959,-0.684,1844.5413],[34.8008,-0.6843,1881.608],[34.8083,-0.6817,1867.4453],[34.8207,-0.6881,1812.7543],[34.8229,-0.6919,1800.0197],[34.8235,-0.6993,1776.8387],[34.8252,-0.6972,1795.8525],[34.8271,-0.6999,1781.0961],[34.8277,-0.6984,1789.3716],[34.8348,-0.7019,1783.6758],[34.8403,-0.709,1775.1169],[34.8691,-0.7292,1927.3312],[34.8853,-0.7367,1999.3706],[34.8884,-0.7405,1943.9727],[34.8987,-0.7426,1975.3137],[34.9037,-0.7471,1968.5542],[34.9074,-0.7553,1982.8994],[34.9119,-0.7534,1989.3539],[34.918,-0.7535,2062.9309],[34.9236,-0.7561,1994.5256],[34.9276,-0.7605,2005.7363],[34.9344,-0.7605,2085.5264],[34.9391,-0.7658,2094.219],[34.9435,-0.7672,2100.1963],[35.0127,-0.8839,2062.1208],[35.0136,-0.881,2072.698],[35.012,-0.8755,2021.2385],[35.0179,-0.867,2071.4131],[35.0204,-0.8654,2023.417],[35.0239,-0.8702,2141.3154],[35.0254,-0.8688,2132.9934],[35.0255,-0.8567,2029.6892],[35.0215,-0.8458,1999.2607],[35.0219,-0.8425,1961.1755],[35.0319,-0.8406,1898.7599],[35.0444,-0.8485,1838.5991],[35.0613,-0.8299,1820.5895]]]]}}