{"type": "Feature","bbox": [36.5832,1.8572,37.0023,2.5155],"geometry": {"type": "MultiPolygon","coordinates": [[[[36.7597,2.5155,624.2312],[36.7397,2.5142,586.9432],[36.7155,2.5083,478.778],[36.7087,2.5081,463.2312],[36.7062,2.5122,388.9176],[36.7002,2.5126,376.1261],[36.7027,2.4975,392.1889],[36.7019,2.4865,371.1494],[36.7037,2.4793,373.7219],[36.6979,2.4652,366.7583],[36.6997,2.4571,373.3319],[36.6987,2.4543,382.7968],[36.688,2.4585,373.5291],[36.6855,2.4578,372.9625],[36.6717,2.4446,370.0701],[36.6569,2.4193,417.2935],[36.6506,2.4178,402.3659],[36.6479,2.4133,384.9366],[36.6445,2.4175,379.4886],[36.6438,2.4054,382.4361],[36.6395,2.3937,409.2306],[36.64,2.4097,378.3389],[36.6392,2.4103,378.3389],[36.638,2.4062,367.8152],[36.6356,2.4045,397.5064],[36.6315,2.4118,362.0],[36.6265,2.4142,468.9109],[36.6218,2.4136,437.684],[36.6213,2.4031,380.0406],[36.6197,2.3991,383.8014],[36.6161,2.3972,380.8428],[36.6083,2.3957,376.5656],[36.6057,2.3975,365.179],[36.6044,2.4024,362.0],[36.6013,2.4055,381.4168],[36.6013,2.3608,556.1067],[36.7233,2.3026,1076.3774],[36.7239,2.292,1253.6626],[36.722,2.2859,1379.4178],[36.7236,2.276,1255.0364],[36.7151,2.2672,1094.946],[36.7086,2.2643,1192.2173],[36.7127,2.2611,1340.0242],[36.7143,2.2555,1340.6729],[36.7139,2.246,1126.5586],[36.7104,2.2407,965.3952],[36.7124,2.2367,1071.5726],[36.7121,2.2263,990.2057],[36.7115,2.2241,1067.1643],[36.7041,2.2215,996.9576],[36.7004,2.2176,823.8734],[36.7018,2.2039,799.6747],[36.6814,2.1973,857.7685],[36.6708,2.1909,628.558],[36.6587,2.1789,515.8934],[36.6487,2.1731,497.0116],[36.6365,2.1682,443.8156],[36.6206,2.1654,438.73],[36.6128,2.161,446.8107],[36.6132,2.1629,434.1456],[36.6111,2.1629,424.4269],[36.5996,2.1536,367.8409],[36.595,2.1464,392.4793],[36.5879,2.1458,397.8524],[36.585,2.1409,421.711],[36.5832,2.1325,321.2414],[36.5949,2.1291,349.7197],[36.5987,2.1243,362.3704],[36.6054,2.1214,391.521],[36.6098,2.1096,398.5643],[36.6094,2.1028,437.765],[36.6109,2.098,426.6763],[36.6228,2.0862,500.4554],[36.6247,2.0762,581.0457],[36.6224,2.0647,581.7993],[36.6265,2.0612,581.3424],[36.629,2.0616,603.2632],[36.629,2.0561,591.0906],[36.6319,2.0538,618.4294],[36.6304,2.0466,693.6252],[36.6324,2.0387,658.9662],[36.6345,2.0361,701.3986],[36.6423,2.0329,814.5484],[36.6462,2.0277,744.3019],[36.6456,2.0223,723.7503],[36.6481,2.0151,727.8667],[36.6457,2.0137,707.3769],[36.6458,2.0093,724.374],[36.6482,2.0066,753.4725],[36.6449,2.0025,845.3438],[36.6448,1.9983,843.9572],[36.6457,1.9952,792.1959],[36.6474,1.9958,804.2404],[36.6497,1.9938,868.5067],[36.6506,1.9788,824.9377],[36.6495,1.9767,864.5391],[36.6513,1.975,865.139],[36.6495,1.9732,847.2667],[36.6522,1.9696,863.4105],[36.6492,1.9669,953.4608],[36.6489,1.9644,960.6157],[36.6504,1.9642,904.2618],[36.6489,1.9611,967.1453],[36.6518,1.9571,946.9279],[36.6531,1.9584,946.9279],[36.6566,1.9569,985.7769],[36.6589,1.9579,1062.5637],[36.6588,1.9552,987.1996],[36.6616,1.9539,1018.4713],[36.661,1.9506,986.9249],[36.6684,1.9501,1126.0804],[36.6682,1.9477,1079.1611],[36.6763,1.9447,1049.7091],[36.6786,1.9404,1046.9506],[36.6827,1.9395,1127.8281],[36.6863,1.9322,1109.4694],[36.6904,1.9306,1172.707],[36.691,1.9321,1125.1195],[36.6937,1.9324,1131.4351],[36.6956,1.9302,1145.3153],[36.698,1.9311,1158.8405],[36.6982,1.9289,1137.2329],[36.7027,1.9315,1133.326],[36.7066,1.9287,1144.1943],[36.7081,1.9321,1162.0615],[36.7103,1.9319,1167.8253],[36.7177,1.9243,1171.7963],[36.7191,1.9251,1171.7963],[36.7187,1.9216,1173.98],[36.7219,1.9172,1154.6942],[36.7218,1.9147,1173.6174],[36.725,1.9137,1186.8367],[36.7266,1.909,1202.696],[36.725,1.9071,1173.7808],[36.7267,1.9047,1205.4316],[36.7286,1.9064,1186.5415],[36.7333,1.9041,1199.1055],[36.7391,1.9048,1219.1621],[36.7513,1.8999,1262.0042],[36.7564,1.8882,1296.2223],[36.7776,1.8707,1284.3689],[36.783,1.8682,1277.4923],[36.7877,1.8729,1287.4725],[36.787,1.8744,1294.3871],[36.7928,1.8771,1304.8346],[36.8,1.8706,1296.8547],[36.8161,1.8642,1333.7727],[36.8203,1.8572,1377.8485],[36.8209,1.8597,1364.5291],[36.8248,1.8615,1356.0283],[36.8377,1.8733,1356.7008],[36.8427,1.8842,1355.4486],[36.8477,1.8863,1359.1562],[36.8541,1.8868,1360.599],[36.8681,1.8847,1390.4816],[36.8893,1.8717,1406.7433],[36.8969,1.8695,1449.0798],[36.9008,1.8703,1422.8202],[36.9096,1.8785,1431.2847],[36.917,1.8886,1425.0483],[36.9322,1.8873,1406.7693],[36.9374,1.8925,1418.9407],[36.9426,1.8938,1302.79],[36.9428,1.9011,1222.8827],[36.9496,1.9161,1188.5049],[36.9551,1.9201,1146.5627],[36.9595,1.9279,1211.3339],[36.9658,1.9344,1185.5656],[36.9697,1.948,1072.7297],[36.9681,1.9542,1063.7175],[36.9694,1.965,1043.3423],[36.9786,1.9681,1040.4438],[36.9863,1.9827,1006.8378],[36.9914,1.9873,991.7377],[37.0023,1.9931,970.9001],[36.9977,1.9997,966.2328],[36.9765,2.0087,970.3633],[36.9609,2.0181,966.4896],[36.9521,2.0253,968.9917],[36.9475,2.0269,976.3636],[36.9375,2.0253,989.0157],[36.9245,2.0181,1010.1746],[36.9175,2.0187,1013.7604],[36.9165,2.0225,1017.6936],[36.9193,2.0351,1069.1318],[36.9196,2.0534,1151.3102],[36.9218,2.0605,1100.0652],[36.919,2.0847,1035.62],[36.9189,2.1014,1033.4006],[36.9145,2.1021,1059.9917],[36.9119,2.1049,1100.3519],[36.9138,2.1264,1089.7506],[36.9016,2.1573,970.6519],[36.8949,2.1927,975.7327],[36.8923,2.1957,1123.6528],[36.8646,2.2545,939.2834],[36.8447,2.2749,991.8688],[36.7655,2.4937,671.6062],[36.7597,2.5155,624.2312]]]]}
,"properties": {"GID_3": "KEN.37.2.6_1","GID_0": "KEN","country": "Kenya","GID_1": "KEN.37_1","province": "Samburu","NL_NAME_1": "NA","GID_2": "KEN.37.2_1","county": "SamburuNorth","NL_NAME_2": "NA","city": "Nyiro","VARNAME_3": "NA","NL_NAME_3": "NA","TYPE_3": "Ward","ENGTYPE_3": "Ward","CC_3": "669","HASC_3": "NA","name": "Nyiro.city","area_km2": 1675.496,"hist_schema_id": "Elevation0-9000","hist_area_km2": {"350": 1.165,"375": 11.185,"400": 16.736,"425": 20.083,"450": 19.638,"475": 19.892,"500": 21.164,"525": 18.664,"550": 14.766,"575": 13.41,"600": 10.19,"625": 11.058,"650": 10.825,"675": 13.855,"700": 14.045,"725": 14.935,"750": 13.05,"775": 11.927,"800": 13.58,"825": 15.148,"850": 14.788,"875": 17.203,"900": 18.05,"925": 18.876,"950": 21.991,"975": 36.017,"1000": 34.81,"1025": 33.539,"1050": 33.751,"1075": 35.997,"1100": 32.988,"1125": 29.874,"1150": 30.34,"1175": 33.9,"1200": 33.562,"1225": 35.914,"1250": 44.347,"1275": 52.632,"1300": 64.371,"1325": 96.452,"1350": 132.008,"1375": 92.997,"1400": 57.994,"1425": 47.081,"1450": 39.093,"1475": 23.286,"1500": 16.675,"1525": 14.514,"1550": 12.734,"1575": 10.636,"1600": 10.551,"1625": 9.386,"1650": 9.196,"1675": 8.2,"1700": 8.009,"1725": 7.903,"1750": 7.458,"1775": 6.42,"1800": 5.509,"1825": 5.699,"1850": 5.191,"1875": 5.043,"1900": 4.704,"1925": 5.149,"1950": 4.534,"1975": 4.661,"2000": 4.174,"2025": 4.322,"2050": 4.153,"2075": 3.581,"2100": 3.411,"2125": 3.242,"2150": 3.093,"2175": 2.881,"2200": 3.411,"2225": 3.115,"2250": 3.009,"2275": 3.284,"2300": 2.881,"2325": 3.178,"2350": 3.559,"2375": 3.877,"2400": 4.322,"2425": 4.979,"2450": 4.492,"2475": 4.259,"2500": 4.873,"2525": 4.979,"2550": 5.233,"2575": 5.996,"2600": 5.805,"2625": 3.771,"2650": 2.691,"2675": 2.225,"2700": 2.076,"2725": 1.653,"2750": 1.144,"2775": 1.737,"2800": 0.636,"2825": 0.106}}}