{"type": "Feature","bbox": [37.5813,0.1679,37.8437,0.5103],"geometry": {"type": "MultiPolygon","coordinates": [[[[37.5851,0.4023,1020.6481],[37.5983,0.4029,1025.2749],[37.6049,0.3539,1092.0042],[37.5931,0.3403,1132.1313],[37.6141,0.3271,1144.2476],[37.6151,0.3223,1155.1721],[37.6155,0.3265,1148.3969],[37.6335,0.3195,1127.4543],[37.6435,0.3211,1135.2098],[37.6509,0.3175,1136.573],[37.6565,0.3119,1141.3733],[37.6755,0.3003,1161.7498],[37.6861,0.2979,1175.0591],[37.6925,0.2915,1186.6084],[37.7055,0.2861,1200.1211],[37.7095,0.2857,1203.6844],[37.7143,0.2879,1191.2915],[37.7167,0.2833,1207.6462],[37.7253,0.2811,1222.2902],[37.7277,0.2789,1223.8927],[37.7303,0.2721,1236.343],[37.7294,0.2696,1246.1819],[37.7368,0.2564,1268.0479],[37.7349,0.2519,1294.0334],[37.7315,0.2501,1332.7997],[37.7307,0.2427,1309.1886],[37.7323,0.2403,1314.3271],[37.7497,0.2269,1345.1378],[37.7589,0.2231,1350.6415],[37.7779,0.2101,1558.8765],[37.7815,0.2049,1461.1625],[37.7787,0.2029,1447.1626],[37.7819,0.2047,1461.1625],[37.7841,0.2037,1463.1248],[37.8005,0.1923,1585.9119],[37.8131,0.1799,1670.4158],[37.8221,0.1735,1588.5934],[37.825,0.1679,1536.3633],[37.8289,0.1783,1664.0632],[37.8333,0.183,1673.8118],[37.8413,0.1821,1731.5007],[37.8437,0.1925,1864.8597],[37.8437,0.1947,1865.8342],[37.8395,0.1973,1994.5115],[37.8417,0.2025,2006.8536],[37.8331,0.2055,2063.343],[37.8305,0.2083,1895.7919],[37.8351,0.2117,2029.6549],[37.8315,0.2145,1861.9227],[37.8283,0.2109,1812.4093],[37.8103,0.2289,1516.5333],[37.8009,0.2355,1461.9669],[37.8015,0.2645,1515.506],[37.8045,0.2767,1422.6118],[37.8011,0.2867,1339.1263],[37.7957,0.2921,1291.365],[37.7751,0.2987,1250.3995],[37.7497,0.3511,1148.8059],[37.7471,0.3641,1138.4271],[37.7027,0.4113,1044.6085],[37.7081,0.4241,1026.3367],[37.7079,0.4348,1017.7711],[37.7051,0.4409,1007.311],[37.7049,0.4491,997.4088],[37.6941,0.4553,984.4342],[37.6883,0.4633,976.1662],[37.6885,0.4693,973.0609],[37.6835,0.4837,966.5641],[37.6841,0.4953,959.5809],[37.6739,0.5047,956.6282],[37.6727,0.5103,950.892],[37.5867,0.4805,958.2546],[37.5859,0.4717,963.9242],[37.5825,0.4647,969.8651],[37.5813,0.4534,976.6516],[37.5815,0.4183,1008.2616],[37.5851,0.4023,1020.6481]]]]}
,"properties": {"GID_3": "KEN.26.8.4_1","GID_0": "KEN","country": "Kenya","GID_1": "KEN.26_1","province": "Meru","NL_NAME_1": "NA","GID_2": "KEN.26.8_1","county": "TiganiaEast","NL_NAME_2": "NA","city": "Muthara","VARNAME_3": "NA","NL_NAME_3": "NA","TYPE_3": "Ward","ENGTYPE_3": "Ward","CC_3": "274","HASC_3": "NA","name": "Muthara.city","area_km2": 398.0421,"hist_schema_id": "Elevation0-9000","hist_area_km2": {"950": 20.629,"975": 41.7882,"1000": 33.1169,"1025": 31.8661,"1050": 32.6082,"1075": 35.4069,"1100": 34.7074,"1125": 32.5024,"1150": 16.9615,"1175": 12.3183,"1200": 13.8236,"1225": 8.1839,"1250": 7.3147,"1275": 6.0002,"1300": 7.1663,"1325": 11.025,"1350": 6.9331,"1375": 4.6432,"1400": 4.0496,"1425": 4.0708,"1450": 4.8341,"1475": 4.092,"1500": 3.0107,"1525": 2.1626,"1550": 1.3357,"1575": 2.5866,"1600": 1.993,"1625": 1.5053,"1650": 1.7174,"1675": 1.5266,"1700": 1.4205,"1725": 1.3781,"1750": 1.1661,"1775": 0.7209,"1800": 0.8057,"1825": 0.7421,"1850": 0.212,"1875": 0.2332,"1900": 0.1272,"1925": 0.1908,"1950": 0.106,"1975": 0.3392,"2000": 0.5725,"2025": 0.0636,"2050": 0.0636,"2075": 0.0212}}}