{"type":"Feature","properties":{"GID_3":"KEN.8.6.1_1","GID_0":"KEN","country":"Kenya","GID_1":"KEN.8_1","province":"HomaBay","NL_NAME_1":"NA","GID_2":"KEN.8.6_1","county":"Ndhiwa","NL_NAME_2":"NA","city":"KabuochNorth","VARNAME_3":"NA","NL_NAME_3":"NA","TYPE_3":"Ward","ENGTYPE_3":"Ward","CC_3":"1248","HASC_3":"NA","name":"Kabuoch_North.city"},
"geometry":{"type": "MultiPolygon","coordinates": [[[[34.4776,-0.6566,1351.3785],[34.4734,-0.6522,1354.8716],[34.471,-0.6531,1357.7633],[34.4674,-0.6467,1362.8484],[34.4522,-0.6348,1355.0425],[34.4472,-0.6329,1361.7339],[34.4445,-0.6534,1342.4551],[34.4476,-0.6564,1341.7374],[34.4474,-0.6623,1337.6377],[34.452,-0.6755,1333.2791],[34.4493,-0.6766,1333.4368],[34.4471,-0.6806,1337.3044],[34.4448,-0.6903,1345.5435],[34.4397,-0.6915,1359.1093],[34.4375,-0.7045,1319.7172],[34.4336,-0.708,1296.163],[34.4286,-0.7071,1294.2834],[34.426,-0.7155,1307.2701],[34.422,-0.7178,1318.187],[34.4227,-0.722,1313.167],[34.421,-0.7227,1313.167],[34.4134,-0.7371,1301.3983],[34.4109,-0.7379,1307.9268],[34.414,-0.7424,1296.8268],[34.4095,-0.7445,1298.7502],[34.4089,-0.7519,1308.531],[34.4124,-0.7569,1312.7159],[34.4082,-0.7596,1318.7158],[34.4118,-0.7634,1302.4003],[34.4102,-0.7671,1318.11],[34.4127,-0.7679,1296.881],[34.4141,-0.7726,1328.5306],[34.4174,-0.7725,1303.9116],[34.4218,-0.7827,1267.6261],[34.4217,-0.7811,1269.5927],[34.4235,-0.7812,1266.1656],[34.4235,-0.7787,1264.7805],[34.4273,-0.7766,1272.1628],[34.4291,-0.7731,1285.9613],[34.4349,-0.7713,1299.3431],[34.4364,-0.7733,1290.298],[34.4451,-0.7745,1300.4479],[34.4535,-0.7821,1274.3054],[34.4637,-0.7813,1296.5558],[34.465,-0.7835,1293.1249],[34.47,-0.784,1288.6191],[34.4715,-0.7873,1288.9739],[34.4739,-0.7871,1291.9375],[34.4773,-0.791,1304.281],[34.4781,-0.7896,1304.281],[34.4834,-0.7925,1300.2605],[34.4859,-0.7816,1302.0933],[34.5184,-0.752,1323.7319],[34.5261,-0.7408,1348.7546],[34.5327,-0.7356,1363.7246],[34.5359,-0.7245,1325.6575],[34.5307,-0.7212,1336.684],[34.535,-0.7177,1345.8784],[34.5337,-0.7153,1339.9072],[34.5341,-0.698,1335.5319],[34.537,-0.6971,1337.5208],[34.5374,-0.6927,1332.2896],[34.5416,-0.6863,1330.4065],[34.5454,-0.6823,1331.0709],[34.5479,-0.682,1332.8256],[34.5523,-0.6761,1335.6829],[34.5529,-0.6708,1339.6293],[34.5599,-0.6675,1341.2183],[34.5529,-0.6539,1367.759],[34.5307,-0.6378,1399.7809],[34.5309,-0.6415,1361.5657],[34.5345,-0.6457,1358.4734],[34.5373,-0.6574,1339.2968],[34.5002,-0.6572,1333.0432],[34.5008,-0.6634,1330.375],[34.494,-0.6629,1340.0398],[34.4776,-0.6566,1351.3785]]]]}}