{"type": "Feature","bbox": [36.9537,-0.9079,37.1697,-0.8033],"geometry": {"type": "MultiPolygon","coordinates": [[[[36.9921,-0.8469,1728.2025],[36.994,-0.8431,1695.9097],[36.9978,-0.841,1757.1639],[37.0034,-0.8436,1666.5968],[37.0093,-0.8428,1643.2729],[37.0147,-0.8464,1649.9678],[37.0193,-0.8459,1599.6372],[37.0405,-0.8597,1544.9775],[37.0431,-0.8661,1563.1831],[37.0366,-0.87,1547.7518],[37.0332,-0.8741,1590.0142],[37.04,-0.8766,1579.3347],[37.0459,-0.882,1575.5132],[37.0511,-0.8843,1589.9333],[37.0627,-0.8954,1560.5088],[37.0778,-0.8969,1537.8706],[37.0821,-0.9004,1514.7615],[37.0845,-0.8984,1539.2823],[37.0886,-0.9021,1532.7039],[37.1015,-0.9056,1489.8],[37.1036,-0.9079,1469.7457],[37.1197,-0.906,1393.0513],[37.1212,-0.9001,1382.0675],[37.1188,-0.894,1423.8088],[37.1325,-0.8874,1376.6924],[37.1401,-0.8857,1389.9431],[37.1482,-0.88,1366.7545],[37.1637,-0.8757,1382.7002],[37.1697,-0.872,1362.823],[37.1695,-0.8709,1359.1212],[37.1547,-0.8764,1396.0299],[37.1463,-0.8751,1396.4028],[37.1369,-0.8763,1385.8911],[37.1248,-0.8814,1416.4115],[37.1189,-0.8808,1437.25],[37.103,-0.8728,1454.1472],[37.0956,-0.8716,1486.9146],[37.0918,-0.8734,1429.0343],[37.0827,-0.872,1453.3838],[37.0717,-0.8636,1472.4243],[37.0688,-0.8589,1465.8397],[37.0579,-0.853,1531.9694],[37.053,-0.8546,1524.3094],[37.0464,-0.8523,1553.3658],[37.0427,-0.8549,1580.938],[37.041,-0.852,1569.4142],[37.0363,-0.85,1602.4827],[37.0341,-0.8464,1640.828],[37.0318,-0.8463,1588.9805],[37.0299,-0.843,1651.0375],[37.0249,-0.8421,1648.7487],[37.0186,-0.8381,1675.2341],[37.0138,-0.8382,1667.5439],[37.0035,-0.8297,1674.5754],[36.9943,-0.8298,1705.9104],[36.9803,-0.8209,1749.1936],[36.9745,-0.8217,1747.3748],[36.9548,-0.8033,1786.1687],[36.9537,-0.8084,1837.1366],[36.9632,-0.8199,1794.2999],[36.959,-0.8212,1771.4386],[36.9618,-0.8295,1811.9135],[36.9604,-0.8321,1786.0247],[36.9721,-0.8481,1752.5841],[36.98,-0.8419,1700.2574],[36.9843,-0.8449,1700.9819],[36.9882,-0.8428,1706.0974],[36.9921,-0.8469,1728.2025]]]]}
,"properties": {"GID_3": "KEN.29.2.1_1","GID_0": "KEN","country": "Kenya","GID_1": "KEN.29_1","province": "Murang'a","NL_NAME_1": "NA","GID_2": "KEN.29.2_1","county": "Kandara","NL_NAME_2": "NA","city": "Gaichanjiru","VARNAME_3": "NA","NL_NAME_3": "NA","TYPE_3": "Ward","ENGTYPE_3": "Ward","CC_3": "542","HASC_3": "NA","name": "Gaichanjiru.city","area_km2": 50.28587,"hist_schema_id": "Elevation0-9000","hist_area_km2": {"1375": 1.80197,"1400": 4.57913,"1425": 4.11273,"1450": 3.30715,"1475": 3.64634,"1500": 4.79113,"1525": 5.40593,"1550": 5.10913,"1575": 2.73477,"1600": 1.16599,"1625": 0.6996,"1650": 0.9752,"1675": 0.9752,"1700": 2.2048,"1725": 3.03159,"1750": 2.9256,"1775": 1.696,"1800": 0.6148,"1825": 0.318,"1850": 0.1908}}}