{"type":"Feature","properties":{"GID_3":"KEN.28.2.3_1","GID_0":"KEN","country":"Kenya","GID_1":"KEN.28_1","province":"Mombasa","NL_NAME_1":"NA","GID_2":"KEN.28.2_1","county":"Jomvu","NL_NAME_2":"NA","city":"Miritini","VARNAME_3":"NA","NL_NAME_3":"NA","TYPE_3":"Ward","ENGTYPE_3":"Ward","CC_3":"7","HASC_3":"NA","name":"Miritini.city"},
"geometry":{"type": "MultiPolygon","coordinates": [[[[39.5863,-4.03,1.8004],[39.5924,-4.0262,15.5945],[39.5951,-4.0261,29.1054],[39.5982,-4.021,44.9773],[39.5998,-4.0141,51.5988],[39.6017,-4.0149,59.2636],[39.6021,-4.0086,62.4226],[39.5998,-4.0076,64.1598],[39.5998,-4.0052,65.4732],[39.5827,-4.0061,62.6651],[39.5745,-4.0006,48.2795],[39.5739,-3.9953,66.9145],[39.5699,-3.9913,49.124],[39.5678,-4.0074,11.4306],[39.5642,-4.0125,20.9228],[39.568,-4.02,8.3642],[39.574,-4.0237,9.7671],[39.5835,-4.0257,19.0134],[39.5863,-4.03,1.8004]]]]}}