{"type":"Feature","properties":{"GID_3":"KEN.8.6.6_1","GID_0":"KEN","country":"Kenya","GID_1":"KEN.8_1","province":"HomaBay","NL_NAME_1":"NA","GID_2":"KEN.8.6_1","county":"Ndhiwa","NL_NAME_2":"NA","city":"Kanyikela","VARNAME_3":"NA","NL_NAME_3":"NA","TYPE_3":"Ward","ENGTYPE_3":"Ward","CC_3":"1247","HASC_3":"NA","name":"Kanyikela.city"},
"geometry":{"type": "MultiPolygon","coordinates": [[[[34.3928,-0.7719,1263.9489],[34.3935,-0.7684,1275.8174],[34.3968,-0.7676,1271.3685],[34.3986,-0.7584,1264.0439],[34.3976,-0.7551,1277.0145],[34.3935,-0.7544,1269.7854],[34.3895,-0.7507,1282.7893],[34.3818,-0.7482,1288.4043],[34.3795,-0.7449,1287.3369],[34.3746,-0.7429,1297.1858],[34.3685,-0.7376,1296.8885],[34.3602,-0.735,1298.6309],[34.3557,-0.7401,1304.2329],[34.355,-0.7461,1331.9141],[34.3614,-0.7489,1310.4785],[34.3729,-0.7609,1295.0226],[34.3785,-0.7735,1289.9417],[34.3765,-0.7816,1274.9934],[34.3735,-0.7833,1264.2114],[34.3566,-0.7704,1328.4617],[34.3529,-0.772,1315.1237],[34.3519,-0.7762,1306.0112],[34.3541,-0.7796,1298.9479],[34.3631,-0.7825,1287.9816],[34.3665,-0.7857,1271.8035],[34.3651,-0.7911,1310.6899],[34.3699,-0.8019,1278.3885],[34.3698,-0.8085,1266.7372],[34.3675,-0.81,1265.0857],[34.3675,-0.8182,1259.355],[34.3695,-0.8211,1263.0197],[34.3695,-0.8306,1257.6299],[34.3721,-0.8406,1270.7214],[34.374,-0.8406,1259.585],[34.3749,-0.8424,1263.6575],[34.3786,-0.8394,1251.7799],[34.3806,-0.8421,1251.7552],[34.3824,-0.8419,1252.0547],[34.3902,-0.8262,1254.4607],[34.3915,-0.8252,1254.4607],[34.3933,-0.8267,1252.5411],[34.3941,-0.8238,1254.72],[34.3875,-0.817,1253.8136],[34.3884,-0.816,1254.1541],[34.3865,-0.8112,1256.1221],[34.3904,-0.8103,1253.9343],[34.3888,-0.808,1256.4271],[34.3911,-0.8046,1256.4011],[34.3886,-0.8022,1257.2642],[34.3909,-0.8002,1256.8535],[34.3911,-0.7962,1262.3977],[34.3893,-0.7955,1258.9694],[34.3877,-0.7971,1256.406],[34.3852,-0.7959,1256.5746],[34.3851,-0.7893,1255.8248],[34.3809,-0.7869,1260.1029],[34.3854,-0.7803,1262.2994],[34.39,-0.7796,1261.2788],[34.3906,-0.7743,1264.2517],[34.3936,-0.7741,1260.3389],[34.3928,-0.7719,1263.9489]]]]}}