{"type":"Feature","properties":{"GID_2":"KEN.23.4_1","GID_0":"KEN","country":"Kenya","GID_1":"KEN.23_1","province":"Makueni","NL_NAME_1":"NA","county":"Kilome","VARNAME_2":"NA","NL_NAME_2":"NA","TYPE_2":"Constituency","ENGTYPE_2":"Constituency","CC_2":"84","HASC_2":"NA","name":"Kilome.county"},
"geometry":{"type": "MultiPolygon","coordinates": [[[[37.3645,-2.0148,1226.6719],[37.3646,-2.0221,1242.5293],[37.3818,-2.0223,1222.6321],[37.4518,-2.0728,1167.6077],[37.4582,-2.0759,1170.5668],[37.4699,-2.0446,1129.8447],[37.4609,-2.0368,1149.49],[37.4578,-2.0367,1148.8389],[37.4565,-2.0403,1141.3353],[37.4541,-2.0374,1156.2346],[37.4502,-2.038,1145.5093],[37.4512,-2.0314,1170.085],[37.4478,-2.0335,1152.6478],[37.4411,-2.0295,1179.4636],[37.4391,-2.0333,1152.6456],[37.4353,-2.0302,1160.2212],[37.4286,-2.0358,1178.1899],[37.4274,-2.0281,1187.0817],[37.4238,-2.0248,1188.1052],[37.4247,-2.0224,1190.1478],[37.4229,-2.0203,1192.1665],[37.4235,-2.0175,1195.5049],[37.4218,-2.0174,1194.7834],[37.4198,-2.0138,1200.4833],[37.4153,-2.0141,1198.2321],[37.4121,-2.0118,1199.5602],[37.4077,-2.0126,1201.8934],[37.4071,-2.0102,1202.3547],[37.4053,-2.0114,1202.4432],[37.4016,-2.0093,1208.7404],[37.3987,-2.0104,1209.2963],[37.3985,-2.0087,1220.9838],[37.396,-2.0092,1225.1792],[37.3949,-2.0007,1287.9468],[37.3921,-1.9976,1303.5669],[37.3978,-1.9946,1272.9767],[37.4035,-1.9879,1221.2955],[37.4069,-1.9796,1224.8484],[37.4057,-1.9727,1227.071],[37.4067,-1.967,1224.8744],[37.4102,-1.9642,1222.6873],[37.4105,-1.9611,1224.1611],[37.4125,-1.961,1224.6829],[37.4222,-1.9466,1261.584],[37.4307,-1.9432,1260.189],[37.4376,-1.9252,1694.1732],[37.4408,-1.9241,1682.1389],[37.4444,-1.9252,1689.2994],[37.4423,-1.9185,1582.7126],[37.4432,-1.9134,1591.3528],[37.4455,-1.9117,1569.0038],[37.4545,-1.9114,1500.843],[37.4553,-1.9037,1453.3535],[37.4617,-1.8965,1480.3811],[37.4646,-1.8957,1466.5345],[37.4609,-1.8834,1441.7458],[37.4489,-1.8839,1465.0942],[37.4446,-1.8858,1383.488],[37.4426,-1.8851,1403.0132],[37.4408,-1.8874,1403.4304],[37.4355,-1.8865,1394.0406],[37.4265,-1.8884,1460.7112],[37.4157,-1.8843,1333.843],[37.4118,-1.8858,1294.7668],[37.4076,-1.8793,1310.1598],[37.405,-1.878,1305.2678],[37.4068,-1.8748,1318.0999],[37.4042,-1.873,1336.0443],[37.4054,-1.8713,1323.0367],[37.4017,-1.8693,1336.3569],[37.4004,-1.8667,1355.9062],[37.3911,-1.866,1400.9977],[37.3854,-1.8625,1402.3318],[37.3848,-1.8516,1509.6095],[37.3804,-1.8428,1618.472],[37.3824,-1.8311,1546.6296],[37.3791,-1.83,1550.6094],[37.3775,-1.8265,1586.1066],[37.3642,-1.8189,1781.0886],[37.3577,-1.8119,1861.6294],[37.3563,-1.8055,1957.9919],[37.3509,-1.8052,1935.7094],[37.3514,-1.8004,1938.3073],[37.3433,-1.7941,1803.9508],[37.3396,-1.7937,1773.1626],[37.3396,-1.7914,1801.2759],[37.3347,-1.7873,1720.2908],[37.33,-1.7802,1728.3518],[37.3159,-1.7776,1663.2202],[37.3041,-1.7596,1639.897],[37.2876,-1.7177,1582.249],[37.2893,-1.6984,1738.6855],[37.2789,-1.6875,1782.7466],[37.265,-1.6803,1744.9165],[37.2721,-1.6681,1826.4286],[37.2585,-1.6455,1803.7681],[37.2563,-1.6445,1774.766],[37.2523,-1.6355,1741.9281],[37.2514,-1.5919,1587.5073],[37.2453,-1.5921,1569.5107],[37.2319,-1.5889,1586.7292],[37.2294,-1.5921,1604.1044],[37.175,-1.6169,1628.9647],[37.1919,-1.6527,1673.999],[37.1966,-1.7199,1646.3745],[37.1938,-1.7212,1645.9303],[37.1764,-1.7536,1648.5315],[37.1655,-1.7611,1642.7321],[37.1587,-1.772,1638.8149],[37.1567,-1.7771,1618.4901],[37.1599,-1.7772,1614.929],[37.1604,-1.7797,1597.7043],[37.1512,-1.7942,1602.6123],[37.1525,-1.801,1611.6285],[37.1413,-1.8116,1593.5939],[37.1457,-1.8186,1591.0692],[37.143,-1.8222,1574.6537],[37.1436,-1.8276,1577.0374],[37.1488,-1.8311,1573.1406],[37.1475,-1.8335,1564.2247],[37.1422,-1.8361,1558.3291],[37.142,-1.8387,1573.1135],[37.1477,-1.8397,1581.0802],[37.1556,-1.8447,1564.0878],[37.1569,-1.8504,1574.1329],[37.1626,-1.8578,1552.7362],[37.1621,-1.8669,1547.0295],[37.1637,-1.871,1550.7268],[37.1603,-1.8745,1532.9062],[37.1604,-1.8827,1522.5229],[37.1587,-1.8846,1513.4684],[37.1543,-1.8835,1500.6068],[37.1531,-1.8862,1495.9559],[37.159,-1.8918,1483.0085],[37.1574,-1.8959,1497.9473],[37.17,-1.9119,1459.458],[37.1703,-1.9161,1468.6873],[37.183,-1.9228,1420.9752],[37.1823,-1.9285,1428.604],[37.1867,-1.9332,1415.0924],[37.1922,-1.9345,1405.5588],[37.2001,-1.9318,1397.4884],[37.2059,-1.9337,1390.7441],[37.2111,-1.9314,1385.9441],[37.2349,-1.9347,1358.2021],[37.2442,-1.942,1340.0242],[37.2473,-1.9493,1335.1555],[37.253,-1.952,1327.9055],[37.2556,-1.9568,1327.0815],[37.2593,-1.9585,1322.2097],[37.2653,-1.9577,1316.2792],[37.2678,-1.9642,1321.5704],[37.2758,-1.9753,1303.1077],[37.2806,-1.994,1289.7649],[37.2836,-1.9943,1289.1564],[37.2991,-2.0034,1273.5022],[37.303,-2.0016,1268.087],[37.3078,-2.0018,1265.4456],[37.3141,-2.007,1259.5237],[37.3589,-2.0113,1232.2185],[37.3645,-2.0148,1226.6719]]]]}}