{"type":"Feature","properties":{"GID_2":"KEN.30.10_1","GID_0":"KEN","country":"Kenya","GID_1":"KEN.30_1","province":"Nairobi","NL_NAME_1":"NA","county":"Kibra","VARNAME_2":"NA","NL_NAME_2":"NA","TYPE_2":"Constituency","ENGTYPE_2":"Constituency","CC_2":"278","HASC_2":"NA","name":"Kibra.county"},
"geometry":{"type": "MultiPolygon","coordinates": [[[[36.8,-1.315,1690.7474],[36.8062,-1.3142,1688.7686],[36.8157,-1.3095,1668.8416],[36.8076,-1.3075,1718.0618],[36.8068,-1.3058,1725.2904],[36.815,-1.3028,1707.4414],[36.8181,-1.3036,1689.7822],[36.8222,-1.3022,1684.8615],[36.8222,-1.2975,1662.5001],[36.8234,-1.2974,1658.5991],[36.8197,-1.2906,1665.9048],[36.7926,-1.2972,1758.5887],[36.7684,-1.2978,1781.8287],[36.7606,-1.2961,1777.3312],[36.7474,-1.3011,1811.6884],[36.7473,-1.3059,1814.7767],[36.7527,-1.3047,1800.4836],[36.7555,-1.3092,1805.0339],[36.7667,-1.3078,1789.6036],[36.7682,-1.3112,1782.6047],[36.7707,-1.3102,1766.9513],[36.7725,-1.314,1772.543],[36.782,-1.3149,1742.3816],[36.7888,-1.3121,1733.7496],[36.7893,-1.3142,1712.1111],[36.7942,-1.3177,1708.6765],[36.8,-1.315,1690.7474]]]]}}