{"type": "Feature","bbox": [35.1515,0.9844,35.4755,1.3153],"geometry": {"type": "MultiPolygon","coordinates": [[[[35.4232,1.1927,3008.6245],[35.3796,1.1572,2798.812],[35.3784,1.1589,2782.3984],[35.3769,1.1583,2739.2781],[35.3754,1.1693,2876.0864],[35.3713,1.1754,2856.4453],[35.371,1.1869,2863.3625],[35.3672,1.1892,2869.5117],[35.3645,1.1963,2875.0281],[35.3599,1.1991,2915.6453],[35.3579,1.2051,2919.1509],[35.3593,1.2121,2885.5244],[35.3504,1.2283,2756.0068],[35.3529,1.2411,2357.1016],[35.3577,1.2461,2359.8457],[35.3546,1.2486,2192.9504],[35.3522,1.2544,2353.105],[35.3394,1.2573,2204.8608],[35.3354,1.2619,1977.0801],[35.3292,1.287,1873.9438],[35.3252,1.2938,1747.3346],[35.3257,1.2967,1816.4816],[35.3232,1.3008,1880.8479],[35.3208,1.3001,1716.0608],[35.3199,1.3047,1806.7311],[35.3163,1.3061,1805.2216],[35.3129,1.3098,1821.3962],[35.3103,1.3091,1701.3873],[35.3097,1.3119,1620.3148],[35.3054,1.3153,1599.7155],[35.3046,1.3131,1614.1753],[35.2832,1.3108,1863.8052],[35.2752,1.305,1959.8969],[35.2458,1.2745,2261.1941],[35.2272,1.2684,2330.7656],[35.2208,1.2638,2346.1172],[35.217,1.2527,2320.6624],[35.2124,1.2488,2298.335],[35.2161,1.2383,2264.7092],[35.2156,1.2335,2231.9268],[35.2081,1.2381,2374.1875],[35.1919,1.2273,2253.0117],[35.1515,1.2046,2217.6162],[35.2484,1.1583,2243.5791],[35.3253,1.124,2444.0427],[35.3336,1.1277,2460.3464],[35.3439,1.1088,2500.1213],[35.3451,1.1036,2468.5044],[35.3503,1.0971,2500.6899],[35.3524,1.0881,2425.3955],[35.3511,1.0837,2420.114],[35.3485,1.0832,2472.6089],[35.3498,1.0781,2401.2578],[35.3464,1.0745,2438.8362],[35.3428,1.0656,2397.7822],[35.3538,1.0643,2382.2932],[35.3712,1.065,2487.8416],[35.3715,1.0611,2456.7913],[35.3831,1.0542,2599.4482],[35.3817,1.039,2425.5728],[35.3849,1.033,2572.2117],[35.3886,1.0324,2664.3525],[35.3885,1.0231,2609.8938],[35.3735,1.0215,2432.623],[35.3716,1.0155,2518.2646],[35.3664,1.0144,2388.5273],[35.3662,1.0104,2285.8794],[35.379,1.0072,2576.4316],[35.3894,1.001,2650.6445],[35.3996,0.9894,2604.0376],[35.4036,0.9899,2559.2422],[35.4197,0.9844,2635.7295],[35.4308,0.9852,2611.0391],[35.4343,0.9968,2642.3979],[35.434,1.0089,2723.3093],[35.4355,1.0118,2794.6533],[35.4388,1.0076,2809.4321],[35.4483,1.0077,2703.4893],[35.4584,1.0056,2814.5366],[35.4676,1.0062,2719.0205],[35.4682,1.0045,2756.1389],[35.4739,1.0062,2535.251],[35.4732,1.0177,2571.1724],[35.4755,1.0234,2515.1216],[35.474,1.0318,2730.0515],[35.4714,1.0315,2752.3657],[35.467,1.0344,2625.4917],[35.4673,1.0407,2673.011],[35.4622,1.0442,2818.8599],[35.4536,1.0436,2748.6025],[35.4537,1.057,2867.4722],[35.4492,1.0613,2863.5361],[35.4477,1.0709,2872.1011],[35.448,1.0794,2783.0598],[35.4539,1.0879,2826.0315],[35.4518,1.0973,2847.5601],[35.4479,1.1032,2821.5276],[35.4488,1.1228,2878.9067],[35.4474,1.1273,2960.9426],[35.4508,1.1297,2965.8528],[35.453,1.1228,2914.4531],[35.4578,1.1247,2947.3643],[35.4685,1.1244,2901.9739],[35.4736,1.1348,2896.9067],[35.4727,1.1441,2945.1636],[35.4608,1.1647,3138.7205],[35.4583,1.165,3164.571],[35.4542,1.1625,3218.8955],[35.4483,1.1642,3130.6482],[35.4458,1.1676,3143.1897],[35.4414,1.165,3065.3291],[35.442,1.1693,3195.0073],[35.4375,1.1702,3144.9824],[35.4389,1.173,3111.8997],[35.4374,1.1765,3149.4058],[35.4329,1.1766,3027.978],[35.4326,1.179,3130.7715],[35.4294,1.1772,3054.5154],[35.4278,1.1739,3028.7676],[35.4214,1.1765,3001.2361],[35.4234,1.1795,3099.1047],[35.4219,1.1878,3132.426],[35.4232,1.1927,3008.6245]],
[[35.467,1.0076,2681.519],[35.4682,1.0085,2681.519],[35.4688,1.0093,2608.9678],[35.4685,1.0084,2681.3276],[35.467,1.0076,2681.519]],
[[35.4663,1.0197,2724.3369],[35.4684,1.0177,2700.3994],[35.466,1.0138,2709.1226],[35.4687,1.0126,2623.3179],[35.4639,1.0106,2712.0117],[35.4605,1.0122,2810.3911],[35.462,1.0139,2814.2747],[35.4603,1.0141,2814.2747],[35.4604,1.0171,2794.0774],[35.4632,1.0173,2772.5703],[35.4615,1.0195,2766.5278],[35.4663,1.0197,2724.3369]]]]}
,"properties": {"GID_3": "KEN.47.3.3_1","GID_0": "KEN","country": "Kenya","GID_1": "KEN.47_1","province": "WestPokot","NL_NAME_1": "NA","GID_2": "KEN.47.3_1","county": "PokotSouth","NL_NAME_2": "NA","city": "Lelan","VARNAME_3": "NA","NL_NAME_3": "NA","TYPE_3": "Ward","ENGTYPE_3": "Ward","CC_3": "659","HASC_3": "NA","name": "Lelan.city","area_km2": 491.1328,"hist_schema_id": "Elevation0-9000","hist_area_km2": {"1600": 0.2544,"1625": 0.9115,"1650": 1.2082,"1675": 1.1234,"1700": 1.4838,"1725": 1.7169,"1750": 1.4414,"1775": 1.6534,"1800": 1.9925,"1825": 2.1409,"1850": 2.0561,"1875": 2.2893,"1900": 2.0561,"1925": 1.9501,"1950": 2.1621,"1975": 1.8441,"2000": 2.1833,"2025": 2.1409,"2050": 2.1409,"2075": 2.4377,"2100": 2.4165,"2125": 2.7344,"2150": 3.9639,"2175": 5.0874,"2200": 6.5288,"2225": 10.8955,"2250": 12.5489,"2275": 13.7995,"2300": 14.4991,"2325": 16.3008,"2350": 15.6437,"2375": 12.6549,"2400": 11.5103,"2425": 12.7822,"2450": 13.3122,"2475": 10.2597,"2500": 8.5639,"2525": 8.2884,"2550": 7.3769,"2575": 8.1189,"2600": 8.8608,"2625": 9.9208,"2650": 12.3798,"2675": 12.5707,"2700": 13.9697,"2725": 13.4609,"2750": 14.8599,"2775": 17.0646,"2800": 18.1668,"2825": 22.2368,"2850": 22.7668,"2875": 23.7843,"2900": 19.7354,"2925": 14.3935,"2950": 9.3696,"2975": 5.2148,"3000": 4.494,"3025": 3.3705,"3050": 2.8194,"3075": 2.7134,"3100": 2.035,"3125": 1.4627,"3150": 1.2719,"3175": 0.9327,"3200": 0.5935,"3225": 0.1908,"3250": 0.0212}}}