{"type": "Feature","bbox": [39.3045,-1.2188,40.0133,-0.6188],"geometry": {"type": "MultiPolygon","coordinates": [[[[39.9257,-0.9392,121.2293],[39.9197,-0.918,121.5022],[39.9129,-0.9063,121.3177],[39.9051,-0.8991,121.9967],[39.9033,-0.8936,123.5456],[39.9028,-0.8871,124.7916],[39.9054,-0.877,127.7143],[39.9037,-0.8705,128.249],[39.9033,-0.8465,144.6938],[39.9009,-0.8333,145.8831],[39.8901,-0.8172,149.0117],[39.8793,-0.7855,154.8581],[39.8627,-0.7605,159.1064],[39.8626,-0.7517,153.7101],[39.8682,-0.738,159.2963],[39.8667,-0.731,163.7111],[39.8581,-0.718,150.4156],[39.8578,-0.6978,147.9893],[39.8561,-0.6887,151.1033],[39.8433,-0.6678,162.091],[39.8423,-0.6538,150.1176],[39.84,-0.6473,160.5362],[39.8294,-0.6327,167.9859],[39.8228,-0.6268,164.8636],[39.82,-0.6188,158.8056],[39.8197,-0.6238,157.404],[39.5513,-0.6778,206.8136],[39.5363,-0.6838,210.1268],[39.3045,-0.7244,280.6004],[39.3397,-0.7626,266.799],[39.3465,-0.7656,265.133],[39.3595,-0.7758,260.5465],[39.3707,-0.7896,254.1628],[39.3781,-0.7961,252.9808],[39.3865,-0.8088,247.4158],[39.3999,-0.8228,243.0576],[39.4057,-0.8261,240.8916],[39.4121,-0.8327,238.3862],[39.4167,-0.8436,235.0243],[39.4145,-0.8596,229.1053],[39.4183,-0.8707,225.8112],[39.4255,-0.8794,223.7648],[39.4337,-0.883,221.6886],[39.4451,-0.883,228.3834],[39.4679,-0.8807,223.7726],[39.4731,-0.8787,220.2417],[39.4945,-0.8783,208.949],[39.5021,-0.9154,199.604],[39.5097,-0.9219,196.0132],[39.5151,-0.9327,193.5],[39.5227,-0.9422,189.4138],[39.5301,-0.9647,180.5132],[39.5483,-0.9835,169.7041],[39.5803,-1.0047,159.3324],[39.5893,-1.0174,154.5268],[39.6031,-1.0266,149.841],[39.6153,-1.0282,149.3071],[39.6267,-1.0349,144.8035],[39.6553,-1.0402,140.6335],[39.6901,-1.0343,146.0551],[39.7305,-1.03,131.9816],[39.7481,-1.0395,123.9536],[39.7667,-1.0438,117.7884],[39.7977,-1.0471,110.4821],[39.8095,-1.0468,109.9099],[39.8137,-1.0535,108.1019],[39.8415,-1.0693,101.5579],[39.8717,-1.0965,94.8923],[39.8849,-1.0998,92.4276],[39.8917,-1.0973,91.2509],[39.8957,-1.1241,93.361],[39.9005,-1.1252,92.4014],[39.9093,-1.135,90.25],[39.9095,-1.1398,90.3926],[39.9131,-1.1441,89.1843],[39.9153,-1.1513,88.2511],[39.9227,-1.1602,85.1918],[39.9213,-1.1672,85.6297],[39.9223,-1.1719,84.752],[39.9257,-1.1748,83.542],[39.9323,-1.1768,82.7962],[39.9357,-1.1815,82.3305],[39.9385,-1.192,80.9704],[39.9451,-1.2011,80.3316],[39.9509,-1.2046,79.6575],[39.9555,-1.2127,79.5429],[39.9635,-1.2126,79.6676],[39.9667,-1.2188,78.4229],[39.9715,-1.2147,79.1552],[39.9785,-1.2049,86.7586],[39.9769,-1.2011,84.0768],[39.9801,-1.1934,83.5789],[39.9837,-1.1893,82.9475],[39.9933,-1.1865,81.7478],[40.0133,-1.1645,90.0622],[40.0075,-1.153,90.8075],[39.9965,-1.1203,93.0647],[39.9699,-1.0718,96.0958],[39.9465,-1.0216,100.0603],[39.9353,-1.0051,101.0526],[39.9345,-1.0003,101.8182],[39.9389,-0.978,104.5505],[39.9377,-0.9652,112.6925],[39.9347,-0.9561,114.2839],[39.9257,-0.9392,121.2293]]]]}
,"properties": {"GID_3": "KEN.40.1.2_1","GID_0": "KEN","country": "Kenya","GID_1": "KEN.40_1","province": "TanaRiver","NL_NAME_1": "NA","GID_2": "KEN.40.1_1","county": "Bura","NL_NAME_2": "NA","city": "Chewele","VARNAME_3": "NA","NL_NAME_3": "NA","TYPE_3": "Ward","ENGTYPE_3": "Ward","CC_3": "96","HASC_3": "NA","name": "Chewele.city","area_km2": 2290.845,"hist_schema_id": "Elevation0-9000","hist_area_km2": {"75": 46.317,"100": 388.046,"125": 393.978,"150": 360.248,"175": 449.139,"200": 333.607,"225": 175.178,"250": 106.277,"275": 38.055}}}