{"type": "Feature","bbox": [34.6051,0.1873,34.6499,0.2877],"geometry": {"type": "MultiPolygon","coordinates": [[[[34.6094,0.1924,1489.9785],[34.6165,0.1873,1461.2905],[34.6208,0.1886,1480.1141],[34.6262,0.1929,1463.3508],[34.6239,0.2019,1490.9143],[34.6312,0.2061,1509.0502],[34.6366,0.2031,1508.5546],[34.6427,0.2096,1477.2992],[34.6388,0.2212,1480.8029],[34.6319,0.224,1480.9241],[34.6306,0.2382,1404.202],[34.635,0.2399,1396.1013],[34.6377,0.2454,1413.1467],[34.6429,0.2452,1386.7644],[34.6436,0.2482,1393.1042],[34.6488,0.2494,1391.0229],[34.6445,0.2588,1375.9493],[34.6493,0.2655,1373.645],[34.6477,0.2669,1373.645],[34.6499,0.271,1369.4163],[34.6462,0.2709,1370.4041],[34.6442,0.2751,1388.0466],[34.639,0.273,1355.1091],[34.6372,0.2749,1366.9082],[34.6347,0.2722,1357.0688],[34.6342,0.274,1368.7272],[34.6296,0.2766,1341.011],[34.6307,0.2801,1361.5853],[34.6278,0.2815,1329.9778],[34.628,0.2834,1345.5311],[34.6212,0.2851,1331.3746],[34.6187,0.2877,1358.7942],[34.6138,0.2824,1337.8239],[34.6114,0.2823,1326.0461],[34.6135,0.28,1326.6299],[34.6139,0.2729,1326.9924],[34.6165,0.2698,1340.9873],[34.6163,0.2667,1350.5758],[34.6098,0.2609,1375.1992],[34.6051,0.2618,1358.0901],[34.6085,0.256,1392.0037],[34.6069,0.2445,1418.4861],[34.61,0.24,1417.3625],[34.6146,0.2378,1450.7251],[34.6159,0.2347,1447.3738],[34.6154,0.2297,1439.3767],[34.6085,0.2216,1447.4698],[34.6085,0.2163,1457.9639],[34.607,0.2152,1449.8445],[34.6094,0.1924,1489.9785]]]]}
,"properties": {"GID_3": "KEN.11.5.3_1","GID_0": "KEN","country": "Kenya","GID_1": "KEN.11_1","province": "Kakamega","NL_NAME_1": "NA","GID_2": "KEN.11.5_1","county": "Lurambi","NL_NAME_2": "NA","city": "ButsotsoSouth","VARNAME_3": "NA","NL_NAME_3": "NA","TYPE_3": "Ward","ENGTYPE_3": "Ward","CC_3": "1010","HASC_3": "NA","name": "Butsotso_South.city","area_km2": 30.74293,"hist_schema_id": "Elevation0-9000","hist_area_km2": {"1325": 1.35693,"1350": 4.3464,"1375": 6.25459,"1400": 3.54074,"1425": 2.41703,"1450": 4.1768,"1475": 4.87647,"1500": 3.73156,"1525": 0.0424}}}