{"type":"Feature","properties":{"GID_3":"KEN.23.4.2_1","GID_0":"KEN","country":"Kenya","GID_1":"KEN.23_1","province":"Makueni","NL_NAME_1":"NA","GID_2":"KEN.23.4_1","county":"Kilome","NL_NAME_2":"NA","city":"KiimaKiu/Kalanzoni","VARNAME_3":"NA","NL_NAME_3":"NA","TYPE_3":"Ward","ENGTYPE_3":"Ward","CC_3":"419","HASC_3":"NA","name":"Kiima_Kiu_Kalanzoni.city"},
"geometry":{"type": "MultiPolygon","coordinates": [[[[37.2569,-1.9576,1324.9086],[37.2603,-1.9528,1329.8262],[37.2671,-1.9336,1376.9695],[37.2698,-1.9307,1362.0297],[37.2692,-1.9209,1362.3369],[37.277,-1.91,1359.3716],[37.289,-1.9038,1393.3665],[37.2858,-1.8986,1414.5701],[37.2757,-1.8601,1563.363],[37.2891,-1.8382,1489.1421],[37.2873,-1.8297,1529.2804],[37.2897,-1.825,1541.8329],[37.2874,-1.8225,1539.7896],[37.2889,-1.82,1541.7238],[37.288,-1.8168,1551.8865],[37.2898,-1.8077,1598.3115],[37.2919,-1.8057,1576.3716],[37.2915,-1.8008,1604.7151],[37.2954,-1.7928,1624.0923],[37.3037,-1.7954,1641.6116],[37.3159,-1.7776,1663.2202],[37.3041,-1.7596,1639.897],[37.2876,-1.7177,1582.249],[37.2893,-1.6984,1738.6855],[37.2789,-1.6875,1782.7466],[37.265,-1.6803,1744.9165],[37.2721,-1.6681,1826.4286],[37.2585,-1.6455,1803.7681],[37.2563,-1.6445,1774.766],[37.2523,-1.6355,1741.9281],[37.2514,-1.5919,1587.5073],[37.2453,-1.5921,1569.5107],[37.2319,-1.5889,1586.7292],[37.2294,-1.5921,1604.1044],[37.175,-1.6169,1628.9647],[37.1919,-1.6527,1673.999],[37.1966,-1.7199,1646.3745],[37.1938,-1.7212,1645.9303],[37.1764,-1.7536,1648.5315],[37.1655,-1.7611,1642.7321],[37.1587,-1.772,1638.8149],[37.1567,-1.7771,1618.4901],[37.1599,-1.7772,1614.929],[37.1604,-1.7797,1597.7043],[37.1512,-1.7942,1602.6123],[37.1525,-1.801,1611.6285],[37.1413,-1.8116,1593.5939],[37.1457,-1.8186,1591.0692],[37.143,-1.8222,1574.6537],[37.1436,-1.8276,1577.0374],[37.1488,-1.8311,1573.1406],[37.1417,-1.8376,1560.6086],[37.1431,-1.8397,1576.2659],[37.1472,-1.8395,1587.9509],[37.1556,-1.8447,1564.0878],[37.1569,-1.8504,1574.1329],[37.1624,-1.8567,1552.7362],[37.1621,-1.8669,1547.0295],[37.1637,-1.871,1550.7268],[37.1603,-1.8745,1532.9062],[37.1604,-1.8827,1522.5229],[37.1587,-1.8846,1513.4684],[37.1543,-1.8835,1500.6068],[37.1531,-1.8862,1495.9559],[37.159,-1.8918,1483.0085],[37.1574,-1.8959,1497.9473],[37.17,-1.9119,1459.458],[37.1706,-1.9166,1461.1492],[37.1832,-1.923,1424.0938],[37.1826,-1.9292,1421.9425],[37.187,-1.9334,1415.0924],[37.1913,-1.9344,1405.5588],[37.1994,-1.9318,1397.4884],[37.2059,-1.9337,1390.7441],[37.2111,-1.9314,1385.9441],[37.2234,-1.9321,1371.7314],[37.2352,-1.9348,1358.2021],[37.2442,-1.942,1340.0242],[37.2473,-1.9493,1335.1555],[37.253,-1.952,1327.9055],[37.2569,-1.9576,1324.9086]]]]}}