{"type":"Feature","properties":{"GID_2":"KEN.41.1_1","GID_0":"KEN","country":"Kenya","GID_1":"KEN.41_1","province":"Tharaka-Nithi","NL_NAME_1":"NA","county":"Chuka/Igambang'Ombe","VARNAME_2":"NA","NL_NAME_2":"NA","TYPE_2":"Constituency","ENGTYPE_2":"Constituency","CC_2":"61","HASC_2":"NA","name":"Chuka_Igambang'Ombe.county"},
"geometry":{"type": "MultiPolygon","coordinates": [[[[37.8033,-0.308,843.6282],[37.7931,-0.3035,860.1897],[37.7827,-0.2948,915.8903],[37.7681,-0.2934,1000.5361],[37.7555,-0.2941,1065.6565],[37.7482,-0.2974,1081.9529],[37.7349,-0.2962,1099.8521],[37.7303,-0.3009,1084.7347],[37.7299,-0.3052,1084.3743],[37.7277,-0.3079,1134.2021],[37.7229,-0.3079,1154.3081],[37.7239,-0.3133,1131.3593],[37.7215,-0.3178,1131.9189],[37.7185,-0.3182,1122.215],[37.7145,-0.3105,1137.4841],[37.7083,-0.3051,1172.228],[37.7035,-0.3048,1154.0869],[37.6981,-0.3069,1211.3496],[37.6965,-0.3091,1211.317],[37.6881,-0.3055,1271.3477],[37.6805,-0.3056,1302.1201],[37.667,-0.2992,1325.1158],[37.6614,-0.3014,1345.0702],[37.6609,-0.3054,1341.2524],[37.6545,-0.3049,1373.7816],[37.6509,-0.3072,1396.7791],[37.6407,-0.3085,1424.4368],[37.6355,-0.3123,1428.7439],[37.6281,-0.3064,1460.4722],[37.6249,-0.3056,1458.3884],[37.6201,-0.3077,1482.4958],[37.3193,-0.1554,4874.0723],[37.6039,-0.3197,1589.3655],[37.6163,-0.3249,1516.2544],[37.6241,-0.3238,1518.7769],[37.6473,-0.3354,1424.0966],[37.6529,-0.3338,1399.2239],[37.6685,-0.3392,1374.1095],[37.6711,-0.3384,1375.502],[37.6691,-0.3397,1338.6547],[37.6745,-0.3425,1355.9194],[37.6919,-0.3416,1267.4261],[37.7053,-0.3479,1225.5415],[37.7033,-0.3551,1215.7844],[37.7038,-0.3592,1197.0251],[37.7107,-0.3628,1206.6136],[37.7201,-0.3768,1136.231],[37.7267,-0.3832,1071.6429],[37.7303,-0.395,1008.411],[37.7356,-0.3971,1060.5835],[37.7255,-0.4032,1060.7778],[37.7213,-0.4115,1103.7834],[37.7165,-0.4119,1123.5616],[37.7103,-0.4097,1148.0801],[37.7079,-0.4066,1164.7585],[37.7089,-0.4017,1170.7407],[37.7071,-0.3979,1186.7936],[37.6849,-0.3804,1300.8123],[37.6781,-0.3774,1337.4714],[37.6741,-0.3773,1355.6772],[37.6715,-0.3723,1363.4541],[37.6709,-0.3615,1346.2559],[37.6675,-0.3601,1348.129],[37.6567,-0.3599,1382.8843],[37.6533,-0.3615,1404.2971],[37.6477,-0.3582,1408.9824],[37.6469,-0.3543,1431.7267],[37.6376,-0.3494,1443.4385],[37.6355,-0.3493,1445.5259],[37.6321,-0.3521,1454.5278],[37.6261,-0.3514,1475.9045],[37.6093,-0.3404,1535.2312],[37.6079,-0.3372,1555.09],[37.3252,-0.1604,4562.6094],[37.4989,-0.3086,2009.5178],[37.5008,-0.3119,2007.2158],[37.5535,-0.3572,1707.583],[37.5625,-0.362,1635.0105],[37.5674,-0.3594,1587.366],[37.5709,-0.3605,1596.1569],[37.5794,-0.3672,1583.9092],[37.5842,-0.3659,1582.1569],[37.5863,-0.3704,1571.4614],[37.6,-0.3801,1496.7065],[37.612,-0.3806,1453.0669],[37.6145,-0.3842,1464.9482],[37.6245,-0.3866,1446.7056],[37.6255,-0.3902,1431.8164],[37.6307,-0.3897,1399.0868],[37.6365,-0.3946,1328.2239],[37.6389,-0.4019,1305.5554],[37.6451,-0.4082,1236.3315],[37.6555,-0.415,1239.3625],[37.6601,-0.4215,1215.8115],[37.6836,-0.4286,1183.7048],[37.6895,-0.4324,1156.6565],[37.6933,-0.4384,1143.8478],[37.6994,-0.4386,1146.4204],[37.7042,-0.4427,1136.9402],[37.7149,-0.4447,1098.7139],[37.7201,-0.4504,1096.5012],[37.7285,-0.4511,1089.2454],[37.7326,-0.45,1055.4503],[37.7345,-0.4472,1076.059],[37.7434,-0.4459,1053.4077],[37.7555,-0.4472,1030.8594],[37.7606,-0.4495,1024.1637],[37.7671,-0.4494,983.2639],[37.7793,-0.4459,883.5553],[37.7849,-0.4472,854.6387],[37.7881,-0.4435,839.3207],[37.8019,-0.4367,814.3318],[37.8065,-0.4315,808.8163],[37.8146,-0.428,794.5521],[37.8177,-0.4206,792.3324],[37.8281,-0.4126,768.4934],[37.8275,-0.4094,789.3101],[37.8315,-0.406,810.7717],[37.8399,-0.405,768.6425],[37.8455,-0.4025,754.8304],[37.8526,-0.3904,743.8358],[37.8659,-0.3825,716.0785],[37.8651,-0.3714,710.4199],[37.8707,-0.3659,698.8979],[37.8735,-0.3508,687.3575],[37.8805,-0.3479,683.3052],[37.8863,-0.343,684.5106],[37.8937,-0.3507,657.0978],[37.8907,-0.3425,670.0831],[37.8947,-0.3388,668.1093],[37.8879,-0.3343,679.6605],[37.8891,-0.3306,674.0439],[37.8881,-0.3271,681.7636],[37.8913,-0.3227,685.0654],[37.8903,-0.3162,697.8235],[37.8931,-0.3138,692.9774],[37.8917,-0.3111,707.1764],[37.8817,-0.3054,722.4931],[37.8813,-0.3088,701.2047],[37.8781,-0.3094,709.2751],[37.8695,-0.3041,715.6829],[37.8691,-0.3002,733.5403],[37.8669,-0.3018,725.7635],[37.8649,-0.3009,729.8616],[37.8655,-0.2968,725.3107],[37.8623,-0.294,731.2782],[37.8615,-0.2859,743.88],[37.8529,-0.2754,754.9011],[37.8495,-0.2665,765.0745],[37.8455,-0.2661,761.6901],[37.8445,-0.2639,769.2458],[37.8283,-0.2867,791.113],[37.8129,-0.305,813.6414],[37.8165,-0.3082,818.6643],[37.8175,-0.312,804.8955],[37.8033,-0.308,843.6282]]]]}}