{"type":"Feature","properties":{"GID_3":"KEN.23.2.4_1","GID_0":"KEN","country":"Kenya","GID_1":"KEN.23_1","province":"Makueni","NL_NAME_1":"NA","GID_2":"KEN.23.2_1","county":"KibweziEast","NL_NAME_2":"NA","city":"Thange","VARNAME_3":"NA","NL_NAME_3":"NA","TYPE_3":"Ward","ENGTYPE_3":"Ward","CC_3":"439","HASC_3":"NA","name":"Thange.city"},
"geometry":{"type": "MultiPolygon","coordinates": [[[[37.857,-2.6165,1814.0862],[37.9515,-2.5971,1039.6415],[37.9668,-2.5736,983.4877],[37.9831,-2.5698,958.6312],[37.9864,-2.5657,955.7034],[37.9966,-2.5669,944.3881],[38.0017,-2.566,933.8651],[38.0091,-2.5624,913.6603],[38.0107,-2.5579,918.2597],[38.0156,-2.5589,917.0074],[38.0202,-2.5629,909.5858],[38.0221,-2.5627,897.0095],[38.0253,-2.559,901.4833],[38.0375,-2.5642,881.4963],[38.0438,-2.5605,868.09],[38.0543,-2.5639,834.272],[38.0643,-2.5631,822.1537],[38.0649,-2.5655,816.8357],[38.0705,-2.5695,819.2567],[38.0688,-2.5589,857.0057],[38.0614,-2.549,870.9553],[38.0476,-2.5353,900.4385],[38.0305,-2.5219,932.1204],[38.0986,-2.4808,820.8475],[38.1008,-2.4766,812.8675],[38.0985,-2.4746,794.0281],[38.0934,-2.4749,782.4035],[38.0902,-2.4724,794.3059],[38.0808,-2.4768,797.0878],[38.0788,-2.4759,802.9083],[38.0788,-2.4744,810.7512],[38.0717,-2.4758,807.3877],[38.0692,-2.4749,806.7566],[38.0655,-2.4706,811.7979],[38.0668,-2.4696,811.7979],[38.0656,-2.4672,821.1089],[38.0636,-2.4682,816.451],[38.0615,-2.4661,827.7651],[38.0572,-2.467,826.3975],[38.0548,-2.4633,832.6179],[38.0406,-2.4575,872.5992],[38.0428,-2.4545,869.1566],[38.0422,-2.4522,872.6182],[38.0362,-2.4433,865.0777],[38.0324,-2.4437,863.7325],[38.0295,-2.4399,879.4078],[38.0332,-2.4382,869.8684],[38.0287,-2.4313,851.2978],[38.032,-2.4192,822.4382],[38.0309,-2.4123,825.0773],[38.033,-2.41,818.3431],[38.0428,-2.4107,795.9308],[38.0494,-2.4005,777.0462],[38.0499,-2.3922,769.7076],[38.058,-2.3835,757.3585],[38.0663,-2.3794,745.8475],[38.0667,-2.3765,745.0062],[38.0625,-2.3743,752.4329],[38.0599,-2.3754,752.6372],[38.0598,-2.372,759.4475],[38.0546,-2.3676,771.9344],[38.0484,-2.3675,768.7031],[38.0494,-2.3695,767.1866],[38.0479,-2.3703,769.3015],[38.043,-2.3687,777.1729],[38.0406,-2.3714,773.2665],[38.0382,-2.3696,780.9943],[38.0343,-2.3705,783.1752],[38.0285,-2.3674,796.7375],[38.0252,-2.3678,801.0447],[38.0209,-2.365,803.7682],[38.0205,-2.3632,811.1072],[38.0181,-2.365,806.1376],[38.0145,-2.3629,809.7736],[38.0133,-2.3686,813.9161],[38.0107,-2.3724,815.046],[38.0112,-2.3756,812.1133],[38.0083,-2.3796,814.6105],[38.006,-2.3804,820.601],[38.0042,-2.385,829.9329],[37.9958,-2.3908,841.8351],[37.9918,-2.3891,841.5262],[37.9835,-2.3936,863.3383],[37.9741,-2.4063,884.8752],[37.9741,-2.4105,886.6743],[37.9688,-2.4175,899.5118],[37.9723,-2.4204,908.7772],[37.9721,-2.4249,916.8079],[37.9649,-2.43,934.0983],[37.9598,-2.4142,921.2386],[37.9578,-2.4115,924.2946],[37.9555,-2.4126,921.5592],[37.9373,-2.4399,964.429],[37.9141,-2.4814,1010.9092],[37.8874,-2.4983,1063.7767],[37.7964,-2.5424,1624.5795],[37.8497,-2.6039,1967.3331],[37.857,-2.6165,1814.0862]]]]}}