{"type": "Feature","bbox": [35.2505,0.0127,35.5866,0.5152],"geometry": {"type": "MultiPolygon","coordinates": [[[[35.5736,0.0704,2689.5549],[35.5418,0.0935,2748.5417],[35.5414,0.0989,2804.2139],[35.5444,0.1066,2746.4771],[35.5425,0.1136,2674.1965],[35.5406,0.1135,2698.4968],[35.5368,0.1082,2680.2751],[35.5316,0.1065,2720.3586],[35.5283,0.1082,2696.7078],[35.5271,0.1116,2673.708],[35.5207,0.1139,2633.2378],[35.5194,0.1187,2633.9827],[35.5223,0.1281,2611.7139],[35.5217,0.1316,2602.6453],[35.509,0.1212,2658.3667],[35.5048,0.1157,2614.9639],[35.4806,0.1124,2603.2244],[35.4781,0.1153,2599.4297],[35.4745,0.1156,2617.1465],[35.4751,0.1213,2584.5215],[35.4658,0.1258,2578.0366],[35.4622,0.1213,2595.3296],[35.4598,0.1372,2534.6863],[35.4636,0.1394,2519.7002],[35.4694,0.1536,2517.6377],[35.4772,0.1633,2450.7847],[35.4686,0.1877,2428.739],[35.4682,0.1972,2420.5254],[35.464,0.2055,2437.5737],[35.4563,0.2068,2437.2515],[35.4547,0.2099,2436.438],[35.452,0.2104,2424.4238],[35.4505,0.2134,2429.0398],[35.4416,0.2205,2412.501],[35.428,0.2115,2384.8738],[35.4242,0.2201,2381.2678],[35.42,0.2233,2364.7639],[35.4349,0.2298,2319.9568],[35.4332,0.2314,2321.9324],[35.4335,0.235,2335.3474],[35.4317,0.236,2322.2966],[35.4308,0.2415,2323.8921],[35.4291,0.2438,2332.9365],[35.428,0.2431,2332.8013],[35.4274,0.247,2316.3389],[35.4238,0.2504,2286.875],[35.4243,0.2529,2301.6089],[35.4228,0.2526,2289.3777],[35.4215,0.2574,2356.9402],[35.4138,0.2645,2287.4141],[35.428,0.2795,2300.8765],[35.4359,0.2715,2330.252],[35.4375,0.2843,2310.8252],[35.4362,0.2857,2310.9072],[35.441,0.2889,2340.1655],[35.438,0.2897,2329.9502],[35.4335,0.2944,2313.4192],[35.4252,0.3077,2264.7969],[35.4234,0.3137,2259.1252],[35.4185,0.3167,2252.7695],[35.4158,0.3166,2250.3335],[35.4136,0.3212,2252.9316],[35.4101,0.3233,2247.1362],[35.4078,0.3272,2237.5029],[35.4066,0.3346,2248.8037],[35.4007,0.3387,2246.4614],[35.4138,0.3567,2261.7817],[35.3998,0.3678,2242.5042],[35.4024,0.3991,2271.2681],[35.3904,0.402,2257.0283],[35.3935,0.4297,2255.5669],[35.39,0.4286,2248.2659],[35.3808,0.4295,2232.5457],[35.3798,0.432,2230.9087],[35.3778,0.432,2230.9087],[35.3769,0.4357,2228.6797],[35.3738,0.4358,2225.04],[35.3746,0.4369,2225.04],[35.3734,0.4383,2215.1519],[35.3723,0.4375,2215.1519],[35.3695,0.4423,2214.3503],[35.3703,0.4438,2218.3352],[35.3626,0.449,2204.5122],[35.3571,0.456,2180.3125],[35.3551,0.4595,2185.5835],[35.3541,0.4713,2163.6541],[35.3479,0.4777,2183.5435],[35.34,0.479,2163.8867],[35.3384,0.4823,2167.7617],[35.3366,0.4821,2167.7617],[35.3327,0.4857,2162.6265],[35.3304,0.4839,2156.1011],[35.3272,0.4839,2150.1858],[35.3228,0.4902,2150.9473],[35.317,0.49,2125.6643],[35.3147,0.4958,2148.8481],[35.3111,0.4955,2133.373],[35.3089,0.4966,2125.7881],[35.3079,0.4992,2134.5842],[35.3057,0.4986,2113.4209],[35.3013,0.5047,2108.7058],[35.3002,0.5038,2108.7058],[35.298,0.506,2106.8032],[35.2937,0.5054,2104.3911],[35.2942,0.5008,2098.0466],[35.2916,0.5027,2091.4109],[35.2892,0.5108,2096.3477],[35.282,0.5152,2093.9692],[35.282,0.5078,2075.1868],[35.2787,0.4992,2096.0146],[35.276,0.5035,2102.7559],[35.2699,0.5068,2100.1006],[35.2663,0.5035,2095.553],[35.267,0.4952,2103.4656],[35.2505,0.4642,2113.064],[35.2611,0.4614,2134.7808],[35.2643,0.4679,2131.0759],[35.2763,0.4646,2135.9814],[35.2842,0.4547,2142.0276],[35.2834,0.4511,2137.7903],[35.2931,0.4485,2144.2764],[35.2984,0.4596,2155.3955],[35.3173,0.4515,2171.3103],[35.3103,0.4365,2171.4419],[35.3194,0.42,2175.9583],[35.3271,0.4198,2184.0776],[35.321,0.3955,2165.2246],[35.3239,0.3962,2164.2256],[35.328,0.3936,2162.9622],[35.3326,0.3933,2167.6294],[35.3359,0.396,2176.897],[35.3422,0.3975,2181.4551],[35.3327,0.3847,2157.4341],[35.3464,0.3768,2187.1316],[35.3417,0.3618,2180.342],[35.341,0.3527,2181.3025],[35.339,0.3522,2181.5542],[35.3374,0.349,2179.9905],[35.3343,0.3498,2181.4141],[35.3281,0.3446,2172.0913],[35.3257,0.345,2170.0679],[35.3209,0.3496,2162.6077],[35.3184,0.3526,2157.0728],[35.3187,0.355,2164.188],[35.3162,0.3539,2161.8596],[35.3146,0.3558,2159.0723],[35.3004,0.3139,2204.9722],[35.2901,0.3139,2181.6343],[35.2792,0.3037,2188.207],[35.2806,0.2927,2191.8799],[35.2736,0.2911,2182.5649],[35.2691,0.2938,2183.3237],[35.26,0.2812,2148.3643],[35.2615,0.279,2127.2478],[35.26,0.2772,2126.8789],[35.2898,0.2333,2123.3301],[35.2988,0.2259,2134.418],[35.3068,0.224,2151.5],[35.3122,0.2189,2167.7598],[35.3218,0.2292,2152.4338],[35.3243,0.2283,2172.3206],[35.3315,0.2224,2184.6152],[35.3342,0.2165,2191.0083],[35.3422,0.2067,2231.4092],[35.3571,0.2155,2276.2671],[35.3579,0.2107,2279.4255],[35.3661,0.2002,2348.3677],[35.3656,0.1913,2382.3188],[35.362,0.1953,2354.4482],[35.3531,0.1954,2347.9126],[35.3471,0.1987,2285.8005],[35.3461,0.1976,2296.4858],[35.3407,0.1988,2270.6145],[35.3423,0.1756,2172.0344],[35.3359,0.1637,2216.8914],[35.3358,0.1479,2273.488],[35.3339,0.1472,2251.998],[35.3564,0.1353,2507.8613],[35.37,0.1321,2461.8103],[35.3758,0.1217,2491.0662],[35.3784,0.1196,2491.5513],[35.3801,0.1218,2494.5308],[35.3845,0.1212,2492.187],[35.387,0.1188,2503.6267],[35.3719,0.0769,2216.7092],[35.3688,0.0761,2237.0278],[35.3642,0.0781,2242.0222],[35.362,0.0765,2232.8411],[35.3594,0.0691,2204.7397],[35.3499,0.0697,2311.8699],[35.3474,0.0654,2359.2607],[35.3692,0.0472,2225.6343],[35.3902,0.0407,2190.8875],[35.4041,0.033,2387.686],[35.4255,0.0313,2484.4009],[35.4664,0.0319,2665.8374],[35.4713,0.0242,2693.9888],[35.4579,0.0182,2667.3477],[35.4578,0.0146,2640.3906],[35.4803,0.02,2754.9631],[35.4942,0.0193,2709.7329],[35.498,0.0165,2805.0298],[35.4983,0.0144,2814.8271],[35.5139,0.0127,2857.9922],[35.5166,0.0196,2824.4004],[35.5229,0.0197,2831.2285],[35.5866,0.0378,2718.0825],[35.5736,0.0704,2689.5549]]]]}
,"properties": {"GID_2": "KEN.44.3_1","GID_0": "KEN","country": "Kenya","GID_1": "KEN.44_1","province": "UasinGishu","NL_NAME_1": "NA","county": "Kesses","VARNAME_2": "NA","NL_NAME_2": "NA","TYPE_2": "Constituency","ENGTYPE_2": "Constituency","CC_2": "146","HASC_2": "NA","name": "Kesses.county","area_km2": 705.9416,"hist_schema_id": "Elevation0-9000","hist_area_km2": {"2075": 0.6572,"2100": 7.8022,"2125": 29.9369,"2150": 22.0074,"2175": 59.4074,"2200": 91.6132,"2225": 72.6801,"2250": 49.4641,"2275": 28.856,"2300": 21.9441,"2325": 17.0889,"2350": 16.8133,"2375": 20.3328,"2400": 20.354,"2425": 23.4919,"2450": 27.2659,"2475": 23.1739,"2500": 17.9582,"2525": 13.8026,"2550": 11.4492,"2575": 11.6188,"2600": 11.8944,"2625": 12.0428,"2650": 13.7602,"2675": 16.983,"2700": 16.6861,"2725": 17.4494,"2750": 13.9298,"2775": 9.3502,"2800": 4.4949,"2825": 1.3145,"2850": 0.212,"2875": 0.106}}}