{"type":"Feature","properties":{"GID_3":"KEN.47.1.4_1","GID_0":"KEN","country":"Kenya","GID_1":"KEN.47_1","province":"WestPokot","NL_NAME_1":"NA","GID_2":"KEN.47.1_1","county":"Kacheliba","NL_NAME_2":"NA","city":"Kiwawa","VARNAME_3":"NA","NL_NAME_3":"NA","TYPE_3":"Ward","ENGTYPE_3":"Ward","CC_3":"655","HASC_3":"NA","name":"Kiwawa.city"},
"geometry":{"type": "MultiPolygon","coordinates": [[[[35.3024,2.4018,696.6586],[35.2927,2.3867,708.834],[35.2873,2.3841,709.7975],[35.2871,2.3645,717.7625],[35.2751,2.3606,733.8299],[35.2744,2.3553,728.1495],[35.2708,2.3519,731.0248],[35.2693,2.3458,733.3439],[35.2573,2.3385,749.4229],[35.2586,2.3365,747.2177],[35.2565,2.3307,743.619],[35.2583,2.3287,750.7158],[35.2554,2.3283,751.1112],[35.256,2.3261,753.9259],[35.2521,2.3238,763.0142],[35.251,2.3201,762.0219],[35.2454,2.3146,774.2053],[35.2465,2.3074,762.627],[35.2428,2.3062,774.7686],[35.2416,2.3018,775.9001],[35.2367,2.2971,780.5864],[35.232,2.2982,787.4324],[35.2298,2.2923,786.6611],[35.2261,2.2926,790.7009],[35.2185,2.2901,882.3288],[35.2144,2.2855,993.0905],[35.2122,2.2866,982.1834],[35.208,2.2849,888.9805],[35.2053,2.2876,1128.4562],[35.2025,2.2876,1112.4446],[35.2002,2.2845,962.0296],[35.1955,2.2825,847.9019],[35.1959,2.2852,864.1194],[35.1936,2.2876,845.3453],[35.1948,2.2954,963.9474],[35.1917,2.2979,865.4942],[35.1873,2.3108,906.3796],[35.1912,2.3218,918.4868],[35.1891,2.3235,895.0021],[35.1874,2.3311,906.42],[35.1883,2.3349,912.9543],[35.1846,2.3429,948.4801],[35.1843,2.348,1035.5712],[35.181,2.3471,955.8552],[35.1786,2.3491,964.9076],[35.1773,2.3464,1020.2887],[35.173,2.3509,1120.0122],[35.1642,2.3468,1106.0038],[35.1588,2.3377,1042.7124],[35.1554,2.3369,1115.01],[35.1541,2.3348,1115.2034],[35.1512,2.3358,1097.0858],[35.1503,2.3325,1176.198],[35.1525,2.3285,1030.6427],[35.1438,2.3242,1126.5341],[35.1418,2.3182,1118.9393],[35.1363,2.315,1199.4666],[35.1345,2.3108,1310.2246],[35.1356,2.3047,1182.5917],[35.1326,2.2987,1359.0253],[35.135,2.2953,1237.241],[35.1328,2.2931,1291.8752],[35.1186,2.2955,1706.03],[35.1138,2.293,1791.3998],[35.1038,2.2937,2067.0918],[35.099,2.2905,2058.1843],[35.0756,2.283,2276.8403],[35.0671,2.2768,2027.8984],[35.0572,2.2723,1814.0908],[35.0521,2.2669,1711.4871],[35.0356,2.2621,1615.3003],[35.0209,2.2508,1557.6155],[35.017,2.25,1559.0145],[35.008,2.2398,1656.6738],[34.9918,2.2307,1654.2189],[34.9811,2.2281,1639.1022],[34.9771,2.2293,1577.8625],[34.9581,2.2258,1585.64],[34.9472,2.2273,1522.704],[34.9439,2.2255,1514.3577],[34.9356,2.2754,1550.6813],[34.9469,2.2043,1506.4136],[34.9797,2.0539,1387.2847],[34.9845,1.9854,1353.6003],[35.0002,1.961,1271.3093],[35.0276,1.9268,1274.2354],[35.0313,1.927,1278.6899],[35.0314,1.9288,1284.2512],[35.034,1.9303,1285.0137],[35.036,1.9382,1295.4023],[35.0385,1.9389,1299.8705],[35.0398,1.9432,1307.6908],[35.0444,1.9427,1309.6509],[35.0489,1.9478,1324.3503],[35.052,1.955,1332.884],[35.0568,1.9574,1347.24],[35.0589,1.961,1355.7511],[35.0678,1.9576,1366.3702],[35.0701,1.9555,1363.7141],[35.0698,1.9534,1355.2024],[35.0725,1.953,1359.2565],[35.078,1.9477,1357.2389],[35.0831,1.9466,1367.8191],[35.0892,1.9492,1394.7711],[35.1009,1.9493,1428.635],[35.1133,1.956,1843.9003],[35.1194,1.9646,2049.9792],[35.1231,1.9666,2111.4082],[35.1222,1.9823,2140.1807],[35.1234,1.9939,2156.2246],[35.127,1.9952,2190.4604],[35.1323,2.0041,1965.2413],[35.144,2.0114,2268.176],[35.1546,2.0157,2055.9463],[35.1628,2.0164,2026.343],[35.1665,2.0218,2208.5945],[35.1663,2.0294,2263.5449],[35.18,2.0379,1802.4713],[35.1872,2.0387,1774.8379],[35.1938,2.0422,1777.2672],[35.1983,2.051,2020.3069],[35.1974,2.0547,1900.8888],[35.2054,2.0447,1687.7661],[35.2107,2.0313,1667.2253],[35.2137,2.0327,1690.3855],[35.2155,2.0351,1717.7529],[35.2152,2.0426,1677.9189],[35.2266,2.0537,1518.1398],[35.2293,2.0641,1481.2977],[35.2347,2.0691,1472.9508],[35.2365,2.0818,1342.0604],[35.2394,2.0897,1273.0869],[35.2413,2.1124,1208.6337],[35.2465,2.1186,1172.1571],[35.2461,2.1262,1091.1],[35.2527,2.1275,1035.2228],[35.2571,2.1483,1012.9999],[35.2685,2.136,988.6904],[35.2721,2.1448,899.6573],[35.2776,2.1492,861.7248],[35.3017,2.1525,817.0541],[35.3122,2.1623,795.7867],[35.3165,2.1631,791.0592],[35.32,2.1609,791.0764],[35.3218,2.1635,788.5598],[35.327,2.1644,785.5173],[35.3286,2.1672,781.133],[35.3324,2.1662,778.5756],[35.3389,2.1727,765.6562],[35.3432,2.1714,763.896],[35.3118,2.2841,733.2894],[35.3073,2.3307,725.4355],[35.3031,2.403,696.8162],[35.3024,2.4018,696.6586]]]]}}