{"type":"Feature","properties":{"GID_3":"KEN.16.1.2_1","GID_0":"KEN","country":"Kenya","GID_1":"KEN.16_1","province":"Kisii","NL_NAME_1":"NA","GID_2":"KEN.16.1_1","county":"Bobasi","NL_NAME_2":"NA","city":"BasiCentral","VARNAME_3":"NA","NL_NAME_3":"NA","TYPE_3":"Ward","ENGTYPE_3":"Ward","CC_3":"1317","HASC_3":"NA","name":"Basi_Central.city"},
"geometry":{"type": "MultiPolygon","coordinates": [[[[34.8394,-0.866,1938.9347],[34.8517,-0.8548,1907.2217],[34.8532,-0.8546,1929.2258],[34.8549,-0.8594,1888.5205],[34.8624,-0.8601,2013.7513],[34.8644,-0.8464,2020.1552],[34.8667,-0.8421,1947.6707],[34.8641,-0.8376,1892.3684],[34.8648,-0.8308,1881.9542],[34.8746,-0.8328,1973.3718],[34.8557,-0.8096,1878.6208],[34.8397,-0.7951,1757.4005],[34.8355,-0.7927,1757.5782],[34.8306,-0.7943,1754.5659],[34.8203,-0.7931,1770.0061],[34.8198,-0.7943,1776.0721],[34.8274,-0.8023,1747.8988],[34.828,-0.8069,1796.3],[34.8202,-0.8151,1818.1069],[34.8098,-0.8149,1777.3391],[34.8123,-0.8215,1972.6299],[34.8092,-0.8253,1954.6768],[34.8181,-0.8279,1972.574],[34.8224,-0.8396,1930.0276],[34.8268,-0.8445,1852.6477],[34.8252,-0.8507,1810.4883],[34.827,-0.8513,1792.6329],[34.8283,-0.8564,1804.4055],[34.8274,-0.8587,1804.2743],[34.8254,-0.859,1806.2717],[34.8356,-0.8652,1852.0441],[34.8394,-0.866,1938.9347]]]]}}