{"type":"Feature","properties":{"GID_3":"KEN.13.2.4_1","GID_0":"KEN","country":"Kenya","GID_1":"KEN.13_1","province":"Kiambu","NL_NAME_1":"NA","GID_2":"KEN.13.2_1","county":"GatunduSouth","NL_NAME_2":"NA","city":"Ngenda","VARNAME_3":"NA","NL_NAME_3":"NA","TYPE_3":"Ward","ENGTYPE_3":"Ward","CC_3":"554","HASC_3":"NA","name":"Ngenda.city"},
"geometry":{"type": "MultiPolygon","coordinates": [[[[36.8645,-0.9598,1820.4355],[36.8567,-0.9623,1818.3955],[36.8533,-0.9616,1819.2605],[36.8498,-0.9646,1823.9016],[36.8427,-0.9607,1867.1606],[36.8345,-0.9618,1855.7161],[36.8254,-0.9563,1879.3813],[36.8244,-0.9612,1916.7526],[36.8213,-0.9579,1913.7501],[36.8168,-0.9602,1936.2844],[36.8228,-0.966,1902.3572],[36.8223,-0.9676,1889.6907],[36.8272,-0.9733,1887.051],[36.8269,-0.9749,1875.0667],[36.8296,-0.9735,1850.968],[36.8305,-0.9756,1882.418],[36.8325,-0.9745,1859.178],[36.8351,-0.9782,1875.592],[36.8348,-0.9806,1862.1201],[36.8378,-0.9796,1845.5886],[36.8499,-0.9872,1782.8843],[36.8591,-0.9869,1800.8127],[36.8673,-0.9921,1764.5402],[36.8704,-0.9962,1773.3396],[36.8751,-0.9974,1762.8732],[36.8806,-1.0013,1731.34],[36.8779,-1.0022,1742.4597],[36.8777,-1.0038,1719.3315],[36.8815,-1.0047,1723.129],[36.8833,-1.0083,1682.9653],[36.8878,-1.011,1668.4897],[36.8882,-1.014,1717.1106],[36.8926,-1.0197,1693.8889],[36.8982,-1.0212,1697.1189],[36.8961,-1.0278,1655.1328],[36.8983,-1.0363,1663.2592],[36.903,-1.0384,1668.0837],[36.9102,-1.0458,1631.9762],[36.9121,-1.0499,1643.5337],[36.9171,-1.0532,1637.4321],[36.9181,-1.0563,1626.8779],[36.9267,-1.0591,1614.6832],[36.9285,-1.0581,1598.3171],[36.928,-1.0551,1595.7141],[36.9344,-1.0532,1593.1604],[36.9402,-1.0556,1595.6006],[36.9427,-1.0549,1599.8009],[36.9434,-1.0585,1571.3291],[36.9556,-1.0402,1598.672],[36.9496,-1.0347,1611.8274],[36.9392,-1.0357,1608.5519],[36.9484,-1.0208,1612.2615],[36.9425,-1.0218,1605.5925],[36.94,-1.0192,1630.9741],[36.9353,-1.0192,1638.7091],[36.9279,-1.0095,1640.3179],[36.9233,-1.0064,1663.8708],[36.9231,-1.0021,1650.1511],[36.9064,-0.9917,1707.8372],[36.9048,-0.9873,1682.0968],[36.8983,-0.9835,1741.7585],[36.8892,-0.9715,1775.7124],[36.884,-0.9701,1762.3569],[36.8784,-0.9658,1775.835],[36.8766,-0.9664,1807.5311],[36.8754,-0.9642,1776.2281],[36.8717,-0.9652,1829.3463],[36.8692,-0.9612,1814.6311],[36.8674,-0.9622,1834.9257],[36.8645,-0.9598,1820.4355]]]]}}