{"type":"Feature","properties":{"GID_3":"KEN.13.8.2_1","GID_0":"KEN","country":"Kenya","GID_1":"KEN.13_1","province":"Kiambu","NL_NAME_1":"NA","GID_2":"KEN.13.8_1","county":"Kikuyu","NL_NAME_2":"NA","city":"Kikuyu","VARNAME_3":"NA","NL_NAME_3":"NA","TYPE_3":"Ward","ENGTYPE_3":"Ward","CC_3":"599","HASC_3":"NA","name":"Kikuyu.city"},
"geometry":{"type": "MultiPolygon","coordinates": [[[[36.6884,-1.2763,1894.8679],[36.6893,-1.273,1889.6384],[36.6915,-1.2731,1885.9768],[36.6901,-1.2652,1885.8762],[36.6948,-1.2642,1884.7063],[36.6911,-1.2601,1896.48],[36.6762,-1.2521,1970.7842],[36.6806,-1.2476,1962.96],[36.6754,-1.2414,1987.7052],[36.6674,-1.2429,2007.0383],[36.6665,-1.2161,2071.1226],[36.6639,-1.2106,2096.8582],[36.6584,-1.214,2079.4182],[36.6587,-1.2331,2068.6096],[36.6514,-1.234,2009.6326],[36.6518,-1.2216,2079.8257],[36.6466,-1.2245,2022.6973],[36.6431,-1.2238,2055.4075],[36.6285,-1.2366,2027.6595],[36.6342,-1.2522,2009.125],[36.6534,-1.2507,2032.9886],[36.6535,-1.2484,2028.3525],[36.6573,-1.2498,1993.8937],[36.6564,-1.2712,2017.4102],[36.6532,-1.2711,2038.0098],[36.6532,-1.2742,2034.0846],[36.6507,-1.2744,2042.1357],[36.6507,-1.278,2016.8196],[36.6537,-1.2777,2016.1285],[36.6539,-1.2791,2017.0994],[36.6796,-1.2759,1936.3557],[36.6808,-1.2793,1896.9219],[36.6855,-1.2808,1878.826],[36.6884,-1.2763,1894.8679]]]]}}