{"type":"Feature","properties":{"GID_3":"KEN.5.2.2_1","GID_0":"KEN","country":"Kenya","GID_1":"KEN.5_1","province":"Elgeyo-Marakwet","NL_NAME_1":"NA","GID_2":"KEN.5.2_1","county":"KeiyoSouth","NL_NAME_2":"NA","city":"Kabiemit","VARNAME_3":"NA","NL_NAME_3":"NA","TYPE_3":"Ward","ENGTYPE_3":"Ward","CC_3":"749","HASC_3":"NA","name":"Kabiemit.city"},
"geometry":{"type": "MultiPolygon","coordinates": [[[[35.5095,0.3194,2506.3774],[35.4959,0.3195,2461.7524],[35.4949,0.3178,2475.1257],[35.4976,0.3146,2464.3911],[35.4986,0.3091,2494.207],[35.5042,0.2988,2499.3215],[35.4987,0.2959,2500.5854],[35.5004,0.2926,2497.7986],[35.4997,0.2829,2503.4897],[35.4973,0.2787,2502.2756],[35.4947,0.279,2487.032],[35.491,0.2681,2504.7375],[35.4946,0.2624,2502.9199],[35.4855,0.255,2468.5933],[35.4957,0.2367,2536.2905],[35.5049,0.2296,2524.3735],[35.5124,0.2331,2542.2986],[35.5281,0.235,2508.4961],[35.5293,0.2326,2519.53],[35.5345,0.2339,2467.6702],[35.5399,0.2306,2524.9731],[35.54,0.2287,2528.3408],[35.537,0.2267,2551.3765],[35.5347,0.2273,2540.3384],[35.5307,0.2249,2528.895],[35.5261,0.2183,2518.4272],[35.5272,0.2167,2546.1902],[35.5206,0.2085,2536.4009],[35.5486,0.2105,2537.7703],[35.5665,0.2154,2578.0847],[35.571,0.2205,2532.667],[35.5803,0.2172,2630.1897],[35.5868,0.217,2579.6841],[35.5913,0.2249,2580.2419],[35.5932,0.2242,2614.082],[35.5951,0.2263,2510.6299],[35.5949,0.2353,2599.2322],[35.5991,0.2404,2523.0356],[35.6066,0.241,2114.3325],[35.6139,0.2371,1904.0057],[35.6189,0.2363,1815.4651],[35.6257,0.2397,1700.0881],[35.6354,0.2478,1536.267],[35.632,0.2641,1585.8435],[35.6306,0.2646,1607.6588],[35.6329,0.2683,1707.0664],[35.6311,0.2694,1678.9835],[35.6188,0.2675,1870.4287],[35.6139,0.2653,1870.0625],[35.6121,0.2661,1900.2686],[35.5952,0.253,2465.3364],[35.5931,0.2532,2632.2578],[35.5936,0.2621,2739.2163],[35.5823,0.2669,2505.1833],[35.5771,0.2658,2443.2695],[35.5769,0.275,2428.2578],[35.579,0.2797,2048.9893],[35.5746,0.2781,2306.5444],[35.5727,0.2794,2317.0845],[35.5746,0.2808,2155.502],[35.567,0.2886,2676.1611],[35.5685,0.2912,2474.322],[35.5667,0.2938,2671.0796],[35.5659,0.3022,2702.4104],[35.5765,0.3193,2739.3833],[35.5676,0.3209,2706.9666],[35.5617,0.3257,2688.7417],[35.5343,0.3208,2546.8345],[35.5095,0.3194,2506.3774]]]]}}