{"type":"Feature","properties":{"GID_3":"KEN.27.3.5_1","GID_0":"KEN","country":"Kenya","GID_1":"KEN.27_1","province":"Migori","NL_NAME_1":"NA","GID_2":"KEN.27.3_1","county":"KuriaWest","NL_NAME_2":"NA","city":"Masaba","VARNAME_3":"NA","NL_NAME_3":"NA","TYPE_3":"Ward","ENGTYPE_3":"Ward","CC_3":"1293","HASC_3":"NA","name":"Masaba.city"},
"geometry":{"type": "MultiPolygon","coordinates": [[[[34.6062,-1.1367,1422.4119],[34.6045,-1.105,1430.8716],[34.6023,-1.095,1455.3547],[34.5784,-1.0974,1464.571],[34.5637,-1.0915,1578.1174],[34.5515,-1.0938,1439.4392],[34.5382,-1.102,1403.0684],[34.5272,-1.0992,1421.8164],[34.5196,-1.1008,1407.9847],[34.514,-1.0983,1394.0248],[34.512,-1.0983,1390.1145],[34.51,-1.1036,1390.3196],[34.5062,-1.101,1398.2664],[34.5082,-1.1057,1387.5988],[34.4897,-1.1155,1391.922],[34.4846,-1.1161,1402.2703],[34.4801,-1.1213,1390.1594],[34.4809,-1.1244,1401.2441],[34.4764,-1.1247,1400.2708],[34.4768,-1.1283,1393.8137],[34.4738,-1.1325,1409.9786],[34.4719,-1.1405,1412.7717],[34.4811,-1.1495,1439.2316],[34.4882,-1.1631,1442.8643],[34.5003,-1.1558,1446.834],[34.5072,-1.1469,1421.0007],[34.5171,-1.1615,1439.5156],[34.5149,-1.172,1427.9152],[34.5165,-1.1795,1438.8289],[34.5181,-1.1737,1433.8794],[34.5299,-1.1588,1459.5674],[34.5346,-1.1579,1461.8566],[34.5514,-1.1442,1411.1353],[34.5528,-1.1582,1425.3365],[34.5562,-1.1629,1432.8794],[34.5592,-1.178,1467.3782],[34.5577,-1.1882,1495.9595],[34.5646,-1.1851,1487.1246],[34.5646,-1.178,1486.3409],[34.5721,-1.1741,1457.5424],[34.5761,-1.1592,1448.5731],[34.5824,-1.1506,1423.4542],[34.592,-1.1511,1439.9919],[34.6017,-1.1415,1420.7069],[34.6044,-1.1356,1413.7079],[34.6062,-1.1367,1422.4119]]]]}}