{"type":"Feature","properties":{"GID_2":"KEN.14.2_1","GID_0":"KEN","country":"Kenya","GID_1":"KEN.14_1","province":"Kilifi","NL_NAME_1":"NA","county":"Kaloleni","VARNAME_2":"NA","NL_NAME_2":"NA","TYPE_2":"Constituency","ENGTYPE_2":"Constituency","CC_2":"13","HASC_2":"NA","name":"Kaloleni.county"},
"geometry":{"type": "MultiPolygon","coordinates": [[[[39.5507,-3.8717,175.1634],[39.5553,-3.8655,178.3184],[39.5757,-3.8535,158.7651],[39.5749,-3.843,170.347],[39.5775,-3.8395,170.9009],[39.5806,-3.8383,186.7687],[39.5981,-3.8376,181.5367],[39.6021,-3.8361,179.2779],[39.6055,-3.8397,143.2413],[39.6061,-3.845,145.0386],[39.6111,-3.8499,131.1132],[39.6137,-3.8476,154.8154],[39.6145,-3.8437,166.3972],[39.6207,-3.8393,206.9085],[39.6331,-3.8355,190.7768],[39.6473,-3.8419,163.567],[39.6496,-3.8425,174.1394],[39.6521,-3.8405,188.8282],[39.6544,-3.8422,141.5717],[39.6537,-3.8458,155.4933],[39.6603,-3.8517,162.2054],[39.6653,-3.8481,123.4558],[39.6701,-3.8517,92.9223],[39.6813,-3.8512,67.5371],[39.6929,-3.8578,67.964],[39.6963,-3.8562,58.6592],[39.6971,-3.849,68.079],[39.6923,-3.8353,88.4553],[39.6867,-3.8255,107.9743],[39.676,-3.8218,212.1545],[39.6739,-3.8184,193.0559],[39.6707,-3.8176,176.162],[39.6695,-3.8149,200.0863],[39.6699,-3.8043,207.3206],[39.6675,-3.799,194.82],[39.6585,-3.8004,163.6558],[39.6589,-3.7931,177.3216],[39.6495,-3.7623,227.1371],[39.6517,-3.7595,247.9093],[39.6627,-3.7573,167.5238],[39.6615,-3.7471,152.5599],[39.6577,-3.7356,164.8812],[39.6583,-3.7273,151.1924],[39.6567,-3.7244,150.8576],[39.6579,-3.7154,127.0698],[39.6607,-3.7105,148.6239],[39.6689,-3.7052,111.0283],[39.6653,-3.6984,108.838],[39.6651,-3.695,106.5371],[39.6673,-3.6822,108.1355],[39.6695,-3.6784,122.4424],[39.6533,-3.6799,190.1422],[39.6417,-3.6855,228.4167],[39.6383,-3.6808,200.4712],[39.6313,-3.6551,171.7563],[39.6275,-3.6593,178.8763],[39.6233,-3.6589,181.5831],[39.6217,-3.6559,174.037],[39.6225,-3.6472,181.6444],[39.6209,-3.6409,194.7337],[39.6175,-3.6412,187.9472],[39.6163,-3.6436,190.5996],[39.6117,-3.6429,196.872],[39.6088,-3.652,189.8904],[39.6021,-3.6559,190.8575],[39.6025,-3.652,194.3138],[39.5955,-3.6457,207.7569],[39.5925,-3.6496,191.154],[39.5897,-3.6489,202.7687],[39.5936,-3.6533,190.5972],[39.5923,-3.6559,191.1538],[39.5837,-3.6583,203.7645],[39.5841,-3.6635,194.3209],[39.5781,-3.6642,205.6563],[39.5699,-3.6594,195.9823],[39.5689,-3.6572,202.822],[39.5707,-3.6524,203.2989],[39.5689,-3.6511,206.6886],[39.5631,-3.6508,204.5391],[39.5581,-3.6537,206.2263],[39.5493,-3.6543,205.2851],[39.5485,-3.6494,208.348],[39.5535,-3.6428,203.8507],[39.5528,-3.6395,210.1893],[39.5499,-3.637,206.6271],[39.5425,-3.639,212.0429],[39.5311,-3.6298,208.2722],[39.5269,-3.6315,207.4932],[39.5265,-3.6339,210.2989],[39.5239,-3.6765,266.4263],[39.5067,-3.6756,253.6361],[39.4915,-3.6728,224.8088],[39.4701,-3.6648,231.3685],[39.4593,-3.6666,215.6475],[39.4485,-3.6658,222.2899],[39.4437,-3.6699,215.8853],[39.4395,-3.6793,208.5007],[39.4391,-3.6811,206.9069],[39.4407,-3.682,206.0014],[39.4389,-3.6853,206.7786],[39.4171,-3.6691,216.1525],[39.4139,-3.665,219.0899],[39.4049,-3.6627,228.149],[39.3949,-3.6572,223.3374],[39.3839,-3.6556,232.5884],[39.3671,-3.6494,248.0991],[39.3579,-3.6444,232.2135],[39.3515,-3.6383,225.6962],[39.3567,-3.6546,219.8992],[39.3541,-3.6612,221.8581],[39.3553,-3.6692,217.9565],[39.3533,-3.6739,217.0246],[39.3531,-3.6886,212.1776],[39.3519,-3.6919,211.2885],[39.3485,-3.6921,210.3288],[39.3473,-3.7015,207.1168],[39.3488,-3.7045,207.1205],[39.3537,-3.708,206.4207],[39.3531,-3.7104,205.7489],[39.3583,-3.7192,203.0614],[39.3573,-3.7237,202.0192],[39.3595,-3.7302,210.6724],[39.3763,-3.7405,198.7713],[39.3907,-3.7367,190.6952],[39.3919,-3.7472,187.9847],[39.3949,-3.7513,186.8626],[39.3923,-3.7666,187.3876],[39.3911,-3.7681,188.4408],[39.3857,-3.7688,187.6873],[39.3835,-3.7714,181.0821],[39.3845,-3.7744,182.5282],[39.3889,-3.7757,185.416],[39.3897,-3.782,183.017],[39.3879,-3.785,180.8031],[39.3833,-3.7856,181.8377],[39.3773,-3.7933,174.8542],[39.3813,-3.7971,175.2104],[39.3795,-3.8061,170.2434],[39.3905,-3.8174,190.1052],[39.3935,-3.8178,186.0461],[39.3995,-3.8256,194.2119],[39.4039,-3.8213,186.8993],[39.4073,-3.8234,190.5096],[39.4135,-3.8201,187.357],[39.4195,-3.8205,190.9118],[39.4217,-3.8256,196.5519],[39.4343,-3.8323,209.5095],[39.4355,-3.8362,213.5986],[39.4493,-3.8499,206.349],[39.4509,-3.8533,204.3119],[39.4589,-3.8546,211.5546],[39.4677,-3.8595,202.8394],[39.4857,-3.8809,197.7899],[39.4942,-3.8844,200.4045],[39.4975,-3.8877,193.9393],[39.5001,-3.9022,198.8829],[39.5023,-3.9045,195.514],[39.5065,-3.905,194.7683],[39.5125,-3.9115,186.9661],[39.5213,-3.9163,197.3869],[39.5309,-3.9045,187.2003],[39.5403,-3.898,178.7344],[39.5495,-3.8962,147.2021],[39.5545,-3.8851,168.6819],[39.5505,-3.8764,174.0074],[39.5507,-3.8717,175.1634]]]]}}