{"type":"Feature","properties":{"GID_3":"KEN.33.2.6_1","GID_0":"KEN","country":"Kenya","GID_1":"KEN.33_1","province":"Narok","NL_NAME_1":"NA","GID_2":"KEN.33.2_1","county":"Kilgoris","NL_NAME_2":"NA","city":"Shankoe","VARNAME_3":"NA","NL_NAME_3":"NA","TYPE_3":"Ward","ENGTYPE_3":"Ward","CC_3":"884","HASC_3":"NA","name":"Shankoe.city"},
"geometry":{"type": "MultiPolygon","coordinates": [[[[34.8308,-0.9295,1895.8751],[34.7596,-0.9474,1854.5044],[34.761,-0.9532,1874.1042],[34.7597,-0.9545,1896.0153],[34.754,-0.9547,1896.6404],[34.7523,-0.9599,1855.1146],[34.7556,-0.9722,1842.3462],[34.7589,-0.9755,1827.2847],[34.7531,-0.9887,1797.3882],[34.7607,-0.9855,1832.0219],[34.7686,-0.9852,1897.2388],[34.7708,-0.9866,1846.9208],[34.7758,-0.9912,1836.1743],[34.785,-1.0103,1869.6416],[34.7953,-1.0209,1964.6581],[34.7943,-1.0242,1899.5161],[34.7893,-1.0282,1893.2117],[34.7818,-1.0316,1914.7609],[34.7826,-1.0507,1946.49],[34.7855,-1.0488,1837.4292],[34.7895,-1.0423,1750.118],[34.7973,-1.041,1719.3684],[34.8086,-1.0474,1695.3691],[34.815,-1.0485,1658.9713],[34.82,-1.0519,1647.2322],[34.8214,-1.0585,1628.245],[34.8203,-1.063,1625.593],[34.8233,-1.0657,1628.7983],[34.8243,-1.0693,1630.3264],[34.8234,-1.0749,1613.7612],[34.8207,-1.0767,1637.5237],[34.8219,-1.0878,1613.0833],[34.8129,-1.0943,1599.9447],[34.8118,-1.0967,1604.2856],[34.8132,-1.0998,1587.626],[34.8071,-1.1108,1604.5277],[34.8079,-1.1128,1583.442],[34.8001,-1.1204,1582.3208],[34.7972,-1.1283,1566.7841],[34.7944,-1.1293,1565.9082],[34.7927,-1.1324,1570.1212],[34.7915,-1.1381,1541.5344],[34.7929,-1.1405,1539.27],[34.7965,-1.1368,1554.2935],[34.8002,-1.1404,1542.6428],[34.8055,-1.1402,1561.3315],[34.8122,-1.1476,1551.354],[34.8147,-1.1482,1558.4905],[34.8183,-1.1547,1561.9227],[34.8243,-1.1583,1587.6034],[34.8261,-1.156,1595.7432],[34.829,-1.1605,1572.2968],[34.8301,-1.16,1572.2968],[34.8358,-1.1659,1588.4257],[34.8388,-1.1624,1590.3383],[34.8384,-1.1558,1633.9324],[34.836,-1.1507,1622.8972],[34.8369,-1.1482,1634.488],[34.8496,-1.1402,1667.9269],[34.8577,-1.1187,1683.946],[34.8711,-1.1139,1685.6969],[34.8737,-1.1077,1725.676],[34.874,-1.1025,1699.806],[34.8767,-1.0982,1697.4468],[34.8813,-1.0831,1748.4529],[34.8794,-1.0791,1754.1619],[34.8841,-1.0634,1763.9287],[34.8824,-1.0591,1828.3162],[34.8839,-1.05,1806.7793],[34.8825,-1.0426,1812.583],[34.8876,-1.0282,1842.0596],[34.888,-1.0122,1771.729],[34.885,-1.0032,1800.3779],[34.8792,-0.9999,1807.6458],[34.876,-0.9887,1869.7698],[34.872,-0.9908,1921.9451],[34.8691,-0.9868,1841.8965],[34.8657,-0.9783,1844.5403],[34.8641,-0.9713,1803.9106],[34.8653,-0.9656,1804.5231],[34.862,-0.962,1794.2578],[34.8616,-0.9563,1826.5022],[34.8582,-0.9548,1818.215],[34.8593,-0.951,1854.9677],[34.8578,-0.9474,1849.4746],[34.849,-0.9367,1824.1194],[34.8474,-0.9311,1866.939],[34.8439,-0.9282,1871.9529],[34.8442,-0.9262,1906.9276],[34.8308,-0.9295,1895.8751]]]]}}