{"type": "Feature","bbox": [37.5767,0.0033,37.8001,0.1501],"geometry": {"type": "MultiPolygon","coordinates": [[[[37.7105,0.007,1212.2172],[37.7155,0.008,1216.8689],[37.726,0.0066,1156.3386],[37.7283,0.0087,1164.0095],[37.7303,0.0077,1151.2897],[37.7346,0.0087,1145.2301],[37.7402,0.0124,1137.1755],[37.744,0.0099,1131.1135],[37.7548,0.0144,1117.8505],[37.7641,0.0094,1104.1606],[37.7676,0.0114,1092.8219],[37.7798,0.0121,1083.3308],[37.789,0.0145,1085.3765],[37.7925,0.0119,1064.7913],[37.7938,0.029,1091.7721],[37.7979,0.0313,1097.6541],[37.797,0.0375,1098.8589],[37.8001,0.0411,1111.2656],[37.798,0.0432,1135.241],[37.7949,0.0417,1107.8032],[37.7916,0.0431,1103.9968],[37.7905,0.0479,1131.7324],[37.7888,0.0472,1121.3655],[37.7847,0.0493,1112.818],[37.7848,0.0516,1117.1394],[37.7829,0.052,1119.064],[37.7809,0.0497,1116.3585],[37.7746,0.0516,1138.8309],[37.7751,0.0552,1141.9603],[37.7636,0.0517,1149.0946],[37.7531,0.0538,1170.3921],[37.7547,0.0575,1174.2783],[37.7513,0.0609,1184.5222],[37.7523,0.0636,1179.4374],[37.7628,0.0676,1169.46],[37.7622,0.0699,1171.8452],[37.7577,0.0729,1178.3256],[37.7556,0.0714,1177.0371],[37.7515,0.0729,1200.4878],[37.7532,0.0746,1183.3411],[37.7515,0.0783,1202.4523],[37.755,0.0775,1183.2064],[37.7516,0.0808,1235.4413],[37.7536,0.0856,1240.6566],[37.7557,0.0847,1219.3853],[37.7566,0.0787,1185.8607],[37.7595,0.0788,1187.34],[37.7601,0.0819,1180.0427],[37.7576,0.0837,1204.4277],[37.7557,0.0887,1225.6023],[37.7618,0.096,1225.932],[37.7598,0.1007,1231.0657],[37.7551,0.1001,1233.8376],[37.7495,0.1057,1255.0366],[37.7405,0.1068,1275.8105],[37.7339,0.1101,1299.5596],[37.7181,0.1071,1357.7844],[37.7139,0.1081,1360.4449],[37.7063,0.1171,1377.0292],[37.7035,0.1309,1395.6313],[37.7007,0.1357,1425.776],[37.6965,0.1359,1421.3586],[37.6883,0.1471,1443.4457],[37.6824,0.1495,1433.5806],[37.6754,0.1501,1454.5989],[37.6695,0.148,1477.8901],[37.6579,0.1478,1509.3855],[37.6453,0.1427,1558.1248],[37.6378,0.1339,1594.8235],[37.6349,0.1331,1604.135],[37.617,0.1317,1693.84],[37.5848,0.1323,1891.3827],[37.5881,0.1149,1916.9635],[37.5935,0.1147,1895.1476],[37.5961,0.1161,1831.464],[37.5953,0.1189,1890.7018],[37.5969,0.122,1859.6073],[37.595,0.1262,1864.6449],[37.6012,0.1265,1851.3622],[37.6085,0.1127,1789.4142],[37.6057,0.1019,1815.1792],[37.6103,0.0935,1817.2507],[37.6027,0.0905,1841.8068],[37.6029,0.0843,1849.6708],[37.6043,0.0775,1857.4952],[37.6095,0.0783,1840.9751],[37.6106,0.0728,1840.0773],[37.6103,0.071,1852.6245],[37.5999,0.0687,1898.9518],[37.6091,0.0567,1872.7788],[37.6009,0.0543,1916.2622],[37.5941,0.0551,1923.4305],[37.5855,0.0493,1975.7061],[37.5771,0.0482,2044.0579],[37.5785,0.0465,2020.6714],[37.5767,0.0449,2026.6243],[37.5929,0.0489,1940.3381],[37.5977,0.0351,1915.8856],[37.6047,0.0309,1862.7866],[37.6105,0.0297,1811.889],[37.6187,0.0211,1782.2211],[37.6331,0.0137,1710.7213],[37.6351,0.0067,1669.5974],[37.6395,0.0033,1672.8315],[37.6439,0.0033,1666.2662],[37.6501,0.0082,1620.1356],[37.6559,0.01,1591.2579],[37.6736,0.0131,1485.0461],[37.6787,0.0105,1454.4771],[37.69,0.0125,1355.8789],[37.7035,0.0057,1272.1533],[37.7105,0.007,1212.2172]]]]}
,"properties": {"GID_2": "KEN.26.6_1","GID_0": "KEN","country": "Kenya","GID_1": "KEN.26_1","province": "Meru","NL_NAME_1": "NA","county": "NorthImenti","VARNAME_2": "NA","NL_NAME_2": "NA","TYPE_2": "Constituency","ENGTYPE_2": "Constituency","CC_2": "56","HASC_2": "NA","name": "North_Imenti.county","area_km2": 244.016,"hist_schema_id": "Elevation0-9000","hist_area_km2": {"1075": 0.7209,"1100": 9.7742,"1125": 10.4103,"1150": 7.2512,"1175": 5.7246,"1200": 5.9578,"1225": 5.7246,"1250": 10.8555,"1275": 14.5235,"1300": 10.1134,"1325": 8.9473,"1350": 10.6011,"1375": 10.9615,"1400": 7.8024,"1425": 7.0603,"1450": 7.5904,"1475": 7.866,"1500": 8.1204,"1525": 8.7565,"1550": 7.5692,"1575": 7.9296,"1600": 7.2936,"1625": 6.5091,"1650": 6.0426,"1675": 6.1486,"1700": 6.4243,"1725": 5.449,"1750": 6.5939,"1775": 5.9154,"1800": 5.3005,"1825": 3.5832,"1850": 3.6892,"1875": 2.2474,"1900": 2.0142,"1925": 1.5902,"1950": 0.6361,"1975": 0.0636,"2000": 0.1272,"2025": 0.0848,"2050": 0.0424}}}