{"type": "Feature","bbox": [35.6019,0.442,35.7721,0.5777],"geometry": {"type": "MultiPolygon","coordinates": [[[[35.7721,0.5777,2209.6033],[35.7564,0.5723,2148.78],[35.7426,0.5711,1954.7467],[35.74,0.5679,1936.2887],[35.7401,0.56,1792.2546],[35.7365,0.5579,1861.5391],[35.7339,0.561,1898.5343],[35.728,0.5615,1738.3083],[35.7225,0.5657,1723.1274],[35.7195,0.5653,1670.9625],[35.7184,0.568,1668.5822],[35.7046,0.5657,1580.7329],[35.6877,0.5715,1433.2339],[35.6696,0.5663,1185.0515],[35.6692,0.5679,1198.2783],[35.6669,0.5669,1139.3882],[35.6652,0.5686,1126.4504],[35.6568,0.5609,1110.5939],[35.65,0.5589,1101.9176],[35.6451,0.5551,1098.7164],[35.6038,0.562,1083.9576],[35.6019,0.5609,1085.2249],[35.6022,0.5558,1086.0332],[35.6056,0.5475,1095.0065],[35.6022,0.5413,1089.0051],[35.6035,0.5353,1089.6923],[35.6086,0.5335,1097.0511],[35.6119,0.529,1096.6858],[35.6141,0.5236,1095.2773],[35.6118,0.5217,1093.2794],[35.6135,0.5193,1096.4397],[35.6136,0.514,1096.296],[35.6212,0.5097,1108.8616],[35.6232,0.5102,1108.6743],[35.6246,0.5076,1111.3104],[35.6286,0.5063,1108.468],[35.631,0.5076,1111.2134],[35.6299,0.4989,1102.5248],[35.6331,0.5002,1110.0859],[35.6338,0.4952,1113.9004],[35.6315,0.4931,1109.9744],[35.6329,0.4918,1115.3973],[35.6318,0.4888,1113.4785],[35.6392,0.4809,1122.4724],[35.6401,0.4752,1121.427],[35.6433,0.4737,1125.4146],[35.644,0.4696,1128.2499],[35.648,0.4661,1128.5565],[35.6456,0.4642,1129.2773],[35.6474,0.4592,1124.9935],[35.6454,0.457,1122.5125],[35.6517,0.4535,1159.4653],[35.6544,0.442,1145.2144],[35.6718,0.4466,1220.7549],[35.6893,0.4595,1456.1907],[35.6999,0.4703,1596.2722],[35.7104,0.468,1439.7581],[35.7097,0.4724,1518.4711],[35.7128,0.4795,1671.4263],[35.7129,0.4876,1644.3799],[35.7086,0.4971,1420.9564],[35.712,0.4951,1597.4148],[35.7144,0.4885,1660.0248],[35.7217,0.4869,1701.2609],[35.7291,0.4894,1909.0022],[35.7354,0.5054,2007.0944],[35.7383,0.5085,2106.6973],[35.7471,0.5058,2155.5806],[35.7499,0.5015,2082.7395],[35.7497,0.4994,2090.9663],[35.7543,0.5009,1956.1025],[35.7534,0.5183,2158.5059],[35.757,0.5261,2187.7275],[35.7546,0.5277,2141.447],[35.7538,0.5328,2051.8608],[35.7564,0.5394,2150.1826],[35.7615,0.5377,2176.334],[35.7615,0.5468,2171.6755],[35.7646,0.5542,2180.7046],[35.7639,0.5587,2162.1189],[35.7699,0.5701,2259.8132],[35.7698,0.5758,2202.0234],[35.7721,0.5777,2209.6033]]]]}
,"properties": {"GID_3": "KEN.1.2.2_1","GID_0": "KEN","country": "Kenya","GID_1": "KEN.1_1","province": "Baringo","NL_NAME_1": "NA","GID_2": "KEN.1.2_1","county": "BaringoCentral","NL_NAME_2": "NA","city": "Kabarnet","VARNAME_3": "NA","NL_NAME_3": "NA","TYPE_3": "Ward","ENGTYPE_3": "Ward","CC_3": "793","HASC_3": "NA","name": "Kabarnet.city","area_km2": 159.3916,"hist_schema_id": "Elevation0-9000","hist_area_km2": {"1075": 0.53,"1100": 24.3179,"1125": 16.0706,"1150": 8.3957,"1175": 7.9293,"1200": 5.8728,"1225": 5.1095,"1250": 3.8799,"1275": 4.4311,"1300": 3.8587,"1325": 3.265,"1350": 2.7562,"1375": 3.1166,"1400": 3.0318,"1425": 2.7562,"1450": 2.2897,"1475": 2.9894,"1500": 2.4382,"1525": 2.841,"1550": 3.0106,"1575": 2.5654,"1600": 2.9258,"1625": 2.7138,"1650": 2.8198,"1675": 2.5866,"1700": 2.2261,"1725": 2.0565,"1750": 2.3109,"1775": 1.9929,"1800": 1.7809,"1825": 1.8445,"1850": 2.0141,"1875": 2.1625,"1900": 2.0353,"1925": 2.1413,"1950": 2.0141,"1975": 1.8233,"2000": 1.5477,"2025": 1.3781,"2050": 1.6113,"2075": 1.8869,"2100": 1.5901,"2125": 1.0601,"2150": 1.0177,"2175": 0.848,"2200": 0.6996,"2225": 0.3604,"2250": 0.2544,"2275": 0.1696,"2300": 0.0636}}}