{"type":"Feature","properties":{"GID_3":"KEN.12.6.1_1","GID_0":"KEN","country":"Kenya","GID_1":"KEN.12_1","province":"Kericho","NL_NAME_1":"NA","GID_2":"KEN.12.6_1","county":"Sigowet/Soin","NL_NAME_2":"NA","city":"Kaplelartet","VARNAME_3":"NA","NL_NAME_3":"NA","TYPE_3":"Ward","ENGTYPE_3":"Ward","CC_3":"963","HASC_3":"NA","name":"Kaplelartet.city"},
"geometry":{"type": "MultiPolygon","coordinates": [[[[35.0197,-0.4065,1510.488],[35.0204,-0.4081,1507.4869],[35.026,-0.4084,1581.9255],[35.0285,-0.4108,1568.5526],[35.0328,-0.4086,1594.0029],[35.0357,-0.3979,1786.7432],[35.0305,-0.3909,1664.6318],[35.0326,-0.3857,1756.5591],[35.0317,-0.3831,1654.1558],[35.0401,-0.3752,1744.2649],[35.0439,-0.3743,1746.0487],[35.0453,-0.3766,1733.6686],[35.05,-0.3726,1674.1943],[35.0526,-0.3749,1719.1205],[35.0556,-0.3829,1737.2797],[35.065,-0.3816,1759.0289],[35.0796,-0.3764,1716.1282],[35.0816,-0.3733,1701.4296],[35.0814,-0.3691,1693.7395],[35.086,-0.3735,1750.5966],[35.0907,-0.3732,1770.9856],[35.0914,-0.37,1755.5995],[35.0968,-0.3649,1730.8538],[35.105,-0.3671,1759.1831],[35.1103,-0.3716,1777.7258],[35.1143,-0.3805,1800.7247],[35.1172,-0.3833,1818.1844],[35.1277,-0.3807,1846.9011],[35.1351,-0.3827,1843.9675],[35.1377,-0.3766,1865.3015],[35.1407,-0.376,1859.3661],[35.1399,-0.3687,1838.5879],[35.1462,-0.3653,1804.9861],[35.1443,-0.361,1728.7346],[35.1447,-0.3551,1754.4075],[35.1375,-0.347,1695.897],[35.1349,-0.3478,1678.2686],[35.1261,-0.3459,1586.7725],[35.1204,-0.3408,1510.7627],[35.1157,-0.3397,1477.1945],[35.1132,-0.3359,1553.241],[35.1073,-0.3352,1553.6078],[35.104,-0.3326,1555.1226],[35.1017,-0.3329,1531.2664],[35.1016,-0.3316,1531.2664],[35.0967,-0.3315,1506.3363],[35.0901,-0.3264,1415.3245],[35.0885,-0.3213,1463.4319],[35.0828,-0.3167,1356.2208],[35.0799,-0.308,1419.3551],[35.0732,-0.3084,1339.7043],[35.0733,-0.3071,1347.5713],[35.0712,-0.3067,1335.8873],[35.0675,-0.3101,1323.3423],[35.0642,-0.3166,1342.7382],[35.0539,-0.3138,1332.066],[35.0511,-0.3168,1367.3601],[35.0474,-0.3171,1349.5387],[35.0469,-0.3197,1376.0284],[35.0311,-0.3104,1267.028],[35.0236,-0.3182,1284.8799],[35.0073,-0.3265,1274.6318],[35.0067,-0.33,1283.861],[35.0083,-0.3306,1275.2588],[35.0048,-0.3322,1310.6652],[35.0064,-0.3379,1290.7056],[35.0059,-0.3432,1304.0864],[35.004,-0.3447,1326.9846],[35.0059,-0.3485,1317.9727],[35.0043,-0.3507,1326.6062],[35.0062,-0.3567,1342.3403],[35.0068,-0.3701,1405.4943],[35.0084,-0.3727,1410.1467],[35.0102,-0.3851,1521.734],[35.0178,-0.3913,1529.3865],[35.0176,-0.3964,1500.0621],[35.0215,-0.3995,1516.927],[35.0197,-0.4065,1510.488]]]]}}