{"type":"Feature","properties":{"GID_3":"KEN.14.5.1_1","GID_0":"KEN","country":"Kenya","GID_1":"KEN.14_1","province":"Kilifi","NL_NAME_1":"NA","GID_2":"KEN.14.5_1","county":"Magarini","NL_NAME_2":"NA","city":"Adu","VARNAME_3":"NA","NL_NAME_3":"NA","TYPE_3":"Ward","ENGTYPE_3":"Ward","CC_3":"83","HASC_3":"NA","name":"Adu.city"},
"geometry":{"type": "MultiPolygon","coordinates": [[[[40.1897,-2.7314,8.6194],[40.1892,-2.7308,6.394],[40.1871,-2.7284,1.8971],[40.1874,-2.7313,0.0],[40.1897,-2.7314,8.6194]]],
[[[40.1869,-2.7282,1.8971],[40.1868,-2.7281,1.8971],[40.1868,-2.7282,1.8971],[40.1869,-2.7282,1.8971]]],
[[[39.369,-3.3482,185.4501],[39.4339,-3.3496,169.4374],[39.4477,-3.2566,178.3937],[39.5059,-3.2571,154.4919],[39.6899,-3.1857,129.7455],[39.7157,-3.1913,159.1843],[39.7153,-3.187,157.3187],[39.7049,-3.1674,143.0892],[39.6941,-3.1548,102.6363],[39.6907,-3.1382,79.3362],[39.6997,-3.1353,87.8662],[39.7099,-3.1342,80.3359],[39.7159,-3.1276,59.966],[39.7191,-3.1274,66.0027],[39.7163,-3.1255,59.0],[39.7147,-3.1193,61.7345],[39.711,-3.1171,63.2016],[39.7057,-3.1186,68.0114],[39.7027,-3.1176,63.7675],[39.7021,-3.1104,66.3026],[39.6991,-3.1108,64.0908],[39.6947,-3.1208,66.0384],[39.6898,-3.114,71.0264],[39.6801,-3.1146,69.8106],[39.6778,-3.1122,67.1543],[39.6721,-3.1162,69.7223],[39.6665,-3.1163,70.3727],[39.6617,-3.1092,73.1281],[39.6571,-3.108,75.8865],[39.6437,-3.1142,76.5925],[39.6391,-3.1116,71.1149],[39.6295,-3.0977,76.001],[39.6287,-3.0954,80.4656],[39.6301,-3.0923,79.0604],[39.6341,-3.0931,96.616],[39.6331,-3.0887,100.9503],[39.6263,-3.0743,118.0766],[39.6217,-3.0689,127.55029999999999],[39.6177,-3.0589,127.0956],[39.6091,-3.0454,139.206],[39.5987,-3.0415,124.8006],[39.6429,-3.003,100.5905],[39.8911,-2.7978,192.1172],[39.8931,-2.8153,172.7883],[39.8981,-2.8217,164.7554],[39.8967,-2.8297,164.0016],[39.9029,-2.8319,162.6916],[39.9079,-2.8364,163.9164],[39.9225,-2.836,163.5771],[39.9277,-2.8407,162.1984],[39.9461,-2.8495,163.1802],[39.9557,-2.8739,149.9571],[39.9617,-2.8835,141.0086],[39.9625,-2.8899,118.764],[39.9663,-2.8979,117.0356],[39.9823,-2.9122,126.4448],[39.9871,-2.922,135.0893],[39.9951,-2.9253,140.9476],[40.0039,-2.9364,131.9673],[40.0109,-2.9409,137.8869],[40.0155,-2.9405,134.6851],[40.0179,-2.9381,139.7662],[40.0181,-2.9347,143.7249],[40.0375,-2.9336,130.6992],[40.0433,-2.9356,136.9631],[40.0541,-2.9268,135.4706],[40.0527,-2.9201,128.6818],[40.0559,-2.9157,124.4496],[40.0733,-2.9084,118.0093],[40.0731,-2.9061,110.3816],[40.0781,-2.9024,88.4632],[40.0881,-2.9006,70.9208],[40.0901,-2.8974,56.5153],[40.0941,-2.8952,37.3788],[40.0999,-2.8954,30.9427],[40.1031,-2.8971,28.9484],[40.1073,-2.904,28.4854],[40.1116,-2.9044,27.1697],[40.1159,-2.9027,25.4536],[40.1197,-2.9039,27.1293],[40.1199,-2.9076,25.2978],[40.1233,-2.9097,21.8163],[40.1345,-2.9073,15.8235],[40.1365,-2.9094,11.304],[40.1467,-2.9081,2.0],[40.1493,-2.9062,1.2571],[40.1507,-2.8993,1.0],[40.1563,-2.8998,1.0],[40.1605,-2.9059,1.6945],[40.1711,-2.8971,3.5073],[40.1726,-2.8888,0.0],[40.1696,-2.8801,1.8008],[40.171,-2.8768,0.0],[40.1701,-2.8693,3.1086],[40.1721,-2.8626,0.0],[40.1715,-2.8554,0.2503],[40.174,-2.8524,2.2147],[40.1749,-2.8468,0.5291],[40.1779,-2.8437,2.2718],[40.1835,-2.829,0.0],[40.1857,-2.8003999999999998,0.0],[40.1835,-2.799,2.1253],[40.1846,-2.7949,2.4385],[40.1832,-2.7912,0.9655],[40.1868,-2.7771,1.3255],[40.1849,-2.7771,1.5374],[40.1793,-2.7838,0.5985],[40.176,-2.7849,1.6248],[40.179,-2.7788,1.4217],[40.1796,-2.7718,2.5503],[40.1785,-2.771,0.6817],[40.181,-2.7707,0.0],[40.1804,-2.7651,3.6236],[40.1846,-2.7637,0.0],[40.1832,-2.7618,1.6444],[40.1865,-2.7615,0.5879],[40.1935,-2.7454,0.0],[40.1926,-2.7421,0.0],[40.1904,-2.741,1.831],[40.1924,-2.7368,0.0],[40.1885,-2.7362,3.4871],[40.1876,-2.7387,4.5624],[40.1851,-2.7276,0.0],[40.1862,-2.7274,0.0],[40.1793,-2.7159,9.9108],[39.8923,-2.3092,91.0009],[39.5055,-2.7482,172.1313],[39.2189,-3.0692,163.2261],[39.1465,-3.3418,304.147],[39.369,-3.3482,185.4501]]],
[[[40.1867,-2.7279,9.7278],[40.1865,-2.7277,0.0],[40.1865,-2.7279,0.0],[40.1867,-2.7279,9.7278]]],
[[[40.1862,-2.7276,0.0],[40.1865,-2.7276,0.0],[40.1862,-2.7274,0.0],[40.1862,-2.7276,0.0]]]]}}