{"type": "Feature","bbox": [35.5126,0.1745,35.6953,0.2414],"geometry": {"type": "MultiPolygon","coordinates": [[[[35.6953,0.1827,2564.6519],[35.6914,0.192,2355.4377],[35.6939,0.1931,2427.3765],[35.6943,0.1972,2420.8677],[35.631,0.2127,2269.5342],[35.6242,0.2131,2238.5232],[35.6137,0.2028,2328.4795],[35.6046,0.2002,2251.6191],[35.6045,0.2037,2083.834],[35.5996,0.2074,2049.3193],[35.5915,0.2043,2400.583],[35.5983,0.2147,2154.7671],[35.6053,0.2172,2000.5865],[35.6122,0.2289,1857.4609],[35.6136,0.2288,1823.4154],[35.6189,0.2363,1815.4651],[35.6037,0.2414,2215.3674],[35.5995,0.2406,2464.5896],[35.5956,0.237,2598.3286],[35.5951,0.2263,2510.6299],[35.5932,0.2242,2614.082],[35.5913,0.2249,2580.2419],[35.5868,0.217,2579.6841],[35.5803,0.2172,2630.1897],[35.571,0.2205,2532.667],[35.5665,0.2154,2578.0847],[35.5486,0.2105,2537.7703],[35.5206,0.2085,2536.4009],[35.5197,0.2021,2560.1958],[35.5126,0.1939,2506.7432],[35.5551,0.1949,2506.606],[35.5679,0.203,2581.5566],[35.5675,0.1913,2557.0999],[35.5752,0.1892,2541.1533],[35.5786,0.1834,2571.4961],[35.5854,0.1767,2571.3721],[35.5878,0.1762,2612.4351],[35.5881,0.1745,2598.7744],[35.6692,0.1745,2652.9902],[35.6953,0.1827,2564.6519]]]]}
,"properties": {"GID_3": "KEN.5.2.4_1","GID_0": "KEN","country": "Kenya","GID_1": "KEN.5_1","province": "Elgeyo-Marakwet","NL_NAME_1": "NA","GID_2": "KEN.5.2_1","county": "KeiyoSouth","NL_NAME_2": "NA","city": "Metkei","VARNAME_3": "NA","NL_NAME_3": "NA","TYPE_3": "Ward","ENGTYPE_3": "Ward","CC_3": "750","HASC_3": "NA","name": "Metkei.city","area_km2": 63.92427,"hist_schema_id": "Elevation0-9000","hist_area_km2": {"1775": 0.0212,"1800": 0.0424,"1825": 0.16962,"1850": 0.10601,"1875": 0.10601,"1900": 0.27563,"1925": 0.10601,"1950": 0.25442,"1975": 0.44524,"2000": 0.46645,"2025": 0.55125,"2050": 0.86928,"2075": 1.0389,"2100": 1.0601,"2125": 1.33573,"2150": 1.18732,"2175": 1.37813,"2200": 1.27212,"2225": 1.14491,"2250": 1.71737,"2275": 1.33573,"2300": 1.27212,"2325": 1.54775,"2350": 1.25092,"2375": 1.27212,"2400": 1.14491,"2425": 1.27213,"2450": 1.14491,"2475": 1.44174,"2500": 2.52305,"2525": 4.15561,"2550": 7.22991,"2575": 7.90838,"2600": 5.55495,"2625": 3.54075,"2650": 2.71387,"2675": 2.37463,"2700": 1.37814,"2725": 0.9753,"2750": 0.33923}}}