{"type":"Feature","properties":{"GID_3":"KEN.27.2.3_1","GID_0":"KEN","country":"Kenya","GID_1":"KEN.27_1","province":"Migori","NL_NAME_1":"NA","GID_2":"KEN.27.2_1","county":"KuriaEast","NL_NAME_2":"NA","city":"NtimaruWest","VARNAME_3":"NA","NL_NAME_3":"NA","TYPE_3":"Ward","ENGTYPE_3":"Ward","CC_3":"1297","HASC_3":"NA","name":"Ntimaru_West.city"},
"geometry":{"type": "MultiPolygon","coordinates": [[[[34.6737,-1.2938,1659.8044],[34.6688,-1.3006,1697.1001],[34.6632,-1.3048,1717.1353],[34.6634,-1.31,1748.3917],[34.6486,-1.3206,1652.2783],[34.6474,-1.3251,1672.0685],[34.6448,-1.3216,1683.6809],[34.6429,-1.3275,1699.2476],[34.6366,-1.3355,1710.3832],[34.7325,-1.3902,1872.7109],[34.7197,-1.3381,1766.7854],[34.7131,-1.3397,1748.1277],[34.7059,-1.3471,1774.61],[34.7012,-1.3442,1776.3201],[34.6964,-1.3354,1783.1421],[34.6951,-1.3225,1733.8425],[34.6887,-1.3257,1788.2588],[34.6833,-1.3263,1796.1434],[34.6811,-1.3075,1729.7869],[34.6737,-1.2938,1659.8044]]]]}}