{"type":"Feature","properties":{"GID_1":"KEN.43_1","GID_0":"KEN","country":"Kenya","province":"Turkana","VARNAME_1":"NA","NL_NAME_1":"NA","TYPE_1":"County","ENGTYPE_1":"County","CC_1":"23","HASC_1":"KE.TU","ISO_1":"KE-43","name":"Turkana.province"},
"geometry":{"type": "MultiPolygon","coordinates": [[[[36.3931,0.9168,1314.1632],[36.3943,0.9163,1350.7927],[36.4163,0.9365,1393.2273],[36.428,0.9505,1343.9226],[36.4444,0.9838,1497.6267],[36.4508,1.0017,1301.4773],[36.4532,1.0183,1369.8008],[36.4484,1.0277,1383.6313],[36.4472,1.0346,1402.5081],[36.4426,1.041,1265.6617],[36.4443,1.0573,1289.8823],[36.4425,1.0616,1239.2175],[36.4434,1.0755,1411.5085],[36.4391,1.0851,1426.0487],[36.4388,1.091,1556.5259],[36.4398,1.1008,1427.1467],[36.4447,1.1126,1496.2678],[36.4447,1.1198,1493.0839],[36.44,1.1378,1325.3121],[36.4336,1.1436,1172.2955],[36.4361,1.1547,1246.24],[36.4413,1.1646,1359.0847],[36.4427,1.1792,1317.7286],[36.438,1.1826,1352.9695],[36.4333,1.1824,1316.8022],[36.4272,1.1874,1317.0101],[36.4199,1.1907,1418.895],[36.3979,1.1774,1239.5814],[36.3948,1.1771,1229.3921],[36.3915,1.1796,1167.049],[36.3901,1.1888,1046.5853],[36.3966,1.1948,1183.5701],[36.3974,1.2118,1073.8071],[36.3951,1.2249,950.9628],[36.4057,1.2342,912.7983],[36.4119,1.2362,934.3375],[36.4171,1.2308,970.3596],[36.4212,1.2384,950.0425],[36.4142,1.2489,939.7728],[36.4144,1.2598,974.4132],[36.412,1.2642,980.636],[36.4094,1.2633,1003.0948],[36.4045,1.2563,1090.9636],[36.4004,1.2589,1112.9187],[36.3966,1.2592,1049.6833],[36.3893,1.2674,1063.0563],[36.3912,1.2705,946.8799],[36.395,1.2699,924.0837],[36.3969,1.2771,1052.4487],[36.4042,1.2734,932.8693],[36.4096,1.2789,1117.0742],[36.4176,1.2744,1053.9758],[36.4238,1.2671,912.5563],[36.4305,1.2668,934.2007],[36.4472,1.2521,942.2169],[36.45,1.2529,980.3403],[36.4472,1.2561,936.2599],[36.4511,1.2574,949.453],[36.4536,1.2607,998.1839],[36.4503,1.2765,1001.8418],[36.4444,1.2822,1134.4143],[36.4402,1.2919,1188.1244],[36.4367,1.2953,1127.7345],[36.4381,1.3049,1208.4468],[36.4359,1.3081,1178.2217],[36.4267,1.3046,1147.2781],[36.421,1.2996,1127.4779],[36.4108,1.3042,1150.2347],[36.4061,1.3036,956.8768],[36.403,1.3121,1084.6589],[36.3972,1.3119,876.9043],[36.3937,1.3157,860.4387],[36.396,1.3184,840.6144],[36.4039,1.3173,947.9888],[36.4124,1.3297,880.4491],[36.4211,1.3347,987.7703],[36.4223,1.3465,945.0344],[36.4248,1.3496,827.9008],[36.434,1.3526,875.7759],[36.4416,1.3622,915.3093],[36.4604,1.3717,984.5895],[36.466,1.3846,956.6085],[36.4669,1.4025,1091.2577],[36.462,1.4072,966.5205],[36.4553,1.4023,1045.5382],[36.4508,1.41,900.4736],[36.4505,1.4141,925.1828],[36.4474,1.4165,997.6163],[36.4418,1.4145,1054.2776],[36.4379,1.4159,1085.2683],[36.4282,1.4125,1073.328],[36.4274,1.4192,1109.59],[36.4199,1.4206,1116.8374],[36.409,1.4326,962.8763],[36.4015,1.4373,894.7991],[36.3927,1.4493,813.9813],[36.3868,1.4499,859.4553],[36.3802,1.4456,852.3622],[36.3747,1.4463,896.2477],[36.3676,1.4426,891.6935],[36.3627,1.4431,858.9819],[36.3558,1.4413,830.4661],[36.3487,1.4445,859.3969],[36.3422,1.4508,860.8781],[36.3221,1.4756,999.5683],[36.3181,1.4763,944.2195],[36.2925,1.4689,734.0894],[36.2896,1.4698,727.8196],[36.3,1.4911,957.5346],[36.2999,1.4961,933.5348],[36.2968,1.5043,875.6917],[36.301,1.5148,828.7635],[36.3011,1.5346,700.4874],[36.3026,1.5413,713.6751],[36.3346,1.5694,483.7907],[36.3413,1.5734,474.6402],[36.3446,1.5785,462.8197],[36.3448,1.5722,483.7052],[36.3463,1.571,504.6014],[36.357,1.5711,453.3978],[36.3588,1.5871,411.265],[36.3701,1.5965,416.6185],[36.3731,1.594,440.8781],[36.3771,1.5861,484.8259],[36.376,1.575,576.5275],[36.3725,1.5707,612.1893],[36.3757,1.5432,727.2573],[36.3796,1.5373,758.1302],[36.3855,1.5324,723.7482],[36.3895,1.5251,784.0291],[36.3956,1.5263,713.9632],[36.4021,1.5369,598.0914],[36.4128,1.5615,475.004],[36.4209,1.571,444.0755],[36.4264,1.573,500.4235],[36.4286,1.5835,443.0067],[36.4324,1.5892,452.194],[36.4331,1.597,426.6228],[36.4381,1.603,470.3713],[36.4411,1.615,438.2388],[36.4447,1.6184,435.4062],[36.4474,1.6189,442.1032],[36.4552,1.6145,519.3741],[36.4636,1.6152,570.3388],[36.4644,1.6285,490.0761],[36.4692,1.6422,475.372],[36.4703,1.6614,417.8519],[36.4776,1.6719,419.8916],[36.4815,1.6843,554.1642],[36.4856,1.6866,561.9335],[36.4871,1.7045,439.0489],[36.4998,1.7074,518.9266],[36.5038,1.7114,500.0132],[36.504,1.7198,493.0346],[36.5087,1.7251,470.5129],[36.5096,1.7383,550.6089],[36.5159,1.7466,584.0897],[36.5207,1.7468,599.9152],[36.5279,1.7578,652.7781],[36.5256,1.7643,697.4948],[36.5228,1.7583,672.4993],[36.5193,1.7569,701.4548],[36.519,1.7636,712.5304],[36.5129,1.7684,528.3804],[36.5116,1.7731,530.543],[36.513,1.7755,492.1168],[36.5189,1.7723,620.9362],[36.5192,1.7792,575.1387],[36.5172,1.7824,538.6097],[36.5217,1.7845,538.137],[36.5254,1.7904,579.3156],[36.524,1.792,606.9327],[36.5254,1.7944,601.9809],[36.5224,1.7972,654.8691],[36.5272,1.801,672.6127],[36.5316,1.808,747.3494],[36.5219,1.8143,713.3817],[36.5155,1.8232,634.2428],[36.5147,1.8311,638.4929],[36.5173,1.8322,616.7932],[36.523,1.8306,688.1993],[36.5245,1.8336,742.6484],[36.5216,1.8372,658.0114],[36.5249,1.8475,690.223],[36.5229,1.8527,668.5737],[36.5185,1.8475,644.5402],[36.5163,1.8528,685.9682],[36.5151,1.8806,503.6548],[36.5161,1.8844,512.8339],[36.5203,1.8865,615.9973],[36.5218,1.8901,555.8448],[36.5248,1.8905,688.9455],[36.5256,1.8952,604.3614],[36.5291,1.8969,634.4346],[36.533,1.9047,749.4076],[36.5375,1.9065,937.9776],[36.5384,1.9128,961.4279],[36.5414,1.9187,929.9967],[36.5421,1.9294,899.4923],[36.5397,1.944,701.295],[36.5412,1.9603,713.1808],[36.5396,1.9609,708.1672],[36.5379,1.9551,619.103],[36.5342,1.9535,597.8951],[36.5325,1.9544,565.0291],[36.5321,1.9573,428.1431],[36.5364,1.9703,555.3014],[36.541,1.9778,680.8152],[36.5467,1.9953,552.6401],[36.5454,2.004,447.827],[36.5402,2.0076,327.7324],[36.5415,2.0114,335.6282],[36.5431,2.0121,347.8594],[36.545,2.0118,408.7038],[36.5473,2.0083,401.9865],[36.5474,2.0212,420.0043],[36.5445,2.0277,313.2162],[36.5474,2.0325,318.18],[36.5499,2.0316,371.7272],[36.5518,2.0346,357.4162],[36.556,2.0429,356.5519],[36.5563,2.0485,344.2879],[36.5582,2.0504,344.682],[36.5611,2.0502,382.2317],[36.5692,2.0583,485.3784],[36.5661,2.085,284.6891],[36.5676,2.0965,405.2028],[36.5647,2.1084,293.2385],[36.5806,2.1258,327.544],[36.585,2.1409,421.711],[36.5879,2.1458,397.8524],[36.595,2.1464,392.4793],[36.5996,2.1536,367.8409],[36.6111,2.1629,424.4269],[36.6132,2.1629,434.1456],[36.6128,2.161,446.8107],[36.6206,2.1654,438.73],[36.6365,2.1682,443.8156],[36.6487,2.1731,497.0116],[36.6587,2.1789,515.8934],[36.6708,2.1909,628.558],[36.6814,2.1973,857.7685],[36.7018,2.2039,799.6747],[36.7004,2.2176,823.8734],[36.7041,2.2215,996.9576],[36.7115,2.2241,1067.1643],[36.7121,2.2263,990.2057],[36.7124,2.2367,1071.5726],[36.7104,2.2407,965.3952],[36.7139,2.246,1126.5586],[36.7143,2.2555,1340.6729],[36.7127,2.2611,1340.0242],[36.7086,2.2643,1192.2173],[36.7151,2.2672,1094.946],[36.7236,2.276,1255.0364],[36.722,2.2859,1379.4178],[36.7239,2.292,1253.6626],[36.7233,2.3026,1076.3774],[36.6013,2.3608,556.1067],[36.6013,2.4095,375.48],[36.6025,2.4092,362.0],[36.5933,2.4171,396.4037],[36.5917,2.4172,426.9734],[36.5893,2.4132,421.0485],[36.5855,2.4109,382.9656],[36.5795,2.4109,379.7296],[36.5761,2.408,392.7303],[36.5682,2.4086,362.0],[36.5664,2.4039,383.9132],[36.5604,2.4006,370.8176],[36.5527,2.4027,362.5659],[36.5483,2.4069,362.0],[36.5418,2.4084,365.1946],[36.5391,2.4114,368.2359],[36.532,2.4361,362.0],[36.5244,2.451,362.0],[36.5249,2.4595,362.0],[36.5295,2.4735,362.0],[36.5275,2.4867,384.5205],[36.5279,2.4921,370.3677],[36.5311,2.5005,374.7248],[36.5302,2.5264,362.0],[36.5248,2.5304,362.0],[36.5149,2.5605,366.1186],[36.4935,2.5761,363.6815],[36.4743,2.6017,363.0154],[36.4729,2.6093,363.7963],[36.4639,2.6097,387.8253],[36.4535,2.6128999999999998,375.0602],[36.4383,2.6341,371.8101],[36.4381,2.6433,362.0],[36.4347,2.6523,392.9225],[36.4361,2.6693,362.0],[36.4339,2.683,362.0],[36.4367,2.6927,363.59],[36.4468,2.7073,362.0],[36.4471,2.7102,362.0],[36.4322,2.7187,362.0],[36.4293,2.723,362.0],[36.4213,2.7405,362.0],[36.4219,2.7496,362.0],[36.4187,2.7675,362.0],[36.4132,2.7736,362.0],[36.4117,2.7784,362.0],[36.3963,2.8039,362.0],[36.3882,2.8216,362.0],[36.387,2.832,362.0],[36.3831,2.8394,363.3513],[36.3785,2.8459,363.2615],[36.3675,2.856,362.4938],[36.3643,2.8621,362.0],[36.3596,2.8659,362.0],[36.3467,2.8673,362.0],[36.3248,2.8775,362.0],[36.2998,2.8924,362.0],[36.2914,2.8926,363.0583],[36.2827,2.8964,364.9308],[36.2691,2.9148,362.0],[36.2669,2.9264,362.0],[36.2615,2.939,362.0],[36.2582,2.9638,365.3176],[36.2548,2.9704,364.1843],[36.2537,2.9695,365.0359],[36.2556,2.9656,365.123],[36.2549,2.9561,366.4331],[36.2477,2.9507,366.033],[36.2331,2.9585,365.5584],[36.2251,2.9587,366.3838],[36.2249,2.9569,366.2767],[36.2227,2.9563,366.0892],[36.2175,2.9599,365.7874],[36.2031,2.9623,366.2835],[36.1927,2.9691,365.6623],[36.1793,2.9673,366.3845],[36.1703,2.9691,366.3121],[36.1643,2.9677,365.9957],[36.1385,2.9703,365.7007],[36.1341,2.9685,365.5892],[36.1374,2.9843,364.9324],[36.1333,2.9827,368.0411],[36.13,2.9792,367.5696],[36.1296,2.9854,367.2114],[36.1256,2.9841,366.1832],[36.1238,2.9854,365.7344],[36.1276,3.0075,366.0038],[36.1318,3.0145,362.4141],[36.1364,3.018,362.0],[36.1369,3.0295,362.0],[36.1407,3.0365,362.0],[36.1423,3.0533,362.401],[36.142,3.0618,367.0159],[36.1398,3.0656,367.3181],[36.1409,3.0725,372.7009],[36.1473,3.0741,366.5],[36.1519,3.0815,364.9991],[36.1527,3.0865,367.8926],[36.1525,3.0911,366.9763],[36.1497,3.0955,366.7333],[36.1521,3.1171,362.0],[36.1495,3.1347,362.0],[36.1439,3.1453,362.7565],[36.1393,3.1489,364.4534],[36.1385,3.1515,364.7119],[36.1505,3.1907,362.0],[36.1517,3.2147,362.0],[36.1485,3.2217,362.0],[36.1461,3.2233,362.5543],[36.1441,3.2227,364.5407],[36.1399,3.2149,364.7485],[36.1423,3.2119,365.6958],[36.1413,3.2099,366.3301],[36.1379,3.2087,365.4561],[36.1209,3.2133,362.0],[36.1109,3.2207,362.0],[36.1013,3.2205,363.1276],[36.0833,3.2255,363.5763],[36.0741,3.2259,362.0],[36.0521,3.2385,362.0],[36.0495,4.2787,362.0],[36.0503,4.4463,362.0],[36.0521,4.4492,362.0],[36.0436,4.4512,362.8159],[36.0391,4.4541,363.2685],[35.9969,4.4914,363.1372],[35.9654,4.5115,363.8644],[35.9029,4.5896,366.7791],[35.8699,4.6273,366.6267],[35.7926,4.6264,448.8159],[35.7842,4.6729,395.8763],[35.7661,4.6819,397.6919],[35.736,4.6669,406.3488],[35.7076,4.6311,428.3117],[35.7048,4.623,429.1417],[35.6984,4.6228,432.5294],[35.6903,4.6251,443.5283],[35.5836,4.6239,861.4074],[35.5103,4.7481,1237.667],[35.5056,4.7636,1489.9971],[35.487,4.7774,1572.3474],[35.4973,4.7948,1650.2598],[35.503,4.8094,1524.7988],[35.5156,4.8786,1538.6873],[35.5194,4.9181,1110.6377],[35.524,4.9163,1297.7509],[35.5374,4.9588,519.2617],[35.5193,4.9588,566.9543],[35.42,4.9438,496.8608],[35.426,4.9859,476.8733],[35.441,5.0582,445.6969],[35.4079,5.0612,451.6716],[35.3507,5.01,451.5676],[35.2996,4.9829,448.3785],[35.2654,4.9772,458.2738],[35.2635,4.9777,460.3692],[35.2624,4.9804,462.2359],[34.9289,4.8573,450.3793],[34.9287,4.8588,450.2317],[34.6718,4.755,475.9438],[34.3715,4.6243,525.5231],[34.2256,4.4811,602.736],[34.2232,4.4828,602.5459],[33.9921,4.256,834.7148],[34.0177,4.236,825.7374],[34.002,4.2214,862.9185],[34.0474,4.1795,878.496],[34.0657,4.1444,984.71],[34.0495,4.1215,1060.7747],[34.0631,4.0946,968.7914],[34.0797,4.0858,928.8013],[34.0916,4.0617,1009.145],[34.0913,4.0495,1006.2852],[34.0876,4.037,1026.4023],[34.0588,4.0281,1040.3599],[34.06,4.0099,1019.0814],[34.0821,4.0026,1000.6813],[34.1057,3.977,1021.0728],[34.1346,3.9617,973.9261],[34.1199,3.9012,1121.4464],[34.1163,3.8978,1127.6207],[34.0914,3.8856,1145.5831],[34.0884,3.8616,1215.061],[34.0926,3.8602,1163.0239],[34.1094,3.8688,1170.2472],[34.1278,3.8725,1100.1299],[34.1526,3.8692,1063.4888],[34.1669,3.8702,1095.7339],[34.1707,3.8769,1071.3555],[34.175,3.88,1063.2804],[34.2046,3.8825,1040.2488],[34.2155,3.8812,1030.5956],[34.225,3.8525,1190.6321],[34.226,3.8314,1116.5646],[34.18,3.8319,1270.4064],[34.1686,3.8187,1213.7314],[34.1639,3.8108,1155.2981],[34.1583,3.8079,1243.1016],[34.1532,3.8073,1217.2792],[34.1537,3.8003,1152.5334],[34.159,3.8018,1150.7911],[34.1635,3.7981,1151.6327],[34.1705,3.8006,1118.7056],[34.1886,3.7955,1139.4315],[34.1882,3.7906,1234.4865],[34.1901,3.7832,1146.759],[34.166,3.7739,1195.0232],[34.1709,3.7681,1110.6162],[34.1858,3.7713,1084.6816],[34.2203,3.7845,1027.7235],[34.226,3.7829,1021.6923],[34.2268,3.7745,1076.41],[34.229,3.7745,1038.7168],[34.2332,3.7811,1011.2941],[34.2456,3.7842,995.575],[34.2579,3.7669,1031.0164],[34.2664,3.7486,1061.7402],[34.2833,3.7311,1038.6761],[34.2975,3.7215,1028.1755],[34.3079,3.7117,1059.8774],[34.3158,3.7166,991.3567],[34.3234,3.7285,976.5917],[34.331,3.7334,1015.3911],[34.365,3.7355,950.8649],[34.3823,3.7279,953.0181],[34.3942,3.7181,928.4991],[34.4028,3.7056,1105.2444],[34.4049,3.6931,933.582],[34.422,3.6889,914.6798],[34.4558,3.6766,951.4138],[34.4632,3.6698,840.2732],[34.4531,3.6115,1005.1321],[34.4566,3.5758,976.212],[34.4515,3.5175,1230.5334],[34.4396,3.5046,1039.0156],[34.4247,3.492,1043.1083],[34.396,3.4883,1123.8569],[34.391,3.4931,1276.0869],[34.3889,3.4921,1282.9009],[34.391,3.4833,1117.6758],[34.4038,3.4703,1084.641],[34.4166,3.451,1084.7485],[34.4193,3.4337,1261.0975],[34.4098,3.4184,1191.7062],[34.4017,3.4154,1131.2205],[34.4006,3.3709,1166.3481],[34.4299,3.343,1104.4121],[34.438,3.3077,1062.2332],[34.4474,3.2833,1072.9845],[34.4558,3.1823,1114.7957],[34.4604,3.1746,1116.4868],[34.4705,3.1729,1072.6144],[34.482,3.1654,1080.4197],[34.4888,3.1556,1102.1588],[34.4948,3.1416,1161.5544],[34.512,3.1491,1166.432],[34.5458,3.1368,1061.8013],[34.5589,3.1107,1097.3179],[34.5626,3.1078,1106.8308],[34.5723,3.0917,1096.6566],[34.5748,3.0692,1111.244],[34.5727,3.0503,1221.6808],[34.5757,3.0355,1080.2993],[34.5765,3.0208,1093.3279],[34.5844,3.0109,1097.1443],[34.5874,3.0041,1080.3353],[34.5888,2.9824,1103.1385],[34.599,2.9249,1198.1237],[34.6393,2.907,1221.781],[34.6529,2.8678,1161.8135],[34.6684,2.8634,1145.8528],[34.6849,2.8643,1128.9308],[34.6924,2.8631,1123.1929],[34.7017,2.8779,1099.1907],[34.7083,2.8737,1126.4756],[34.7117,2.8655,1131.8511],[34.7363,2.8552,1147.2731],[34.7491,2.8264,1217.7471],[34.7519,2.8261,1220.6908],[34.755,2.8287,1274.5504],[34.7621,2.8212,1173.6707],[34.7659,2.8137,1185.5425],[34.7672,2.8027,1169.8132],[34.7753,2.788,1088.3428],[34.7781,2.7706,1075.1555],[34.7835,2.7554,1087.8348],[34.7838,2.7429,1102.5461],[34.7754,2.6981,1055.2114],[34.7904,2.6836,1062.186],[34.7992,2.6561,1050.0485],[34.8316,2.6211,1067.9613],[34.8385,2.6045,1080.8815],[34.8522,2.5838,1120.8967],[34.8682,2.5708,1109.7372],[34.8783,2.5726,1098.3884],[34.8805,2.5897,1053.2468],[34.8938,2.5931,1025.1902],[34.8973,2.5883,1031.1204],[34.9051,2.5475,1057.1055],[34.913,2.5168,985.5018],[34.933,2.5162,959.9874],[34.9367,2.5001,1015.847],[34.9485,2.4724,987.8787],[34.9544,2.4726,987.209],[34.9534,2.4713,982.2874],[34.9549,2.4687,985.2122],[34.9525,2.4614,1035.1278],[34.9536,2.4579,1048.2046],[34.9644,2.4509,1309.6494],[34.9702,2.4483,1244.9526],[35.0256,2.4365,1662.5635],[35.0256,2.4439,1549.8782],[35.0228,2.4468,1569.168],[35.0194,2.4607,1130.3066],[35.0218,2.4685,1359.6665],[35.0193,2.4748,1339.0262],[35.0204,2.4877,1352.9252],[35.0156,2.5018,1251.5696],[35.0197,2.513,1278.3712],[35.0386,2.5379,912.1786],[35.0555,2.5677,855.86],[35.0583,2.5776,847.3063],[35.0565,2.5912,834.442],[35.0598,2.6033,827.2804],[35.0595,2.6108,821.0443],[35.0641,2.6227,815.3779],[35.0667,2.6256,814.6617],[35.0742,2.6284,806.4303],[35.0811,2.6394,801.5844],[35.0923,2.6454,791.4102],[35.0961,2.6495,785.2535],[35.1091,2.6527,775.0713],[35.1106,2.6499,775.0427],[35.1126,2.6526,771.7042],[35.1317,2.6452,776.657],[35.1575,2.6284,789.9794],[35.1668,2.6167,784.9636],[35.1784,2.598,812.849],[35.1858,2.5789,921.0684],[35.1869,2.5716,1094.4719],[35.2129,2.5425,782.1886],[35.2153,2.4965,764.629],[35.2205,2.4788,778.087],[35.2211,2.4662,768.0115],[35.2231,2.4593,756.8002],[35.2288,2.4498,744.7393],[35.2325,2.4469,738.8054],[35.2459,2.4455,729.3654],[35.2507,2.4397,718.3337],[35.2721,2.4374,707.7397],[35.2917,2.4285,699.4232],[35.2976,2.4206,689.5397],[35.3024,2.4018,696.6586],[35.3031,2.403,696.8162],[35.3073,2.3307,725.4355],[35.3118,2.2841,733.2894],[35.3432,2.1714,763.896],[35.3937,1.9688,761.1421],[35.3893,1.9654,768.8942],[35.3912,1.9585,759.2713],[35.3872,1.9549,766.6562],[35.3805,1.9533,765.5401],[35.3769,1.9502,771.9803],[35.3749,1.9465,769.3118],[35.3745,1.9402,770.5393],[35.3694,1.9343,769.1014],[35.4518,1.8554,787.3915],[35.4527,1.8506,787.4351],[35.4575,1.8516,788.1899],[35.4608,1.8455,790.796],[35.4675,1.8474,795.7098],[35.4691,1.8436,795.1755],[35.4732,1.8411,796.1616],[35.4743,1.8333,794.9249],[35.4767,1.8311,795.5881],[35.4747,1.8284,794.2233],[35.4769,1.8267,792.8335],[35.4726,1.822,795.23],[35.473,1.8186,795.5965],[35.4776,1.8179,796.9229],[35.4745,1.8145,796.8123],[35.4742,1.8108,797.8784],[35.4715,1.8102,800.3643],[35.4709,1.8083,801.1033],[35.4746,1.8085,799.3602],[35.4759,1.8043,799.5735],[35.4825,1.8019,805.728],[35.4827,1.7966,803.9141],[35.4858,1.7953,806.2277],[35.4853,1.7917,803.7554],[35.4879,1.7904,804.0391],[35.4897,1.7862,806.5897],[35.4928,1.787,809.5607],[35.4915,1.7849,806.7422],[35.4925,1.7832,806.9921],[35.495,1.7832,808.7424],[35.4953,1.7811,811.2124],[35.4972,1.7804,813.9979],[35.4948,1.774,809.6361],[35.4985,1.7733,817.1849],[35.498,1.7709,811.981],[35.5,1.7729,819.2669],[35.5036,1.7708,815.3007],[35.5159,1.7744,826.5217],[35.528,1.7682,838.5217],[35.5327,1.7677,844.405],[35.5373,1.7699,847.5944],[35.5453,1.7684,854.8149],[35.5493,1.7705,857.3815],[35.5596,1.7662,865.8906],[35.5621,1.7672,869.122],[35.5676,1.764,876.1694],[35.5695,1.7664,876.7292],[35.5744,1.7668,880.0739],[35.5771,1.765,882.7141],[35.5858,1.7643,891.0879],[35.5938,1.7685,896.6733],[35.5956,1.7666,898.9219],[35.5984,1.7666,902.4776],[35.6037,1.7586,903.7451],[35.6076,1.7574,908.7625],[35.6084,1.7554,913.867],[35.6135,1.7559,913.2917],[35.6185,1.7538,919.1806],[35.6203,1.7547,921.4823],[35.6289,1.751,941.0392],[35.6384,1.7493,951.3638],[35.6407,1.7466,954.1579],[35.6485,1.7461,965.7783],[35.6577,1.7378,975.9067],[35.6694,1.7352,992.4767],[35.6736,1.7272,997.529],[35.679,1.7255,1011.239],[35.6851,1.72,1027.072],[35.7021,1.711,1016.7814],[35.7188,1.6973,975.077],[35.7198,1.6944,961.9298],[35.7254,1.6929,965.6559],[35.7386,1.683,918.0436],[35.7414,1.6833,914.9456],[35.7509,1.6804,898.2944],[35.7532,1.6784,890.4336],[35.7588,1.6779,873.8986],[35.762,1.6746,869.0703],[35.771,1.6705,846.8458],[35.7817,1.6683,818.7714],[35.786,1.6615,832.1498],[35.7855,1.6559,816.5282],[36.0961,1.171,728.9161],[36.0973,1.1732,729.1472],[36.1732,1.1752,1435.3231],[36.3173,0.9955,1187.6252],[36.3422,0.9983,1027.6199],[36.3426,0.9937,1039.5638],[36.3469,0.9913,1035.3378],[36.3477,0.9752,1049.9366],[36.3515,0.9667,1064.4705],[36.3638,0.9642,1144.3866],[36.3654,0.959,1083.8027],[36.3699,0.9559,1213.7139],[36.3753,0.9572,1305.208],[36.3787,0.9554,1178.6868],[36.3842,0.9551,1204.6245],[36.3843,0.9515,1134.3143],[36.3889,0.9494,1210.6624],[36.3906,0.9462,1179.4241],[36.388,0.9451,1232.6624],[36.388,0.931,1313.0151],[36.3939,0.9248,1490.9111],[36.3931,0.9168,1314.1632]]]]}}