{"type": "Feature","bbox": [35.0388,0.6339,35.1554,0.7455],"geometry": {"type": "MultiPolygon","coordinates": [[[[35.1008,0.7346,1885.4531],[35.1002,0.7302,1861.5804],[35.0921,0.7284,1840.337],[35.092,0.7093,1901.1567],[35.0657,0.7052,1885.3318],[35.0641,0.7166,1899.3018],[35.0531,0.712,1880.2452],[35.0442,0.6981,1866.1145],[35.0388,0.6931,1858.8264],[35.0393,0.6627,1897.1995],[35.0435,0.6527,1889.618],[35.0412,0.6443,1838.6631],[35.0527,0.6408,1885.5253],[35.0538,0.6369,1844.3782],[35.0611,0.6364,1825.9904],[35.0613,0.6381,1844.741],[35.0629,0.6382,1844.741],[35.0685,0.6367,1822.1327],[35.0697,0.6339,1825.0785],[35.0834,0.6358,1893.5436],[35.0863,0.6343,1880.4277],[35.0918,0.6399,1846.082],[35.0963,0.6417,1849.7374],[35.1033,0.6517,1878.6586],[35.1067,0.651,1854.5767],[35.113,0.6464,1898.3226],[35.116,0.6463,1865.8694],[35.1174,0.6542,1903.6425],[35.1195,0.654,1908.0259],[35.125,0.6594,1916.1802],[35.1341,0.6603,1907.6718],[35.1414,0.6661,1931.7144],[35.1484,0.6644,1920.594],[35.155,0.6668,1930.7006],[35.1513,0.6728,1938.5596],[35.1553,0.6802,1946.2622],[35.1554,0.7455,1924.1107],[35.1441,0.745,1920.0537],[35.1374,0.7387,1906.2183],[35.1286,0.7348,1907.8496],[35.1249,0.735,1909.2101],[35.1224,0.7325,1903.1407],[35.1147,0.7336,1882.3521],[35.1101,0.7381,1900.1936],[35.1069,0.7374,1901.8561],[35.1063,0.7355,1897.1075],[35.1032,0.7364,1895.0659],[35.1008,0.7346,1885.4531]]]]}
,"properties": {"GID_3": "KEN.3.5.2_1","GID_0": "KEN","country": "Kenya","GID_1": "KEN.3_1","province": "Bungoma","NL_NAME_1": "NA","GID_2": "KEN.3.5_1","county": "Likuyani","NL_NAME_2": "NA","city": "Likuyani","VARNAME_3": "NA","NL_NAME_3": "NA","TYPE_3": "Ward","ENGTYPE_3": "Ward","CC_3": "997","HASC_3": "NA","name": "Likuyani.city","area_km2": 108.44149,"hist_schema_id": "Elevation0-9000","hist_area_km2": {"1825": 1.71727,"1850": 2.98931,"1875": 23.74478,"1900": 41.63814,"1925": 26.88243,"1950": 10.85474,"1975": 0.61482}}}