{"type": "Feature","bbox": [34.8168,-0.6081,34.8904,-0.5134],"geometry": {"type": "MultiPolygon","coordinates": [[[[34.8168,-0.5608,1649.2053],[34.8221,-0.5668,1633.9904],[34.821,-0.5716,1657.96],[34.8248,-0.5772,1721.4207],[34.8354,-0.5857,1716.0442],[34.8378,-0.5911,1791.3969],[34.8466,-0.5918,1959.5046],[34.8501,-0.5942,1983.278],[34.8538,-0.5927,1941.5295],[34.8664,-0.6026,1865.4729],[34.8745,-0.6014,1896.6285],[34.8867,-0.6081,1972.9055],[34.8895,-0.6053,1989.7003],[34.8904,-0.5987,1985.7379],[34.8827,-0.5879,1887.9702],[34.8785,-0.5864,1935.9739],[34.8805,-0.5827,1951.726],[34.876,-0.5733,1875.9167],[34.8722,-0.5698,1867.5065],[34.8789,-0.5522,1833.968],[34.8762,-0.5513,1875.4961],[34.8756,-0.5398,1797.6836],[34.8708,-0.5311,1741.1671],[34.8693,-0.5134,1664.8682],[34.8652,-0.5142,1670.2395],[34.8623,-0.5229,1645.5009],[34.8571,-0.5226,1619.6],[34.8548,-0.5307,1680.4446],[34.8552,-0.5352,1659.6864],[34.8488,-0.5419,1733.0592],[34.8373,-0.551,1728.449],[34.8313,-0.5501,1708.877],[34.8269,-0.5519,1706.4675],[34.8215,-0.5589,1693.1136],[34.8168,-0.5608,1649.2053]]]]}
,"properties": {"GID_3": "KEN.16.5.3_1","GID_0": "KEN","country": "Kenya","GID_1": "KEN.16_1","province": "Kisii","NL_NAME_1": "NA","GID_2": "KEN.16.5_1","county": "KitutuChacheNorth","NL_NAME_2": "NA","city": "Monyerero","VARNAME_3": "NA","NL_NAME_3": "NA","TYPE_3": "Ward","ENGTYPE_3": "Ward","CC_3": "1337","HASC_3": "NA","name": "Monyerero.city","area_km2": 38.96775,"hist_schema_id": "Elevation0-9000","hist_area_km2": {"1625": 0.12721,"1650": 1.35688,"1675": 3.13778,"1700": 3.87982,"1725": 3.92222,"1750": 3.43459,"1775": 2.92576,"1800": 2.16252,"1825": 1.63249,"1850": 2.60774,"1875": 3.43458,"1900": 2.94696,"1925": 2.01411,"1950": 2.69254,"1975": 1.59008,"2000": 0.72084,"2025": 0.38162}}}