{"type":"Feature","properties":{"GID_3":"KEN.10.2.4_1","GID_0":"KEN","country":"Kenya","GID_1":"KEN.10_1","province":"Kajiado","NL_NAME_1":"NA","GID_2":"KEN.10.2_1","county":"KajiadoEast","NL_NAME_2":"NA","city":"Kitengela","VARNAME_3":"NA","NL_NAME_3":"NA","TYPE_3":"Ward","ENGTYPE_3":"Ward","CC_3":"922","HASC_3":"NA","name":"Kitengela.city"},
"geometry":{"type": "MultiPolygon","coordinates": [[[[36.8841,-1.4847,1577.0804],[36.8783,-1.4752,1598.6094],[36.8902,-1.4105,1538.251],[36.8944,-1.411,1546.9141],[36.8951,-1.4094,1559.7241],[36.8819,-1.4037,1579.662],[36.8785,-1.4048,1562.1732],[36.8755,-1.4035,1566.323],[36.8708,-1.4052,1548.2789],[36.8695,-1.4011,1601.0044],[36.8638,-1.4017,1603.9359],[36.8573,-1.3966,1614.7734],[36.8498,-1.3943,1605.9585],[36.8449,-1.3892,1621.0031],[36.8447,-1.3851,1624.4626],[36.8432,-1.3843,1629.8599],[36.8395,-1.386,1630.1575],[36.837,-1.3846,1629.5983],[36.8363,-1.3864,1626.2617],[36.8282,-1.3855,1620.933],[36.8224,-1.3833,1627.0563],[36.8203,-1.3807,1636.4421],[36.82,-1.388,1655.9966],[36.8027,-1.3897,1671.0452],[36.7938,-1.397,1693.3005],[36.7908,-1.4015,1705.5399],[36.7854,-1.4027,1710.5581],[36.785,-1.4051,1715.1294],[36.7775,-1.4037,1716.6245],[36.7784,-1.4053,1713.1774],[36.7747,-1.4069,1710.5947],[36.7743,-1.4094,1706.5347],[36.7724,-1.4078,1712.7939],[36.773,-1.4055,1718.4115],[36.7681,-1.4075,1715.7123],[36.7661,-1.4059,1717.5325],[36.7661,-1.4104,1716.5908],[36.7611,-1.4122,1731.3809],[36.7582,-1.4113,1738.0692],[36.7508,-1.4165,1733.1887],[36.7476,-1.4158,1751.8206],[36.7477,-1.4177,1744.1489],[36.7451,-1.4196,1743.3324],[36.7395,-1.4191,1760.4747],[36.7348,-1.4215,1744.0216],[36.7329,-1.4207,1755.1655],[36.7224,-1.4228,1771.896],[36.7177,-1.43,1756.6626],[36.7232,-1.4382,1789.0491],[36.7434,-1.4349,1759.2253],[36.7545,-1.4567,1752.2831],[36.7566,-1.458,1749.3979],[36.7696,-1.4616,1737.4336],[36.7743,-1.4598,1738.8036],[36.7805,-1.4613,1736.2864],[36.786,-1.4593,1735.6012],[36.7962,-1.4593,1728.1841],[36.8029,-1.4665,1717.6348],[36.8065,-1.4674,1722.9329],[36.8103,-1.4736,1707.6316],[36.82,-1.4789,1695.9629],[36.8247,-1.4758,1692.9213],[36.8257,-1.4785,1677.505],[36.8309,-1.4821,1683.4993],[36.8336,-1.4872,1675.6361],[36.8377,-1.489,1676.6001],[36.856,-1.4933,1663.0072],[36.868,-1.4924,1610.1228],[36.8752,-1.4882,1592.4958],[36.8802,-1.492,1580.0265],[36.8841,-1.4847,1577.0804]]]]}}