{"type":"Feature","properties":{"GID_2":"KEN.22.4_1","GID_0":"KEN","country":"Kenya","GID_1":"KEN.22_1","province":"Machakos","NL_NAME_1":"NA","county":"Masinga","VARNAME_2":"NA","NL_NAME_2":"NA","TYPE_2":"Constituency","ENGTYPE_2":"Constituency","CC_2":"75","HASC_2":"NA","name":"Masinga.county"},
"geometry":{"type": "MultiPolygon","coordinates": [[[[37.5334,-0.9101,1054.5],[37.5299,-0.9135,1054.5],[37.5184,-0.9161,1054.5],[37.5158,-0.912,1054.5],[37.515,-0.902,1054.5],[37.5026,-0.8989,1054.5],[37.4951,-0.9024,1054.5],[37.4912,-0.8991,1054.5],[37.4853,-0.8975,1054.5],[37.4832,-0.893,1054.5],[37.4766,-0.891,1054.5],[37.476,-0.8874,1054.5],[37.4715,-0.884,1054.5],[37.4741,-0.8741,1054.5],[37.4702,-0.8746,1054.5],[37.4673,-0.8715,1054.5],[37.4622,-0.874,1054.5],[37.4585,-0.8689,1054.5],[37.4537,-0.8703,1054.5],[37.4472,-0.869,1054.5],[37.4429,-0.8611,1054.5],[37.4325,-0.8605,1058.7417],[37.4269,-0.8648,1054.5],[37.4188,-0.86,1058.5518],[37.4132,-0.8598,1054.5],[37.4111,-0.857,1054.5],[37.4149,-0.8518,1054.5],[37.4125,-0.8484,1054.5],[37.4037,-0.8498,1054.5],[37.3979,-0.8546,1054.5],[37.394,-0.8527,1059.1029],[37.3884,-0.853,1054.5],[37.3857,-0.8501,1059.2485],[37.3801,-0.8557,1054.5],[37.3765,-0.8532,1054.5],[37.3769,-0.8488,1054.5],[37.3704,-0.8475,1054.5],[37.3638,-0.8429,1054.5],[37.3578,-0.8419,1054.5],[37.351,-0.844,1054.5],[37.3499,-0.8407,1054.5],[37.3466,-0.8429,1054.5],[37.3433,-0.8404,1054.5],[37.3368,-0.8449,1054.5],[37.3341,-0.8422,1054.5],[37.3273,-0.8417,1054.5],[37.3235,-0.8383,1054.5],[37.3263,-0.8338,1065.9434],[37.3199,-0.8345,1054.5],[37.3155,-0.8234,1054.5],[37.3123,-0.821,1054.5],[37.3132,-0.817,1061.1407],[37.3103,-0.8138,1058.1615],[37.3051,-0.8118,1054.5],[37.306,-0.8063,1054.5],[37.3048,-0.8046,1054.5],[37.3063,-0.8007,1054.5],[37.3037,-0.7978,1054.5],[37.3009,-0.7974,1054.5],[37.2989,-0.7934,1054.5],[37.2939,-0.7919,1056.1722],[37.2881,-0.783,1055.375],[37.2851,-0.781,1101.9255],[37.2816,-0.7828,1071.1656],[37.2769,-0.7823,1088.2273],[37.2714,-0.7854,1056.5],[37.2674,-0.7852,1070.3904],[37.263,-0.79,1116.8502],[37.2584,-0.8374,1145.1991],[37.2332,-0.8371,1224.0021],[37.2252,-0.8521,1317.6552],[37.2407,-0.8578,1294.0094],[37.2416,-0.8615,1330.6448],[37.2484,-0.8613,1365.0034],[37.2527,-0.8572,1302.3558],[37.2562,-0.864,1360.9425],[37.2822,-0.8928,1314.1099],[37.3009,-0.9028,1233.7336],[37.3197,-0.9157,1142.4924],[37.3175,-0.9181,1138.0674],[37.3186,-0.9209,1133.3867],[37.3234,-0.926,1224.8223],[37.3249,-0.9257,1246.1107],[37.3241,-0.929,1187.7402],[37.3256,-0.9301,1203.4344],[37.3146,-0.9361,1224.9673],[37.3168,-0.944,1243.8402],[37.3277,-0.9404,1190.2076],[37.3306,-0.9438,1247.6862],[37.3283,-0.9462,1236.7241],[37.3339,-0.9515,1236.3442],[37.3351,-0.9557,1249.4877],[37.3369,-0.9545,1265.0533],[37.3426,-0.9577,1279.3947],[37.3546,-0.9434,1600.3398],[37.356,-0.9456,1490.0234],[37.3546,-0.9474,1571.3945],[37.3667,-0.9641,1421.5498],[37.3463,-0.9766,1271.952],[37.3355,-0.9765,1265.9285],[37.3383,-0.9813,1332.522],[37.3625,-0.9837,1418.5968],[37.4061,-1.008,1404.108],[37.4211,-1.0299,1185.2192],[37.4192,-1.0312,1197.2001],[37.4207,-1.0333,1282.8929],[37.4477,-1.0105,1057.814],[37.4466,-1.0078,1074.8628],[37.452,-1.0049,1058.2549],[37.4525,-1.0023,1068.53],[37.4512,-1.0016,1056.4125],[37.4703,-0.9972,1204.8369],[37.4728,-0.9861,1259.1627],[37.5431,-0.9938,1122.6201],[37.5126,-1.0421,1193.8636],[37.5203,-1.0566,1211.8451],[37.5199,-1.0659,1209.3599],[37.5264,-1.0764,1219.443],[37.5957,-1.0868,1195.8677],[37.7336,-1.08,1488.9043],[37.7939,-1.125,1158.2831],[37.7978,-1.1207,1150.1014],[37.798,-1.1182,1154.1483],[37.8019,-1.1165,1145.3218],[37.8025,-1.111,1151.4291],[37.8046,-1.1091,1140.756],[37.8079,-1.0994,1137.4995],[37.808,-1.0922,1130.7009],[37.8188,-1.0802,1116.7274],[37.8206,-1.0708,1120.2195],[37.8261,-1.07,1118.7698],[37.8278,-1.0711,1117.1886],[37.832,-1.0677,1105.5647],[37.84,-1.0524,1105.3539],[37.8435,-1.0513,1096.7363],[37.846,-1.0475,1092.8247],[37.8458,-1.0449,1094.9272],[37.8483,-1.0415,1083.4755],[37.8463,-1.0293,1082.4446],[37.8488,-1.0264,1077.3057],[37.8491,-1.0136,1075.9434],[37.8512,-1.0032,1072.488],[37.847,-0.9995,1066.5034],[37.8462,-0.9947,1079.1431],[37.8503,-0.9943,1060.2428],[37.8496,-0.9911,1062.156],[37.854,-0.9866,1068.833],[37.8588,-0.9857,1061.3505],[37.8609,-0.9827,1063.9282],[37.8655,-0.9827,1042.5295],[37.8622,-0.9786,1062.1332],[37.868,-0.9778,1040.6538],[37.8681,-0.9739,1047.4075],[37.8661,-0.9728,1041.5312],[37.8624,-0.974,1052.1353],[37.864,-0.9689,1048.5203],[37.8596,-0.9679,1037.0217],[37.8572,-0.9655,1044.022],[37.8532,-0.9668,1032.5447],[37.8446,-0.9642,1050.3005],[37.8507,-0.961,1026.3589],[37.8511,-0.959,1028.2107],[37.8527,-0.9627,1017.901],[37.8541,-0.9623,1020.1473],[37.8539,-0.9586,1009.8721],[37.8491,-0.9528,1016.7715],[37.8515,-0.9503,1011.3912],[37.8463,-0.9473,1009.24],[37.8488,-0.9434,991.002],[37.846,-0.9423,1012.5322],[37.8468,-0.9402,1003.7235],[37.8502,-0.9418,995.1078],[37.8523,-0.9389,981.1839],[37.8513,-0.9352,978.5115],[37.8488,-0.9366,989.3364],[37.8511,-0.9331,974.9207],[37.8466,-0.9283,970.9523],[37.8416,-0.9277,969.4866],[37.8443,-0.9249,965.5533],[37.8438,-0.9236,962.4672],[37.8405,-0.9237,966.4997],[37.8427,-0.9198,967.7705],[37.8375,-0.9202,969.6044],[37.8386,-0.9098,941.8979],[37.8331,-0.9126,948.6611],[37.8331,-0.9078,934.9207],[37.8367,-0.9073,937.5591],[37.8369,-0.9052,958.3369],[37.8308,-0.9053,928.1594],[37.8284,-0.9014,916.9715],[37.8186,-0.9001,914.9718],[37.8181,-0.8974,926.3584],[37.8197,-0.8952,926.0416],[37.8225,-0.8953,902.6809],[37.8242,-0.8913,894.9246],[37.8221,-0.8909,897.0701],[37.8216,-0.8849,876.6735],[37.8198,-0.8826,900.0001],[37.8219,-0.8829,875.285],[37.8216,-0.8798,878.7238],[37.8257,-0.8761,852.5969],[37.8238,-0.8728,851.4018],[37.8274,-0.8722,840.6356],[37.8262,-0.8666,870.6809],[37.8318,-0.8641,828.705],[37.8284,-0.8607,831.7607],[37.8299,-0.8572,836.756],[37.833,-0.8575,810.5475],[37.833,-0.855,808.5882],[37.831,-0.8536,827.0291],[37.8365,-0.8515,813.9799],[37.8382,-0.8485,800.8707],[37.8365,-0.8466,814.1852],[37.8373,-0.845,814.2292],[37.841,-0.845,796.4064],[37.8447,-0.8421,779.1264],[37.8415,-0.8404,786.5217],[37.8408,-0.835,786.3975],[37.8491,-0.8325,752.635],[37.8456,-0.8281,764.3287],[37.8475,-0.8254,748.8835],[37.8475,-0.8213,751.2487],[37.843,-0.8185,749.264],[37.846,-0.814,735.3127],[37.8448,-0.8111,742.1822],[37.8381,-0.8094,754.2999],[37.8369,-0.8122,748.0024],[37.8336,-0.8137,742.0927],[37.8286,-0.8056,747.7869],[37.819,-0.8044,757.7431],[37.8084,-0.8152,764.7915],[37.8079,-0.8072,779.0],[37.8056,-0.8017,796.5021],[37.7964,-0.8168,779.0],[37.791,-0.819,779.4268],[37.788,-0.8227,783.6351],[37.784,-0.8227,792.2843],[37.7821,-0.8248,786.1959],[37.7795,-0.8249,799.1313],[37.7711,-0.8207,829.156],[37.7649,-0.8243,850.37],[37.7573,-0.8238,867.7808],[37.7561,-0.8182,885.9291],[37.7539,-0.8154,892.5886],[37.7548,-0.8127,901.4661],[37.7498,-0.8028,922.9648],[37.7474,-0.7878,925.0],[37.7439,-0.7792,925.0],[37.7322,-0.7745,940.7499],[37.7242,-0.7804,937.1897],[37.7185,-0.7795,942.1992],[37.7066,-0.7815,954.0809],[37.6985,-0.7844,967.3395],[37.6988,-0.789,961.4685],[37.6929,-0.7911,968.7289],[37.6928,-0.7947,956.9959],[37.6905,-0.7967,970.5649],[37.6878,-0.794,980.9094],[37.6815,-0.7958,973.7408],[37.6824,-0.8087,1004.0],[37.6798,-0.8175,1004.0],[37.6815,-0.8226,1004.0],[37.6741,-0.8257,1004.0],[37.671,-0.8317,1004.0],[37.6709,-0.8372,1004.0],[37.6658,-0.8419,1004.0],[37.6646,-0.8462,1004.0],[37.6569,-0.8475,1006.6494],[37.6533,-0.8447,1004.0],[37.6486,-0.8444,1009.7515],[37.6461,-0.842,1010.9083],[37.64,-0.8455,1008.884],[37.6353,-0.8386,1008.9028],[37.6292,-0.8385,1019.0349],[37.6279,-0.8497,1010.7027],[37.6263,-0.8518,1026.5862],[37.6179,-0.8515,1020.2512],[37.6147,-0.8552,1017.3988],[37.6049,-0.8551,1023.1243],[37.6008,-0.8627,1017.9532],[37.5961,-0.8606,1019.0988],[37.5891,-0.8627,1019.5222],[37.5869,-0.8663,1013.0868],[37.5901,-0.868,1015.8823],[37.5914,-0.8709,1010.8716],[37.5882,-0.8729,1031.5205],[37.5872,-0.8782,1047.0305],[37.5749,-0.8768,1054.5],[37.5647,-0.8808,1054.5],[37.5614,-0.8754,1054.5],[37.5589,-0.8751,1054.5],[37.5509,-0.8844,1054.5],[37.5459,-0.8823,1054.5],[37.5428,-0.887,1054.5],[37.5372,-0.8887,1054.5],[37.5322,-0.8956,1054.5],[37.5355,-0.9063,1054.5],[37.5334,-0.9101,1054.5]]]]}}