{"type":"Feature","properties":{"GID_3":"KEN.26.1.5_1","GID_0":"KEN","country":"Kenya","GID_1":"KEN.26_1","province":"Meru","NL_NAME_1":"NA","GID_2":"KEN.26.1_1","county":"Buuri","NL_NAME_2":"NA","city":"Ruiri/Rwarera","VARNAME_3":"NA","NL_NAME_3":"NA","TYPE_3":"Ward","ENGTYPE_3":"Ward","CC_3":"284","HASC_3":"NA","name":"Ruiri_Rwarera.city"},
"geometry":{"type": "MultiPolygon","coordinates": [[[[37.5553,0.3289,1160.9639],[37.5467,0.3113,1197.6147],[37.5474,0.3078,1208.5908],[37.5491,0.3073,1218.2413],[37.5496,0.2958,1235.7173],[37.5459,0.2861,1267.9298],[37.5477,0.2829,1271.8462],[37.5465,0.2781,1303.2577],[37.5433,0.2753,1320.1372],[37.5415,0.271,1338.795],[37.5372,0.2678,1370.3943],[37.5353,0.2613,1402.4318],[37.5308,0.2577,1440.6112],[37.5281,0.2467,1475.5865],[37.5155,0.2343,1575.2766],[37.5251,0.2175,1608.1953],[37.5317,0.2133,1615.7998],[37.5344,0.2058,1646.9458],[37.5375,0.2095,1620.6335],[37.5377,0.2162,1606.5419],[37.542,0.2236,1562.45],[37.5444,0.2251,1562.8762],[37.5616,0.2285,1525.0679],[37.5787,0.2267,1493.6183],[37.5893,0.2278,1459.0229],[37.5981,0.1693,1785.3445],[37.5863,0.1659,1773.4111],[37.5831,0.1615,1912.4211],[37.5844,0.1583,1845.176],[37.5822,0.1549,1856.2515],[37.5824,0.1482,1893.9034],[37.5848,0.1323,1891.3827],[37.617,0.1317,1693.84],[37.6349,0.1331,1604.135],[37.6378,0.1339,1594.8235],[37.6453,0.1427,1558.1248],[37.6501,0.145,1535.6495],[37.6579,0.1478,1509.3855],[37.6695,0.148,1477.8901],[37.6782,0.1499,1455.8389],[37.6715,0.1565,1453.5631],[37.6697,0.1615,1445.3783],[37.6572,0.1792,1448.9854],[37.6485,0.1835,1451.7793],[37.6187,0.2467,1324.9736],[37.573,0.3288,1153.3024],[37.5553,0.3289,1160.9639]]]]}}