{"type":"Feature","properties":{"GID_3":"KEN.30.12.3_1","GID_0":"KEN","country":"Kenya","GID_1":"KEN.30_1","province":"Nairobi","NL_NAME_1":"NA","GID_2":"KEN.30.12_1","county":"Makadara","NL_NAME_2":"NA","city":"Maringo/Hamza","VARNAME_3":"NA","NL_NAME_3":"NA","TYPE_3":"Ward","ENGTYPE_3":"Ward","CC_3":"1430","HASC_3":"NA","name":"Maringo_Hamza.city"},
"geometry":{"type": "MultiPolygon","coordinates": [[[[36.8856,-1.2924,1626.4635],[36.8829,-1.2833,1620.8674],[36.8767,-1.2839,1625.884],[36.8759,-1.2862,1626.1932],[36.8673,-1.2895,1633.7816],[36.8666,-1.285,1630.6289],[36.8644,-1.281,1629.7733],[36.8629,-1.2811,1630.8293],[36.8515,-1.2874,1641.0175],[36.8515,-1.2911,1633.2058],[36.8612,-1.2866,1631.6399],[36.861,-1.2941,1638.5969],[36.8701,-1.2959,1636.2086],[36.8859,-1.2937,1626.7546],[36.8856,-1.2924,1626.4635]]]]}}