{"type": "Feature","bbox": [40.2431,-1.9351,40.8519,-1.3812],"geometry": {"type": "MultiPolygon","coordinates": [[[[40.2431,-1.3812,86.4197],[40.3353,-1.5739,79.8019],[40.3687,-1.65,75.9012],[40.4093,-1.731,69.6238],[40.4077,-1.7318,69.6882],[40.4093,-1.735,69.3926],[40.3719,-1.7531,72.5789],[40.4511,-1.8496,65.438],[40.4005,-1.8861,78.5725],[40.4024,-1.8887,80.0618],[40.4005,-1.8901,80.0857],[40.4333,-1.9351,72.7668],[40.5169,-1.8997,51.0241],[40.5203,-1.8967,49.8877],[40.7351,-1.7936,41.0025],[40.7363,-1.7961,39.8905],[40.7387,-1.7983,38.7201],[40.7357,-1.7946,40.3958],[40.7407,-1.7905,37.9225],[40.8373,-1.7437,37.6287],[40.8519,-1.7351,33.2862],[40.8477,-1.7295,33.1944],[40.8503,-1.718,33.4942],[40.8433,-1.7107,34.4021],[40.8447,-1.7054,34.8511],[40.8377,-1.7019,36.1299],[40.8327,-1.6925,36.5561],[40.8297,-1.6736,38.3193],[40.8243,-1.6655,38.6399],[40.8207,-1.6558,39.8248],[40.8117,-1.6466,41.3247],[40.8065,-1.6306,42.974],[40.8071,-1.628,43.3022],[40.8029,-1.6182,42.9193],[40.8031,-1.6148,45.472],[40.7947,-1.6099,43.821],[40.7853,-1.6018,45.2875],[40.7845,-1.5966,44.9134],[40.7811,-1.5913,45.3983],[40.7807,-1.5812,46.4608],[40.7765,-1.5716,47.2825],[40.7759,-1.5663,47.39],[40.7709,-1.5602,46.9705],[40.7687,-1.552,48.0527],[40.7615,-1.5488,49.6576],[40.7593,-1.5433,49.3824],[40.7569,-1.5417,51.0365],[40.7417,-1.5353,50.8961],[40.7385,-1.5309,52.1812],[40.6492,-1.4595,64.5701],[40.6373,-1.4734,61.3884],[40.6037,-1.4986,62.4659],[40.5885,-1.5067,62.9444],[40.5805,-1.5148,61.9965],[40.5715,-1.5197,61.4389],[40.5118,-1.5939,61.6548],[40.5053,-1.5901,62.5118],[40.5005,-1.5802,61.5571],[40.4693,-1.5678,65.0792],[40.4555,-1.5591,65.1203],[40.4471,-1.5447,65.4055],[40.4293,-1.5298,68.7921],[40.3741,-1.5137,70.7609],[40.3601,-1.495,72.2083],[40.3281,-1.443,78.6863],[40.2431,-1.3812,86.4197]]]]}
,"properties": {"GID_3": "KEN.7.5.2_1","GID_0": "KEN","country": "Kenya","GID_1": "KEN.7_1","province": "Garissa","NL_NAME_1": "NA","GID_2": "KEN.7.5_1","county": "Ijara","NL_NAME_2": "NA","city": "Ijara","VARNAME_3": "NA","NL_NAME_3": "NA","TYPE_3": "Ward","ENGTYPE_3": "Ward","CC_3": "159","HASC_3": "NA","name": "Ijara.city","area_km2": 1816.248,"hist_schema_id": "Elevation0-9000","hist_area_km2": {"25": 65.928,"50": 1203.528,"75": 546.792}}}