{"type": "Feature","bbox": [38.3655,-3.7141,38.5981,-3.4562],"geometry": {"type": "MultiPolygon","coordinates": [[[[38.4339,-3.7141,713.8787],[38.5189,-3.6546,754.7684],[38.5343,-3.6485,828.3126],[38.5981,-3.6065,633.5887],[38.5701,-3.5578,686.419],[38.4755,-3.5573,835.0571],[38.4467,-3.4801,749.6049],[38.4585,-3.4742,726.3463],[38.4629,-3.4695,720.9271],[38.4581,-3.4655,739.2637],[38.4469,-3.4661,798.4513],[38.4427,-3.4638,841.2101],[38.4413,-3.4609,862.8621],[38.4339,-3.467,866.7881],[38.4291,-3.4667,863.6943],[38.4136,-3.4562,758.8799],[38.4119,-3.4583,781.9357],[38.4133,-3.4599,774.2878],[38.4121,-3.4738,817.2905],[38.4071,-3.4843,833.1898],[38.4,-3.492,869.502],[38.3885,-3.4921,913.7291],[38.3897,-3.4877,910.1179],[38.3879,-3.4734,893.3049],[38.3779,-3.474,947.408],[38.3655,-3.4807,1167.3644],[38.3699,-3.4946,886.8676],[38.3763,-3.4994,862.1039],[38.3759,-3.5021,852.5938],[38.3743,-3.5024,860.1646],[38.3779,-3.5093,864.5897],[38.3799,-3.506,848.4516],[38.3801,-3.5115,837.4417],[38.3839,-3.5194,837.2517],[38.3675,-3.52,891.3839],[38.3683,-3.571,951.0636],[38.3985,-3.6435,791.5988],[38.4183,-3.6371,764.2399],[38.4229,-3.6412,762.8157],[38.4219,-3.6509,755.2803],[38.4289,-3.6675,744.7203],[38.4279,-3.6732,740.7756],[38.4301,-3.6753,739.0195],[38.4281,-3.6843,732.6335],[38.4297,-3.6893,729.3411],[38.4283,-3.6958,725.0857],[38.4305,-3.708,717.75],[38.4339,-3.7141,713.8787]]]]}
,"properties": {"GID_3": "KEN.39.1.3_1","GID_0": "KEN","country": "Kenya","GID_1": "KEN.39_1","province": "TaitaTaveta","NL_NAME_1": "NA","GID_2": "KEN.39.1_1","county": "Mwatate","NL_NAME_2": "NA","city": "Mwatate","VARNAME_3": "NA","NL_NAME_3": "NA","TYPE_3": "Ward","ENGTYPE_3": "Ward","CC_3": "121","HASC_3": "NA","name": "Mwatate.city","area_km2": 352.0714,"hist_schema_id": "Elevation0-9000","hist_area_km2": {"625": 1.0157,"650": 9.8608,"675": 11.2786,"700": 9.6491,"725": 16.1024,"750": 27.4868,"775": 58.0207,"800": 60.1592,"825": 52.4579,"850": 39.8044,"875": 28.8218,"900": 16.8869,"925": 7.8721,"950": 4.3593,"975": 2.6029,"1000": 1.1427,"1025": 1.4602,"1050": 1.0369,"1075": 0.6983,"1100": 0.7195,"1125": 0.4021,"1150": 0.0423,"1175": 0.1058,"1200": 0.0423,"1225": 0.0423}}}