{"type": "Feature","bbox": [35.3129,-0.1033,35.4382,0.0473],"geometry": {"type": "MultiPolygon","coordinates": [[[[35.4349,0.0312,2548.1387],[35.4041,0.033,2387.686],[35.3902,0.0407,2190.8875],[35.369,0.0473,2225.6343],[35.3679,0.0215,1799.0712],[35.3658,0.0226,1821.5533],[35.365,0.0207,1775.3302],[35.3568,0.0227,1791.0161],[35.3542,0.0206,1796.4678],[35.3492,0.0237,1845.9666],[35.3385,0.023,1766.9209],[35.3366,0.0247,1763.3569],[35.3332,0.0231,1845.6147],[35.3344,0.0213,1804.8129],[35.329,0.0182,1701.127],[35.3235,0.0163,1713.209],[35.3216,0.0175,1798.9028],[35.3173,0.015,1700.4729],[35.3129,0.016,1664.7168],[35.3252,-0.0025,1820.5728],[35.3262,-0.028,2145.1936],[35.314,-0.0345,1994.2192],[35.3132,-0.0395,2113.1885],[35.3152,-0.046,2040.3599],[35.3197,-0.0475,1988.4688],[35.3158,-0.0622,2012.5544],[35.3236,-0.0737,2110.1196],[35.3235,-0.0758,2181.6477],[35.3352,-0.0876,2357.2139],[35.3357,-0.0986,2366.9709],[35.3344,-0.0989,2409.1646],[35.3395,-0.1017,2360.9058],[35.3719,-0.1033,2263.7354],[35.3898,-0.0912,2182.5437],[35.401,-0.081,2293.3911],[35.4241,-0.072,2103.6501],[35.4044,-0.0172,2185.4004],[35.4136,0.0093,1979.1914],[35.4382,0.024,2475.0195],[35.4349,0.0312,2548.1387]]]]}
,"properties": {"GID_3": "KEN.32.6.4_1","GID_0": "KEN","country": "Kenya","GID_1": "KEN.32_1","province": "Nandi","NL_NAME_1": "NA","GID_2": "KEN.32.6_1","county": "Tinderet","NL_NAME_2": "NA","city": "Tindiret","VARNAME_3": "NA","NL_NAME_3": "NA","TYPE_3": "Ward","ENGTYPE_3": "Ward","CC_3": "752","HASC_3": "NA","name": "Tindiret.city","area_km2": 145.1503,"hist_schema_id": "Elevation0-9000","hist_area_km2": {"1600": 0.0424,"1625": 0.4028,"1650": 0.6361,"1675": 0.8905,"1700": 1.5266,"1725": 1.7386,"1750": 2.1626,"1775": 2.4171,"1800": 2.4171,"1825": 2.9047,"1850": 2.6503,"1875": 2.9683,"1900": 3.456,"1925": 3.8164,"1950": 4.3889,"1975": 4.7281,"2000": 5.5338,"2025": 6.4243,"2050": 6.9755,"2075": 7.4632,"2100": 8.5021,"2125": 8.2477,"2150": 7.5056,"2175": 5.4278,"2200": 5.2369,"2225": 5.0673,"2250": 5.0673,"2275": 4.8553,"2300": 3.3287,"2325": 3.4772,"2350": 3.0319,"2375": 3.0955,"2400": 3.562,"2425": 4.092,"2450": 2.6927,"2475": 2.417,"2500": 1.8234,"2525": 1.6114,"2550": 0.9965,"2575": 0.8905,"2600": 0.3816,"2625": 0.1908,"2650": 0.106}}}