{"type": "Feature","bbox": [36.9732,-0.64,37.1799,-0.508],"geometry": {"type": "MultiPolygon","coordinates": [[[[37.1387,-0.6331,1413.488],[37.1449,-0.6325,1425.6788],[37.1529,-0.636,1352.7858],[37.1547,-0.6312,1291.301],[37.1595,-0.6322,1326.1532],[37.1671,-0.6297,1242.5073],[37.1694,-0.6312,1229.9612],[37.1708,-0.6263,1242.132],[37.173,-0.6276,1215.6399],[37.1751,-0.6267,1247.4308],[37.1714,-0.6226,1238.7081],[37.1733,-0.6162,1260.0271],[37.1766,-0.6148,1225.1206],[37.174,-0.6118,1276.1382],[37.1761,-0.6099,1331.2653],[37.1785,-0.6106,1269.7454],[37.1799,-0.6054,1233.8002],[37.178,-0.5953,1366.1909],[37.1697,-0.5924,1239.0646],[37.1682,-0.586,1423.1594],[37.1662,-0.5886,1343.9004],[37.1605,-0.5875,1404.7621],[37.1496,-0.5752,1338.3312],[37.1494,-0.5677,1463.2769],[37.1453,-0.5663,1418.1344],[37.144,-0.5634,1429.3469],[37.1449,-0.5564,1480.5527],[37.1347,-0.5445,1529.7054],[37.1354,-0.5378,1547.6655],[37.134,-0.5344,1564.8447],[37.1295,-0.5323,1627.2206],[37.1195,-0.5331,1656.9944],[37.1144,-0.5355,1659.7231],[37.1103,-0.5349,1629.8347],[37.1077,-0.5386,1584.3595],[37.1049,-0.5387,1613.5077],[37.1025,-0.5366,1615.0308],[37.0997,-0.5371,1606.2311],[37.0977,-0.5349,1546.1204],[37.0943,-0.5344,1549.5942],[37.0957,-0.531,1652.5099],[37.0949,-0.5287,1663.0549],[37.0893,-0.5288,1552.1812],[37.0876,-0.5275,1549.9065],[37.0877,-0.5225,1591.5291],[37.0848,-0.5207,1559.5297],[37.0841,-0.5163,1595.4133],[37.0799,-0.5153,1547.1379],[37.0812,-0.5126,1610.6794],[37.0785,-0.5121,1619.1613],[37.0751,-0.5138,1591.7125],[37.076,-0.512,1610.4739],[37.0722,-0.511,1602.5613],[37.0686,-0.515,1621.28],[37.0675,-0.5131,1596.7885],[37.0625,-0.5142,1667.7244],[37.0604,-0.5134,1622.4919],[37.0591,-0.508,1692.251],[37.057,-0.5096,1684.197],[37.0575,-0.5137,1608.4933],[37.0536,-0.5114,1684.6838],[37.0519,-0.5119,1695.3257],[37.0508,-0.5154,1655.1394],[37.05,-0.513,1680.7782],[37.0473,-0.5134,1701.6324],[37.0464,-0.5152,1721.0248],[37.0437,-0.5134,1727.8381],[37.0433,-0.5165,1694.9967],[37.0389,-0.5121,1729.0813],[37.037,-0.5169,1685.9714],[37.0333,-0.5167,1689.3247],[37.0263,-0.5108,1649.772],[37.0262,-0.5147,1634.4772],[37.0192,-0.5145,1688.0674],[37.0182,-0.5199,1658.9758],[37.0118,-0.5153,1670.928],[37.0124,-0.5133,1689.4924],[37.0084,-0.5156,1707.5696],[37.0061,-0.5138,1735.1335],[37.0038,-0.5151,1709.377],[37.0035,-0.5181,1705.45],[37.0019,-0.5175,1716.5194],[37.0019,-0.5214,1689.743],[36.9978,-0.5265,1695.1033],[36.9979,-0.529,1713.7366],[36.9961,-0.529,1713.0737],[36.995,-0.5343,1718.4602],[36.9963,-0.536,1686.1714],[36.9936,-0.536,1713.8481],[36.9925,-0.5382,1696.7416],[36.9943,-0.5451,1679.5312],[36.9836,-0.5632,1775.1401],[36.9798,-0.5645,1824.0646],[36.9778,-0.5618,1841.7445],[36.9771,-0.5632,1825.3031],[36.9732,-0.5632,1780.363],[36.9778,-0.5734,1794.8613],[36.9823,-0.5736,1797.2222],[36.9874,-0.5701,1806.052],[36.9943,-0.572,1785.875],[36.9972,-0.58,1802.2917],[37.016,-0.5796,1718.8748],[37.0261,-0.586,1668.0021],[37.0343,-0.5856,1670.5203],[37.0489,-0.59,1627.5874],[37.056399999999996,-0.5979,1628.5657],[37.0593,-0.6057,1541.9634],[37.0634,-0.6075,1584.8632],[37.0676,-0.6055,1561.7168],[37.0756,-0.611,1524.1821],[37.0782,-0.6105,1507.0154],[37.0793,-0.6145,1532.4941],[37.0826,-0.6146,1523.277],[37.0855,-0.6191,1507.6464],[37.0878,-0.6179,1471.6222],[37.0951,-0.6202,1459.1964],[37.0961,-0.6223,1467.8435],[37.0993,-0.6219,1475.9404],[37.1026,-0.6256,1478.3213],[37.1008,-0.6279,1456.8306],[37.1015,-0.6325,1449.6984],[37.1148,-0.6368,1392.6503],[37.1183,-0.64,1409.2632],[37.1277,-0.6397,1408.3301],[37.1387,-0.6331,1413.488]]]]}
,"properties": {"GID_2": "KEN.36.3_1","GID_0": "KEN","country": "Kenya","GID_1": "KEN.36_1","province": "Nyeri","NL_NAME_1": "NA","county": "Mukurweini","VARNAME_2": "NA","NL_NAME_2": "NA","TYPE_2": "Constituency","ENGTYPE_2": "Constituency","CC_2": "98","HASC_2": "NA","name": "Mukurweini.county","area_km2": 178.9165,"hist_schema_id": "Elevation0-9000","hist_area_km2": {"1200": 0.106,"1225": 0.9116,"1250": 1.5053,"1275": 1.3569,"1300": 2.3533,"1325": 2.6925,"1350": 3.0529,"1375": 4.3886,"1400": 5.4699,"1425": 6.5935,"1450": 9.6041,"1475": 10.6217,"1500": 8.1624,"1525": 8.0988,"1550": 8.7349,"1575": 9.8798,"1600": 12.0423,"1625": 15.7525,"1650": 15.4769,"1675": 14.0352,"1700": 12.1695,"1725": 10.5794,"1750": 7.696,"1775": 4.3674,"1800": 2.2049,"1825": 1.0389,"1850": 0.0212}}}