{"type": "Feature","bbox": [37.1015,-1.3467,37.3205,-1.1931],"geometry": {"type": "MultiPolygon","coordinates": [[[[37.1563,-1.1969,1440.236],[37.1596,-1.2033,1443.8458],[37.1555,-1.2044,1469.3945],[37.1529,-1.207,1472.6162],[37.156,-1.2104,1468.4517],[37.1552,-1.2177,1448.5745],[37.1533,-1.221,1470.8235],[37.1508,-1.2233,1461.5016],[37.1406,-1.2239,1468.2924],[37.1358,-1.2309,1468.3203],[37.1261,-1.2306,1475.0073],[37.1206,-1.2327,1467.3505],[37.1185,-1.2357,1469.1931],[37.119,-1.245,1458.6488],[37.1161,-1.2462,1470.4888],[37.1093,-1.2449,1470.4641],[37.1094,-1.2571,1462.8909],[37.1021,-1.2582,1463.7966],[37.1015,-1.2601,1464.5203],[37.1037,-1.2632,1462.5802],[37.1021,-1.2681,1466.2225],[37.1053,-1.2733,1462.7234],[37.1291,-1.2984,1502.6467],[37.1446,-1.2979,1491.1279],[37.169,-1.3452,1528.6959],[37.2193,-1.3467,1532.5137],[37.218,-1.2999,1520.0953],[37.2288,-1.2929,1510.5798],[37.2465,-1.2942,1477.469],[37.252,-1.2971,1483.8456],[37.2549,-1.3005,1475.3757],[37.2549,-1.3041,1464.4916],[37.258,-1.3063,1461.3003],[37.2598,-1.3137,1461.6622],[37.2648,-1.3154,1474.6531],[37.2676,-1.3201,1451.9241],[37.27,-1.3212,1463.8165],[37.2749,-1.3159,1456.595],[37.2825,-1.3135,1482.056],[37.287,-1.3048,1465.9553],[37.2898,-1.3032,1467.1223],[37.29,-1.3004,1485.3812],[37.2923,-1.2998,1472.9916],[37.2913,-1.2987,1494.6998],[37.2933,-1.2957,1488.3723],[37.2921,-1.2953,1488.3723],[37.2942,-1.2947,1476.573],[37.2932,-1.293,1492.6967],[37.2954,-1.2937,1481.4709],[37.2966,-1.2907,1486.1562],[37.2911,-1.2852,1506.613],[37.2908,-1.2774,1512.7539],[37.2879,-1.2751999999999999,1516.2225],[37.2871,-1.2722,1515.0947],[37.2892,-1.27,1515.8158],[37.2856,-1.2687,1513.9495],[37.2858,-1.2595,1511.0566],[37.2997,-1.2508,1510.0432],[37.3012,-1.2426,1503.5837],[37.308,-1.2362,1485.2675],[37.3076,-1.2231,1448.6473],[37.3146,-1.2199,1466.3079],[37.3205,-1.2096,1447.0618],[37.3184,-1.207,1417.3756],[37.3164,-1.2074,1390.184],[37.3165,-1.2038,1388.097],[37.3081,-1.212,1444.4771],[37.3039,-1.211,1450.65],[37.2999,-1.2121,1441.8523],[37.2991,-1.2098,1446.376],[37.2956,-1.2077,1468.8534],[37.2909,-1.2093,1478.9624],[37.2855,-1.2186,1460.7864],[37.2828,-1.2198,1489.3491],[37.2812,-1.2254,1483.2952],[37.2611,-1.2153,1522.6322],[37.2483,-1.2133,1584.5059],[37.2392,-1.2171,1536.7612],[37.2376,-1.2074,1537.4532],[37.2266,-1.2063,1506.7715],[37.2245,-1.201,1503.8113],[37.2144,-1.211,1490.5],[37.2038,-1.2051,1487.1561],[37.2089,-1.1931,1490.8533],[37.1558,-1.1954,1441.752],[37.1563,-1.1969,1440.236]]]]}
,"properties": {"GID_3": "KEN.22.5.4_1","GID_0": "KEN","country": "Kenya","GID_1": "KEN.22_1","province": "Machakos","NL_NAME_1": "NA","GID_2": "KEN.22.5_1","county": "Matungulu","NL_NAME_2": "NA","city": "MatunguluWest","VARNAME_3": "NA","NL_NAME_3": "NA","TYPE_3": "Ward","ENGTYPE_3": "Ward","CC_3": "388","HASC_3": "NA","name": "Matungulu_West.city","area_km2": 241.4555,"hist_schema_id": "Elevation0-9000","hist_area_km2": {"1375": 0.0636,"1400": 0.4239,"1425": 0.8267,"1450": 9.348,"1475": 57.5292,"1500": 138.7133,"1525": 31.0533,"1550": 2.9676,"1575": 0.4663,"1600": 0.0636}}}