{"type": "Feature","bbox": [35.1806,0.063,35.2961,0.2117],"geometry": {"type": "MultiPolygon","coordinates": [[[[35.1806,0.1604,1960.5801],[35.1895,0.1652,1936.8536],[35.1923,0.1638,1940.8075],[35.1936,0.1658,1941.5366],[35.2026,0.1541,1954.7122],[35.2084,0.1537,1983.9329],[35.1946,0.0888,1964.9465],[35.2177,0.0834,2159.3132],[35.2184,0.0815,2132.1719],[35.2278,0.0765,2084.6384],[35.2321,0.0761,2102.4436],[35.2367,0.079,2061.4167],[35.2481,0.0691,2108.4487],[35.2604,0.0634,2178.9028],[35.2643,0.063,2162.6399],[35.2734,0.0778,2182.8989],[35.2942,0.0727,2198.5315],[35.2961,0.0799,2248.3606],[35.2893,0.084,2158.4443],[35.2789,0.0976,2084.3518],[35.2721,0.0983,2100.7],[35.2696,0.1,2101.5664],[35.2682,0.1045,2111.2939],[35.2625,0.1098,2061.7495],[35.2632,0.1218,2068.9414],[35.2661,0.1262,2049.6455],[35.2658,0.1298,2062.272],[35.2839,0.1489,2049.6826],[35.2901,0.1533,2019.4606],[35.2726,0.1618,1998.2012],[35.2564,0.1773,1981.9915],[35.2679,0.1868,2082.4031],[35.2596,0.1956,2089.207],[35.2542,0.2051,2097.3792],[35.2472,0.2103,2092.1331],[35.2402,0.2116,2080.3264],[35.2322,0.2117,2034.4769],[35.2235,0.2078,2054.3818],[35.2269,0.1984,2043.8896],[35.2263,0.1931,2032.1658],[35.2154,0.1919,1976.0374],[35.2167,0.1978,1998.4866],[35.2115,0.1993,1980.9755],[35.2085,0.1981,1990.0701],[35.2044,0.1934,1980.7639],[35.2036,0.1853,1954.8308],[35.1965,0.1801,1974.439],[35.1861,0.1789,1940.5973],[35.1865,0.1747,1936.2644],[35.1838,0.1708,1953.8862],[35.1806,0.1604,1960.5801]]]]}
,"properties": {"GID_3": "KEN.32.5.1_1","GID_0": "KEN","country": "Kenya","GID_1": "KEN.32_1","province": "Nandi","NL_NAME_1": "NA","GID_2": "KEN.32.5_1","county": "NandiHills","NL_NAME_2": "NA","city": "Chepkunyuk","VARNAME_3": "NA","NL_NAME_3": "NA","TYPE_3": "Ward","ENGTYPE_3": "Ward","CC_3": "762","HASC_3": "NA","name": "Chepkunyuk.city","area_km2": 114.55517,"hist_schema_id": "Elevation0-9000","hist_area_km2": {"1925": 1.52655,"1950": 11.93679,"1975": 20.35404,"2000": 19.78159,"2025": 18.36106,"2050": 12.36086,"2075": 11.08872,"2100": 8.90491,"2125": 5.21574,"2150": 2.73508,"2175": 1.56896,"2200": 0.65727,"2225": 0.06361}}}