{"type":"Feature","properties":{"GID_3":"KEN.3.9.2_1","GID_0":"KEN","country":"Kenya","GID_1":"KEN.3_1","province":"Bungoma","NL_NAME_1":"NA","GID_2":"KEN.3.9_1","county":"Tongaren","NL_NAME_2":"NA","city":"Milima","VARNAME_3":"NA","NL_NAME_3":"NA","TYPE_3":"Ward","ENGTYPE_3":"Ward","CC_3":"1117","HASC_3":"NA","name":"Milima.city"},
"geometry":{"type": "MultiPolygon","coordinates": [[[[34.8191,0.7654,1615.3396],[34.8214,0.7506,1604.787],[34.8164,0.7366,1608.5522],[34.8182,0.7317,1599.7207],[34.8446,0.7472,1636.7332],[34.8499,0.7401,1660.3967],[34.8535,0.7467,1672.7366],[34.8578,0.7489,1688.3889],[34.8656,0.7492,1694.2091],[34.8768,0.7454,1698.3843],[34.8799,0.7459,1708.6775],[34.8832,0.7475,1716.906],[34.886,0.7553,1733.7047],[34.8889,0.7567,1740.6117],[34.8913,0.7606,1737.2102],[34.8952,0.7618,1721.778],[34.8897,0.7643,1744.3195],[34.8852,0.7763,1731.4495],[34.8718,0.7939,1723.7747],[34.8657,0.8105,1751.2043],[34.8705,0.8303,1766.3058],[34.8085,0.8111,1660.4874],[34.8075,0.8065,1664.9287],[34.8011,0.8009,1672.239],[34.8041,0.7815,1647.4104],[34.818,0.7688,1626.354],[34.8191,0.7654,1615.3396]]]]}}