{"type":"Feature","properties":{"GID_3":"KEN.1.7.6_1","GID_0":"KEN","country":"Kenya","GID_1":"KEN.1_1","province":"Baringo","NL_NAME_1":"NA","GID_2":"KEN.1.7_1","county":"Tiaty","NL_NAME_2":"NA","city":"Tangulbei/Korossi","VARNAME_3":"NA","NL_NAME_3":"NA","TYPE_3":"Ward","ENGTYPE_3":"Ward","CC_3":"786","HASC_3":"NA","name":"Tangulbei_Korossi.city"},
"geometry":{"type": "MultiPolygon","coordinates": [[[[36.0838,0.6916,989.1924],[36.1343,0.7018,1023.361],[36.1669,0.6734,1002.8388],[36.183,0.6626,1164.4318],[36.2052,0.6541,1147.0494],[36.2248,0.649,1146.5405],[36.2212,0.6603,1138.7491],[36.2206,0.6732,1129.1479],[36.2166,0.6847,1124.8652],[36.2236,0.689,1119.6927],[36.2347,0.6924,1122.1738],[36.2453,0.7032,1129.2224],[36.2467,0.7091,1135.8127],[36.2504,0.7111,1150.0417],[36.2527,0.7106,1160.9631],[36.2514,0.7184,1148.6552],[36.2525,0.7299,1162.887],[36.2649,0.7392,1192.4176],[36.2756,0.7557,1214.6221],[36.2772,0.7607,1278.9067],[36.2832,0.7663,1258.1283],[36.2828,0.7741,1303.4436],[36.2873,0.7938,1240.802],[36.2928,0.7982,1246.0955],[36.3038,0.7981,1338.229],[36.3113,0.8001,1365.4551],[36.311,0.8034,1337.2561],[36.335,0.8743,1343.3966],[36.3389,0.8806,1330.1201],[36.3481,0.8821,1367.3972],[36.3483,0.885,1368.166],[36.3527,0.8883,1454.1602],[36.354,0.8961,1369.9659],[36.3664,0.905,1646.9513],[36.3692,0.9158,1473.3655],[36.367,0.9258,1406.0114],[36.3695,0.932,1407.6772],[36.379,0.9364,1440.1575],[36.3886,0.9355,1197.311],[36.388,0.9451,1232.6624],[36.3906,0.9462,1179.4241],[36.3889,0.9494,1210.6624],[36.3843,0.9515,1134.3143],[36.3842,0.9551,1204.6245],[36.3787,0.9554,1178.6868],[36.3753,0.9572,1305.208],[36.3699,0.9559,1213.7139],[36.3654,0.959,1083.8027],[36.3638,0.9642,1144.3866],[36.3513,0.9669,1064.4705],[36.3477,0.9752,1049.9366],[36.3469,0.9913,1035.3378],[36.3426,0.9937,1039.5638],[36.3422,0.9983,1027.6199],[36.3173,0.9955,1187.6252],[36.3055,0.9834,1186.3582],[36.2949,0.9783,1303.1141],[36.2733,0.9715,1137.9204],[36.2487,0.9669,1000.8958],[36.2449,0.965,978.0208],[36.2204,0.9411,1144.988],[36.2046,0.9222,1534.0992],[36.1926,0.9115,1616.635],[36.18,0.9034,1329.9146],[36.1605,0.8938,1123.1169],[36.1463,0.8793,965.2581],[36.1338,0.8701,910.0975],[36.0675,0.831,909.6037],[36.0174,0.7927,947.1238],[36.0157,0.7876,953.2614],[36.0174,0.7814,961.226],[36.0282,0.7652,973.587],[36.0332,0.7514,988.6078],[36.0353,0.7347,1001.9128],[36.0372,0.7299,990.1841],[36.0472,0.7219,1014.8334],[36.054,0.7382,1080.9272],[36.0558,0.736,1037.2463],[36.0571,0.737,1040.8638],[36.0575,0.7339,1035.0845],[36.0593,0.7326,1068.5348],[36.0617,0.7361,1073.6361],[36.0647,0.7344,1059.1532],[36.067,0.7354,1059.3748],[36.0642,0.729,1016.9268],[36.067,0.7308,1054.6985],[36.0696,0.7288,1088.6158],[36.067,0.7269,973.0],[36.0678,0.7241,1016.6087],[36.0725,0.7323,1117.1906],[36.0776,0.7315,1079.8473],[36.0785,0.7266,1003.556],[36.077,0.7204,973.0],[36.0748,0.7187,973.0],[36.0735,0.7128,973.0],[36.0702,0.7088,973.0],[36.0723,0.7094,973.0],[36.0781,0.7005,991.314],[36.0822,0.6978,991.3708],[36.0838,0.6916,989.1924]]]]}}