{"type":"Feature","properties":{"GID_2":"KEN.11.7_1","GID_0":"KEN","country":"Kenya","GID_1":"KEN.11_1","province":"Kakamega","NL_NAME_1":"NA","county":"Matungu","VARNAME_2":"NA","NL_NAME_2":"NA","TYPE_2":"Constituency","ENGTYPE_2":"Constituency","CC_2":"206","HASC_2":"NA","name":"Matungu.county"},
"geometry":{"type": "MultiPolygon","coordinates": [[[[34.3734,0.3124,1264.882],[34.3796,0.3097,1250.6412],[34.3822,0.304,1276.9579],[34.3944,0.293,1269.1154],[34.3957,0.2862,1244.8118],[34.4019,0.2891,1253.3335],[34.4057,0.2882,1248.2876],[34.4141,0.2922,1237.3762],[34.414,0.2971,1245.3386],[34.419,0.3073,1250.5244],[34.4153,0.3146,1257.0265],[34.4077,0.3205,1258.197],[34.4191,0.3365,1261.3463],[34.4367,0.3399,1280.8074],[34.4421,0.3447,1291.7434],[34.4491,0.3459,1284.0693],[34.4697,0.3565,1281.7307],[34.4761,0.3547,1281.9651],[34.4788,0.356,1280.033],[34.4803,0.3578,1278.9502],[34.482,0.3766,1290.6646],[34.4897,0.3741,1280.4517],[34.4943,0.3763,1281.0562],[34.4979,0.3804,1300.6818],[34.5016,0.3813,1314.1334],[34.5049,0.3742,1280.4531],[34.5108,0.3755,1298.4275],[34.515,0.3744,1291.5554],[34.5167,0.3809,1284.7626],[34.5199,0.3818,1288.238],[34.5282,0.3929,1303.3496],[34.5337,0.3946,1304.2695],[34.5368,0.3881,1290.5286],[34.5507,0.3886,1286.3199],[34.5505,0.3929,1291.6519],[34.5546,0.3975,1297.1255],[34.558,0.3986,1297.7911],[34.5627,0.4055,1305.8004],[34.5644,0.4058,1304.9973],[34.5646,0.4007,1287.5996],[34.5662,0.3996,1286.8892],[34.575,0.4075,1303.3419],[34.5776,0.4059,1300.1051],[34.5806,0.4073,1299.2908],[34.5833,0.41,1298.922],[34.5831,0.4131,1307.103],[34.5854,0.4159,1313.6351],[34.589,0.4166,1294.4673],[34.5881,0.4224,1300.3728],[34.5896,0.4253,1307.5441],[34.5873,0.4311,1306.0178],[34.5807,0.4368,1308.292],[34.5815,0.4446,1313.0151],[34.5797,0.4455,1310.0165],[34.5809,0.4497,1314.3845],[34.5797,0.4524,1313.4001],[34.5812,0.4574,1326.3759],[34.5799,0.4597,1351.4702],[34.5772,0.4621,1362.8273],[34.5631,0.4629,1362.0745],[34.5508,0.4751,1345.3396],[34.5444,0.4724,1358.9174],[34.5405,0.4675,1341.1609],[34.5376,0.4671,1361.4495],[34.5364,0.4563,1321.5441],[34.5313,0.4481,1334.6094],[34.5263,0.4522,1358.7811],[34.5156,0.4549,1367.96],[34.5078,0.4632,1349.8235],[34.5003,0.4622,1330.1538],[34.4954,0.4634,1307.9362],[34.4954,0.4709,1313.0891],[34.493899999999996,0.4739,1303.703],[34.4905,0.4777,1287.9121],[34.487,0.4859,1281.1282],[34.4822,0.4893,1299.0554],[34.4692,0.4831,1295.2701],[34.4678,0.4794,1288.9529],[34.4648,0.4783,1286.3596],[34.4619,0.4739,1281.1809],[34.4583,0.4726,1277.209],[34.4465,0.473,1278.41],[34.4422,0.4703,1271.218],[34.4418,0.4685,1268.0399],[34.436,0.4677,1264.3862],[34.432,0.469,1254.5195],[34.4241,0.4746,1248.5167],[34.421,0.4787,1252.3827],[34.4173,0.4803,1258.3868],[34.4047,0.4804,1255.8806],[34.4015,0.4771,1252.1261],[34.3981,0.4771,1254.7595],[34.3953,0.4733,1242.7185],[34.3912,0.4725,1250.1804],[34.3895,0.4656,1238.4647],[34.3868,0.4664,1242.939],[34.3822,0.4628,1235.735],[34.3761,0.4649,1231.6055],[34.3682,0.4614,1224.5898],[34.3644,0.4451,1240.0814],[34.3549,0.4395,1241.6802],[34.3447,0.4311,1233.7213],[34.3436,0.4282,1227.4241],[34.3505,0.4226,1225.7955],[34.3598,0.4098,1225.6517],[34.3661,0.4077,1245.0913],[34.3685,0.409,1250.4543],[34.3779,0.4092,1257.922],[34.3847,0.4013,1247.6248],[34.3922,0.3996,1264.145],[34.4078,0.3895,1267.2798],[34.4129,0.3833,1276.4164],[34.4225,0.3756,1285.9565],[34.4153,0.3703,1291.1162],[34.4,0.3659,1281.9211],[34.3858,0.3565,1298.0581],[34.3856,0.3391,1269.9937],[34.3832,0.3227,1267.9523],[34.3794,0.3164,1270.6769],[34.3734,0.3124,1264.882]]]]}}