{"type": "Feature","bbox": [36.9511,-0.6201,37.0634,-0.5701],"geometry": {"type": "MultiPolygon","coordinates": [[[[37.0634,-0.6075,1584.8632],[37.0588,-0.6052,1524.0706],[37.056399999999996,-0.5979,1628.5657],[37.0489,-0.59,1627.5874],[37.0343,-0.5856,1670.5203],[37.0261,-0.586,1668.0021],[37.016,-0.5796,1718.8748],[36.9972,-0.58,1802.2917],[36.9943,-0.572,1785.875],[36.9874,-0.5701,1806.052],[36.9823,-0.5736,1797.2222],[36.9774,-0.5735,1794.8613],[36.9699,-0.578,1802.49],[36.9656,-0.5839,1855.0093],[36.9604,-0.5869,1821.8271],[36.9606,-0.5903,1827.7533],[36.9565,-0.5958,1828.4415],[36.9511,-0.5964,1856.1802],[36.9518,-0.5996,1895.6184],[36.9559,-0.5998,1864.5397],[36.9631,-0.6039,1858.991],[36.9703,-0.6038,1852.4708],[36.9744,-0.6082,1794.6116],[36.9888,-0.6086,1730.0415],[36.992,-0.6057,1771.0212],[36.9988,-0.6142,1736.2664],[37.0021,-0.6133,1750.0674],[37.0077,-0.6164,1734.6697],[37.0131,-0.6163,1713.6616],[37.0137,-0.6176,1693.4597],[37.0172,-0.6154,1718.9417],[37.0266,-0.62,1637.8267],[37.0345,-0.6201,1634.3527],[37.0368,-0.6141,1579.704],[37.0406,-0.6126,1626.3049],[37.0483,-0.618,1589.3455],[37.0526,-0.6177,1609.1438],[37.056,-0.6162,1607.6324],[37.0567,-0.6114,1534.7462],[37.06,-0.614,1539.3441],[37.0634,-0.6075,1584.8632]]]]}
,"properties": {"GID_3": "KEN.29.7.2_1","GID_0": "KEN","country": "Kenya","GID_1": "KEN.29_1","province": "Murang'a","NL_NAME_1": "NA","GID_2": "KEN.29.7_1","county": "Mathioya","NL_NAME_2": "NA","city": "Kamacharia","VARNAME_3": "NA","NL_NAME_3": "NA","TYPE_3": "Ward","ENGTYPE_3": "Ward","CC_3": "521","HASC_3": "NA","name": "Kamacharia.city","area_km2": 38.50112,"hist_schema_id": "Elevation0-9000","hist_area_km2": {"1525": 0.67843,"1550": 0.91164,"1575": 0.97525,"1600": 2.20491,"1625": 2.81974,"1650": 2.50172,"1675": 3.47697,"1700": 3.92219,"1725": 3.79499,"1750": 2.73494,"1775": 2.54413,"1800": 3.18016,"1825": 3.30737,"1850": 3.8374,"1875": 1.56888,"1900": 0.0424}}}