{"type":"Feature","properties":{"GID_2":"KEN.28.4_1","GID_0":"KEN","country":"Kenya","GID_1":"KEN.28_1","province":"Mombasa","NL_NAME_1":"NA","county":"Likoni","VARNAME_2":"NA","NL_NAME_2":"NA","TYPE_2":"Constituency","ENGTYPE_2":"Constituency","CC_2":"5","HASC_2":"NA","name":"Likoni.county"},
"geometry":{"type": "MultiPolygon","coordinates": [[[[39.6425,-4.1523,18.7833],[39.6449,-4.1529,16.2883],[39.6507,-4.1435,2.1222],[39.6551,-4.1301,0.0],[39.6596,-4.1243,2.5556],[39.6637,-4.1132,0.0],[39.6729,-4.1001,0.0],[39.6738,-4.0957,3.3854],[39.6757,-4.0937,0.0],[39.674,-4.0887,4.9873],[39.6771,-4.0826,0.0],[39.666,-4.0835,12.4552],[39.661,-4.0812,0.0],[39.6546,-4.0751,0.0],[39.6493,-4.0757,4.854],[39.6457,-4.0738,1.613],[39.6418,-4.0682,4.6586],[39.6426,-4.0618,5.6658],[39.6399,-4.0585,1.9869],[39.6396,-4.0518,0.0],[39.6379,-4.051,1.0403],[39.6365,-4.054,6.4632],[39.6379,-4.0579,7.6719],[39.6296,-4.0635,6.8378],[39.6254,-4.0626,1.5994],[39.6218,-4.0596,5.3546],[39.6218,-4.0576,0.0],[39.6179,-4.0596,0.0],[39.6182,-4.0613,2.8672],[39.5932,-4.064,0.0],[39.591,-4.069,0.0],[39.5913,-4.0743,0.0],[39.5807,-4.0821,0.5],[39.5788,-4.0818,1.0334],[39.5791,-4.0888,2.523],[39.5837,-4.0966,2.5876],[39.5847,-4.1031,1.914],[39.5831,-4.11,1.8576],[39.5751,-4.1199,4.9717],[39.5797,-4.1194,1.9229],[39.5827,-4.1163,1.6178],[39.5869,-4.1181,2.7488],[39.5919,-4.1137,18.0936],[39.5959,-4.1137,64.5951],[39.6001,-4.108,25.8742],[39.5985,-4.1003,62.7166],[39.6009,-4.097,58.972],[39.6065,-4.094,46.7811],[39.6067,-4.0878,42.9781],[39.6083,-4.0873,42.9781],[39.6101,-4.0923,56.8521],[39.6135,-4.0908,52.5428],[39.6121,-4.0924,58.1662],[39.6293,-4.1105,25.7539],[39.6325,-4.1169,23.3878],[39.6377,-4.1182,18.0287],[39.6369,-4.1219,20.0435],[39.6329,-4.1242,24.5765],[39.6301,-4.1366,24.09],[39.6263,-4.1416,22.7619],[39.6425,-4.1523,18.7833]]]]}}