{"type": "Feature","bbox": [37.4354,-0.9161,37.6719,-0.7241],"geometry": {"type": "MultiPolygon","coordinates": [[[[37.6081,-0.7471,1028.5298],[37.6042,-0.7511,1030.7957],[37.5992,-0.7493,1046.7361],[37.5956,-0.7521,1037.4949],[37.5919,-0.7526,1036.9615],[37.5862,-0.7472,1042.2098],[37.576,-0.7412,1037.3442],[37.5724,-0.7313,1039.6432],[37.5628,-0.7304,1043.5204],[37.5584,-0.7266,1059.0205],[37.5549,-0.7281,1046.0277],[37.5505,-0.7265,1042.0671],[37.5497,-0.7295,1041.7163],[37.5471,-0.731,1050.0049],[37.5415,-0.7305,1057.3523],[37.5353,-0.7336,1055.2919],[37.5359,-0.7364,1049.4185],[37.5292,-0.7351,1059.4506],[37.5267,-0.7377,1059.5887],[37.5184,-0.7353,1056.9084],[37.5189,-0.7316,1065.0725],[37.5143,-0.7313,1064.6936],[37.512,-0.7292,1068.2064],[37.511,-0.732,1064.9298],[37.4968,-0.7299,1062.9602],[37.4926,-0.7317,1069.2714],[37.4854,-0.7283,1076.8092],[37.4804,-0.7281,1070.6296],[37.4738,-0.7241,1084.8094],[37.4673,-0.7264,1085.1265],[37.4671,-0.7286,1083.8413],[37.4633,-0.7287,1086.1516],[37.464,-0.734,1082.4456],[37.4609,-0.7367,1088.0698],[37.461,-0.7415,1093.0491],[37.4564,-0.7478,1095.7358],[37.4463,-0.7557,1108.3093],[37.4421,-0.7683,1113.7463],[37.4389,-0.7704,1123.281],[37.4354,-0.7843,1126.6904],[37.4373,-0.7874,1107.948],[37.4359,-0.7939,1099.3937],[37.441,-0.8023,1088.554],[37.4432,-0.8116,1082.5935],[37.4461,-0.8142,1079.2686],[37.4458,-0.8189,1071.1428],[37.4477,-0.8219,1069.2301],[37.4465,-0.8259,1069.4972],[37.4423,-0.8264,1074.6664],[37.4402,-0.8294,1066.0397],[37.4418,-0.8317,1059.5394],[37.4406,-0.8367,1062.3462],[37.4415,-0.8409,1054.5],[37.4457,-0.843,1054.9561],[37.4476,-0.8465,1054.5],[37.4522,-0.8483,1054.5],[37.4528,-0.8538,1054.5],[37.4581,-0.8595,1054.5],[37.4564,-0.8641,1054.5],[37.4595,-0.8673,1054.5],[37.4617,-0.8738,1054.5],[37.4673,-0.8715,1054.5],[37.4702,-0.8746,1054.5],[37.4745,-0.8745,1054.5],[37.4715,-0.884,1054.5],[37.476,-0.8874,1054.5],[37.4766,-0.891,1054.5],[37.4832,-0.893,1054.5],[37.4853,-0.8975,1054.5],[37.4912,-0.8991,1054.5],[37.4951,-0.9024,1054.5],[37.5026,-0.8989,1054.5],[37.515,-0.902,1054.5],[37.5163,-0.914,1054.5],[37.5184,-0.9161,1054.5],[37.5206,-0.9159,1054.5],[37.5331,-0.9116,1054.5],[37.5355,-0.9063,1054.5],[37.5322,-0.8956,1054.5],[37.5372,-0.8887,1054.5],[37.5428,-0.887,1054.5],[37.5453,-0.8827,1054.5],[37.5509,-0.8844,1054.5],[37.5589,-0.8751,1054.5],[37.5614,-0.8754,1054.5],[37.5647,-0.8808,1054.5],[37.5749,-0.8768,1054.5],[37.5872,-0.8782,1047.0305],[37.5882,-0.8729,1031.5205],[37.5914,-0.8709,1010.8716],[37.5901,-0.868,1015.8823],[37.5869,-0.8663,1013.0868],[37.5891,-0.8627,1019.5222],[37.5961,-0.8606,1019.0988],[37.6008,-0.8627,1017.9532],[37.6049,-0.8551,1023.1243],[37.6147,-0.8552,1017.3988],[37.6179,-0.8515,1020.2512],[37.6263,-0.8518,1026.5862],[37.6279,-0.8497,1010.7027],[37.6292,-0.8385,1019.0349],[37.6353,-0.8386,1008.9028],[37.64,-0.8455,1008.884],[37.6461,-0.842,1010.9083],[37.6486,-0.8444,1009.7515],[37.6533,-0.8447,1004.0],[37.6569,-0.8475,1006.6494],[37.6651,-0.8458,1004.0],[37.6658,-0.8419,1004.0],[37.671,-0.837,1004.0],[37.6719,-0.8292,1004.0],[37.6702,-0.8262,1004.0],[37.6651,-0.8257,1004.0],[37.6634,-0.8197,1007.4509],[37.6594,-0.8267,1004.0],[37.6513,-0.8208,1011.8724],[37.6459,-0.8191,1004.0],[37.6443,-0.8141,1007.848],[37.6404,-0.8137,1004.0],[37.6386,-0.8113,1004.6476],[37.636,-0.811,1006.6926],[37.6341,-0.8032,1005.855],[37.6314,-0.8018,1006.4324],[37.6327,-0.7979,1006.0344],[37.6315,-0.7959,1007.5547],[37.6337,-0.7933,1007.0051],[37.6361,-0.7826,1013.7485],[37.6355,-0.7788,1023.0121],[37.6365,-0.7762,1033.9889],[37.6384,-0.7761,1011.061],[37.637,-0.7727,1030.1606],[37.6372,-0.765,1031.2524],[37.6315,-0.7597,1016.9802],[37.6308,-0.7544,1050.4314],[37.6169,-0.7554,1034.0078],[37.6136,-0.7529,1020.6829],[37.6117,-0.7473,1042.071],[37.6081,-0.7471,1028.5298]]]]}
,"properties": {"GID_3": "KEN.6.3.2_1","GID_0": "KEN","country": "Kenya","GID_1": "KEN.6_1","province": "Embu","NL_NAME_1": "NA","GID_2": "KEN.6.3_1","county": "MbeereSouth","NL_NAME_2": "NA","city": "Makima","VARNAME_3": "NA","NL_NAME_3": "NA","TYPE_3": "Ward","ENGTYPE_3": "Ward","CC_3": "324","HASC_3": "NA","name": "Makima.city","area_km2": 343.1021,"hist_schema_id": "Elevation0-9000","hist_area_km2": {"1000": 5.0668,"1025": 21.2425,"1050": 72.716,"1075": 84.1432,"1100": 84.2705,"1125": 51.3254,"1150": 18.0625,"1175": 3.1588,"1200": 1.4204,"1225": 0.6784,"1250": 0.5512,"1275": 0.2332,"1300": 0.1484,"1325": 0.0848}}}