{"type": "Feature","bbox": [34.6211,0.0744,34.6807,0.1343],"geometry": {"type": "MultiPolygon","coordinates": [[[[34.6781,0.1343,1531.0021],[34.6649,0.1323,1479.6515],[34.6636,0.1307,1473.1096],[34.6361,0.1329,1458.1198],[34.6344,0.1225,1478.7474],[34.632,0.1217,1474.275],[34.6305,0.1115,1497.459],[34.628,0.1122,1468.7872],[34.6296,0.1058,1464.3535],[34.6289,0.0957,1462.3009],[34.6273,0.0929,1491.9885],[34.6211,0.0939,1495.0736],[34.6249,0.09,1508.3848],[34.6275,0.0904,1498.9545],[34.6261,0.0856,1518.7831],[34.623,0.0855,1532.1792],[34.6271,0.0815,1522.9841],[34.6292,0.0745,1514.6489],[34.642,0.0791,1535.4781],[34.6429,0.0744,1532.1575],[34.6475,0.077,1525.343],[34.6509,0.075,1502.1479],[34.6522,0.0802,1534.5278],[34.6584,0.079,1528.9596],[34.6608,0.0816,1545.152],[34.6647,0.081,1532.3494],[34.6732,0.0855,1495.3759],[34.6778,0.1016,1474.2064],[34.6727,0.1077,1518.347],[34.6773,0.1111,1521.7893],[34.6807,0.1235,1563.967],[34.6777,0.1257,1543.4619],[34.6804,0.13,1532.8851],[34.6781,0.1343,1531.0021]]]]}
,"properties": {"GID_3": "KEN.45.1.2_1","GID_0": "KEN","country": "Kenya","GID_1": "KEN.45_1","province": "Vihiga","NL_NAME_1": "NA","GID_2": "KEN.45.1_1","county": "Emuhaya","NL_NAME_2": "NA","city": "NorthEastBunyore","VARNAME_3": "NA","NL_NAME_3": "NA","TYPE_3": "Ward","ENGTYPE_3": "Ward","CC_3": "1073","HASC_3": "NA","name": "North_East_Bunyore.city","area_km2": 31.01877,"hist_schema_id": "Elevation0-9000","hist_area_km2": {"1425": 0.10601,"1450": 2.79869,"1475": 9.20174,"1500": 10.89792,"1525": 6.27584,"1550": 1.65377,"1575": 0.08481}}}