{"type": "Feature","bbox": [36.086,-0.0983,36.2443,0.2049],"geometry": {"type": "MultiPolygon","coordinates": [[[[36.0936,-0.0059,1665.2434],[36.0899,-0.0317,1618.7404],[36.0886,-0.0341,1693.5079],[36.0861,-0.0347,1788.4824],[36.086,-0.0427,1669.8596],[36.0863,-0.0821,1703.0944],[36.0912,-0.0869,1714.2526],[36.0921,-0.0983,1733.2823],[36.1016,-0.0888,1757.458],[36.1035,-0.0928,1770.8877],[36.1179,-0.0664,1750.9739],[36.1166,-0.0604,1698.3687],[36.1222,-0.0474,1690.0653],[36.129,-0.0504,1718.4984],[36.1267,-0.0454,1687.5398],[36.1244,-0.0453,1677.6173],[36.1235,-0.0406,1669.1351],[36.1299,-0.0239,1638.7917],[36.1399,-0.0288,1722.8451],[36.1477,-0.0225,1730.2863],[36.1529,-0.0235,1805.7932],[36.1601,-0.0131,1768.045],[36.1626,-0.0033,1690.2173],[36.175,0.0091,1918.5294],[36.1789,0.0556,1787.3817],[36.2119,0.0669,1853.796],[36.213,0.0774,1848.7246],[36.2159,0.0851,1803.2131],[36.2202,0.0908,1788.7744],[36.2223,0.0971,1776.7661],[36.2253,0.0999,1770.3173],[36.224,0.1073,1767.7498],[36.2273,0.115,1743.417],[36.23,0.1295,1744.1383],[36.2443,0.1463,1710.423],[36.2411,0.1612,1694.9816],[36.233,0.163,1685.7522],[36.2323,0.1677,1685.9226],[36.2288,0.1747,1685.5365],[36.2256,0.1762,1684.4347],[36.2203,0.19,1695.103],[36.2143,0.1934,1698.0365],[36.21,0.191,1694.7632],[36.2058,0.1928,1636.489],[36.206,0.1946,1716.1198],[36.2043,0.1939,1679.8453],[36.2028,0.196,1614.1285],[36.203,0.1998,1633.4746],[36.2002,0.1989,1552.5491],[36.2,0.2014,1541.4286],[36.1974,0.2033,1578.7144],[36.1984,0.2049,1581.9346],[36.1483,0.1907,1680.6036],[36.1402,0.1324,1577.8649],[36.1348,0.1137,1552.8859],[36.128,0.0645,1531.5659],[36.1063,0.0664,1536.6001],[36.1136,0.0109,1605.6512],[36.0936,-0.0059,1665.2434]]]]}
,"properties": {"GID_3": "KEN.31.10.4_1","GID_0": "KEN","country": "Kenya","GID_1": "KEN.31_1","province": "Nakuru","NL_NAME_1": "NA","GID_2": "KEN.31.10_1","county": "Rongai","NL_NAME_2": "NA","city": "Solai","VARNAME_3": "NA","NL_NAME_3": "NA","TYPE_3": "Ward","ENGTYPE_3": "Ward","CC_3": "864","HASC_3": "NA","name": "Solai.city","area_km2": 245.6907,"hist_schema_id": "Elevation0-9000","hist_area_km2": {"1525": 34.92,"1550": 23.0256,"1575": 22.4743,"1600": 30.8704,"1625": 26.5451,"1650": 19.2304,"1675": 18.6367,"1700": 20.3117,"1725": 11.8308,"1750": 9.9438,"1775": 7.3996,"1800": 4.7493,"1825": 3.8376,"1850": 2.9259,"1875": 2.9895,"1900": 2.4807,"1925": 1.5054,"1950": 0.8905,"1975": 0.4664,"2000": 0.424,"2025": 0.2332}}}