{"type":"Feature","properties":{"GID_3":"KEN.38.3.5_1","GID_0":"KEN","country":"Kenya","GID_1":"KEN.38_1","province":"Siaya","NL_NAME_1":"NA","GID_2":"KEN.38.3_1","county":"Gem","NL_NAME_2":"NA","city":"WestGem","VARNAME_3":"NA","NL_NAME_3":"NA","TYPE_3":"Ward","ENGTYPE_3":"Ward","CC_3":"1170","HASC_3":"NA","name":"West_Gem.city"},
"geometry":{"type": "MultiPolygon","coordinates": [[[[34.3648,-0.0174,1224.9188],[34.3817,-0.0119,1240.1731],[34.3833,-0.0129,1247.14],[34.3941,-0.0106,1243.2067],[34.3998,-0.0116,1241.9369],[34.4028,-0.0087,1274.9021],[34.4059,-0.01,1266.489],[34.4082,-0.0068,1277.2427],[34.4148,-0.0059,1261.3596],[34.4139,-0.0071,1274.1663],[34.4151,-0.0079,1266.1306],[34.4153,-0.004,1252.8494],[34.4187,-0.0014,1241.6945],[34.4197,-0.0027,1253.8245],[34.4229,-0.0013,1259.6074],[34.4284,-0.0025,1246.4227],[34.4322,0.0005,1228.1101],[34.4322,0.0055,1265.4513],[34.442,0.0183,1271.4287],[34.449,0.0183,1250.0502],[34.4518,0.023,1270.8358],[34.4548,0.0228,1271.0913],[34.455,0.0214,1260.4451],[34.4566,0.0234,1266.9824],[34.4579,0.0228,1266.9824],[34.4582,0.0271,1316.0391],[34.4609,0.0293,1300.1841],[34.4647,0.0285,1294.2169],[34.4674,0.0313,1277.7191],[34.4706,0.0297,1253.6747],[34.4718,0.031,1256.7535],[34.4719,0.0353,1266.6675],[34.4701,0.0376,1297.7197],[34.4722,0.0399,1286.6127],[34.4728,0.0439,1316.4308],[34.45,0.0471,1410.1045],[34.4416,0.0433,1402.5222],[34.4384,0.0446,1425.2461],[34.4388,0.0603,1407.3354],[34.4374,0.0665,1399.1163],[34.4306,0.0701,1353.6125],[34.429,0.069,1343.9614],[34.4251,0.0751,1368.7273],[34.4173,0.0767,1330.9934],[34.4135,0.079,1353.8724],[34.4111,0.0783,1348.6348],[34.4133,0.0817,1366.2006],[34.42,0.0845,1373.8584],[34.4223,0.0893,1402.4886],[34.4203,0.0939,1412.8484],[34.4152,0.0932,1370.228],[34.4138,0.0975,1392.8773],[34.4083,0.0963,1381.7612],[34.3968,0.0852,1357.3486],[34.3949,0.0807,1345.332],[34.384,0.0805,1345.4675],[34.3839,0.0783,1327.1299],[34.3798,0.0776,1289.9354],[34.3778,0.0808,1289.9102],[34.375,0.0783,1307.5093],[34.3722,0.0703,1345.4677],[34.376,0.0509,1391.173],[34.3742,0.0484,1389.4131],[34.3758,0.0456,1402.854],[34.374,0.0409,1427.7256],[34.3808,0.0324,1379.0145],[34.3859,0.0306,1345.2432],[34.3881,0.0214,1291.6016],[34.3872,0.0159,1277.2465],[34.3901,0.0106,1275.1143],[34.389,0.0046,1264.2958],[34.3732,0.0005,1260.6641],[34.3663,-0.004,1262.6765],[34.3651,-0.0109,1245.1443],[34.3629,-0.0125,1255.1624],[34.3648,-0.0174,1224.9188]]]]}}