{"type": "Feature","bbox": [39.2871,0.5151,39.6578,0.9949],"geometry": {"type": "MultiPolygon","coordinates": [[[[39.6578,0.626,173.1021],[39.6539,0.6325,173.7268],[39.6455,0.6571,174.9966],[39.6349,0.6671,176.0051],[39.6269,0.6703,176.6349],[39.6239,0.6771,177.1689],[39.6139,0.6845,177.9395],[39.6101,0.6917,178.488],[39.5997,0.7035,179.6643],[39.5965,0.7129,180.2151],[39.5867,0.7207,181.1178],[39.5755,0.7409,182.859],[39.5641,0.7557,184.3851],[39.5613,0.7623,184.4782],[39.5607,0.7689,184.7791],[39.5545,0.7809,185.6769],[39.5437,0.8215,188.4536],[39.5331,0.8535,190.4138],[39.5151,0.8979,196.0804],[39.4991,0.9305,197.4726],[39.4931,0.9605,198.1126],[39.4799,0.9803,199.1738],[39.4657,0.9887,200.083],[39.4621,0.9949,200.8953],[39.4545,0.9891,201.1147],[39.3957,0.9685,204.2806],[39.3553,0.9511,205.0535],[39.3359,0.9375,206.2875],[39.3137,0.9249,207.6092],[39.2871,0.8969,216.0049],[39.4967,0.6621,181.1285],[39.5057,0.5471,186.1832],[39.5179,0.5151,189.919],[39.6578,0.626,173.1021]]]]}
,"properties": {"GID_3": "KEN.7.6.6_1","GID_0": "KEN","country": "Kenya","GID_1": "KEN.7_1","province": "Garissa","NL_NAME_1": "NA","GID_2": "KEN.7.6_1","county": "Lagdera","NL_NAME_2": "NA","city": "Sabena","VARNAME_3": "NA","NL_NAME_3": "NA","TYPE_3": "Ward","ENGTYPE_3": "Ward","CC_3": "144","HASC_3": "NA","name": "Sabena.city","area_km2": 843.768,"hist_schema_id": "Elevation0-9000","hist_area_km2": {"175": 353.2474,"200": 484.2879,"225": 6.2327}}}