{"type":"Feature","properties":{"GID_3":"KEN.5.1.3_1","GID_0":"KEN","country":"Kenya","GID_1":"KEN.5_1","province":"Elgeyo-Marakwet","NL_NAME_1":"NA","GID_2":"KEN.5.1_1","county":"KeiyoNorth","NL_NAME_2":"NA","city":"Kapchemutwa","VARNAME_3":"NA","NL_NAME_3":"NA","TYPE_3":"Ward","ENGTYPE_3":"Ward","CC_3":"743","HASC_3":"NA","name":"Kapchemutwa.city"},
"geometry":{"type": "MultiPolygon","coordinates": [[[[35.5425,0.8736,2530.6248],[35.5372,0.8737,2521.9807],[35.5307,0.8715,2454.6499],[35.5275,0.8656,2493.6619],[35.5207,0.8649,2444.2583],[35.5177,0.8629,2452.7966],[35.5146,0.8634,2445.4368],[35.4901,0.851,2317.0874],[35.489,0.848,2303.1714],[35.4901,0.8467,2291.3813],[35.4812,0.8275,2345.6152],[35.4931,0.8284,2355.3188],[35.4965,0.8246,2370.8335],[35.4993,0.8254,2371.7646],[35.502,0.7788,2335.7239],[35.5054,0.7793,2365.1692],[35.5074,0.771,2349.1802],[35.5042,0.7684,2297.3779],[35.5035,0.7658,2286.5295],[35.5007,0.7647,2279.0574],[35.4984,0.7539,2266.8499],[35.4946,0.7577,2261.0769],[35.4909,0.7554,2252.9043],[35.4914,0.7529,2251.2158],[35.4976,0.7525,2271.8784],[35.4934,0.7325,2270.8494],[35.4985,0.7202,2272.3237],[35.5053,0.7163,2291.0632],[35.505,0.7078,2270.6772],[35.4447,0.709,2225.8577],[35.4437,0.7037,2198.1194],[35.4386,0.7,2199.6636],[35.4943,0.6895,2302.9673],[35.4913,0.6798,2308.3113],[35.4953,0.6763,2319.4773],[35.498,0.6713,2331.7192],[35.5048,0.6703,2354.4907],[35.5037,0.6658,2348.6343],[35.5118,0.6652,2351.5391],[35.5157,0.6711,2217.5222],[35.517,0.693,2302.2302],[35.5241,0.702,2355.6697],[35.5336,0.7105,2379.241],[35.536,0.74,2332.4243],[35.5391,0.7481,2359.2747],[35.5392,0.7556,2348.0347],[35.5481,0.7738,2187.2368],[35.5409,0.7834,2234.4795],[35.5382,0.7904,2448.0947],[35.5413,0.8137,2425.5706],[35.5433,0.8174,2481.2324],[35.5433,0.858,2477.7935],[35.5445,0.8611,2484.3931],[35.5428,0.8646,2483.6177],[35.5425,0.8736,2530.6248]]]]}}