{"type": "Feature","bbox": [36.8962,-1.2051,36.9176,-1.1943],"geometry": {"type": "MultiPolygon","coordinates": [[[[36.9176,-1.1994,1527.4387],[36.9013,-1.1943,1537.9014],[36.8962,-1.1995,1567.519],[36.9124,-1.2051,1547.8998],[36.9176,-1.1994,1527.4387]]]]}
,"properties": {"GID_3": "KEN.30.14.1_1","GID_0": "KEN","country": "Kenya","GID_1": "KEN.30_1","province": "Nairobi","NL_NAME_1": "NA","GID_2": "KEN.30.14_1","county": "Roysambu","NL_NAME_2": "NA","city": "Githurai","VARNAME_3": "NA","NL_NAME_3": "NA","TYPE_3": "Ward","ENGTYPE_3": "Ward","CC_3": "1391","HASC_3": "NA","name": "Githurai.city","area_km2": 1.441434,"hist_schema_id": "Elevation0-9000","hist_area_km2": {"1525": 0.211976,"1550": 1.165866,"1575": 0.063593}}}