{"type": "Feature","bbox": [37.3635,-2.936,37.577,-2.6872],"geometry": {"type": "MultiPolygon","coordinates": [[[[37.4498,-2.9196,2004.8326],[37.4817,-2.936,1924.8806],[37.4786,-2.9342,1937.0095],[37.485,-2.9305,1891.2677],[37.4891,-2.9166,1771.1976],[37.5002,-2.9068,1685.4641],[37.5013,-2.902,1664.0009],[37.5164,-2.8917,1583.2352],[37.5213,-2.8799,1534.7797],[37.5233,-2.867,1498.8257],[37.577,-2.8654,1412.739],[37.5711,-2.817,1307.9036],[37.575,-2.7933,1247.5409],[37.5699,-2.7168,1204.4255],[37.5702,-2.7007,1206.0276],[37.5664,-2.7022,1200.1669],[37.5646,-2.7069,1200.953],[37.5613,-2.71,1195.4253],[37.5408,-2.7094,1199.16],[37.5348,-2.7111,1197.1639],[37.5261,-2.7167,1198.0884],[37.5152,-2.7309,1201.7783],[37.5116,-2.7319,1205.0441],[37.5101,-2.7364,1211.4885],[37.5061,-2.7385,1213.9009],[37.5049,-2.7413,1219.4353],[37.5032,-2.7407,1227.7429],[37.5025,-2.7435,1222.2736],[37.4911,-2.752,1239.1382],[37.4789,-2.7527,1226.6353],[37.4762,-2.7479,1215.7224],[37.4716,-2.7458,1208.8527],[37.469,-2.7387,1196.1199],[37.469,-2.7339,1190.9659],[37.4614,-2.7232,1171.7865],[37.4605,-2.7079,1158.6533],[37.4616,-2.6987,1158.4213],[37.4595,-2.6903,1169.5188],[37.394,-2.6872,1142.9769],[37.3635,-2.7456,1173.7068],[37.3657,-2.7523,1180.2927],[37.374,-2.7618,1197.3248],[37.381,-2.765,1210.4917],[37.3839,-2.7685,1220.2294],[37.3943,-2.7848,1277.7123],[37.3977,-2.7982,1369.6855],[37.4132,-2.8072,1458.499],[37.4959,-2.8461,1453.7239],[37.4902,-2.8492,1472.3739],[37.4868,-2.8549,1498.8666],[37.4838,-2.8704,1554.9982],[37.4782,-2.8842,1618.4884],[37.4689,-2.891,1668.4974],[37.4634,-2.8998,1720.9086],[37.4549,-2.901,1757.2015],[37.4506,-2.9062,1841.582],[37.4517,-2.9149,1938.5239],[37.4498,-2.9196,2004.8326]]]]}
,"properties": {"GID_3": "KEN.10.4.2_1","GID_0": "KEN","country": "Kenya","GID_1": "KEN.10_1","province": "Kajiado","NL_NAME_1": "NA","GID_2": "KEN.10.4_1","county": "KajiadoSouth","NL_NAME_2": "NA","city": "Kimana","VARNAME_3": "NA","NL_NAME_3": "NA","TYPE_3": "Ward","ENGTYPE_3": "Ward","CC_3": "935","HASC_3": "NA","name": "Kimana.city","area_km2": 335.3819,"hist_schema_id": "Elevation0-9000","hist_area_km2": {"1150": 36.0246,"1175": 20.8816,"1200": 38.3534,"1225": 34.9643,"1250": 27.0858,"1275": 22.8078,"1300": 20.9441,"1325": 20.3722,"1350": 17.259,"1375": 14.5695,"1400": 14.2094,"1425": 15.0352,"1450": 12.3246,"1475": 4.6376,"1500": 2.7529,"1525": 3.5787,"1550": 3.3034,"1575": 2.6681,"1600": 2.5622,"1625": 2.5199,"1650": 2.4987,"1675": 2.3081,"1700": 1.821,"1725": 1.5881,"1750": 1.4399,"1775": 1.3764,"1800": 1.0799,"1825": 0.9529,"1850": 1.0376,"1875": 1.0799,"1900": 1.334,"1925": 1.1434,"1950": 0.5929,"1975": 0.2753}}}