{"type":"Feature","properties":{"GID_3":"KEN.46.5.5_1","GID_0":"KEN","country":"Kenya","GID_1":"KEN.46_1","province":"Wajir","NL_NAME_1":"NA","GID_2":"KEN.46.5_1","county":"WajirSouth","NL_NAME_2":"NA","city":"Habasswein","VARNAME_3":"NA","NL_NAME_3":"NA","TYPE_3":"Ward","ENGTYPE_3":"Ward","CC_3":"187","HASC_3":"NA","name":"Habasswein.city"},
"geometry":{"type": "MultiPolygon","coordinates": [[[[40.0764,0.3815,143.6227],[40.0787,0.3801,142.8328],[40.0843,0.3907,147.5349],[40.0901,0.4309,157.4946],[40.0969,0.4459,164.6038],[40.1037,0.4563,168.5981],[40.1575,0.6083,172.2982],[40.1635,0.6211,166.8485],[39.9761,0.7989,173.63],[39.9753,0.8937,181.6278],[39.9243,0.9403,200.7947],[39.9079,0.9343,200.2103],[39.8881,0.9247,178.9572],[39.8825,0.9247,179.6754],[39.8797,0.9313,183.3207],[39.8713,1.0187,219.4209],[39.8139,1.0155,249.1461],[39.7625,1.1307,228.9635],[39.7427,1.1231,232.0855],[39.6975,1.1523,246.6223],[39.6689,1.1503,255.4951],[39.5163,1.0307,223.7999],[39.4937,1.0159,211.3755],[39.4867,1.0153,206.1705],[39.4821,1.0249,207.2747],[39.4661,1.0369,206.0963],[39.4543,1.0429,209.2302],[39.4445,1.0445,206.7001],[39.4639,0.9905,200.4258],[39.4799,0.9803,199.1738],[39.4931,0.9605,198.1126],[39.4991,0.9305,197.4726],[39.5151,0.8979,196.0804],[39.5331,0.8535,190.4138],[39.5437,0.8215,188.4536],[39.5545,0.7809,185.6769],[39.5607,0.7689,184.7791],[39.5613,0.7623,184.4782],[39.5641,0.7557,184.3851],[39.5755,0.7409,182.859],[39.5867,0.7207,181.1178],[39.5965,0.7129,180.2151],[39.5997,0.7035,179.6643],[39.6101,0.6917,178.488],[39.6139,0.6845,177.9395],[39.6239,0.6771,177.1689],[39.6269,0.6703,176.6349],[39.6349,0.6671,176.0051],[39.6455,0.6571,174.9966],[39.6539,0.6325,173.7268],[39.6623,0.6203,172.5977],[39.6639,0.6153,172.3839],[39.6729,0.6053,170.9986],[39.6759,0.5979,170.8869],[39.6846,0.588,170.0269],[39.6883,0.5801,169.6823],[39.698,0.5726,168.3768],[39.7019,0.5651,168.1658],[39.7115,0.5569,167.1507],[39.7163,0.5505,166.8318],[39.7169,0.5465,166.7476],[39.7204,0.5466,166.5077],[39.7235,0.5431,166.3255],[39.7329,0.5253,164.7782],[39.7359,0.5233,164.6167],[39.7405,0.5233,164.3477],[39.7463,0.5177,163.7163],[39.7619,0.512,163.033],[39.7637,0.5071,162.7761],[39.7699,0.5037,162.4725],[39.7747,0.4965,162.0393],[39.7831,0.4915,161.6313],[39.7937,0.4891,160.6035],[39.8009,0.4845,160.4041],[39.8103,0.4851,159.8723],[39.8209,0.4835,159.195],[39.8275,0.4797,158.9003],[39.8357,0.4815,158.2758],[39.8401,0.4791,158.1949],[39.8496,0.4785,157.4973],[39.8571,0.4703,156.7127],[39.8649,0.467,156.0013],[39.8693,0.4621,155.6177],[39.8743,0.4597,155.1178],[39.8779,0.4597,154.9721],[39.8892,0.4641,154.1744],[39.8943,0.4625,153.817],[39.9035,0.4635,155.1313],[39.9116,0.4584,154.1966],[39.944,0.4304,150.074],[39.9761,0.4117,147.7442],[39.9953,0.4041,147.385],[40.0135,0.3993,146.5366],[40.042,0.3974,144.3249],[40.0545,0.3951,143.4554],[40.0764,0.3815,143.6227]]]]}}