{"type":"Feature","properties":{"GID_3":"KEN.37.3.5_1","GID_0":"KEN","country":"Kenya","GID_1":"KEN.37_1","province":"Samburu","NL_NAME_1":"NA","GID_2":"KEN.37.3_1","county":"SamburuWest","NL_NAME_2":"NA","city":"SugutaMarmar","VARNAME_3":"NA","NL_NAME_3":"NA","TYPE_3":"Ward","ENGTYPE_3":"Ward","CC_3":"662","HASC_3":"NA","name":"Suguta_Marmar.city"},
"geometry":{"type": "MultiPolygon","coordinates": [[[[36.4901,0.8523,1631.082],[36.4838,0.8287,1721.099],[36.4833,0.8189,1713.0646],[36.6759,0.8189,1844.3785],[36.6752,0.8235,1847.6821],[36.6794,0.8223,1843.707],[36.6906,0.834,1846.588],[36.6999,0.8355,1816.1243],[36.709,0.8392,1817.2137],[36.7298,0.8499,1818.5913],[36.7335,0.8545,1796.0043],[36.7446,0.861,1791.2915],[36.7462,0.8665,1785.193],[36.7454,0.8955,1810.2776],[36.7426,0.9164,1799.2075],[36.7557,0.9301,1782.8606],[36.7463,0.9295,1793.0463],[36.7396,0.9317,1788.6019],[36.7394,0.9332,1789.8788],[36.7368,0.9321,1789.1489],[36.7084,0.9341,1794.5881],[36.7032,0.93,1792.1414],[36.6934,0.9272,1795.7527],[36.6932,0.929,1795.6189],[36.691,0.9288,1796.13],[36.6853,0.9345,1800.635],[36.6786,0.937,1803.2935],[36.6757,0.9403,1807.4867],[36.6741,0.9455,1809.7119],[36.6783,0.9485,1812.241],[36.6773,0.9503,1812.0792],[36.6788,0.9562,1817.0364],[36.6775,0.9571,1818.0128],[36.6804,0.9623,1821.0496],[36.6792,0.9662,1824.9526],[36.6753,0.9682,1827.9836],[36.6767,0.971,1831.4285],[36.6751,0.9734,1832.9442],[36.677,0.9763,1834.9614],[36.6753,0.976,1837.5583],[36.6758,0.9814,1839.5883],[36.6742,0.9815,1839.5883],[36.6723,0.9855,1843.6536],[36.6719,0.9913,1852.0972],[36.6703,0.9906,1852.0972],[36.6701,0.9931,1857.3748],[36.6652,0.9956,1859.2188],[36.66,1.0059,1865.5104],[36.629,1.0243,1950.2415],[36.6213,1.0243,1968.5529],[36.614,1.0187,1971.556],[36.5988,0.9916,2028.7339],[36.5457,0.9899,1958.6912],[36.5377,0.9848,1869.7842],[36.5359,0.9738,1883.8837],[36.5332,0.9751,1726.2617],[36.5316,0.9788,1788.8042],[36.5334,0.9836,1617.7947],[36.5321,0.9855,1605.7697],[36.533,0.9891,1814.6536],[36.5284,0.995,1795.5466],[36.5205,0.9958,1652.0247],[36.5195,0.9947,1562.6731],[36.519,0.9963,1602.6523],[36.5129,0.9995,1541.7976],[36.5082,0.9947,1639.6375],[36.5075,0.9973,1619.5928],[36.5053,0.996,1628.3667],[36.5045,0.9978,1614.2299],[36.4997,0.9949,1551.4788],[36.496,0.9961,1464.9647],[36.4951,0.998,1539.9294],[36.4898,0.9977,1498.9252],[36.4874,1.0018,1388.2463],[36.4838,0.9966,1354.3679],[36.4799,0.9961,1412.6035],[36.4782,0.9937,1523.4855],[36.4758,0.9933,1515.0411],[36.4647,0.9979,1363.5007],[36.4616,1.002,1340.9307],[36.4587,1.0026,1261.8262],[36.4557,0.9992,1291.4868],[36.4524,1.002,1257.8088],[36.4498,1.0015,1386.0898],[36.4413,0.976,1477.0763],[36.4265,0.948,1333.8584],[36.4163,0.9365,1393.2273],[36.3943,0.9163,1350.7927],[36.3939,0.914,1324.2788],[36.3961,0.913,1488.6696],[36.3955,0.9102,1503.6547],[36.4035,0.9048,1450.4456],[36.4065,0.9056,1451.2202],[36.4109,0.9041,1449.5576],[36.4162,0.9055,1469.4248],[36.4174,0.9073,1512.5952],[36.4191,0.9065,1572.9777],[36.4246,0.9023,1571.1248],[36.4235,0.8977,1542.739],[36.4297,0.889,1572.3779],[36.4457,0.8759,1593.8206],[36.4563,0.8765,1586.3497],[36.4625,0.8735,1587.058],[36.4645,0.8697,1584.4128],[36.4706,0.868,1595.5166],[36.4716,0.8649,1594.4644],[36.4789,0.8611,1608.5311],[36.4817,0.8573,1610.4189],[36.4883,0.855,1622.4404],[36.4901,0.8523,1631.082]]]]}}