{"type":"Feature","properties":{"GID_3":"KEN.47.2.6_1","GID_0":"KEN","country":"Kenya","GID_1":"KEN.47_1","province":"WestPokot","NL_NAME_1":"NA","GID_2":"KEN.47.2_1","county":"Kapenguria","NL_NAME_2":"NA","city":"Sook","VARNAME_3":"NA","NL_NAME_3":"NA","TYPE_3":"Ward","ENGTYPE_3":"Ward","CC_3":"646","HASC_3":"NA","name":"Sook.city"},
"geometry":{"type": "MultiPolygon","coordinates": [[[[35.2229,1.6578,1736.5162],[35.2242,1.6387,2020.1123],[35.2276,1.6355,1929.8154],[35.2297,1.6297,2059.894],[35.2298,1.623,2157.2263],[35.2367,1.6177,2068.9392],[35.2389,1.6119,2155.2261],[35.2378,1.6069,1870.2123],[35.2315,1.599,1661.5864],[35.2235,1.593,1622.5123],[35.2274,1.5875,1979.2393],[35.2259,1.5791,1987.965],[35.2268,1.5663,1903.3745],[35.2321,1.5546,1982.8362],[35.2316,1.5476,1939.3154],[35.2379,1.5447,2043.6649],[35.2432,1.5373,2183.499],[35.2588,1.5372,1880.1863],[35.2763,1.5424,1932.0378],[35.2951,1.5456,1662.3994],[35.3002,1.5448,1756.0234],[35.3078,1.5409,1676.4099],[35.311,1.5425,1623.6638],[35.3133,1.5461,1502.3517],[35.3189,1.5445,1633.6643],[35.3206,1.5463,1620.9515],[35.3223,1.5446,1543.516],[35.3256,1.5464,1452.9739],[35.3272,1.5451,1467.917],[35.3317,1.5516,1416.3708],[35.337,1.5497,1504.2661],[35.3368,1.5524,1487.3094],[35.3405,1.5529,1382.9656],[35.3393,1.5509,1409.6394],[35.3426,1.5503,1370.0625],[35.3435,1.5522,1417.5901],[35.3417,1.5534,1369.543],[35.3462,1.5563,1472.7141],[35.3471,1.5537,1389.8171],[35.3502,1.5564,1365.464],[35.3521,1.5555,1353.7136],[35.3524,1.5576,1382.3201],[35.3502,1.5595,1377.7246],[35.3523,1.5624,1312.6426],[35.3546,1.5626,1316.0973],[35.3556,1.5593,1302.0143],[35.357,1.5624,1376.1514],[35.3588,1.562,1351.5774],[35.3594,1.5596,1320.8406],[35.3607,1.5605,1352.9358],[35.3626,1.5565,1295.7542],[35.3623,1.5514,1236.7513],[35.3652,1.5495,1230.9143],[35.3715,1.5512,1283.8145],[35.3733,1.5496,1252.7509],[35.3745,1.5514,1282.1532],[35.3793,1.5523,1351.9346],[35.3803,1.5513,1335.881],[35.3774,1.5492,1253.3365],[35.3779,1.5471,1260.7644],[35.3812,1.5476,1295.6427],[35.3817,1.5499,1306.4397],[35.3835,1.5468,1206.9329],[35.3876,1.5495,1361.1981],[35.3864,1.5454,1212.2996],[35.3892,1.5431,1154.7617],[35.3913,1.5436,1220.7935],[35.3925,1.5419,1344.4998],[35.3974,1.5437,1316.7185],[35.4002,1.5416,1323.3947],[35.4022,1.5423,1537.0197],[35.4064,1.5393,1358.8455],[35.4086,1.535,1186.9336],[35.4122,1.5348,1199.0767],[35.4119,1.539,1183.9033],[35.4143,1.5386,1117.946],[35.4125,1.5416,1163.5745],[35.4134,1.5435,1177.4718],[35.4118,1.5437,1155.3153],[35.4135,1.5469,1228.9515],[35.4109,1.5497,1233.5415],[35.4117,1.5523,1298.2346],[35.4107,1.5535,1298.2346],[35.4067,1.5531,1499.2239],[35.4047,1.556,1524.3804],[35.402,1.5569,1370.0822],[35.4023,1.5609,1599.7428],[35.3993,1.5616,1477.4753],[35.3974,1.5652,1562.8787],[35.3988,1.5681,1833.9695],[35.39,1.5748,1829.6654],[35.3895,1.5822,2262.5435],[35.384,1.5907,2430.0991],[35.38,1.5938,2400.3071],[35.3824,1.6014,2559.9707],[35.3749,1.6198,2536.7476],[35.3706,1.6265,2421.0115],[35.3713,1.6431,2529.9692],[35.362,1.6493,2332.8291],[35.3535,1.6547,2190.7397],[35.3219,1.6471,2189.4961],[35.315,1.6468,2274.7041],[35.2993,1.6392,1714.2122],[35.2912,1.6387,1823.8546],[35.2901,1.6359,1773.0471],[35.2881,1.6379,1839.5522],[35.2864,1.636,1907.2319],[35.2865,1.6376,1897.6868],[35.2842,1.6375,1873.4808],[35.2709,1.6279,2024.3979],[35.2573,1.6269,2267.9922],[35.2474,1.631,1998.8394],[35.2366,1.641,1802.0822],[35.2321,1.6488,1784.6918],[35.235,1.6513,1788.3787],[35.2342,1.6581,1762.2551],[35.2237,1.6631,1880.3347],[35.2229,1.6578,1736.5162]]]]}}