{"type":"Feature","properties":{"GID_2":"KEN.29.5_1","GID_0":"KEN","country":"Kenya","GID_1":"KEN.29_1","province":"Murang'a","NL_NAME_1":"NA","county":"Kiharu","VARNAME_2":"NA","NL_NAME_2":"NA","TYPE_2":"Constituency","ENGTYPE_2":"Constituency","CC_2":"106","HASC_2":"NA","name":"Kiharu.county"},
"geometry":{"type": "MultiPolygon","coordinates": [[[[37.0196,-0.7729,1626.6973],[37.0255,-0.7732,1601.7753],[37.0429,-0.7674,1543.1274],[37.0545,-0.7768,1530.1578],[37.0608,-0.7759,1487.9116],[37.0624,-0.774,1498.3877],[37.0798,-0.777,1401.312],[37.085,-0.7793,1398.9877],[37.0813,-0.7686,1400.4822],[37.0827,-0.7671,1383.1647],[37.0871,-0.7705,1393.2095],[37.0934,-0.7708,1373.0991],[37.0938,-0.7686,1370.5797],[37.0919,-0.7675,1376.9856],[37.0926,-0.7608,1408.7471],[37.1034,-0.7614,1393.7606],[37.1112,-0.7663,1401.0801],[37.1242,-0.7606,1330.3855],[37.1328,-0.762,1359.3395],[37.1385,-0.7578,1321.6992],[37.1441,-0.7571,1283.8213],[37.1462,-0.7552,1270.2501],[37.148,-0.753,1260.7738],[37.1476,-0.7483,1227.4653],[37.1543,-0.7413,1243.2419],[37.1587,-0.7437,1257.5286],[37.162,-0.7423,1240.9026],[37.1681,-0.7439,1303.9702],[37.1722,-0.743,1262.6545],[37.1784,-0.7457,1253.5132],[37.182,-0.7446,1221.3998],[37.1823,-0.7457,1221.3998],[37.1866,-0.7434,1208.3057],[37.1923,-0.7448,1182.2473],[37.1949,-0.7596,1142.7358],[37.2011,-0.7585,1178.3782],[37.2076,-0.7638,1149.5879],[37.2123,-0.7604,1144.9962],[37.2144,-0.7601,1142.1837],[37.2166,-0.7622,1138.1344],[37.2167,-0.76,1141.3584],[37.2197,-0.7603,1148.8751],[37.2218,-0.7639,1154.2137],[37.2214,-0.7679,1136.4469],[37.2243,-0.7674,1144.683],[37.2285,-0.7721,1133.9105],[37.2331,-0.7696,1139.007],[37.2362,-0.773,1132.1289],[37.2391,-0.7733,1132.7814],[37.2382,-0.7753,1131.5288],[37.2438,-0.7744,1141.6099],[37.2474,-0.7776,1130.2422],[37.2533,-0.7779,1126.1292],[37.2548,-0.78,1126.4662],[37.2636,-0.782,1074.6765],[37.2648,-0.7806,1118.3148],[37.2622,-0.7797,1101.5632],[37.2619,-0.7671,1114.674],[37.26,-0.7662,1130.7401],[37.2595,-0.7618,1115.5901],[37.2554,-0.756,1120.5146],[37.2557,-0.7542,1120.2993],[37.2568,-0.7516,1124.9758],[37.2596,-0.7514,1124.8262],[37.2607,-0.7492,1129.0208],[37.2635,-0.7526,1118.8315],[37.2694,-0.754,1114.1439],[37.2703,-0.7525,1116.7574],[37.2629,-0.7456,1115.4578],[37.2657,-0.7416,1115.0164],[37.2576,-0.7329,1115.656],[37.2571,-0.7241,1124.6898],[37.2506,-0.723,1117.0785],[37.2511,-0.7185,1120.799],[37.2536,-0.7211,1119.6359],[37.2564,-0.7197,1117.4529],[37.2512,-0.7151,1134.7507],[37.248,-0.7098,1124.5388],[37.2487,-0.7056,1146.7787],[37.2466,-0.7071,1137.5421],[37.2437,-0.7059,1124.0389],[37.2421,-0.7005,1134.5479],[37.2445,-0.6975,1156.6794],[37.2415,-0.693,1145.8542],[37.2443,-0.6907,1162.9471],[37.2408,-0.6877,1144.7098],[37.2386,-0.6789,1146.0481],[37.2398,-0.6761,1155.4087],[37.2367,-0.6725,1159.0712],[37.2379,-0.6665,1162.5978],[37.2362,-0.6636,1165.1797],[37.2378,-0.6624,1167.286],[37.2331,-0.6624,1165.5044],[37.2284,-0.6675,1176.6497],[37.2256,-0.6678,1183.113],[37.2141,-0.685,1189.1096],[37.2106,-0.6769,1192.8677],[37.204,-0.6712,1196.9265],[37.2012,-0.6588,1204.7576],[37.197,-0.6582,1210.3969],[37.1901,-0.6616,1205.734],[37.1884,-0.6597,1205.8551],[37.1849,-0.6621,1205.78],[37.1833,-0.6592,1206.1627],[37.1827,-0.6616,1205.6754],[37.1786,-0.6619,1205.7517],[37.1808,-0.6603,1206.4144],[37.1793,-0.6535,1214.6934],[37.1768,-0.6522,1220.3851],[37.1772,-0.6498,1230.0911],[37.175,-0.6455,1239.9177],[37.169,-0.6437,1213.8981],[37.172,-0.6391,1209.9126],[37.1703,-0.6379,1209.6478],[37.1724,-0.6364,1240.3064],[37.1687,-0.6339,1241.3184],[37.1687,-0.6305,1229.9612],[37.1671,-0.6297,1242.5073],[37.1595,-0.6322,1326.1532],[37.1547,-0.6312,1291.301],[37.1529,-0.636,1352.7858],[37.1449,-0.6325,1425.6788],[37.139,-0.6328,1414.4438],[37.1277,-0.6397,1408.3301],[37.1203,-0.6408,1398.4174],[37.1148,-0.6368,1392.6503],[37.1015,-0.6325,1449.6984],[37.1008,-0.6279,1456.8306],[37.1026,-0.6256,1478.3213],[37.0995,-0.622,1475.9404],[37.0961,-0.6223,1467.8435],[37.0951,-0.6202,1459.1964],[37.0878,-0.6179,1471.6222],[37.0855,-0.6191,1507.6464],[37.0826,-0.6146,1523.277],[37.0793,-0.6145,1532.4941],[37.0782,-0.6105,1507.0154],[37.0756,-0.611,1524.1821],[37.0676,-0.6055,1561.7168],[37.0616,-0.6093,1546.6766],[37.06,-0.614,1539.3441],[37.0562,-0.6118,1534.7462],[37.056,-0.6162,1607.6324],[37.0524,-0.6177,1609.1438],[37.0483,-0.618,1589.3455],[37.0406,-0.6126,1626.3049],[37.0368,-0.6141,1579.704],[37.0342,-0.6201,1647.355],[37.0258,-0.6198,1647.9768],[37.0167,-0.6153,1718.9417],[37.0137,-0.6178,1693.4597],[37.0145,-0.6239,1591.1677],[37.0165,-0.625,1610.2432],[37.0173,-0.6342,1529.1893],[37.0254,-0.6364,1641.0031],[37.0266,-0.6402,1556.0223],[37.0306,-0.6417,1599.5015],[37.0389,-0.6382,1592.1157],[37.0414,-0.6403,1557.4109],[37.0443,-0.6396,1614.8473],[37.0517,-0.6423,1564.2944],[37.054,-0.6446,1535.1321],[37.0541,-0.6484,1451.8724],[37.0602,-0.648,1557.5465],[37.0615,-0.651,1531.5342],[37.0709,-0.658,1499.0712],[37.0687,-0.6596,1413.9658],[37.0709,-0.6614,1412.8427],[37.0765,-0.6608,1505.6433],[37.0766,-0.6632,1432.8455],[37.0845,-0.6618,1471.6443],[37.0864,-0.6659,1475.3217],[37.0918,-0.6626,1479.8066],[37.0927,-0.6668,1362.7943],[37.0956,-0.6671,1444.522],[37.0974,-0.6695,1426.7311],[37.0962,-0.6725,1369.4149],[37.0997,-0.6739,1388.8727],[37.0998,-0.6725,1382.9796],[37.103,-0.6729,1427.2172],[37.1076,-0.6761,1431.9719],[37.1096,-0.6802,1372.4312],[37.1119,-0.6798,1371.7719],[37.113,-0.6823,1382.4747],[37.1144,-0.6822,1382.4747],[37.1143,-0.6869,1295.0023],[37.1165,-0.6869,1315.8445],[37.1227,-0.6949,1360.7574],[37.1224,-0.7014,1286.566],[37.1244,-0.7037,1273.6582],[37.1181,-0.7009,1361.3499],[37.1153,-0.7033,1303.6024],[37.1127,-0.7019,1290.4517],[37.1098,-0.7038,1338.6871],[37.1084,-0.7018,1323.0784],[37.1044,-0.7009,1355.6733],[37.0998,-0.7046,1353.3273],[37.0977,-0.7022,1334.2913],[37.0938,-0.7013,1379.7179],[37.0906,-0.7041,1369.7563],[37.0886,-0.7017,1373.1206],[37.0763,-0.7016,1379.5916],[37.0727,-0.6996,1397.2996],[37.0674,-0.7022,1421.8562],[37.0599,-0.6994,1508.2537],[37.0534,-0.7005,1498.1129],[37.049,-0.6964,1505.7344],[37.0422,-0.694,1491.2273],[37.0357,-0.6967,1562.0825],[37.0301,-0.6963,1581.8217],[37.0271,-0.6997,1613.9084],[37.021,-0.6996,1624.9584],[37.0125,-0.6974,1603.0651],[37.0097,-0.6949,1610.235],[37.0097,-0.6915,1545.4219],[37.0078,-0.6911,1588.4103],[37.0025,-0.6934,1675.4274],[36.9998,-0.6924,1689.9185],[36.9935,-0.6937,1673.3518],[36.9908,-0.6935,1721.3201],[36.9891,-0.6915,1686.5432],[36.9841,-0.6915,1704.759],[36.9785,-0.694,1744.8442],[36.9739,-0.6917,1763.2231],[36.9647,-0.6908,1736.9547],[36.9594,-0.6929,1731.7124],[36.9567,-0.7027,1755.9532],[36.9569,-0.7068,1721.2212],[36.9612,-0.707,1733.1095],[36.9631,-0.7104,1794.9921],[36.9635,-0.7181,1698.4751],[36.9623,-0.7215,1662.4353],[36.9544,-0.7178,1712.0586],[36.9494,-0.7086,1749.6995],[36.9461,-0.7074,1757.011],[36.9431,-0.7087,1772.1257],[36.941,-0.7073,1791.553],[36.9384,-0.7084,1781.3759],[36.9369,-0.7068,1774.3472],[36.934,-0.7077,1763.3352],[36.9305,-0.7041,1770.165],[36.9264,-0.7044,1838.6957],[36.9263,-0.703,1838.6957],[36.9228,-0.7052,1836.4684],[36.9207,-0.7026,1856.1445],[36.9193,-0.7036,1857.1053],[36.9184,-0.7005,1872.5607],[36.9171,-0.7011,1872.5607],[36.9145,-0.697,1841.9237],[36.9125,-0.6989,1863.1919],[36.9095,-0.6987,1900.1545],[36.906,-0.6953,1955.7572],[36.9044,-0.7001,1904.4536],[36.9008,-0.6993,1922.8248],[36.8977,-0.701,1943.1903],[36.8882,-0.6949,2027.5381],[36.878,-0.6978,2028.5878],[36.8729,-0.6966,2153.7483],[36.8652,-0.7058,2070.2036],[36.8668,-0.7112,2023.175],[36.869,-0.7134,2031.7041],[36.8673,-0.7155,1993.8599],[36.8693,-0.7191,1964.8635],[36.8688,-0.7212,1948.5999],[36.8697,-0.7207,1981.135],[36.8703,-0.7251,1948.1637],[36.8736,-0.731,1922.291],[36.8757,-0.7307,1994.1277],[36.8762,-0.734,2012.4707],[36.8799,-0.7374,1960.13],[36.8825,-0.7376,2045.4567],[36.8843,-0.7418,1965.3324],[36.8901,-0.7427,2019.5485],[36.8931,-0.7457,1959.3623],[36.8977,-0.745,2021.67],[36.8999,-0.7483,1960.1906],[36.9126,-0.7481,1963.5712],[36.9154,-0.7522,1933.7659],[36.9198,-0.7522,1882.1101],[36.9214,-0.7505,1916.4915],[36.9226,-0.7516,1880.0856],[36.9306,-0.7521,1864.4536],[36.931,-0.7507,1901.2209],[36.9326,-0.752,1854.9641],[36.9378,-0.7519,1879.9956],[36.9466,-0.7555,1837.6482],[36.9531,-0.7619,1760.7734],[36.957,-0.7613,1766.6012],[36.9626,-0.7635,1814.4429],[36.9707,-0.7622,1735.7324],[36.9729,-0.7657,1737.7927],[36.9789,-0.7676,1677.2891],[36.9844,-0.7673,1699.3157],[36.9865,-0.7646,1682.0133],[36.9965,-0.7661,1663.0057],[37.0039,-0.7694,1651.1677],[37.0059,-0.7667,1679.5597],[37.0084,-0.7662,1635.1],[37.0164,-0.7701,1620.7837],[37.0168,-0.7727,1576.8418],[37.0196,-0.7729,1626.6973]]]]}}