{"type":"Feature","properties":{"GID_3":"KEN.12.4.3_1","GID_0":"KEN","country":"Kenya","GID_1":"KEN.12_1","province":"Kericho","NL_NAME_1":"NA","GID_2":"KEN.12.4_1","county":"KipkelionEast","NL_NAME_2":"NA","city":"Londiani","VARNAME_3":"NA","NL_NAME_3":"NA","TYPE_3":"Ward","ENGTYPE_3":"Ward","CC_3":"936","HASC_3":"NA","name":"Londiani.city"},
"geometry":{"type": "MultiPolygon","coordinates": [[[[35.6016,-0.1344,2300.3042],[35.6009,-0.128,2313.7012],[35.5971,-0.1236,2300.9553],[35.5989,-0.1165,2306.8052],[35.6037,-0.1172,2324.6528],[35.6121,-0.1127,2336.3547],[35.6126,-0.105,2351.0562],[35.6231,-0.0972,2377.0859],[35.6215,-0.0913,2383.0669],[35.6142,-0.0856,2365.8438],[35.6167,-0.0824,2380.3804],[35.615,-0.0779,2370.7371],[35.6087,-0.0833,2366.6523],[35.6053,-0.0915,2344.0996],[35.6016,-0.0942,2341.6018],[35.5919,-0.0782,2330.7173],[35.5897,-0.078,2337.5859],[35.5849,-0.0826,2328.0093],[35.5829,-0.0877,2334.4561],[35.5808,-0.0882,2334.9055],[35.579,-0.0917,2339.0176],[35.579,-0.096,2331.7891],[35.5758,-0.0995,2332.1057],[35.5758,-0.1069,2307.6558],[35.5745,-0.1078,2316.6521],[35.5782,-0.1173,2311.2427],[35.5764,-0.1228,2303.3745],[35.5744,-0.1233,2328.8811],[35.576,-0.1159,2300.2974],[35.5732,-0.115,2322.552],[35.5656,-0.1061,2319.1826],[35.5615,-0.0915,2331.521],[35.5524,-0.0948,2347.2251],[35.5441,-0.1003,2393.874],[35.5352,-0.0955,2407.9875],[35.5207,-0.0908,2544.9246],[35.5155,-0.071,2555.6724],[35.5136,-0.0691,2554.3914],[35.5143,-0.0587,2500.9456],[35.5244,-0.0461,2502.5154],[35.5199,-0.045,2493.79],[35.5185,-0.0409,2513.3018],[35.5161,-0.039,2508.209],[35.5095,-0.0477,2453.3372],[35.4872,-0.0664,2341.2178],[35.4866,-0.0691,2304.5386],[35.4929,-0.0696,2307.7937],[35.5099,-0.0979,2479.0854],[35.5118,-0.1194,2432.3687],[35.522,-0.1191,2400.7065],[35.5306,-0.1299,2377.0938],[35.5288,-0.138,2372.2473],[35.525,-0.14,2364.1418],[35.5169,-0.1398,2375.0789],[35.5139,-0.1373,2400.6274],[35.5179,-0.1593,2247.2175],[35.5172,-0.174,2102.874],[35.529,-0.1781,2128.1577],[35.5304,-0.1813,2254.823],[35.5328,-0.18,2302.0332],[35.5364,-0.1817,2310.9856],[35.54,-0.18,2310.9885],[35.5518,-0.1793,2320.2732],[35.5618,-0.1809,2249.0249],[35.5658,-0.1784,2276.3071],[35.5711,-0.1703,2275.6487],[35.5705,-0.1657,2286.6013],[35.5827,-0.1576,2288.8704],[35.5864,-0.1464,2284.1772],[35.5921,-0.1403,2289.9885],[35.6016,-0.1344,2300.3042]]]]}}