{"type":"Feature","properties":{"GID_3":"KEN.17.5.1_1","GID_0":"KEN","country":"Kenya","GID_1":"KEN.17_1","province":"Kisumu","NL_NAME_1":"NA","GID_2":"KEN.17.5_1","county":"Nyakach","NL_NAME_2":"NA","city":"CentralNyakach","VARNAME_3":"NA","NL_NAME_3":"NA","TYPE_3":"Ward","ENGTYPE_3":"Ward","CC_3":"1218","HASC_3":"NA","name":"Central_Nyakach.city"},
"geometry":{"type": "MultiPolygon","coordinates": [[[[35.0073,-0.3265,1274.6318],[35.0089,-0.3232,1267.891],[35.0078,-0.3211,1266.61],[34.9965,-0.32,1286.1135],[34.9859,-0.3125,1215.8092],[34.9866,-0.3072,1214.9565],[34.9852,-0.3032,1212.889],[34.983,-0.3038,1210.6499],[34.9827,-0.3017,1208.9431],[34.982,-0.3037,1208.2156],[34.9792,-0.3025,1201.5033],[34.9783,-0.2998,1197.9254],[34.9773,-0.3008,1197.9254],[34.9734,-0.2992,1192.9062],[34.9718,-0.3012,1191.6965],[34.9718,-0.2977,1189.1487],[34.9653,-0.2974,1179.3274],[34.962,-0.2922,1171.8131],[34.9509,-0.2931,1159.589],[34.9436,-0.2897,1150.8008],[34.94,-0.293,1151.3593],[34.9386,-0.298,1148.001],[34.9366,-0.2979,1147.5516],[34.9346,-0.3006,1144.8496],[34.9311,-0.2999,1142.4476],[34.9184,-0.3042,1139.4592],[34.9176,-0.2986,1137.1122],[34.9223,-0.2963,1137.303],[34.9261,-0.2871,1137.9061],[34.876,-0.2714,1136.3489],[34.8761,-0.2774,1135.6078],[34.8675,-0.2879,1137.6753],[34.8624,-0.2897,1136.595],[34.8591,-0.2892,1136.608],[34.8522,-0.2924,1133.0],[34.8465,-0.2923,1133.0],[34.836,-0.2907,1133.0],[34.8286,-0.2878,1133.0],[34.7981,-0.2669,1133.0],[34.8455,-0.3075,1133.0],[34.8484,-0.3111,1133.0],[34.848,-0.3141,1138.5524],[34.8537,-0.3184,1159.3755],[34.8661,-0.319,1167.5742],[34.8681,-0.3226,1174.9774],[34.8722,-0.3191,1168.2878],[34.8775,-0.3272,1186.4452],[34.8807,-0.3267,1185.4119],[34.884,-0.333,1199.6307],[34.8916,-0.3324,1193.7109],[34.8959,-0.3286,1186.2812],[34.9047,-0.339,1229.6042],[34.9139,-0.3422,1251.8585],[34.9201,-0.3417,1267.3253],[34.9234,-0.3434,1263.8473],[34.93,-0.3437,1297.4866],[34.9336,-0.3391,1263.7719],[34.9454,-0.3387,1325.282],[34.9575,-0.3358,1300.8766],[34.9628,-0.3329,1291.0002],[34.9647,-0.3343,1328.4567],[34.9657,-0.3327,1305.2258],[34.9637,-0.3305,1277.5446],[34.9666,-0.3292,1272.7765],[34.9676,-0.3303,1285.1949],[34.9664,-0.3319,1311.7045],[34.9676,-0.3322,1311.7045],[34.9665,-0.334,1347.8169],[34.9689,-0.336,1382.0256],[34.9922,-0.3303,1344.4238],[35.0076,-0.3312,1275.2588],[35.0073,-0.3265,1274.6318]]]]}}