{"type": "Feature","bbox": [35.0129,0.6339,35.1555,0.9076],"geometry": {"type": "MultiPolygon","coordinates": [[[[35.1441,0.745,1920.0537],[35.1448,0.832,1849.4247],[35.1313,0.8352,1840.8671],[35.1257,0.8334,1847.4778],[35.125,0.8235,1816.9794],[35.1161,0.8563,1847.6678],[35.1138,0.8878,1800.4935],[35.1085,0.8852,1804.3772],[35.1083,0.8821,1804.5353],[35.1006,0.8796,1804.4948],[35.098,0.8815,1806.5735],[35.0976,0.8851,1809.9111],[35.0934,0.8843,1797.8726],[35.0928,0.8866,1804.856],[35.0894,0.8863,1795.5231],[35.0884,0.8876,1801.1218],[35.0886,0.8853,1787.2952],[35.0861,0.8863,1790.3698],[35.0873,0.8874,1794.5496],[35.0864,0.8892,1799.989],[35.0849,0.888,1782.769],[35.084,0.8922,1777.1864],[35.0825,0.8914,1776.3367],[35.0809,0.8929,1777.1785],[35.082,0.8949,1778.6191],[35.0805,0.8951,1776.2335],[35.0822,0.8971,1788.8694],[35.081,0.8979,1793.6093],[35.0825,0.8986,1788.8694],[35.0738,0.9047,1808.6052],[35.0688,0.9014,1794.5404],[35.0666,0.9035,1798.2419],[35.0618,0.9022,1789.1558],[35.0515,0.9076,1810.5315],[35.0476,0.9041,1781.5627],[35.0464,0.9068,1787.427],[35.0408,0.9066,1787.2643],[35.0394,0.9032,1783.7616],[35.0322,0.9011,1787.7772],[35.0319,0.8986,1780.7821],[35.0277,0.9017,1792.3849],[35.0235,0.9004,1777.8757],[35.0189,0.8946,1771.7578],[35.018,0.8888,1767.0983],[35.0191,0.8862,1766.822],[35.0172,0.8836,1767.5123],[35.0172,0.8797,1768.6949],[35.0151,0.8774,1777.8665],[35.0154,0.8727,1768.9783],[35.0129,0.8675,1771.0635],[35.014,0.8647,1763.9515],[35.0216,0.8611,1787.2343],[35.0249,0.8575,1778.5575],[35.0251,0.8508,1760.1294],[35.0278,0.8451,1760.3228],[35.0248,0.8404,1758.2476],[35.0248,0.8355,1755.5994],[35.0274,0.8339,1765.3853],[35.031,0.8266,1769.6962],[35.0412,0.8251,1786.934],[35.0432,0.8194,1760.6697],[35.0466,0.8167,1776.6276],[35.0514,0.8069,1761.3369],[35.0537,0.8052,1764.8815],[35.0542,0.8066,1767.686],[35.0564,0.8064,1774.5907],[35.0632,0.8018,1775.5356],[35.0648,0.7951,1747.1515],[35.0633,0.7923,1750.5192],[35.0676,0.7882,1764.3198],[35.0655,0.7871,1744.6791],[35.0673,0.7849,1756.9878],[35.0648,0.782,1754.5911],[35.0665,0.7771,1747.4678],[35.0646,0.7732,1750.9055],[35.0663,0.7713,1742.3644],[35.0617,0.7643,1752.9218],[35.0578,0.7619,1728.9773],[35.0544,0.7531,1767.8181],[35.0586,0.7431,1802.6658],[35.056,0.74,1828.4884],[35.0575,0.736,1845.2159],[35.0538,0.7329,1862.1609],[35.0547,0.7218,1881.4353],[35.0532,0.7122,1879.1608],[35.0456,0.6999,1870.1801],[35.0386,0.6925,1858.8264],[35.0393,0.6627,1897.1995],[35.0435,0.6527,1889.618],[35.0412,0.6443,1838.6631],[35.0527,0.6408,1885.5253],[35.0538,0.6369,1844.3782],[35.0611,0.6364,1825.9904],[35.0613,0.6381,1844.741],[35.0629,0.6382,1844.741],[35.0685,0.6367,1822.1327],[35.0697,0.6339,1825.0785],[35.0834,0.6358,1893.5436],[35.0863,0.6343,1880.4277],[35.0918,0.6399,1846.082],[35.0963,0.6417,1849.7374],[35.1033,0.6517,1878.6586],[35.1067,0.651,1854.5767],[35.113,0.6464,1898.3226],[35.116,0.6463,1865.8694],[35.1174,0.6542,1903.6425],[35.1195,0.654,1908.0259],[35.125,0.6594,1916.1802],[35.1341,0.6603,1907.6718],[35.1414,0.6661,1931.7144],[35.1465,0.6643,1919.667],[35.1543,0.666,1930.7006],[35.1546,0.6685,1935.4282],[35.1513,0.6728,1938.5596],[35.1553,0.6802,1946.2622],[35.1555,0.7453,1920.3545],[35.1441,0.745,1920.0537]]]]}
,"properties": {"GID_2": "KEN.3.5_1","GID_0": "KEN","country": "Kenya","GID_1": "KEN.3_1","province": "Bungoma","NL_NAME_1": "NA","county": "Likuyani","VARNAME_2": "NA","NL_NAME_2": "NA","TYPE_2": "Constituency","ENGTYPE_2": "Constituency","CC_2": "200","HASC_2": "NA","name": "Likuyani.county","area_km2": 303.6093,"hist_schema_id": "Elevation0-9000","hist_area_km2": {"1725": 0.6996,"1750": 5.1093,"1775": 28.7471,"1800": 42.0819,"1825": 43.5449,"1850": 39.623,"1875": 47.6586,"1900": 53.256,"1925": 31.4193,"1950": 10.8547,"1975": 0.6148}}}