{"type":"Feature","properties":{"GID_2":"KEN.47.1_1","GID_0":"KEN","country":"Kenya","GID_1":"KEN.47_1","province":"WestPokot","NL_NAME_1":"NA","county":"Kacheliba","VARNAME_2":"NA","NL_NAME_2":"NA","TYPE_2":"Constituency","ENGTYPE_2":"Constituency","CC_2":"131","HASC_2":"NA","name":"Kacheliba.county"},
"geometry":{"type": "MultiPolygon","coordinates": [[[[35.0682,1.5303,1241.1368],[35.0679,1.535,1242.0518],[35.0723,1.5376,1235.0062],[35.0718,1.544,1242.0555],[35.0761,1.5418,1239.5835],[35.0787,1.5429,1234.0674],[35.0812,1.5484,1232.2516],[35.0786,1.5517,1241.8022],[35.0838,1.555,1233.1798],[35.0846,1.5597,1231.969],[35.087,1.5615,1226.687],[35.0868,1.5794,1224.6095],[35.0902,1.5815,1220.3763],[35.0906,1.5839,1228.3779],[35.0928,1.5842,1224.1729],[35.0949,1.5876999999999999,1223.6412],[35.0995,1.589,1221.5576],[35.0994,1.5929,1218.2085],[35.1036,1.5943,1212.3943],[35.1019,1.5996,1229.1538],[35.1066,1.6032,1213.9442],[35.106,1.6064,1217.2878],[35.1076,1.6087,1217.99],[35.1121,1.608,1212.9469],[35.1114,1.6121,1212.031],[35.1152,1.6141,1210.6848],[35.1149,1.619,1214.3763],[35.1251,1.6228,1202.2037],[35.1276,1.628,1202.2419],[35.1315,1.6301,1196.1854],[35.1317,1.6408,1192.6863],[35.1304,1.643,1194.0629],[35.1273,1.6426,1205.2791],[35.132,1.6503,1189.4368],[35.1317,1.6525,1190.1262],[35.1278,1.6552,1196.4573],[35.1274,1.6611,1188.2043],[35.1326,1.6677,1193.651],[35.1286,1.6699,1185.0654],[35.1241,1.6782,1180.201],[35.1241,1.6817,1186.6112],[35.1202,1.6857,1190.6627],[35.1216,1.6892,1175.8129],[35.1212,1.6963,1173.9286],[35.1192,1.7003,1178.8973],[35.1199,1.7021,1176.4248],[35.1155,1.7059,1185.2233],[35.1165,1.7091,1173.1476],[35.1155,1.7109,1178.3057],[35.1171,1.7185,1191.4088],[35.1192,1.7208,1191.5767],[35.1222,1.72,1180.0316],[35.1267,1.7213,1175.0554],[35.1268,1.7238,1177.3752],[35.1303,1.7273,1178.7263],[35.1352,1.7273,1169.7485],[35.1388,1.731,1165.1294],[35.1404,1.7365,1163.738],[35.1386,1.7404,1171.0956],[35.1426,1.7452,1162.7572],[35.1426,1.7491,1163.9998],[35.1451,1.7512,1159.2828],[35.1451,1.7575,1162.845],[35.1478,1.7596,1151.6823],[35.1479,1.7685,1157.2891],[35.1503,1.7706,1155.6283],[35.1512,1.776,1159.9459],[35.1534,1.7776,1156.8234],[35.1536,1.7813,1159.845],[35.1564,1.7839,1145.5619],[35.1585,1.7956,1161.2429],[35.1705,1.7988,1160.5165],[35.1751,1.8029,1154.6536],[35.1819,1.8033,1159.5283],[35.1864,1.8055,1162.4943],[35.1901,1.8034,1152.8477],[35.1946,1.8058,1173.4099],[35.1982,1.8044,1162.2266],[35.1999,1.8067,1167.8706],[35.2086,1.8084,1152.2301],[35.2127,1.8141,1135.2894],[35.2125,1.8208,1134.5],[35.2165,1.8265,1154.3816],[35.2201,1.8284,1134.5],[35.2215,1.835,1151.111],[35.2277,1.839,1141.4043],[35.2317,1.839,1135.9309],[35.2341,1.8465,1144.6317],[35.2465,1.8543,1150.4385],[35.2585,1.8539,1137.9617],[35.2626,1.8492,1138.5901],[35.2618,1.8461,1134.5],[35.2644,1.841,1134.5],[35.2794,1.8318,1134.5],[35.288,1.8318,1134.5],[35.2914,1.8284,1151.7889],[35.3005,1.8284,1134.5],[35.305,1.8338,1134.5],[35.3072,1.8426,1134.5],[35.3076,1.8561,1134.5],[35.3044,1.8573,1134.5],[35.3046,1.8603,1134.5],[35.3057,1.8711,1134.5],[35.3102,1.8808,1134.5],[35.32,1.8862,1134.5],[35.3295,1.8949,1134.5],[35.3287,1.8977,1134.5],[35.3324,1.9,1193.5298],[35.3345,1.9058,1022.0337],[35.3342,1.9163,1196.9443],[35.3392,1.9235,1263.7688],[35.3471,1.9233,838.8348],[35.3527,1.927,809.8555],[35.354,1.9312,811.6024],[35.3593,1.9304,780.5627],[35.3708,1.9352,767.8763],[35.3745,1.9402,770.5393],[35.3749,1.9465,769.3118],[35.3769,1.9502,771.9803],[35.3805,1.9533,765.5401],[35.3872,1.9549,766.6562],[35.3912,1.9585,759.2713],[35.3893,1.9654,768.8942],[35.3937,1.9688,761.1421],[35.3432,2.1714,763.896],[35.3118,2.2841,733.2894],[35.3073,2.3307,725.4355],[35.3031,2.403,696.8162],[35.3024,2.4018,696.6586],[35.2976,2.4206,689.5397],[35.2917,2.4285,699.4232],[35.2721,2.4374,707.7397],[35.2507,2.4397,718.3337],[35.2459,2.4455,729.3654],[35.2325,2.4469,738.8054],[35.2288,2.4498,744.7393],[35.2231,2.4593,756.8002],[35.2211,2.4662,768.0115],[35.2205,2.4788,778.087],[35.2153,2.4965,764.629],[35.2129,2.5425,782.1886],[35.1869,2.5716,1094.4719],[35.1858,2.5789,921.0684],[35.1784,2.598,812.849],[35.1668,2.6167,784.9636],[35.1575,2.6284,789.9794],[35.1317,2.6452,776.657],[35.1126,2.6526,771.7042],[35.1106,2.6499,775.0427],[35.1091,2.6527,775.0713],[35.0961,2.6495,785.2535],[35.0923,2.6454,791.4102],[35.0811,2.6394,801.5844],[35.0742,2.6284,806.4303],[35.0654,2.6248,813.7646],[35.0595,2.6108,821.0443],[35.0598,2.6033,827.2804],[35.0565,2.5912,834.442],[35.0583,2.5776,847.3063],[35.0555,2.5677,855.86],[35.0386,2.5379,912.1786],[35.0197,2.513,1278.3712],[35.0156,2.5018,1251.5696],[35.0204,2.4877,1352.9252],[35.0193,2.4748,1339.0262],[35.0218,2.4685,1359.6665],[35.0194,2.4607,1130.3066],[35.0228,2.4468,1569.168],[35.0256,2.4439,1549.8782],[35.0256,2.4365,1662.5635],[34.9702,2.4483,1244.9526],[34.9536,2.4579,1048.2046],[34.9461,2.4542,1133.6775],[34.9448,2.4554,1152.7764],[34.9421,2.4531,1148.3949],[34.9437,2.4494,1162.2097],[34.9398,2.4502,1208.7849],[34.9404,2.4483,1185.525],[34.9366,2.4439,1208.65],[34.9375,2.4407,1226.7136],[34.9358,2.4383,1224.5298],[34.9312,2.4387,1247.965],[34.9323,2.4311,1257.5981],[34.9298,2.429,1264.7184],[34.9255,2.4289,1281.7756],[34.926,2.4274,1275.4977],[34.9222,2.4269,1288.0325],[34.9189,2.4244,1295.3464],[34.9166,2.4249,1297.9072],[34.9171,2.4102,1314.5505],[34.9143,2.4032,1337.6636],[34.915,2.3975,1351.9773],[34.9197,2.3937,1490.5544],[34.9178,2.3903,1503.8796],[34.9202,2.3733,1587.3638],[34.9455,2.2115,1495.6173],[34.9797,2.0539,1387.2847],[34.9845,1.9854,1353.6003],[35.0002,1.9626,1275.2238],[35.0003,1.7587,1196.939],[34.9912,1.6645,1314.6094],[34.9603,1.604,1370.5999],[34.9436,1.5768,1397.7898],[34.9235,1.5627,1470.6041],[34.9066,1.5532,1437.9879],[34.8902,1.5554,1462.6099],[34.864,1.5285,1468.2501],[34.8442,1.4572,1506.3907],[34.8417,1.4546,1530.4989],[34.831,1.4519,1426.187],[34.8269,1.448,1454.0928],[34.8174,1.4318,1471.3298],[34.8008,1.4233,1506.5782],[34.7938,1.4137,1548.2534],[34.7948,1.4096,1559.2333],[34.8028,1.3974,1566.3436],[34.8065,1.384,1563.9034],[34.7867,1.3664,1967.9969],[34.8286,1.3106,1635.9097],[34.8293,1.3065,1613.5132],[34.8389,1.3092,1583.9767],[34.8527,1.3087,1544.2914],[34.8524,1.318,1530.3359],[34.8562,1.3161,1563.4126],[34.8571,1.3194,1507.3259],[34.8626,1.3192,1506.9591],[34.8651,1.3208,1441.9983],[34.8614,1.3278,1439.2714],[34.8642,1.3285,1448.1324],[34.8677,1.3326,1418.5718],[34.8745,1.335,1378.8053],[34.8734,1.3441,1380.0281],[34.8776,1.3513,1380.2815],[34.8805,1.3517,1369.1499],[34.8825,1.3542,1373.3613],[34.8855,1.3541,1360.8773],[34.8851,1.3562,1359.7122],[34.8877,1.3574,1363.2334],[34.8877,1.3599,1368.2146],[34.889,1.3594,1360.8074],[34.8929,1.3633,1349.3135],[34.8925,1.3665,1352.2703],[34.8957,1.3664,1348.7124],[34.8961,1.3697,1356.1272],[34.9017,1.3705,1345.2162],[34.9021,1.3727,1345.2899],[34.9047,1.3754,1344.827],[34.9068,1.3747,1341.5079],[34.908,1.3782,1343.8586],[34.9109,1.3805,1338.2341],[34.9162,1.4019,1326.3684],[34.9163,1.4119,1328.4321],[34.9223,1.4103,1318.1813],[34.9225,1.4136,1319.1211],[34.9244,1.413,1321.5464],[34.9255,1.4159,1318.6545],[34.9279,1.416,1314.8402],[34.9268,1.4182,1320.2135],[34.9309,1.4247,1318.0104],[34.9331,1.4244,1318.1785],[34.9343,1.4225,1316.5928],[34.9359,1.426,1313.0352],[34.9396,1.4266,1309.4161],[34.9393,1.4343,1309.3743],[34.9409,1.4365,1308.5874],[34.9436,1.4357,1307.4707],[34.9494,1.4405,1305.7153],[34.9515,1.4451,1300.0718],[34.949,1.4466,1303.2738],[34.9515,1.4505,1301.2979],[34.9536,1.4497,1300.2701],[34.9544,1.4565,1298.0129],[34.957,1.4606,1297.1289],[34.9564,1.466,1296.4545],[34.9619,1.4683,1294.337],[34.9617,1.4662,1294.6736],[34.9648,1.4662,1292.5811],[34.9755,1.4692,1290.0099],[34.9768,1.4792,1292.9058],[34.9824,1.4826,1293.0374],[34.985,1.481,1285.7828],[34.9872,1.4824,1283.9913],[34.9905,1.4805,1278.9744],[34.993,1.4817,1282.8492],[34.9963,1.4796,1280.8829],[34.9983,1.4807,1280.0681],[35.0001,1.4797,1278.3884],[35.0008,1.4817,1278.6414],[35.0043,1.4827,1278.5349],[35.0049,1.4802,1274.5421],[35.0086,1.4822,1284.2738],[35.0176,1.4794,1278.277],[35.0211,1.481,1283.1351],[35.0242,1.4801,1270.9252],[35.0268,1.4824,1274.6328],[35.0401,1.4858,1266.4657],[35.0442,1.4915,1263.5674],[35.0483,1.4927,1259.4438],[35.0541,1.498,1251.8124],[35.0544,1.5003,1252.1017],[35.0581,1.5017,1249.2024],[35.0577,1.5091,1250.1411],[35.0628,1.5094,1245.1663],[35.0628,1.5136,1244.2391],[35.065,1.5169,1242.9645],[35.0621,1.5175,1245.9506],[35.0618,1.519,1244.1786],[35.0634,1.5242,1245.5381],[35.0687,1.5254,1238.2137],[35.0682,1.5303,1241.1368]]]]}}