{"type":"Feature","properties":{"GID_3":"KEN.39.3.4_1","GID_0":"KEN","country":"Kenya","GID_1":"KEN.39_1","province":"TaitaTaveta","NL_NAME_1":"NA","GID_2":"KEN.39.3_1","county":"Voi","NL_NAME_2":"NA","city":"Mbololo","VARNAME_3":"NA","NL_NAME_3":"NA","TYPE_3":"Ward","ENGTYPE_3":"Ward","CC_3":"125","HASC_3":"NA","name":"Mbololo.city"},
"geometry":{"type": "MultiPolygon","coordinates": [[[[39.1465,-3.3418,304.147],[39.2199,-3.0667,166.5234],[39.2161,-3.0653,166.5741],[39.2041,-3.0654,171.6356],[39.1997,-3.062,176.9288],[39.1959,-3.0613,171.1736],[39.1835,-3.0632,172.7616],[39.1777,-3.057,181.2611],[39.1741,-3.0582,177.2299],[39.1705,-3.0649,175.8297],[39.1671,-3.0663,177.1346],[39.1643,-3.0651,173.5067],[39.1635,-3.0595,178.0856],[39.1527,-3.0447,179.9678],[39.1509,-3.0443,182.5815],[39.1435,-3.0485,180.1207],[39.1415,-3.0414,194.3651],[39.1355,-3.042,180.1871],[39.1337,-3.0396,183.6561],[39.1343,-3.0357,179.3579],[39.1297,-3.0199,189.0061],[39.1257,-3.0195,192.2784],[39.1125,-3.0249,188.7124],[39.1063,-3.0346,190.7834],[39.1025,-3.0377,191.9913],[39.0899,-3.0427,202.9798],[39.0885,-3.0446,193.7453],[39.0888,-3.0507,192.9288],[39.0855,-3.0532,194.8419],[39.0805,-3.0496,192.0626],[39.0789,-3.042,199.9925],[39.0726,-3.0403,198.303],[39.062,-3.0409,200.1744],[39.0535,-3.033,202.1681],[39.0458,-3.0313,196.5003],[39.0445,-3.0281,203.6537],[39.0453,-3.021,204.4247],[39.0367,-3.025,207.4483],[39.0256,-3.0206,211.9991],[39.0139,-3.0253,209.4052],[38.9919,-3.0257,215.9826],[38.9893,-3.0272,214.7808],[38.9863,-3.033,213.5188],[38.9767,-3.0393,217.8118],[38.9529,-3.0385,225.2087],[38.9371,-3.0343,229.3637],[38.9316,-3.0402,226.4984],[38.9255,-3.0397,227.7087],[38.9175,-3.0427,229.7489],[38.9115,-3.0429,244.4325],[38.9029,-3.0422,237.7596],[38.8988,-3.0381,256.5393],[38.8933,-3.0377,260.7443],[38.8623,-3.0575,261.0004],[38.8477,-3.0609,267.3569],[38.8449,-3.0548,260.6871],[38.8415,-3.0534,266.3549],[38.8362,-3.0592,269.9228],[38.8259,-3.0608,281.3194],[38.8195,-3.0672,270.9017],[38.8073,-3.0684,277.1387],[38.799,-3.0664,269.9129],[38.798,-3.0609,288.2133],[38.8021,-3.0577,286.1707],[38.8075,-3.0598,277.4907],[38.8099,-3.0566,281.0025],[38.8089,-3.0527,286.3667],[38.7988,-3.0518,285.2277],[38.7891,-3.0476,302.049],[38.7786,-3.0478,293.9763],[38.774,-3.0434,293.2976],[38.7679,-3.0433,298.9069],[38.7577,-3.0467,296.4014],[38.7363,-3.0425,314.2017],[38.7333,-3.0471,312.1468],[38.7253,-3.047,318.0719],[38.7221,-3.0449,323.7307],[38.7199,-3.0497,322.2818],[38.7161,-3.0512,325.3628],[38.7121,-3.0492,335.4744],[38.7121,-3.0543,329.0604],[38.7063,-3.0543,343.9796],[38.7053,-3.057,337.9161],[38.7019,-3.0586,342.9311],[38.7005,-3.0642,343.2091],[38.7027,-3.0691,343.8029],[38.6993,-3.068,349.133],[38.6977,-3.0712,349.7256],[38.6943,-3.0715,358.6778],[38.6933,-3.0753,356.9709],[38.6971,-3.0767,365.3289],[38.6981,-3.083,363.4146],[38.6913,-3.0893,373.377],[38.6839,-3.092,379.0679],[38.6851,-3.0981,377.8068],[38.6827,-3.0994,380.628],[38.6777,-3.1075,390.8442],[38.6739,-3.1077,390.5284],[38.6719,-3.1125,395.7792],[38.6735,-3.1165,397.8721],[38.6717,-3.1227,404.2607],[38.6611,-3.1258,422.1189],[38.6609,-3.1296,413.7932],[38.6585,-3.1297,416.2614],[38.6569,-3.1319,418.5005],[38.6495,-3.1313,424.3677],[38.6473,-3.1334,425.0605],[38.6441,-3.1338,428.4026],[38.6409,-3.1386,432.3784],[38.6391,-3.1384,437.3241],[38.6365,-3.1417,435.4129],[38.6279,-3.1468,443.1165],[38.6227,-3.157,454.2671],[38.6123,-3.1604,463.2107],[38.6093,-3.1655,469.6963],[38.6061,-3.1644,469.7327],[38.5965,-3.171,480.4747],[38.5953,-3.1704,481.3204],[38.5903,-3.1803,489.822],[38.5871,-3.1802,493.5512],[38.5869,-3.183,494.578],[38.5827,-3.1847,499.5231],[38.5797,-3.1844,501.2575],[38.5749,-3.1924,508.7043],[38.5701,-3.1945,512.406],[38.5657,-3.201,517.2863],[38.5653,-3.2067,521.5699],[38.5629,-3.2087,525.3575],[38.5565,-3.2083,531.8152],[38.5533,-3.2111,532.5404],[38.5521,-3.2094,534.9763],[38.5483,-3.2099,539.91],[38.5441,-3.214,542.5737],[38.5341,-3.2173,550.817],[38.5277,-3.2226,557.0009],[38.5195,-3.2207,564.0599],[38.5181,-3.2227,563.6577],[38.5129,-3.2239,568.8004],[38.5107,-3.227,569.897],[38.5023,-3.2279,577.2095],[38.5021,-3.2337,579.7872],[38.5179,-3.2965,619.5659],[38.4847,-3.3139,783.7501],[38.4585,-3.3208,1539.3228],[38.4571,-3.3376,1279.5774],[38.4479,-3.34,1510.6776],[38.4441,-3.3679,1013.8628],[38.4651,-3.382,902.9048],[38.4681,-3.3883,1053.1841],[38.4729,-3.3908,1229.3015],[38.4835,-3.4043,782.5844],[38.5029,-3.4106,769.2818],[38.511,-3.4312,686.7595],[38.5489,-3.3988,576.6992],[38.5639,-3.3888,587.7031],[38.5727,-3.3864,567.2381],[38.5789,-3.3804,569.2123],[38.5947,-3.3803,534.1035],[38.6014,-3.3712,527.196],[38.6063,-3.3713,526.5569],[38.6209,-3.3642,517.1004],[38.6239,-3.3651,518.3083],[38.6343,-3.3578,510.8718],[38.6509,-3.3629,502.38869999999997],[38.6591,-3.3575,501.0478],[38.6585,-3.3598,497.1121],[38.6613,-3.3601,496.2792],[38.6663,-3.3659,491.5982],[38.6687,-3.3662,490.4403],[38.6735,-3.3612,495.2794],[38.6805,-3.3659,488.0002],[38.6827,-3.3693,488.6837],[38.6915,-3.3732,481.0446],[38.6981,-3.3722,481.7735],[38.7007,-3.3748,478.1044],[38.7056,-3.3706,479.7255],[38.7131,-3.3705,473.5918],[38.7168,-3.3717,469.4267],[38.7179,-3.3741,470.7934],[38.7227,-3.3771,466.4875],[38.7299,-3.3771,465.8782],[38.7361,-3.3738,461.0838],[38.7423,-3.3729,459.2089],[38.7497,-3.365,453.5562],[38.7545,-3.366,452.4803],[38.7585,-3.3636,455.2435],[38.7617,-3.3659,454.1613],[38.7613,-3.3682,449.7192],[38.7715,-3.3726,444.7805],[38.7829,-3.3662,443.5554],[38.7911,-3.3659,441.2425],[38.7967,-3.3633,438.7185],[38.7993,-3.3652,436.4192],[38.8041,-3.3638,431.6211],[38.8055,-3.3617,431.4155],[38.8105,-3.3605,431.3558],[38.8125,-3.3542,427.6795],[38.8215,-3.3517,426.3006],[38.8245,-3.348,422.9527],[38.8323,-3.3448,420.2977],[38.8325,-3.3428,424.2417],[38.8377,-3.3383,421.6249],[38.8461,-3.3409,419.1738],[38.8483,-3.3392,418.4619],[38.8521,-3.3397,417.1668],[38.8525,-3.3425,412.6954],[38.8567,-3.3421,415.332],[38.8603,-3.3456,410.3368],[38.8659,-3.3432,408.8568],[38.8667,-3.3442,408.8568],[38.8703,-3.3398,409.06],[38.8735,-3.3396,407.9364],[38.8765,-3.3361,408.6318],[38.8847,-3.3414,403.7769],[38.8851,-3.3442,402.4423],[38.8875,-3.3431,404.6397],[38.8931,-3.3457,401.5746],[38.8963,-3.3452,400.0532],[38.9031,-3.3494,397.9634],[38.9037,-3.3519,394.8759],[38.9043,-3.3508,397.7968],[38.9089,-3.3509,395.5753],[38.9113,-3.3537,391.7479],[38.9161,-3.3553,391.647],[38.9225,-3.3512,390.5442],[38.9249,-3.352,389.497],[38.9269,-3.3506,388.7836],[38.9321,-3.3519,386.9436],[38.9321,-3.3539,385.0628],[38.9373,-3.3542,384.736],[38.9409,-3.3577,382.4961],[38.9435,-3.3558,380.9529],[38.9469,-3.357,379.0936],[38.9507,-3.3652,376.9473],[38.9547,-3.3686,373.3537],[38.9599,-3.3782,368.774],[38.9755,-3.3873,361.2687],[38.9789,-3.4009,357.2319],[38.9817,-3.403,355.8261],[38.9917,-3.4051,352.9368],[38.9955,-3.4043,352.0256],[38.9983,-3.4058,351.4551],[39.0013,-3.4049,351.0088],[39.0065,-3.4095,349.3096],[39.0143,-3.4074,348.6779],[39.0237,-3.4116,346.3162],[39.0291,-3.4106,345.3097],[39.0329,-3.4126,343.7564],[39.0437,-3.4118,340.2652],[39.0459,-3.4138,339.578],[39.0489,-3.4128,338.5005],[39.0541,-3.4147,336.3223],[39.0557,-3.4168,335.4917],[39.0679,-3.4135,331.981],[39.0733,-3.4169,330.3308],[39.0763,-3.4213,328.084],[39.0901,-3.4203,324.6783],[39.0939,-3.4226,323.4636],[39.0969,-3.4219,322.3669],[39.1009,-3.4239,320.842],[39.1075,-3.4234,317.7119],[39.1113,-3.4276,316.0246],[39.1213,-3.4332,312.886],[39.1465,-3.3418,304.147]]]]}}