{"type":"Feature","properties":{"GID_3":"KEN.16.4.1_1","GID_0":"KEN","country":"Kenya","GID_1":"KEN.16_1","province":"Kisii","NL_NAME_1":"NA","GID_2":"KEN.16.4_1","county":"Bonchari","NL_NAME_2":"NA","city":"Bogiakumu","VARNAME_3":"NA","NL_NAME_3":"NA","TYPE_3":"Ward","ENGTYPE_3":"Ward","CC_3":"1302","HASC_3":"NA","name":"Bogiakumu.city"},
"geometry":{"type": "MultiPolygon","coordinates": [[[[34.6896,-0.6508,1595.4622],[34.6992,-0.6656,1566.99],[34.7132,-0.6711,1623.0408],[34.7166,-0.6705,1614.6621],[34.7214,-0.6755,1624.9855],[34.7235,-0.6811,1625.5879],[34.7278,-0.6862,1636.228],[34.7387,-0.6947,1623.0901],[34.7426,-0.6961,1623.1942],[34.7426,-0.6984,1632.8103],[34.7457,-0.6984,1623.5115],[34.7457,-0.6918,1659.375],[34.7495,-0.6889,1698.9722],[34.7524,-0.6795,1812.6401],[34.7557,-0.6771,1786.7081],[34.7568,-0.6738,1677.9448],[34.7552,-0.6711,1628.1732],[34.7496,-0.6679,1596.3171],[34.7453,-0.6586,1571.0361],[34.7396,-0.6541,1590.4357],[34.7325,-0.64,1557.8091],[34.7273,-0.6371,1549.8025],[34.7222,-0.6437,1582.2131],[34.7184,-0.6457,1600.8831],[34.7174,-0.6518,1544.9185],[34.7118,-0.6511,1562.6885],[34.7057,-0.6524,1522.9398],[34.6957,-0.6498,1541.1244],[34.6896,-0.6508,1595.4622]]]]}}