{"type": "Feature","bbox": [33.9405,-0.9855,34.3439,-0.8204],"geometry": {"type": "MultiPolygon","coordinates": [[[[34.2714,-0.8204,1353.7941],[34.2624,-0.8495,1259.5934],[34.2599,-0.8528,1257.8486],[34.2269,-0.8586,1232.1465],[34.202,-0.8686,1154.1654],[33.9405,-0.8674,1133.0],[33.9424,-0.9133,1133.0],[34.1387,-0.9135,1133.0],[34.1439,-0.9179,1136.6884],[34.1451,-0.9158,1136.5437],[34.1472,-0.9175,1136.1716],[34.153,-0.9179,1137.1683],[34.154,-0.9315,1137.5508],[34.158,-0.9313,1136.8938],[34.1605,-0.9336,1137.2444],[34.1628,-0.9319,1137.3514],[34.1632,-0.9368,1138.4385],[34.1621,-0.9376,1138.4385],[34.164,-0.938,1138.6633],[34.1658,-0.9363,1138.3389],[34.1686,-0.9394,1138.8568],[34.1725,-0.9394,1140.2197],[34.177,-0.9371,1140.4021],[34.1753,-0.9324,1139.5258],[34.1788,-0.9348,1140.8838],[34.181399999999996,-0.9339,1141.1958],[34.1819,-0.9286,1140.9049],[34.185,-0.9248,1140.7482],[34.1881,-0.9266,1141.1182],[34.1909,-0.9263,1141.647],[34.1919,-0.9286,1142.1038],[34.1968,-0.9263,1142.2655],[34.1988,-0.9288,1142.7839],[34.199,-0.9345,1143.4811],[34.2033,-0.9363,1143.6149],[34.2036,-0.9393,1143.9729],[34.2115,-0.948,1159.1351],[34.2112,-0.9526,1144.2085],[34.2142,-0.9567,1146.1298],[34.2097,-0.9615,1147.4238],[34.2167,-0.9673,1147.3815],[34.2174,-0.9734,1151.7242],[34.2219,-0.9757,1153.0874],[34.2233,-0.9795,1162.1614],[34.2281,-0.9798,1175.4009],[34.2298,-0.9855,1151.5474],[34.2316,-0.985,1156.6863],[34.2333,-0.981,1175.2327],[34.2412,-0.9855,1173.7706],[34.2463,-0.9807,1189.4669],[34.2564,-0.9787,1158.2021],[34.2583,-0.9739,1173.8586],[34.2571,-0.971,1191.0543],[34.2596,-0.9705,1180.5654],[34.261,-0.9673,1178.9031],[34.2603,-0.9638,1195.7675],[34.2646,-0.9629,1179.0287],[34.2653,-0.9594,1186.6149],[34.2693,-0.9616,1174.6638],[34.2666,-0.9574,1179.5562],[34.2678,-0.9557,1191.9897],[34.267,-0.9539,1198.9279],[34.2733,-0.9517,1167.4603],[34.2733,-0.9442,1189.5817],[34.2785,-0.9391,1179.4994],[34.2786,-0.9344,1189.2715],[34.2768,-0.9327,1201.0574],[34.2805,-0.9279,1188.1741],[34.2805,-0.9234,1203.4801],[34.2859,-0.9246,1207.913],[34.2887,-0.928,1198.3821],[34.2922,-0.9256,1206.5858],[34.2934,-0.931,1198.4469],[34.3077,-0.9262,1225.3712],[34.3097,-0.9238,1225.3728],[34.3118,-0.9238,1220.9901],[34.3132,-0.9269,1214.2671],[34.3162,-0.9228,1229.5475],[34.3223,-0.9222,1222.0017],[34.3218,-0.9194,1241.5769],[34.3241,-0.9162,1232.9688],[34.3392,-0.9105,1247.2445],[34.3402,-0.9085,1256.4767],[34.3368,-0.9011,1280.7751],[34.3439,-0.8953,1349.9],[34.3423,-0.8907,1349.1687],[34.3349,-0.8828,1289.8593],[34.3366,-0.877,1269.351],[34.3261,-0.8677,1271.0712],[34.3272,-0.8634,1300.9615],[34.3198,-0.8611,1273.1335],[34.31,-0.8508,1292.3015],[34.2993,-0.8338,1297.3309],[34.2956,-0.8319,1304.5446],[34.2852,-0.821,1315.8188],[34.2714,-0.8204,1353.7941]]]]}
,"properties": {"GID_3": "KEN.27.4.7_1","GID_0": "KEN","country": "Kenya","GID_1": "KEN.27_1","province": "Migori","NL_NAME_1": "NA","GID_2": "KEN.27.4_1","county": "Nyatike","NL_NAME_2": "NA","city": "NorthKadem","VARNAME_3": "NA","NL_NAME_3": "NA","TYPE_3": "Ward","ENGTYPE_3": "Ward","CC_3": "1284","HASC_3": "NA","name": "North_Kadem.city","area_km2": 324.1632,"hist_schema_id": "Elevation0-9000","hist_area_km2": {"1125": 144.0516,"1150": 50.306399999999996,"1175": 36.1875,"1200": 26.6477,"1225": 13.8645,"1250": 10.7058,"1275": 18.253,"1300": 14.1827,"1325": 6.7204,"1350": 2.8832,"1375": 0.3604}}}