{"type": "Feature","bbox": [36.8856,-1.3039,36.9063,-1.2801],"geometry": {"type": "MultiPolygon","coordinates": [[[[36.9012,-1.2801,1613.2253],[36.8922,-1.2889,1623.5614],[36.8856,-1.2924,1626.4635],[36.8886,-1.3039,1624.0151],[36.894,-1.303,1616.0793],[36.8996,-1.2983,1602.9624],[36.8991,-1.2952,1618.8147],[36.9063,-1.2924,1613.0441],[36.9037,-1.285,1616.4479],[36.9012,-1.2801,1613.2253]]]]}
,"properties": {"GID_3": "KEN.30.4.4_1","GID_0": "KEN","country": "Kenya","GID_1": "KEN.30_1","province": "Nairobi","NL_NAME_1": "NA","GID_2": "KEN.30.4_1","county": "EmbakasiEast","NL_NAME_2": "NA","city": "UpperSavannah","VARNAME_3": "NA","NL_NAME_3": "NA","TYPE_3": "Ward","ENGTYPE_3": "Ward","CC_3": "1421","HASC_3": "NA","name": "Upper_Savannah.city","area_km2": 3.137128,"hist_schema_id": "Elevation0-9000","hist_area_km2": {"1600": 0.105984,"1625": 3.031144}}}