{"type": "Feature","bbox": [39.9846,3.2441,40.3637,3.722],"geometry": {"type": "MultiPolygon","coordinates": [[[[40.3321,3.4468,589.8679],[40.3102,3.4497,589.0967],[40.3037,3.4553,592.4319],[40.2981,3.4565,592.5428],[40.2903,3.4541,594.3066],[40.2766,3.4453,597.5578],[40.2693,3.4433,597.1209],[40.2606,3.4365,594.4919],[40.2539,3.4363,580.3347],[40.2458,3.4395,584.5598],[40.2386,3.4378,589.6006],[40.2351,3.4449,587.6743],[40.236,3.4567,588.7224],[40.2321,3.4629,590.2061],[40.2277,3.466,594.424],[40.2244,3.4721,593.2785],[40.2202,3.484,594.8926],[40.2183,3.4857,595.7833],[40.219,3.4912,597.1125],[40.211,3.5084,602.3964],[40.204,3.5107,604.4961],[40.1936,3.5189,607.8999],[40.1918,3.5284,610.5601],[40.189,3.5314,613.0542],[40.1781,3.536,618.8237],[40.1742,3.5476,618.1728],[40.1721,3.5492,619.4413],[40.1729,3.5523,619.4113],[40.1671,3.5609,624.5247],[40.17,3.5652,622.8516],[40.169,3.5698,626.4791],[40.157,3.5771,635.0125],[40.1602,3.5804,628.4741],[40.159,3.5841,631.726],[40.1636,3.5858,631.2224],[40.1658,3.5888,632.0678],[40.1668,3.5934,632.7134],[40.1651,3.5953,632.5219],[40.1656,3.5986,633.8574],[40.1598,3.6015,635.8539],[40.1583,3.6052,636.4878],[40.1509,3.6063,639.2589],[40.1505,3.6092,640.3289],[40.1464,3.6103,641.3766],[40.145,3.6133,642.9863],[40.1392,3.6126,646.7688],[40.1343,3.6148,648.166],[40.1318,3.6173,646.0076],[40.1345,3.6238,648.6895],[40.1266,3.626,653.011],[40.1276,3.637,652.6082],[40.1259,3.6416,655.0164],[40.1291,3.6466,656.9819],[40.1287,3.6517,655.8485],[40.1094,3.6648,670.8915],[40.0404,3.722,698.553],[40.0025,3.6907,710.4667],[39.9846,3.6784,744.8569],[39.9857,3.6161,710.2061],[39.9911,3.5967,702.2419],[39.9959,3.5481,688.3853],[40.0021,3.5299,683.3474],[40.0045,3.5087,679.5345],[40.0053,3.4811,679.6049],[40.0093,3.4695,676.8541],[40.0121,3.4347,667.6166],[40.0099,3.4215,677.4541],[39.9995,3.3933,698.77],[40.0057,3.3839,689.4474],[40.0071,3.3745,670.8607],[40.0063,3.3647,665.116],[40.0075,3.3745,670.8607],[40.0145,3.3817,685.904],[40.0317,3.3867,684.4928],[40.0359,3.3867,680.6857],[40.0443,3.3827,670.5914],[40.0557,3.3703,654.3708],[40.1817,3.3445,601.6718],[40.2189,3.3651,603.6269],[40.2175,3.2483,611.8746],[40.2188,3.2441,626.4951],[40.2244,3.2467,610.5967],[40.2262,3.251,618.0673],[40.2312,3.2558,624.1341],[40.2306,3.2695,622.8787],[40.2718,3.369,570.6102],[40.2825,3.3744,578.6255],[40.2915,3.3744,578.496],[40.3015,3.3767,577.5432],[40.3135,3.3752,574.4394],[40.3187,3.3776,573.7102],[40.3282,3.3784,572.8918],[40.3342,3.3814,572.375],[40.3435,3.3803,571.3053],[40.3567,3.3905,569.8262],[40.3637,3.3916,568.6166],[40.3366,3.4336,583.7736],[40.3331,3.4468,590.0087],[40.3321,3.4468,589.8679]]]]}
,"properties": {"GID_3": "KEN.24.6.4_1","GID_0": "KEN","country": "Kenya","GID_1": "KEN.24_1","province": "Mandera","NL_NAME_1": "NA","GID_2": "KEN.24.6_1","county": "ManderaWest","NL_NAME_2": "NA","city": "Takaba","VARNAME_3": "NA","NL_NAME_3": "NA","TYPE_3": "Ward","ENGTYPE_3": "Ward","CC_3": "192","HASC_3": "NA","name": "Takaba.city","area_km2": 911.9066,"hist_schema_id": "Elevation0-9000","hist_area_km2": {"575": 89.7186,"600": 142.5231,"625": 196.0609,"650": 225.6759,"675": 183.0224,"700": 61.5325,"725": 12.7595,"750": 0.5926,"775": 0.0212}}}