{"type": "Feature","bbox": [35.1223,1.2586,35.3923,1.5626],"geometry": {"type": "MultiPolygon","coordinates": [[[[35.1723,1.2586,2326.343],[35.1733,1.2613,2161.8887],[35.1799,1.2646,2078.1082],[35.1917,1.2644,2233.6113],[35.1962,1.2628,2425.6775],[35.2058,1.2637,2091.8086],[35.2078,1.2654,2054.3645],[35.216,1.2649,2126.9863],[35.2189,1.2694,2222.5396],[35.2287,1.2735,2271.2983],[35.2458,1.2745,2261.1941],[35.2791,1.3082,1918.4313],[35.2832,1.3108,1863.8052],[35.3046,1.3131,1614.1753],[35.307,1.3176,1608.3413],[35.3053,1.3186,1608.625],[35.3032,1.3256,1590.1003],[35.3046,1.3265,1577.0774],[35.2766,1.3499,1586.2607],[35.2454,1.3718,1724.5298],[35.2452,1.3788,1671.8429],[35.2662,1.4173,1641.8179],[35.2711,1.4291,1575.8114],[35.2715,1.4431,1527.5615],[35.2732,1.4467,1519.3364],[35.272,1.4517,1499.7502],[35.2885,1.4523,1732.0258],[35.2927,1.4562,1806.9353],[35.2908,1.4622,1592.8683],[35.2849,1.4645,1511.0963],[35.2741,1.4746,1470.4491],[35.2682,1.4766,1451.7329],[35.2672,1.4815,1481.9619],[35.2715,1.4874,1456.6995],[35.2784,1.4846,1441.4652],[35.2848,1.4852,1484.2853],[35.2873,1.4833,1575.9471],[35.2913,1.4844,1499.9583],[35.331,1.506,1450.6694],[35.3636,1.521,1469.76],[35.3923,1.5419,1344.4998],[35.3913,1.5436,1220.7935],[35.3894,1.5431,1154.7617],[35.3865,1.5453,1212.2996],[35.3877,1.5494,1361.1981],[35.3835,1.5468,1206.9329],[35.3817,1.5499,1306.4397],[35.3812,1.5476,1295.6427],[35.3781,1.547,1223.5298],[35.3774,1.5492,1253.3365],[35.3803,1.5513,1335.881],[35.3788,1.5524,1351.9346],[35.3745,1.5514,1282.1532],[35.3733,1.5496,1252.7509],[35.3715,1.5512,1283.8145],[35.3652,1.5495,1230.9143],[35.3623,1.5514,1236.7513],[35.3626,1.5565,1295.7542],[35.3607,1.5605,1352.9358],[35.3594,1.5596,1320.8406],[35.3588,1.562,1351.5774],[35.357,1.5624,1376.1514],[35.3556,1.5593,1302.0143],[35.3546,1.5626,1316.0973],[35.3523,1.5624,1312.6426],[35.3502,1.5595,1377.7246],[35.3524,1.5576,1382.3201],[35.3521,1.5555,1353.7136],[35.3503,1.5565,1365.464],[35.347,1.5537,1389.8171],[35.3465,1.5564,1472.7141],[35.3418,1.5535,1369.543],[35.3435,1.5522,1417.5901],[35.343,1.5504,1337.3396],[35.3394,1.5508,1409.6394],[35.3405,1.5529,1382.9656],[35.3368,1.5524,1487.3094],[35.337,1.5497,1504.2661],[35.3318,1.5517,1416.3708],[35.3273,1.5452,1467.917],[35.3256,1.5464,1452.9739],[35.3223,1.5446,1543.516],[35.3206,1.5463,1620.9515],[35.3189,1.5445,1633.6643],[35.3133,1.5461,1502.3517],[35.308,1.541,1676.4099],[35.2951,1.5456,1662.3994],[35.2763,1.5424,1932.0378],[35.2588,1.5372,1880.1863],[35.2486,1.5368,2011.7312],[35.2432,1.5373,2183.499],[35.2379,1.5447,2043.6649],[35.2316,1.5476,1939.3154],[35.2249,1.5466,1700.4015],[35.2228,1.5446,1774.2786],[35.2212,1.5354,1896.906],[35.2176,1.5297,1705.5713],[35.2114,1.5307,1438.778],[35.2058,1.5251999999999999,1544.8054],[35.2013,1.5248,1806.636],[35.2005,1.5222,1920.3542],[35.1939,1.5178,1743.6508],[35.1927,1.5112,2016.7756],[35.1983,1.5053,1676.7705],[35.2031,1.5043,1651.4686],[35.1736,1.4922,1749.7162],[35.1679,1.4907,1701.8073],[35.156,1.4943,1484.1631],[35.1432,1.4878,1430.5266],[35.1438,1.4855,1433.1938],[35.1411,1.4833,1419.0364],[35.137,1.4828,1358.5437],[35.1355,1.4866,1331.153],[35.134,1.4862,1330.7188],[35.1329,1.4879,1326.2709],[35.1276,1.4836,1325.2334],[35.1307,1.4729,1337.2836],[35.1298,1.4712,1329.0953],[35.1263,1.4707,1396.9559],[35.1249,1.4673,1361.9351],[35.1271,1.4618,1342.1106],[35.1241,1.4534,1373.5264],[35.1243,1.4477,1364.6553],[35.1223,1.4446,1374.5737],[35.1241,1.441,1372.0674],[35.125,1.4261,1377.4766],[35.1273,1.4232,1388.6512],[35.1353,1.4222,1409.6565],[35.1392,1.4184,1420.6573],[35.1417,1.42,1421.2407],[35.1414,1.4167,1424.7991],[35.1435,1.4152,1426.927],[35.143,1.4107,1427.0292],[35.1449,1.4085,1429.3716],[35.1456,1.4093,1437.1199],[35.1459,1.4044,1447.5259],[35.1487,1.4025,1447.9877],[35.146,1.4,1452.9058],[35.1463,1.3984,1454.3958],[35.149,1.398,1454.1415],[35.1469,1.393,1462.7551],[35.1477,1.3913,1458.7104],[35.1461,1.3901,1465.1481],[35.1491,1.3846,1471.7686],[35.1463,1.3837,1482.2268],[35.1452,1.3789,1571.9205],[35.1424,1.3788,1582.897],[35.1419,1.3761,1554.9285],[35.1391,1.3762,1579.665],[35.1381,1.3781,1568.4183],[35.136,1.377,1562.9573],[35.1375,1.3757,1585.1254],[35.13,1.3739,1515.0942],[35.1322,1.36,1591.1919],[35.1336,1.3595,1600.2423],[35.1345,1.3618,1598.5371],[35.1391,1.3556,1687.6841],[35.1427,1.3555,1697.1331],[35.1397,1.3526,1642.5656],[35.1412,1.3497,1640.5491],[35.1368,1.3508,1638.8977],[35.1367,1.3452,1682.4216],[35.1313,1.3431,1723.4165],[35.1312,1.3387,1720.4556],[35.1332,1.3381,1695.3296],[35.1318,1.3319,1732.2512],[35.1374,1.3177,1899.812],[35.1497,1.309,2087.396],[35.1604,1.2959,2161.458],[35.1585,1.2924,2264.4155],[35.1551,1.2914,2118.9595],[35.1512,1.2809,2089.8628],[35.1463,1.2789,2124.0916],[35.1459,1.2774,2161.0198],[35.1424,1.2791,2177.8489],[35.1467,1.2742,2239.3672],[35.1569,1.2682,2176.4043],[35.159,1.2647,2184.8462],[35.1598,1.2662,2102.5015],[35.1723,1.2586,2326.343]]]]}
,"properties": {"GID_3": "KEN.47.3.2_1","GID_0": "KEN","country": "Kenya","GID_1": "KEN.47_1","province": "WestPokot","NL_NAME_1": "NA","GID_2": "KEN.47.3_1","county": "PokotSouth","NL_NAME_2": "NA","city": "Chepareria","VARNAME_3": "NA","NL_NAME_3": "NA","TYPE_3": "Ward","ENGTYPE_3": "Ward","CC_3": "657","HASC_3": "NA","name": "Chepareria.city","area_km2": 471.7322,"hist_schema_id": "Elevation0-9000","hist_area_km2": {"1150": 0.2543,"1175": 0.657,"1200": 0.6358,"1225": 1.0385,"1250": 1.6956,"1275": 2.4798,"1300": 3.0308,"1325": 4.0906,"1350": 7.4818,"1375": 8.8172,"1400": 9.8345,"1425": 10.6399,"1450": 11.6361,"1475": 13.9676,"1500": 19.9447,"1525": 27.4904,"1550": 33.5736,"1575": 37.8976,"1600": 37.6647,"1625": 36.6263,"1650": 33.744,"1675": 27.3642,"1700": 21.9169,"1725": 18.5255,"1750": 14.4347,"1775": 12.8662,"1800": 10.1742,"1825": 8.2665,"1850": 6.4436,"1875": 6.168,"1900": 5.2142,"1925": 5.5534,"1950": 4.1544,"1975": 3.3914,"2000": 3.137,"2025": 3.137,"2050": 2.9463,"2075": 2.3952,"2100": 2.1832,"2125": 2.2468,"2150": 1.6533,"2175": 1.3566,"2200": 1.2082,"2225": 1.1446,"2250": 0.8479,"2275": 0.6995,"2300": 0.5087,"2325": 0.2544,"2350": 0.106,"2375": 0.1484,"2400": 0.0848}}}