{"type":"Feature","properties":{"GID_3":"KEN.11.11.2_1","GID_0":"KEN","country":"Kenya","GID_1":"KEN.11_1","province":"Kakamega","NL_NAME_1":"NA","GID_2":"KEN.11.11_1","county":"Shinyalu","NL_NAME_2":"NA","city":"IsukhaEast","VARNAME_3":"NA","NL_NAME_3":"NA","TYPE_3":"Ward","ENGTYPE_3":"Ward","CC_3":"1045","HASC_3":"NA","name":"Isukha_East.city"},
"geometry":{"type": "MultiPolygon","coordinates": [[[[34.8991,0.2083,1543.475],[34.8992,0.2064,1540.6522],[34.9044,0.2007,1552.4326],[34.9066,0.2017,1586.6184],[34.9087,0.1997,1601.9817],[34.914,0.2037,1589.9746],[34.9162,0.1997,1561.4592],[34.9118,0.1892,1582.2594],[34.9162,0.1862,1573.2435],[34.9167,0.1837,1563.7764],[34.9189,0.1841,1592.3708],[34.929,0.2136,1597.5612],[34.9432,0.2131,1645.4448],[34.9565,0.2458,1664.1973],[34.9785,0.2459,2071.3569],[34.9773,0.253,1990.1921],[34.9421,0.3281,1795.394],[34.9382,0.3561,1845.8678],[34.936,0.3576,1856.1368],[34.9281,0.3539,1604.8032],[34.9233,0.3571,1576.949],[34.9146,0.3593,1574.9113],[34.91,0.358,1567.1876],[34.9039,0.3516,1573.0125],[34.8979,0.3496,1565.401],[34.8892,0.3496,1571.5352],[34.8802,0.3377,1579.3895],[34.8776,0.3326,1559.5009],[34.8785,0.3296,1557.4062],[34.877,0.327,1560.4987],[34.8755,0.3274,1561.092],[34.8734,0.3245,1580.1281],[34.867,0.3233,1549.9275],[34.8646,0.3181,1575.3779],[34.8717,0.3157,1552.3003],[34.88,0.3033,1575.7905],[34.8827,0.3027,1574.0421],[34.8887,0.2914,1565.3464],[34.8944,0.2876,1584.9652],[34.8967,0.2812,1578.7178],[34.8989,0.2796,1594.4067],[34.8952,0.2243,1637.5432],[34.9228,0.2195,1614.9521],[34.9204,0.2166,1611.0391],[34.9107,0.2157,1590.4119],[34.9054,0.2132,1568.7957],[34.9016,0.2074,1546.1128],[34.8991,0.2083,1543.475]]]]}}