{"type": "Feature","bbox": [39.6353,-4.098,39.652,-4.0813],"geometry": {"type": "MultiPolygon","coordinates": [[[[39.6451,-4.0813,15.5697],[39.6425,-4.0846,16.7052],[39.6427,-4.0882,14.3972],[39.6379,-4.0905,17.7502],[39.6389,-4.0924,14.1229],[39.6379,-4.0939,13.6573],[39.6353,-4.0939,14.526],[39.6433,-4.098,16.3633],[39.652,-4.0843,15.2086],[39.6451,-4.0813,15.5697]]]]}
,"properties": {"GID_3": "KEN.28.4.2_1","GID_0": "KEN","country": "Kenya","GID_1": "KEN.28_1","province": "Mombasa","NL_NAME_1": "NA","GID_2": "KEN.28.4_1","county": "Likoni","NL_NAME_2": "NA","city": "Likoni","VARNAME_3": "NA","NL_NAME_3": "NA","TYPE_3": "Ward","ENGTYPE_3": "Ward","CC_3": "24","HASC_3": "NA","name": "Likoni.city","area_km2": 1.395782,"hist_schema_id": "Elevation0-9000","hist_area_km2": {"0": 0.232631,"25": 1.163151}}}