{"type":"Feature","properties":{"GID_3":"KEN.15.3.1_1","GID_0":"KEN","country":"Kenya","GID_1":"KEN.15_1","province":"Kirinyaga","NL_NAME_1":"NA","GID_2":"KEN.15.3_1","county":"Mwea","NL_NAME_2":"NA","city":"Gathigiriri","VARNAME_3":"NA","NL_NAME_3":"NA","TYPE_3":"Ward","ENGTYPE_3":"Ward","CC_3":"502","HASC_3":"NA","name":"Gathigiriri.city"},
"geometry":{"type": "MultiPolygon","coordinates": [[[[37.372,-0.6126,1210.6016],[37.369,-0.6193,1206.0437],[37.3662,-0.62,1205.2148],[37.366,-0.623,1199.1783],[37.3611,-0.6275,1198.8226],[37.3563,-0.6364,1186.6655],[37.3567,-0.6391,1182.2413],[37.3597,-0.6419,1181.6993],[37.3638,-0.6425,1179.9712],[37.3659,-0.6449,1173.6283],[37.3653,-0.6532,1175.5947],[37.3675,-0.6573,1166.2178],[37.3659,-0.6637,1162.5819],[37.3745,-0.6721,1147.2592],[37.3794,-0.6732,1145.7344],[37.3814,-0.6774,1139.2014],[37.3895,-0.681,1135.4081],[37.3901,-0.6846,1132.8815],[37.3954,-0.6873,1129.9485],[37.3958,-0.6924,1133.1897],[37.4013,-0.693,1129.5624],[37.4107,-0.6814,1125.9854],[37.4139,-0.6818,1126.7065],[37.416,-0.6877,1116.699],[37.4201,-0.6877,1121.6619],[37.4221,-0.6841,1122.4923],[37.4211,-0.6786,1125.0726],[37.4255,-0.6754,1126.0607],[37.4276,-0.6701,1134.7158],[37.425,-0.6696,1121.9969],[37.4244,-0.6659,1147.4076],[37.4224,-0.6671,1126.0758],[37.4197,-0.6661,1126.2932],[37.4208,-0.6648,1126.2932],[37.4186,-0.6636,1122.2883],[37.4184,-0.6599,1125.4939],[37.4162,-0.6591,1136.3051],[37.4178,-0.6573,1129.5513],[37.4156,-0.6516,1132.5585],[37.4176,-0.6511,1139.9661],[37.414,-0.6469,1130.9434],[37.4157,-0.6432,1126.5161],[37.414,-0.6419,1126.9778],[37.4133,-0.6441,1129.5023],[37.4097,-0.6451,1138.1407],[37.409,-0.6422,1138.3044],[37.4061,-0.6451,1140.421],[37.4029,-0.6414,1146.1931],[37.3999,-0.6405,1148.4921],[37.3999,-0.6385,1147.7703],[37.3991,-0.6409,1148.4921],[37.3971,-0.6416,1148.9939],[37.3913,-0.6389,1152.0295],[37.3835,-0.6401,1163.3274],[37.3775,-0.6374,1159.8544],[37.375,-0.6336,1173.2059],[37.3774,-0.6263,1185.2043],[37.3813,-0.6229,1179.4396],[37.3794,-0.6201,1184.1489],[37.3801,-0.6149,1180.2614],[37.3791,-0.6141,1189.8102],[37.3759,-0.6196,1184.1234],[37.3735,-0.6181,1196.014],[37.3716,-0.6198,1200.52],[37.372,-0.6126,1210.6016]]]]}}