{"type": "Feature","bbox": [36.9732,-0.5736,37.0723,-0.508],"geometry": {"type": "MultiPolygon","coordinates": [[[[36.9943,-0.572,1785.875],[37.0043,-0.5639,1819.5227],[37.0113,-0.5608,1792.1101],[37.0191,-0.5603,1768.7683],[37.0176,-0.5571,1748.1063],[37.0214,-0.5541,1751.0244],[37.024,-0.5455,1761.5532],[37.0281,-0.542,1719.431],[37.0392,-0.5389,1735.1006],[37.0451,-0.5423,1714.0471],[37.0518,-0.5383,1713.7529],[37.0561,-0.5319,1663.8195],[37.066,-0.5298,1682.8876],[37.069,-0.5256,1631.1959],[37.0715,-0.5252,1580.6433],[37.0723,-0.5217,1620.5315],[37.0714,-0.5204,1603.1216],[37.0684,-0.5224,1583.8284],[37.0669,-0.5215,1602.1029],[37.0677,-0.5132,1596.7885],[37.0605,-0.5135,1622.4919],[37.0591,-0.508,1692.251],[37.057,-0.5096,1684.197],[37.0575,-0.5137,1608.4933],[37.0536,-0.5114,1684.6838],[37.0519,-0.5119,1695.3257],[37.0508,-0.5154,1655.1394],[37.05,-0.513,1680.7782],[37.0473,-0.5134,1701.6324],[37.0464,-0.5152,1721.0248],[37.0437,-0.5134,1727.8381],[37.0433,-0.5165,1694.9967],[37.0389,-0.5121,1729.0813],[37.037,-0.5169,1685.9714],[37.0348,-0.517,1678.9724],[37.0266,-0.5108,1649.772],[37.0262,-0.5147,1634.4772],[37.0192,-0.5145,1688.0674],[37.0182,-0.5199,1658.9758],[37.0118,-0.5153,1670.928],[37.0124,-0.5133,1689.4924],[37.0086,-0.5156,1707.5696],[37.0067,-0.5138,1735.1335],[37.0042,-0.5148,1709.377],[37.0036,-0.5179,1697.4973],[37.0019,-0.5175,1716.5194],[37.0019,-0.5214,1689.743],[36.9978,-0.5265,1695.1033],[36.9979,-0.529,1713.7366],[36.9961,-0.529,1713.0737],[36.995,-0.5343,1718.4602],[36.9963,-0.536,1686.1714],[36.9936,-0.536,1713.8481],[36.9925,-0.5382,1696.7416],[36.9943,-0.5451,1679.5312],[36.9836,-0.5632,1775.1401],[36.9798,-0.5645,1824.0646],[36.9778,-0.5618,1841.7445],[36.9771,-0.5632,1825.3031],[36.9732,-0.5632,1780.363],[36.9778,-0.5734,1794.8613],[36.9823,-0.5736,1797.2222],[36.9862,-0.5701,1777.1919],[36.9943,-0.572,1785.875]]]]}
,"properties": {"GID_3": "KEN.36.3.3_1","GID_0": "KEN","country": "Kenya","GID_1": "KEN.36_1","province": "Nyeri","NL_NAME_1": "NA","GID_2": "KEN.36.3_1","county": "Mukurweini","NL_NAME_2": "NA","city": "Mukurwe-IniWest","VARNAME_3": "NA","NL_NAME_3": "NA","TYPE_3": "Ward","ENGTYPE_3": "Ward","CC_3": "489","HASC_3": "NA","name": "Mukurwe-Ini_West.city","area_km2": 32.48035,"hist_schema_id": "Elevation0-9000","hist_area_km2": {"1550": 0.08481,"1575": 0.63604,"1600": 1.86572,"1625": 3.32861,"1650": 4.62189,"1675": 5.32153,"1700": 4.74909,"1725": 4.02824,"1750": 3.30739,"1775": 2.50174,"1800": 1.31447,"1825": 0.69964,"1850": 0.0212}}}