{"type":"Feature","properties":{"GID_3":"KEN.2.5.1_1","GID_0":"KEN","country":"Kenya","GID_1":"KEN.2_1","province":"Bomet","NL_NAME_1":"NA","GID_2":"KEN.2.5_1","county":"Sotik","NL_NAME_2":"NA","city":"Chemagel","VARNAME_3":"NA","NL_NAME_3":"NA","TYPE_3":"Ward","ENGTYPE_3":"Ward","CC_3":"967","HASC_3":"NA","name":"Chemagel.city"},
"geometry":{"type": "MultiPolygon","coordinates": [[[[35.1732,-0.6513,1895.8391],[35.1612,-0.6513,1883.4415],[35.1506,-0.6542,1858.3728],[35.1472,-0.6529,1863.2767],[35.141,-0.6551,1838.7452],[35.1323,-0.6538,1844.7134],[35.1314,-0.6557,1841.7415],[35.1216,-0.6581,1815.3301],[35.1196,-0.6516,1826.8302],[35.1145,-0.6487,1821.1863],[35.1089,-0.6514,1801.7401],[35.0992,-0.6511,1771.9644],[35.0929,-0.653,1790.0665],[35.0828,-0.6475,1720.9678],[35.0816,-0.6492,1723.2969],[35.0786,-0.6468,1755.4792],[35.0778,-0.6484,1735.7811],[35.0795,-0.6514,1715.9506],[35.0782,-0.6538,1719.499],[35.0799,-0.66,1731.1953],[35.084,-0.6639,1761.0103],[35.083,-0.6675,1718.2366],[35.0874,-0.667,1743.4263],[35.0892,-0.6652,1751.8129],[35.0916,-0.6707,1744.1614],[35.0981,-0.6689,1786.366],[35.099,-0.6703,1778.6582],[35.0974,-0.6721,1766.1603],[35.1007,-0.6722,1750.8022],[35.1022,-0.6747,1767.2369],[35.0978,-0.6763,1722.9768],[35.0974,-0.6791,1730.8372],[35.0942,-0.6819,1743.1287],[35.098,-0.6867,1752.0161],[35.0944,-0.6879,1732.5482],[35.0921,-0.6912,1767.6758],[35.0969,-0.6938,1725.2146],[35.0972,-0.697,1739.6055],[35.0995,-0.6992,1743.1572],[35.1044,-0.7008,1771.7024],[35.1023,-0.7027,1757.1278],[35.1037,-0.7059,1728.9077],[35.106,-0.7054,1728.5946],[35.107,-0.7068,1732.6926],[35.1058,-0.7107,1736.2184],[35.1091,-0.7121,1751.8947],[35.1087,-0.7144,1739.526],[35.112,-0.7178,1775.0786],[35.112,-0.72,1765.8755],[35.1174,-0.7206,1803.2307],[35.1221,-0.7299,1756.2319],[35.1234,-0.7287,1762.5275],[35.1289,-0.7298,1780.9939],[35.151,-0.7277,1832.1689],[35.1536,-0.73,1828.4207],[35.1573,-0.7301,1835.1235],[35.1583,-0.7328,1841.0242],[35.164,-0.7326,1829.4528],[35.1643,-0.7293,1817.7068],[35.1671,-0.7275,1807.1549],[35.1676,-0.7227,1815.4767],[35.1661,-0.7192,1816.7188],[35.1617,-0.7211,1806.9076],[35.1648,-0.7181,1813.6504],[35.1624,-0.7191,1806.1401],[35.1616,-0.7174,1797.9121],[35.1629,-0.7151,1796.1252],[35.1595,-0.7149,1798.9192],[35.1614,-0.7077,1804.3274],[35.1599,-0.7086,1804.3271],[35.1563,-0.7061,1804.5732],[35.1596,-0.6973,1849.9705],[35.1658,-0.6932,1853.1155],[35.163,-0.6775,1859.8945],[35.1656,-0.6735,1880.2578],[35.1791,-0.6702,1909.3],[35.1862,-0.6638,1883.4326],[35.1823,-0.6598,1884.9333],[35.1745,-0.6562,1869.9983],[35.1732,-0.6513,1895.8391]]]]}}