{"type": "Feature","bbox": [35.1247,-0.3936,35.2211,-0.3103],"geometry": {"type": "MultiPolygon","coordinates": [[[[35.1691,-0.3229,1848.5352],[35.1643,-0.3238,1804.2905],[35.1637,-0.3255,1792.5391],[35.1566,-0.3242,1830.5518],[35.1539,-0.3262,1801.5704],[35.1503,-0.326,1769.0259],[35.1482,-0.329,1743.7845],[35.1389,-0.3265,1680.8682],[35.1324,-0.3324,1662.8306],[35.1268,-0.3322,1654.2079],[35.1247,-0.3443,1580.408],[35.1261,-0.3459,1586.7725],[35.1383,-0.3474,1695.897],[35.1447,-0.3551,1754.4075],[35.1443,-0.361,1728.7346],[35.1462,-0.363,1796.0957],[35.1453,-0.3664,1818.7241],[35.1399,-0.3687,1838.5879],[35.1407,-0.376,1859.3661],[35.1377,-0.3766,1865.3015],[35.1353,-0.3819,1843.9675],[35.1351,-0.3934,1851.2297],[35.1402,-0.3922,1870.0525],[35.1416,-0.3865,1868.5479],[35.1465,-0.3826,1851.4011],[35.1496,-0.3849,1872.0525],[35.1631,-0.3877,1887.3262],[35.1649,-0.3901,1887.1584],[35.1716,-0.3934,1877.0718],[35.1752,-0.3936,1799.3323],[35.1753,-0.3911,1807.4756],[35.1786,-0.3878,1826.4377],[35.1879,-0.3881,1839.9518],[35.1877,-0.3826,1889.6616],[35.19,-0.3784,1893.927],[35.1948,-0.373,1886.7352],[35.2013,-0.3711,1863.9102],[35.2001,-0.3693,1886.1982],[35.2023,-0.3671,1878.318],[35.2016,-0.3631,1875.3054],[35.2035,-0.3595,1911.8824],[35.2007,-0.3526,1914.0045],[35.2024,-0.3462,1914.4097],[35.2007,-0.3398,1933.5325],[35.2022,-0.3336,1973.4806],[35.2123,-0.323,1988.5663],[35.2159,-0.3171,2010.8577],[35.2199,-0.3165,1970.6978],[35.2211,-0.3139,1948.8228],[35.216,-0.3118,2004.748],[35.1958,-0.3103,1989.6543],[35.1898,-0.313,1954.9937],[35.1868,-0.3173,1931.1422],[35.1785,-0.3224,1862.6],[35.1736,-0.3237,1760.9609],[35.1691,-0.3229,1848.5352]]]]}
,"properties": {"GID_3": "KEN.12.2.5_1","GID_0": "KEN","country": "Kenya","GID_1": "KEN.12_1","province": "Kericho","NL_NAME_1": "NA","GID_2": "KEN.12.2_1","county": "Belgut","NL_NAME_2": "NA","city": "Waldai","VARNAME_3": "NA","NL_NAME_3": "NA","TYPE_3": "Ward","ENGTYPE_3": "Ward","CC_3": "957","HASC_3": "NA","name": "Waldai.city","area_km2": 54.50985,"hist_schema_id": "Elevation0-9000","hist_area_km2": {"1500": 0.0212,"1525": 0.21202,"1550": 0.38163,"1575": 0.59365,"1600": 0.72086,"1625": 0.78447,"1650": 1.1237,"1675": 1.1873,"1700": 1.1449,"1725": 1.08129,"1750": 1.25091,"1775": 1.71735,"1800": 2.79864,"1825": 3.79512,"1850": 5.68208,"1875": 7.01779,"1900": 8.98956,"1925": 6.29694,"1950": 4.6856,"1975": 3.24388,"2000": 1.1661,"2025": 0.61485}}}