{"type": "Feature","bbox": [35.1623,0.5271,35.2829,0.6904],"geometry": {"type": "MultiPolygon","coordinates": [[[[35.2782,0.6707,2039.5304],[35.2739,0.6679,2031.1016],[35.2716,0.6703,2033.4385],[35.2727,0.673,2040.2251],[35.2694,0.6775,2042.9517],[35.2667,0.6747,2035.3171],[35.2643,0.6754,2021.1034],[35.2641,0.6807,2035.1477],[35.2622,0.6823,2033.4369],[35.2579,0.6854,2027.6995],[35.2516,0.6846,2018.5673],[35.2506,0.6873,2020.4832],[35.2481,0.6876,2014.2122],[35.2459,0.6904,2013.3518],[35.2414,0.6895,2009.2336],[35.2402,0.6826,2005.2841],[35.2284,0.6759,2001.2947],[35.227,0.6783,1996.043],[35.226,0.6762,1995.9614],[35.2246,0.6772,1989.6886],[35.2233,0.6763,1986.2018],[35.2194,0.6797,1986.9656],[35.2173,0.6763,1981.3423],[35.2064,0.6794,1970.1544],[35.2016,0.6786,1958.449],[35.2001,0.6765,1953.697],[35.1942,0.6762,1953.2986],[35.1906,0.6793,1962.9929],[35.1859,0.6778,1953.9869],[35.1843,0.6804,1956.9652],[35.1782,0.6776,1950.2468],[35.1706,0.6794,1945.165],[35.1666,0.6756,1933.6271],[35.1647,0.6765,1924.3674],[35.1623,0.6753,1933.4456],[35.1624,0.6701,1897.6926],[35.1675,0.6531,1951.147],[35.1666,0.6474,1956.8132],[35.1778,0.6326,1971.7068],[35.1952,0.6178,1986.5908],[35.1956,0.6132,2003.6356],[35.2002,0.6106,2002.0544],[35.2158,0.5905,2008.0481],[35.2222,0.5856,1997.5161],[35.2447,0.595,2091.5283],[35.237,0.5708,2044.387],[35.249,0.549,2051.1001],[35.2468,0.5421,2053.3142],[35.2506,0.532,2067.9858],[35.2553,0.5271,2062.7983],[35.2611,0.5282,2075.6208],[35.2616,0.5367,2099.7949],[35.2584,0.5524,2118.8936],[35.2549,0.5527,2093.7998],[35.2513,0.5574,2057.0034],[35.2626,0.5871,2083.4512],[35.2628,0.5949,2059.2021],[35.2671,0.5964,2056.9114],[35.2646,0.6292,2038.001],[35.2829,0.6296,2050.2163],[35.2782,0.6707,2039.5304]]]]}
,"properties": {"GID_3": "KEN.44.6.4_1","GID_0": "KEN","country": "Kenya","GID_1": "KEN.44_1","province": "UasinGishu","NL_NAME_1": "NA","GID_2": "KEN.44.6_1","county": "Turbo","NL_NAME_2": "NA","city": "Kiplombe","VARNAME_3": "NA","NL_NAME_3": "NA","TYPE_3": "Ward","ENGTYPE_3": "Ward","CC_3": "711","HASC_3": "NA","name": "Kiplombe.city","area_km2": 111.70758,"hist_schema_id": "Elevation0-9000","hist_area_km2": {"1900": 0.46642,"1925": 1.44165,"1950": 8.1199,"1975": 18.35993,"2000": 23.36336,"2025": 28.74841,"2050": 19.8017,"2075": 4.79146,"2100": 6.04232,"2125": 0.57243}}}