{"type":"Feature","properties":{"GID_2":"KEN.8.6_1","GID_0":"KEN","country":"Kenya","GID_1":"KEN.8_1","province":"HomaBay","NL_NAME_1":"NA","county":"Ndhiwa","VARNAME_2":"NA","NL_NAME_2":"NA","TYPE_2":"Constituency","ENGTYPE_2":"Constituency","CC_2":"250","HASC_2":"NA","name":"Ndhiwa.county"},
"geometry":{"type": "MultiPolygon","coordinates": [[[[34.3875,-0.8113,1253.9435],[34.41,-0.82,1275.6384],[34.4119,-0.8236,1278.1816],[34.4288,-0.8311,1290.8881],[34.4413,-0.8417,1345.5392],[34.4452,-0.8427,1388.8353],[34.4643,-0.8589,1473.7144],[34.4643,-0.8321,1424.0259],[34.4755,-0.8067,1327.0555],[34.4822,-0.7954,1287.9077],[34.4855,-0.7824,1302.0933],[34.5184,-0.752,1323.7319],[34.5261,-0.7408,1348.7546],[34.5327,-0.7356,1363.7246],[34.5359,-0.7245,1325.6575],[34.5307,-0.7212,1336.684],[34.535,-0.7177,1345.8784],[34.5337,-0.7153,1339.9072],[34.5341,-0.698,1335.5319],[34.537,-0.6971,1337.5208],[34.5374,-0.6927,1332.2896],[34.5416,-0.6863,1330.4065],[34.5454,-0.6823,1331.0709],[34.5479,-0.682,1332.8256],[34.5523,-0.6761,1335.6829],[34.5529,-0.6708,1339.6293],[34.5599,-0.6671,1341.2183],[34.5529,-0.6539,1367.759],[34.5307,-0.6378,1399.7809],[34.5309,-0.6415,1361.5657],[34.5345,-0.6457,1358.4734],[34.5373,-0.6574,1339.2968],[34.5002,-0.6572,1333.0432],[34.5008,-0.6634,1330.375],[34.4944,-0.663,1341.7443],[34.4761,-0.656,1353.4498],[34.4734,-0.6522,1354.8716],[34.471,-0.6531,1357.7633],[34.4677,-0.6469,1362.8484],[34.4412,-0.6274,1355.469],[34.4387,-0.6183,1325.3683],[34.439,-0.6095,1325.3671],[34.433,-0.6,1325.0217],[34.4336,-0.5885,1312.7815],[34.427,-0.5909,1324.2527],[34.4261,-0.5841,1277.3008],[34.419,-0.5653,1195.0693],[34.4163,-0.5643,1183.6752],[34.413,-0.5586,1171.3152],[34.4081,-0.5562,1150.8313],[34.4045,-0.5519,1150.694],[34.3974,-0.5682,1169.9259],[34.3887,-0.5725,1209.7666],[34.3857,-0.5794,1210.9388],[34.3791,-0.5849,1228.0701],[34.3773,-0.5832,1232.4099],[34.3748,-0.5848,1227.1406],[34.3649,-0.584,1222.2311],[34.3683,-0.5898,1207.3162],[34.3622,-0.5944,1200.4622],[34.352,-0.622,1232.3342],[34.3495,-0.6328,1367.9568],[34.3486,-0.6512,1325.7458],[34.3265,-0.6583,1292.2074],[34.2963,-0.6645,1382.8879],[34.2204,-0.7179,1497.7791],[34.2034,-0.7253,1321.3168],[34.1973,-0.7301,1306.6729],[34.1993,-0.7383,1450.4836],[34.2015,-0.7398,1438.4648],[34.2027,-0.7436,1421.3976],[34.2024,-0.7467,1413.7638],[34.2104,-0.7554,1392.1633],[34.2132,-0.7631,1365.5872],[34.2191,-0.7662,1395.6461],[34.2269,-0.7745,1346.9556],[34.2323,-0.7772,1334.6699],[34.2385,-0.7904,1316.649],[34.2453,-0.7978,1311.4514],[34.2476,-0.8031,1279.8728],[34.2532,-0.8073,1282.8027],[34.2541,-0.8151,1256.751],[34.2724,-0.8206,1353.7941],[34.2815,-0.8198,1311.4612],[34.2859,-0.8214,1311.5669],[34.2886,-0.8254,1316.046],[34.3,-0.8345,1294.9988],[34.3095,-0.8502,1284.2141],[34.32,-0.8613,1271.7003],[34.3244,-0.862,1327.9678],[34.3368,-0.8581,1326.8085],[34.3381,-0.8524,1312.106],[34.3397,-0.8513,1318.6765],[34.3692,-0.8475,1265.261],[34.3713,-0.8455,1257.9707],[34.3705,-0.8439,1262.5131],[34.3723,-0.8427,1263.6356],[34.3721,-0.8406,1270.7214],[34.3752,-0.8425,1263.6575],[34.3786,-0.8394,1251.7799],[34.3821,-0.8422,1252.0547],[34.3902,-0.8262,1254.4607],[34.3915,-0.8252,1254.4607],[34.3933,-0.8267,1252.5411],[34.3941,-0.8238,1254.72],[34.3875,-0.817,1253.8136],[34.3884,-0.816,1254.1541],[34.3866,-0.8109,1256.1221],[34.3875,-0.8113,1253.9435]]]]}}