{"type":"Feature","properties":{"GID_3":"KEN.38.5.3_1","GID_0":"KEN","country":"Kenya","GID_1":"KEN.38_1","province":"Siaya","NL_NAME_1":"NA","GID_2":"KEN.38.5_1","county":"Ugenya","NL_NAME_2":"NA","city":"Ukwala","VARNAME_3":"NA","NL_NAME_3":"NA","TYPE_3":"Ward","ENGTYPE_3":"Ward","CC_3":"1157","HASC_3":"NA","name":"Ukwala.city"},
"geometry":{"type": "MultiPolygon","coordinates": [[[[34.2149,0.1664,1177.1732],[34.219,0.169,1182.8484],[34.219,0.171,1188.9803],[34.2217,0.1712,1177.1919],[34.2257,0.1747,1172.6616],[34.225,0.1836,1186.2681],[34.227,0.1886,1180.0249],[34.2257,0.1918,1198.3662],[34.2415,0.2009,1189.4592],[34.2419,0.2036,1197.7067],[34.2396,0.2049,1192.8735],[34.24,0.2072,1212.3245],[34.2343,0.2165,1202.5974],[34.238,0.2334,1233.52],[34.2283,0.2416,1258.8577],[34.2257,0.2347,1254.4152],[34.221,0.2355,1248.4735],[34.2147,0.2278,1243.6499],[34.212,0.2306,1244.996],[34.2086,0.2307,1230.2538],[34.201,0.2421,1228.0814],[34.1957,0.2426,1211.8608],[34.1954,0.2463,1212.6985],[34.185,0.2463,1247.7416],[34.178,0.2437,1215.8982],[34.1774,0.2315,1206.0887],[34.179,0.2253,1198.2661],[34.1716,0.1965,1190.8798],[34.1713,0.1888,1187.5111],[34.1665,0.1792,1188.5828],[34.1672,0.1715,1168.7098],[34.1614,0.1646,1190.7148],[34.162,0.161,1170.0281],[34.1685,0.1623,1164.1378],[34.1735,0.1615,1166.4562],[34.1772,0.1657,1167.0488],[34.1789,0.1709,1183.92],[34.1816,0.1728,1187.4385],[34.1879,0.173,1179.941],[34.1919,0.1748,1175.7955],[34.1939,0.1742,1167.9767],[34.1974,0.169,1175.3789],[34.2074,0.1635,1178.7988],[34.2111,0.1635,1175.8949],[34.2149,0.1664,1177.1732]]]]}}