{"type": "Feature","bbox": [36.658,-0.6212,37.0019,-0.4767],"geometry": {"type": "MultiPolygon","coordinates": [[[[36.7076,-0.6212,3633.8394],[36.7104,-0.6136,3552.915],[36.7095,-0.6053,3429.4482],[36.7122,-0.6017,3361.0659],[36.7093,-0.596,3286.0107],[36.7102,-0.5889,3206.5732],[36.7081,-0.581,3142.355],[36.7134,-0.577,3076.7266],[36.717,-0.5715,3065.501],[36.7221,-0.5692,3087.0505],[36.7243,-0.5649,3089.0762],[36.7351,-0.5604,3029.6548],[36.7492,-0.565,2979.4543],[36.7581,-0.5624,2823.1855],[36.7629,-0.5632,2829.9021],[36.7783,-0.5608,2721.5989],[36.7941,-0.5648,2540.082],[36.8013,-0.5626,2478.8193],[36.8092,-0.5651,2447.9573],[36.8102,-0.5742,2447.8735],[36.8116,-0.5756,2420.9707],[36.8227,-0.5778,2382.8564],[36.8382,-0.5887,2275.4883],[36.8462,-0.5882,2212.137],[36.8613,-0.601,2082.929],[36.867,-0.5991,2036.7295],[36.8767,-0.6006,1990.726],[36.8824,-0.6024,2038.5193],[36.8846,-0.6054,2067.1052],[36.8942,-0.6028,2033.0775],[36.915,-0.6038,1976.6852],[36.9201,-0.5981,1890.9293],[36.9243,-0.5992,1856.9233],[36.9371,-0.5922,1859.6985],[36.9496,-0.5891,1800.7318],[36.9557,-0.5836,1812.8655],[36.9671,-0.5813,1828.8818],[36.9699,-0.578,1802.49],[36.9778,-0.5734,1794.8613],[36.9732,-0.5632,1780.363],[36.9771,-0.5632,1825.3031],[36.9778,-0.5618,1841.7445],[36.9798,-0.5645,1824.0646],[36.9836,-0.5632,1775.1401],[36.9943,-0.5451,1679.5312],[36.9925,-0.5382,1696.7416],[36.9936,-0.536,1713.8481],[36.9963,-0.536,1686.1714],[36.995,-0.5343,1718.4602],[36.9961,-0.529,1713.0737],[36.9979,-0.529,1713.7366],[36.9978,-0.5265,1695.1033],[37.0019,-0.5213,1689.743],[37.0019,-0.5175,1716.5194],[36.9975,-0.5189,1644.5334],[36.9982,-0.5147,1653.408],[36.9968,-0.5101,1675.9178],[36.9991,-0.5067,1684.8186],[36.9969,-0.5061,1731.9359],[36.9941,-0.5079,1684.1233],[36.9912,-0.5046,1688.967],[36.982,-0.5021,1797.1278],[36.9791,-0.5026,1794.3689],[36.9767,-0.5059,1787.0144],[36.9715,-0.5038,1803.2706],[36.9681,-0.5048,1806.9646],[36.9671,-0.5028,1826.2644],[36.9613,-0.5048,1752.0549],[36.9548,-0.4939,1840.5309],[36.9489,-0.4904,1829.9711],[36.9468,-0.4919,1842.0924],[36.935,-0.4929,1833.7112],[36.9331,-0.4917,1837.5887],[36.9315,-0.4949,1866.399],[36.9293,-0.4947,1848.9052],[36.9264,-0.4979,1918.0085],[36.9131,-0.5009,1925.2407],[36.9083,-0.4981,1978.0718],[36.8994,-0.498,1970.2817],[36.8961,-0.4937,2044.9688],[36.8822,-0.4943,2070.6714],[36.8777,-0.4931,2008.8513],[36.8725,-0.4881,2096.0342],[36.8587,-0.4916,2084.4561],[36.8551,-0.4895,2182.0762],[36.851,-0.4908,2165.1401],[36.8378,-0.487,2284.1157],[36.8261,-0.4924,2123.1577],[36.8237,-0.4916,2123.5415],[36.8186,-0.4833,2412.3826],[36.8107,-0.4845,2464.8801],[36.8033,-0.4917,2297.9202],[36.7861,-0.4934,2411.4902],[36.7795,-0.4985,2297.2974],[36.758,-0.5,2710.8472],[36.7529,-0.4984,2783.5627],[36.7456,-0.4908,2922.5498],[36.736,-0.4888,2949.5728],[36.7291,-0.4767,2948.3574],[36.7206,-0.4774,2986.2075],[36.7125,-0.4807,3008.8018],[36.7059,-0.4795,2984.6992],[36.6995,-0.4893,3007.2988],[36.695,-0.493,3040.7332],[36.6927,-0.5018,3042.0193],[36.6879,-0.5063,3037.8696],[36.6706,-0.5106,3119.8481],[36.658,-0.5051,3181.5146],[36.6589,-0.5114,3182.8838],[36.6644,-0.522,3188.2393],[36.6641,-0.5294,3236.4446],[36.6687,-0.5374,3201.6279],[36.6707,-0.5679,3245.7041],[36.6806,-0.5728,3191.2661],[36.6796,-0.5817,3286.3975],[36.6844,-0.5924,3336.1089],[36.6898,-0.5983,3422.6772],[36.7007,-0.6154,3568.3301],[36.7076,-0.6212,3633.8394]]]]}
,"properties": {"GID_2": "KEN.36.5_1","GID_0": "KEN","country": "Kenya","GID_1": "KEN.36_1","province": "Nyeri","NL_NAME_1": "NA","county": "Othaya","VARNAME_2": "NA","NL_NAME_2": "NA","TYPE_2": "Constituency","ENGTYPE_2": "Constituency","CC_2": "97","HASC_2": "NA","name": "Othaya.county","area_km2": 357.8986,"hist_schema_id": "Elevation0-9000","hist_area_km2": {"1625": 0.0424,"1650": 0.4664,"1675": 1.4205,"1700": 2.3109,"1725": 3.6254,"1750": 5.0883,"1775": 8.3321,"1800": 10.1766,"1825": 10.4946,"1850": 14.8409,"1875": 13.272,"1900": 13.1024,"1925": 12.8267,"1950": 11.9151,"1975": 11.2154,"2000": 9.1377,"2025": 8.8621,"2050": 7.9717,"2075": 8.2473,"2100": 7.8869,"2125": 7.3144,"2150": 6.0636,"2175": 6.106,"2200": 5.5123,"2225": 5.5547,"2250": 4.3675,"2275": 3.7314,"2300": 3.8162,"2325": 3.4982,"2350": 3.3074,"2375": 4.1767,"2400": 4.113,"2425": 3.583,"2450": 3.265,"2475": 2.9894,"2500": 3.7526,"2525": 3.0318,"2550": 2.5654,"2575": 2.3957,"2600": 2.4593,"2625": 3.5194,"2650": 3.6254,"2675": 3.3922,"2700": 3.0742,"2725": 2.6714,"2750": 2.0565,"2775": 2.3321,"2800": 2.3533,"2825": 2.2685,"2850": 2.0989,"2875": 2.2473,"2900": 2.6502,"2925": 3.6678,"2950": 6.0212,"2975": 7.1025,"3000": 8.6926,"3025": 7.4417,"3050": 9.7738,"3075": 7.4628,"3100": 8.1837,"3125": 5.2791,"3150": 2.6502,"3175": 2.7138,"3200": 2.6077,"3225": 1.6325,"3250": 1.5477,"3275": 1.4629,"3300": 1.1449,"3325": 0.9965,"3350": 0.9116,"3375": 0.6996,"3400": 0.6784,"3425": 0.5088,"3450": 0.2756,"3475": 0.2332,"3500": 0.212,"3525": 0.2332,"3550": 0.2332,"3575": 0.1696,"3600": 0.212,"3625": 0.0212}}}