{"type":"Feature","properties":{"GID_3":"KEN.3.3.2_1","GID_0":"KEN","country":"Kenya","GID_1":"KEN.3_1","province":"Bungoma","NL_NAME_1":"NA","GID_2":"KEN.3.3_1","county":"Kanduyi","NL_NAME_2":"NA","city":"BukembeWest","VARNAME_3":"NA","NL_NAME_3":"NA","TYPE_3":"Ward","ENGTYPE_3":"Ward","CC_3":"1096","HASC_3":"NA","name":"Bukembe_West.city"},
"geometry":{"type": "MultiPolygon","coordinates": [[[[34.6201,0.6047,1513.924],[34.6108,0.6003,1482.6228],[34.6035,0.6057,1456.1046],[34.6015,0.6098,1469.5564],[34.5913,0.6101,1447.4451],[34.5854,0.6062,1450.2256],[34.5705,0.5932,1424.2708],[34.5671,0.568,1396.6501],[34.5748,0.5686,1420.6057],[34.5836,0.5655,1419.5214],[34.5894,0.5717,1442.1581],[34.5919,0.5713,1447.3976],[34.5955,0.5665,1430.0148],[34.6008,0.5641,1429.2023],[34.6124,0.5622,1448.4238],[34.6252,0.5547,1443.4197],[34.6276,0.556,1441.6945],[34.629,0.5611,1446.8385],[34.6329,0.5643,1443.9548],[34.6388,0.5747,1443.1553],[34.639,0.5822,1451.6426],[34.6423,0.5955,1458.7738],[34.6381,0.6031,1456.8218],[34.6376,0.6089,1458.8771],[34.6389,0.6124,1471.2772],[34.6201,0.6047,1513.924]]]]}}