{"type": "Feature","bbox": [37.5553,0.3288,37.5825,0.3591],"geometry": {"type": "MultiPolygon","coordinates": [[[[37.5672,0.3575,1100.5007],[37.5671,0.3544,1107.2126],[37.5625,0.3515,1116.7932],[37.5596,0.3436,1130.8763],[37.5567,0.3407,1146.6537],[37.5571,0.3347,1151.7876],[37.5553,0.3289,1160.9639],[37.573,0.3288,1153.3024],[37.5738,0.3324,1145.3052],[37.5801,0.3413,1125.4332],[37.5803,0.3485,1109.2107],[37.5825,0.3537,1098.512],[37.5809,0.3574,1089.1399],[37.5731,0.3591,1093.6292],[37.5672,0.3575,1100.5007]]],
[[[37.5671,0.3575,1104.0647],[37.5672,0.3576,1100.5007],[37.5671,0.3576,1104.0647],[37.5671,0.3575,1104.0647],[37.5671,0.3575,1104.0647]]]]}
,"properties": {"GID_3": "KEN.9.1.1_1","GID_0": "KEN","country": "Kenya","GID_1": "KEN.9_1","province": "Isiolo","NL_NAME_1": "NA","GID_2": "KEN.9.1_1","county": "IsioloNorth","NL_NAME_2": "NA","city": "BullaPesa","VARNAME_3": "NA","NL_NAME_3": "NA","TYPE_3": "Ward","ENGTYPE_3": "Ward","CC_3": "242","HASC_3": "NA","name": "Bulla_Pesa.city","area_km2": 6.784584,"hist_schema_id": "Elevation0-9000","hist_area_km2": {"1100": 1.484126,"1125": 2.607824,"1150": 2.18379,"1175": 0.508844}}}