{"type": "Feature","bbox": [37.1413,-2.9922,38.5194,-1.5152],"geometry": {"type": "MultiPolygon","coordinates": [[[[38.3172,-2.5231,549.0533],[38.3171,-2.5158,550.5046],[38.312,-2.511,558.5557],[38.3121,-2.5021,556.7145],[38.3021,-2.4981,553.9507],[38.2986,-2.4935,552.76],[38.2969,-2.4874,555.1001],[38.2884,-2.4831,560.6791],[38.2827,-2.4522,564.4579],[38.2803,-2.448,566.0115],[38.2744,-2.4245,572.4818],[38.2703,-2.4221,581.8352],[38.2641,-2.4221,588.9083],[38.2598,-2.4199,594.1022],[38.2526,-2.4207,598.5236],[38.2471,-2.4167,590.6899],[38.2446,-2.4123,594.4224],[38.236,-2.4093,615.7839],[38.2321,-2.402,615.8167],[38.2226,-2.3993,613.1623],[38.2116,-2.3557,620.876],[38.1978,-2.3532,624.6249],[38.1963,-2.3489,622.7074],[38.1882,-2.3397,637.2761],[38.1836,-2.3378,644.8474],[38.1737,-2.3381,641.8611],[38.1523,-2.3278,678.1176],[38.1474,-2.3211,676.4009],[38.1264,-2.3216,664.6896],[38.1167,-2.3133,674.3448],[38.1153,-2.3026,682.8701],[38.1092,-2.3004,683.9636],[38.1116,-2.2862,690.7584],[38.1014,-2.2815,688.5123],[38.0975,-2.273,691.173],[38.0909,-2.2734,695.6544],[38.0874,-2.272,692.2228],[38.0833,-2.2616,690.4169],[38.0807,-2.2605,702.5634],[38.0759,-2.2618,696.296],[38.0764,-2.255,698.4433],[38.0725,-2.2511,700.5446],[38.069,-2.2248,699.1192],[38.0633,-2.2217,707.7552],[38.064,-2.2184,715.396],[38.0693,-2.2159,701.8779],[38.0704,-2.2139,705.4755],[38.0635,-2.2109,709.9856],[38.0602,-2.2069,703.1228],[38.0558,-2.1957,706.1844],[38.0546,-2.1864,706.2612],[38.0482,-2.1801,720.8582],[38.0507,-2.1734,709.5918],[38.0487,-2.1688,710.4064],[38.0443,-2.1663,711.6251],[38.037,-2.1666,717.1936],[38.0277,-2.1619,715.3188],[38.0245,-2.1567,712.0],[38.0223,-2.148,722.6371],[38.0205,-2.1467,731.5274],[38.0093,-2.1518,734.4108],[37.9907,-2.1568,741.0348],[37.9828,-2.1611,741.6937],[37.9742,-2.1633,739.3317],[37.9698,-2.1669,748.2832],[37.9666,-2.167,739.655],[37.9648,-2.1649,730.553],[37.9652,-2.1556,737.3712],[37.9631,-2.1426,752.0393],[37.9588,-2.1402,744.0231],[37.9586,-2.1379,762.6807],[37.9537,-2.1326,758.233],[37.9573,-2.1127,752.6802],[37.9566,-2.1082,755.2216],[37.9598,-2.1015,765.7383],[37.9579,-2.0943,771.8843],[37.9604,-2.0787,768.3439],[37.9593,-2.0644,780.6352],[37.9545,-2.0572,777.2399],[37.9554,-2.0486,781.6373],[37.9511,-2.0369,785.3242],[37.9477,-2.0359,800.1659],[37.9442,-2.0374,792.9257],[37.939,-2.0329,795.53],[37.9424,-2.0294,791.236],[37.9439,-2.0231,796.8647],[37.9433,-2.0212,791.6813],[37.939,-2.0195,791.4362],[37.9412,-2.011,792.8159],[37.9362,-2.008,787.5604],[37.9375,-2.0016,795.452],[37.9286,-1.9958,795.4285],[37.9302,-1.9906,797.0283],[37.9254,-1.9861,798.5166],[37.9161,-1.9575,796.0242],[37.9139,-1.9546,800.1373],[37.9168,-1.9483,801.1859],[37.9148,-1.9402,799.0107],[37.9094,-1.9328,802.3313],[37.9124,-1.9266,799.3599],[37.9104,-1.9208,814.8213],[37.9131,-1.9167,801.0761],[37.9133,-1.9127,823.8264],[37.9182,-1.9093,809.8035],[37.9187,-1.9028,815.8311],[37.9151,-1.9018,826.1964],[37.908,-1.9036,807.5277],[37.9058,-1.9023,815.8283],[37.9071,-1.8928,809.9781],[37.8991,-1.8685,822.4931],[37.9014,-1.863,813.6615],[37.8934,-1.8586,824.5357],[37.889,-1.8595,823.6364],[37.8873,-1.8584,824.1785],[37.8849,-1.8497,824.7789],[37.8872,-1.8437,841.1764],[37.893,-1.8414,823.9345],[37.8926,-1.8384,830.2283],[37.8877,-1.8334,835.6111],[37.8804,-1.8311,834.1476],[37.8676,-1.8158,836.3621],[37.8489,-1.798,833.8955],[37.8395,-1.78,840.2999],[37.8407,-1.7756,843.6451],[37.8391,-1.7718,848.343],[37.8407,-1.767,876.9038],[37.8461,-1.7665,870.0374],[37.8506,-1.7693,872.6813],[37.853,-1.7663,878.5319],[37.8519,-1.7645,911.0016],[37.8546,-1.7638,894.1656],[37.854,-1.7572,907.8496],[37.856,-1.754,901.0578],[37.854,-1.7507,907.7653],[37.8545,-1.7459,903.1832],[37.8509,-1.7355,912.8571],[37.8507,-1.7305,906.9559],[37.845,-1.7232,908.7523],[37.8454,-1.7126,933.3033],[37.8424,-1.71,925.6916],[37.8348,-1.7091,924.5861],[37.8381,-1.7,928.4652],[37.8364,-1.6939,929.9478],[37.8376,-1.6896,933.0737],[37.8324,-1.6886,920.2469],[37.8305,-1.6844,922.2544],[37.831,-1.6808,938.511],[37.8251,-1.6824,938.1403],[37.8199,-1.6801,925.725],[37.8203,-1.6747,921.7249],[37.8226,-1.6703,922.1221],[37.821,-1.6647,942.8792],[37.8161,-1.663,926.5873],[37.8104,-1.6585,922.749],[37.8085,-1.6541,941.7612],[37.8046,-1.6528,932.3105],[37.8063,-1.6492,946.7079],[37.8012,-1.6476,937.5267],[37.8039,-1.642,936.5695],[37.8008,-1.6343,936.1335],[37.7974,-1.6314,940.3038],[37.7963,-1.6272,946.2815],[37.7926,-1.6261,944.7782],[37.7918,-1.62,937.9014],[37.7874,-1.6128,963.1255],[37.7844,-1.6115,944.6344],[37.783,-1.6047,936.759],[37.7758,-1.594,950.8466],[37.7763,-1.5908,943.6462],[37.7727,-1.5872,945.416],[37.7727,-1.5836,945.2378],[37.769,-1.5833,945.1185],[37.764,-1.5801,944.1129],[37.7538,-1.5662,950.3127],[37.7502,-1.5685,986.5454],[37.7453,-1.5688,998.9583],[37.7362,-1.5749,1039.8663],[37.7351,-1.5788,1031.9165],[37.7322,-1.581,1052.963],[37.7363,-1.5845,1043.4724],[37.735,-1.5925,1032.6333],[37.7281,-1.5969,1079.4827],[37.729,-1.6003,1070.4805],[37.7279,-1.6033,1068.652],[37.719,-1.6085,1102.6342],[37.7113,-1.6046,1105.548],[37.7011,-1.584,1207.2583],[37.696,-1.5871,1264.7301],[37.6936,-1.5835,1226.2654],[37.6939,-1.5867,1251.9468],[37.6923,-1.5859,1235.4594],[37.6898,-1.5879,1251.9248],[37.6858,-1.5843,1271.2053],[37.6841,-1.5863,1377.8552],[37.6846,-1.5885,1327.8002],[37.6905,-1.5995,1244.7784],[37.6871,-1.6073,1325.0214],[37.6883,-1.617,1175.198],[37.687,-1.6193,1169.808],[37.6833,-1.6192,1142.0502],[37.6812,-1.6264,1122.7673],[37.6748,-1.6296,1097.3499],[37.6684,-1.6416,1073.4395],[37.6606,-1.6449,1053.5625],[37.6563,-1.637,1053.698],[37.6557,-1.6304,1084.861],[37.6492,-1.6285,1071.2261],[37.65,-1.6219,1076.6067],[37.6466,-1.62,1063.4028],[37.6445,-1.6146,1077.9683],[37.6424,-1.603,1096.8087],[37.6436,-1.5999,1083.6707],[37.6415,-1.5954,1099.5389],[37.6433,-1.593,1091.7759],[37.6396,-1.5901,1096.6981],[37.6415,-1.5865,1101.6854],[37.635,-1.5895,1123.4459],[37.6314,-1.5893,1127.4973],[37.6234,-1.5811,1118.0535],[37.6175,-1.5657,1134.1292],[37.6137,-1.5639,1130.8059],[37.6082,-1.5661,1133.3502],[37.6067,-1.5609,1138.5121],[37.5993,-1.5612,1150.6875],[37.6007,-1.5578,1139.9583],[37.598,-1.5546,1143.4346],[37.5981,-1.5511,1166.5537],[37.5906,-1.5575,1151.4922],[37.5821,-1.5608,1179.1287],[37.5787,-1.565,1169.3237],[37.574,-1.5651,1163.0613],[37.5731,-1.564,1182.2849],[37.5761,-1.5578,1184.8551],[37.5686,-1.5575,1187.4022],[37.5623,-1.56,1168.7081],[37.5602,-1.5578,1174.4985],[37.5567,-1.5577,1188.1713],[37.5568,-1.5545,1191.0017],[37.5627,-1.5533,1173.6791],[37.5633,-1.5517,1172.7312],[37.5508,-1.5481,1176.2158],[37.5499,-1.5451,1189.7126],[37.5552,-1.5409,1182.2263],[37.5505,-1.5369,1184.14],[37.5451,-1.537,1182.0337],[37.5443,-1.5408,1186.624],[37.535,-1.5401,1186.6608],[37.5258,-1.5367,1195.8801],[37.5221,-1.5382,1188.1604],[37.5202,-1.5362,1192.5811],[37.5212,-1.5325,1194.9027],[37.5178,-1.5321,1190.0946],[37.518,-1.5279,1204.0764],[37.5162,-1.5262,1203.3719],[37.5122,-1.5247,1198.9497],[37.5081,-1.5277,1210.8667],[37.5053,-1.5275,1197.7502],[37.5008,-1.524,1205.059],[37.4979,-1.5242,1204.2676],[37.4866,-1.5152,1205.4202],[37.4824,-1.5174,1216.8076],[37.4756,-1.5165,1221.3776],[37.4745,-1.5208,1212.1472],[37.4724,-1.5183,1216.8126],[37.4663,-1.5172,1226.3007],[37.4594,-1.5187,1231.6987],[37.4587,-1.5209,1222.7456],[37.4553,-1.5212,1223.6177],[37.4519,-1.5236,1238.1377],[37.4484,-1.5291,1247.0579],[37.4413,-1.5309,1229.3297],[37.4388,-1.5278,1262.7097],[37.4377,-1.531,1226.2997],[37.435,-1.5318,1232.4823],[37.4331,-1.5302,1259.3923],[37.4313,-1.5315,1238.5554],[37.429,-1.5301,1253.1846],[37.427,-1.5314,1244.017],[37.4215,-1.53,1262.6399],[37.3991,-1.5202,1342.1467],[37.394,-1.5212,1309.6278],[37.384,-1.5195,1290.4786],[37.3829,-1.5181,1290.4786],[37.3796,-1.5189,1307.444],[37.3722,-1.5258,1314.7866],[37.3712,-1.5288,1333.4343],[37.3647,-1.5323,1365.271],[37.3651,-1.5352,1366.3225],[37.3635,-1.5355,1366.3225],[37.3605,-1.5328,1366.6226],[37.3585,-1.5412,1370.47],[37.3551,-1.5414,1375.7273],[37.3541,-1.5471,1392.5656],[37.3515,-1.5472,1408.7114],[37.35,-1.5499,1410.9797],[37.3405,-1.5543,1450.8699],[37.3351,-1.5599,1453.2634],[37.3424,-1.5723,1434.4573],[37.364,-1.5898,1408.8228],[37.3666,-1.5986,1405.3362],[37.3706,-1.6028,1398.1511],[37.3769,-1.6234,1421.267],[37.3831,-1.6312,1446.7737],[37.382,-1.6349,1464.5942],[37.3859,-1.6417,1440.4333],[37.386,-1.646,1461.8164],[37.3889,-1.6459,1427.736],[37.3935,-1.6528,1417.426],[37.395,-1.6591,1395.6179],[37.4005,-1.6623,1409.2529],[37.4017,-1.6709,1372.1323],[37.4061,-1.675,1366.1011],[37.4049,-1.6778,1363.58],[37.4069,-1.6794,1363.319],[37.4078,-1.684,1351.6719],[37.4131,-1.6878,1338.0005],[37.4122,-1.6891,1341.4562],[37.4082,-1.6891,1386.4849],[37.4074,-1.691,1394.3816],[37.4051,-1.6901,1395.0149],[37.402,-1.6938,1377.4001],[37.4006,-1.6928,1388.496],[37.3942,-1.696,1433.7653],[37.3929,-1.6951,1433.7653],[37.3908,-1.698,1398.5305],[37.3876,-1.6981,1429.0118],[37.3848,-1.7017,1430.402],[37.3801,-1.7019,1437.2079],[37.3736,-1.7049,1523.2595],[37.364,-1.7037,1546.9181],[37.3575,-1.7069,1571.5334],[37.3545,-1.7047,1601.7236],[37.3502,-1.705,1576.6704],[37.3491,-1.7034,1580.498],[37.3467,-1.7044,1558.5625],[37.3439,-1.7007,1568.1459],[37.334,-1.7013,1660.8188],[37.3314,-1.6981,1646.8668],[37.3294,-1.6999,1612.6699],[37.3129,-1.7009,1571.363],[37.2881,-1.7115,1622.797],[37.2893,-1.6984,1738.6855],[37.2789,-1.6875,1782.7466],[37.265,-1.6803,1744.9165],[37.2721,-1.6681,1826.4286],[37.2585,-1.6455,1803.7681],[37.2563,-1.6445,1774.766],[37.2523,-1.6355,1741.9281],[37.2514,-1.5919,1587.5073],[37.2453,-1.5921,1569.5107],[37.2319,-1.5889,1586.7292],[37.2294,-1.5921,1604.1044],[37.175,-1.6169,1628.9647],[37.1919,-1.6527,1673.999],[37.1966,-1.7199,1646.3745],[37.1938,-1.7212,1645.9303],[37.1764,-1.7536,1648.5315],[37.1655,-1.7611,1642.7321],[37.1587,-1.772,1638.8149],[37.1567,-1.7771,1618.4901],[37.1599,-1.7772,1614.929],[37.1604,-1.7797,1597.7043],[37.1512,-1.7942,1602.6123],[37.1525,-1.801,1611.6285],[37.1413,-1.8116,1593.5939],[37.1457,-1.8186,1591.0692],[37.143,-1.8222,1574.6537],[37.1436,-1.8276,1577.0374],[37.1488,-1.8311,1573.1406],[37.1475,-1.8335,1564.2247],[37.1422,-1.8361,1558.3291],[37.142,-1.8387,1573.1135],[37.1477,-1.8397,1581.0802],[37.1556,-1.8447,1564.0878],[37.1569,-1.8504,1574.1329],[37.1626,-1.8578,1552.7362],[37.1621,-1.8669,1547.0295],[37.1637,-1.871,1550.7268],[37.1603,-1.8745,1532.9062],[37.1604,-1.8827,1522.5229],[37.1587,-1.8846,1513.4684],[37.1543,-1.8835,1500.6068],[37.1531,-1.8862,1495.9559],[37.159,-1.8918,1483.0085],[37.1574,-1.8959,1497.9473],[37.17,-1.9119,1459.458],[37.1703,-1.9161,1468.6873],[37.183,-1.9228,1420.9752],[37.1823,-1.9285,1428.604],[37.1871,-1.9334,1415.0924],[37.1928,-1.9344,1403.3892],[37.2001,-1.9318,1397.4884],[37.2059,-1.9337,1390.7441],[37.2111,-1.9314,1385.9441],[37.2234,-1.9321,1371.7314],[37.2363,-1.9353,1356.6509],[37.2442,-1.942,1340.0242],[37.2473,-1.9493,1335.1555],[37.253,-1.952,1327.9055],[37.2556,-1.9568,1327.0815],[37.2593,-1.9585,1322.2097],[37.2657,-1.9581,1318.8195],[37.2678,-1.9642,1321.5704],[37.2758,-1.9753,1303.1077],[37.2806,-1.994,1289.7649],[37.2836,-1.9943,1289.1564],[37.2991,-2.0034,1273.5022],[37.303,-2.0016,1268.087],[37.308,-2.0018,1266.9917],[37.3141,-2.007,1259.5237],[37.3589,-2.0113,1232.2185],[37.3645,-2.0138,1227.7396],[37.3646,-2.0221,1242.5293],[37.3818,-2.0223,1222.6321],[37.4518,-2.0728,1167.6077],[37.4651,-2.0788,1157.9932],[37.4624,-2.0854,1157.5547],[37.4759,-2.0908,1153.2087],[37.4786,-2.0839,1154.4049],[37.5336,-2.1058,1107.4956],[37.5372,-2.1111,1100.2532],[37.5412,-2.1123,1082.4027],[37.5438,-2.1151,1082.7675],[37.5431,-2.122,1078.8368],[37.5452,-2.1252,1063.7983],[37.5505,-2.1271,1060.0198],[37.5646,-2.1268,1054.6804],[37.5731,-2.1376,1044.7644],[37.5925,-2.1528,1015.636],[37.6213,-2.161,996.5046],[37.665,-2.1554,970.2318],[37.6924,-2.1647,949.0304],[37.6991,-2.1643,930.7721],[37.7058,-2.1725,919.5668],[37.7076,-2.1816,911.8579],[37.7236,-2.1881,915.5795],[37.7243,-2.1915,910.8604],[37.7155,-2.1903,917.5609],[37.7059,-2.1947,921.4207],[37.6947,-2.2099,930.6047],[37.688,-2.2155,938.9019],[37.6837,-2.2241,952.3147],[37.6802,-2.2256,957.8276],[37.6793,-2.2278,957.8442],[37.6749,-2.228,960.496],[37.6763,-2.2325,959.8391],[37.6756,-2.2392,961.7102],[37.6787,-2.2432,963.6059],[37.6783,-2.2535,967.842],[37.6761,-2.2595,979.5912],[37.6785,-2.2643,972.6035],[37.6733,-2.2675,981.7036],[37.6722,-2.2793,980.3585],[37.667,-2.2809,991.7997],[37.6679,-2.2839,988.0841],[37.6701,-2.2851,985.4449],[37.6699,-2.288,988.3711],[37.6645,-2.29,989.0035],[37.6602,-2.2889,991.7802],[37.658,-2.2865,992.6777],[37.6552,-2.2875,990.9653],[37.6483,-2.2915,993.9225],[37.6461,-2.2993,996.3548],[37.6425,-2.2971,1020.5216],[37.637,-2.2977,1006.8696],[37.6318,-2.294,1004.3495],[37.6323,-2.2988,1004.283],[37.6309,-2.3014,1005.9974],[37.6259,-2.3012,1007.552],[37.6218,-2.3044,1007.8296],[37.6184,-2.2978,1010.8885],[37.6124,-2.2976,1012.3843],[37.6099,-2.3022,1014.0133],[37.6066,-2.3034,1014.6783],[37.6075,-2.3079,1013.92],[37.6042,-2.3114,1016.1079],[37.6015,-2.3092,1019.4216],[37.5999,-2.3112,1019.937],[37.5983,-2.3095,1019.8196],[37.5962,-2.312,1020.0941],[37.8497,-2.6039,1967.3331],[37.8605,-2.6223,1794.6064],[37.8691,-2.6432,1987.7568],[37.8789,-2.6609,2068.3162],[37.8926,-2.6747,2071.5525],[37.9011,-2.7015,2026.1724],[37.9072,-2.7037,1954.8033],[37.9208,-2.7042,1930.0907],[37.9244,-2.7087,2029.095],[37.9301,-2.7218,1888.0023],[37.9291,-2.738,1817.2739],[37.9261,-2.7407,1836.5635],[37.9263,-2.7496,1846.6117],[37.9298,-2.7629,1588.869],[37.9372,-2.7705,1496.3254],[37.9744,-2.7874,1692.6051],[38.1001,-2.7207,835.3469],[38.1013,-2.7183,833.2986],[38.1153,-2.7126,808.6906],[38.1183,-2.7047,801.611],[38.1224,-2.7045,793.6829],[38.1287,-2.6981,785.5686],[38.1533,-2.6982,761.1472],[38.1577,-2.6936,749.2619],[38.1573,-2.6881,747.7833],[38.1613,-2.6792,744.239],[38.1625,-2.693,764.1577],[38.1669,-2.6931,756.7743],[38.1847,-2.7028,746.063],[38.2497,-2.7497,683.3294],[38.2505,-2.752,680.5889],[38.2579,-2.7576,675.8115],[38.2791,-2.7824,660.3914],[38.302,-2.8159,632.2194],[38.3187,-2.8327,620.458],[38.3385,-2.8653,603.2452],[38.3619,-2.898,584.9203],[38.3929,-2.926,599.5453],[38.3982,-2.9271,591.1759],[38.4053,-2.9256,577.1709],[38.4087,-2.927,581.8837],[38.4301,-2.9556,541.0044],[38.4475,-2.971,511.3014],[38.4582,-2.9912,465.7042],[38.4599,-2.9922,462.2684],[38.4633,-2.9878,458.3545],[38.4675,-2.9878,455.2114],[38.4683,-2.9849,458.3693],[38.4774,-2.9853,460.3888],[38.4887,-2.9776,436.3184],[38.4928,-2.984,421.9268],[38.5063,-2.9825,426.8551],[38.514,-2.9834,408.7234],[38.5143,-2.9789,417.4218],[38.5194,-2.9747,410.0339],[38.5155,-2.973,401.8391],[38.5098,-2.9651,422.7371],[38.5048,-2.9657,420.0454],[38.4981,-2.9558,437.0815],[38.4923,-2.9557,435.9021],[38.4917,-2.9536,439.7167],[38.4934,-2.9502,438.4915],[38.4882,-2.9434,439.6953],[38.4874,-2.9364,445.8408],[38.476,-2.9365,441.5795],[38.4743,-2.9262,442.6891],[38.4666,-2.9092,451.8966],[38.4609,-2.9028,447.3011],[38.4613,-2.8968,458.9307],[38.4507,-2.8934,454.3335],[38.4512,-2.8887,460.1903],[38.455,-2.8842,450.0188],[38.4544,-2.8813,456.2151],[38.4512,-2.8789,459.109],[38.4437,-2.8793,460.1986],[38.443,-2.8769,457.6103],[38.4457,-2.8688,457.2961],[38.4381,-2.8637,454.9376],[38.4396,-2.858,456.1055],[38.4385,-2.856,461.3141],[38.4318,-2.8549,461.2721],[38.428,-2.8499,460.4189],[38.431399999999996,-2.8416,466.5102],[38.4267,-2.8276,465.6391],[38.4267,-2.8195,466.595],[38.4252,-2.8168,471.327],[38.4194,-2.8144,468.5635],[38.4181,-2.8118,469.1368],[38.422,-2.8049,468.4246],[38.4232,-2.7958,474.2898],[38.431399999999996,-2.7914,472.3572],[38.4321,-2.7877,470.3795],[38.4267,-2.7778,470.071],[38.4257,-2.7719,477.6382],[38.4196,-2.758,478.7851],[38.4136,-2.75,471.5969],[38.4096,-2.7349,481.534],[38.4045,-2.7275,479.2477],[38.3965,-2.7058,489.3545],[38.392,-2.6981,482.5325],[38.3859,-2.6773,488.7007],[38.3815,-2.6696,500.0322],[38.3823,-2.6634,505.0927],[38.3669,-2.6499,507.8328],[38.3678,-2.6423,524.7609],[38.362,-2.6368,514.7556],[38.3622,-2.6309,513.5896],[38.353,-2.6054,518.4303],[38.3493,-2.5995,528.502],[38.3474,-2.5892,538.712],[38.3388,-2.5852,541.5972],[38.3349,-2.5689,539.9546],[38.3315,-2.5629,539.8386],[38.3319,-2.5613,539.8386],[38.3373,-2.5583,548.7038],[38.3383,-2.5555,543.3188],[38.3322,-2.5506,547.1251],[38.3226,-2.5479,548.0362],[38.3231,-2.5411,549.1135],[38.3194,-2.5358,549.9163],[38.3215,-2.5294,548.9695],[38.3172,-2.5231,549.0533]]]]}
,"properties": {"GID_1": "KEN.23_1","GID_0": "KEN","country": "Kenya","province": "Makueni","VARNAME_1": "NA","NL_NAME_1": "NA","TYPE_1": "County","ENGTYPE_1": "County","CC_1": "17","HASC_1": "KE.MK","ISO_1": "KE-23","name": "Makueni.province","area_km2": 8213.08,"hist_schema_id": "Elevation0-9000","hist_area_km2": {"400": 0.466,"425": 2.16,"450": 17.194,"475": 40.297,"500": 49.51,"525": 56.373,"550": 81.832,"575": 119.532,"600": 132.75,"625": 146.059,"650": 136.044,"675": 135.983,"700": 133.468,"725": 140.972,"750": 141.928,"775": 150.871,"800": 170.745,"825": 213.353,"850": 251.703,"875": 279.439,"900": 306.647,"925": 302.709,"950": 293.051,"975": 313.371,"1000": 335.873,"1025": 349.546,"1050": 367.758,"1075": 338.236,"1100": 278.549,"1125": 210.934,"1150": 200.574,"1175": 173.094,"1200": 170.828,"1225": 171.869,"1250": 157.186,"1275": 142.588,"1300": 126.124,"1325": 105.251,"1350": 97.92,"1375": 94.256,"1400": 90.76,"1425": 82.346,"1450": 70.965,"1475": 69.586,"1500": 66.981,"1525": 70.648,"1550": 73.404,"1575": 82.984,"1600": 85.718,"1625": 99.898,"1650": 107.739,"1675": 88.751,"1700": 57.768,"1725": 42.233,"1750": 32.103,"1775": 26.297,"1800": 26.169,"1825": 23.88,"1850": 20.363,"1875": 16.782,"1900": 15.806,"1925": 10.213,"1950": 6.844,"1975": 4.174,"2000": 1.907,"2025": 0.678,"2050": 0.551,"2075": 0.212,"2100": 0.191}}}