{"type": "Feature","bbox": [34.4834,-0.8652,34.5865,-0.7238],"geometry": {"type": "MultiPolygon","coordinates": [[[[34.4834,-0.7925,1300.2605],[34.4888,-0.7946,1292.0222],[34.4903,-0.7939,1294.6101],[34.4903,-0.7959,1298.0051],[34.4989,-0.8003,1303.6971],[34.5056,-0.7964,1328.4965],[34.5163,-0.7965,1351.196],[34.5175,-0.7877,1339.5569],[34.5158,-0.7844,1321.8054],[34.5191,-0.7838,1314.8655],[34.5229,-0.7782,1296.8511],[34.5254,-0.779,1302.0945],[34.5271,-0.7769,1319.4681],[34.5277,-0.779,1307.0135],[34.5261,-0.7795,1307.0135],[34.5275,-0.7816,1307.0557],[34.5313,-0.7818,1322.3462],[34.5373,-0.7792,1361.4683],[34.5398,-0.7805,1345.8362],[34.5389,-0.7832,1324.5482],[34.5422,-0.7831,1319.0273],[34.5418,-0.7861,1309.547],[34.5444,-0.7856,1320.6284],[34.5443,-0.789,1317.3212],[34.5526,-0.7922,1368.897],[34.5521,-0.8025,1333.5115],[34.5568,-0.8049,1343.9084],[34.5567,-0.8105,1382.5261],[34.554,-0.8114,1372.9475],[34.5565,-0.8204,1428.8225],[34.5555,-0.8244,1469.6783],[34.5585,-0.8308,1476.1467],[34.5581,-0.836,1503.5261],[34.5605,-0.8396,1539.5669],[34.5588,-0.8419,1560.0852],[34.5603,-0.8495,1556.4211],[34.5628,-0.8525,1538.3835],[34.5614,-0.858,1568.4038],[34.5652,-0.8616,1511.5081],[34.569,-0.8588,1495.7004],[34.5685,-0.8602,1502.0405],[34.5698,-0.8621,1506.3684],[34.571,-0.8615,1506.3684],[34.5717,-0.8647,1493.8033],[34.5745,-0.8652,1484.4563],[34.5738,-0.8597,1489.4736],[34.5755,-0.8568,1476.5142],[34.5724,-0.8551,1463.7445],[34.571,-0.852,1464.1509],[34.5732,-0.8501,1437.3718],[34.5722,-0.8413,1457.387],[34.5743,-0.8384,1468.114],[34.5799,-0.8366,1428.6445],[34.5805,-0.8338,1454.2935],[34.5865,-0.8293,1402.9492],[34.5854,-0.826,1371.9657],[34.581,-0.8238,1369.9019],[34.5828,-0.8206,1371.0348],[34.5793,-0.8218,1357.1467],[34.5766,-0.8196,1368.361],[34.5765,-0.8162,1382.4899],[34.5724,-0.8091,1339.2749],[34.5706,-0.8085,1347.0126],[34.5709,-0.8023,1378.1982],[34.5655,-0.7994,1347.6918],[34.5654,-0.7967,1364.0044],[34.5625,-0.7945,1390.9313],[34.5676,-0.7929,1429.7372],[34.5676,-0.7869,1421.8033],[34.5744,-0.7788,1408.9208],[34.5714,-0.7691,1390.1864],[34.5697,-0.7678,1411.3749],[34.5709,-0.7622,1428.6246],[34.5696,-0.7591,1421.006],[34.5703,-0.7509,1401.3009],[34.5628,-0.75,1418.29],[34.5576,-0.7523,1410.173],[34.5508,-0.7467,1370.2847],[34.5474,-0.7476,1391.7023],[34.5453,-0.743,1385.406],[34.5409,-0.7389,1351.6731],[34.5402,-0.731,1332.1293],[34.5357,-0.7238,1325.6575],[34.5322,-0.7364,1374.178],[34.5261,-0.7408,1348.7546],[34.5184,-0.752,1323.7319],[34.4859,-0.7816,1302.0933],[34.4834,-0.7925,1300.2605]]]]}
,"properties": {"GID_3": "KEN.27.1.2_1","GID_0": "KEN","country": "Kenya","GID_1": "KEN.27_1","province": "Migori","NL_NAME_1": "NA","GID_2": "KEN.27.1_1","county": "Awendo","NL_NAME_2": "NA","city": "NorthSakwa","VARNAME_3": "NA","NL_NAME_3": "NA","TYPE_3": "Ward","ENGTYPE_3": "Ward","CC_3": "1265","HASC_3": "NA","name": "North_Sakwa.city","area_km2": 54.39975,"hist_schema_id": "Elevation0-9000","hist_area_km2": {"1275": 0.0212,"1300": 6.99609,"1325": 11.42694,"1350": 9.51891,"1375": 9.60372,"1400": 7.35649,"1425": 3.60403,"1450": 1.8868,"1475": 2.01399,"1500": 0.99639,"1525": 0.53,"1550": 0.2544,"1575": 0.0636,"1600": 0.1272}}}