{"type":"Feature","properties":{"GID_3":"KEN.22.6.2_1","GID_0":"KEN","country":"Kenya","GID_1":"KEN.22_1","province":"Machakos","NL_NAME_1":"NA","GID_2":"KEN.22.6_1","county":"Mavoko","NL_NAME_2":"NA","city":"Kinanie","VARNAME_3":"NA","NL_NAME_3":"NA","TYPE_3":"Ward","ENGTYPE_3":"Ward","CC_3":"395","HASC_3":"NA","name":"Kinanie.city"},
"geometry":{"type": "MultiPolygon","coordinates": [[[[37.0289,-1.6228,1621.2793],[37.1397,-1.5616,1653.2661],[37.1657,-1.5748,1678.6957],[37.1767,-1.553,1628.6121],[37.171,-1.5314,1703.6613],[37.1435,-1.5313,1732.5173],[37.1414,-1.5081,1768.2075],[37.1479,-1.5034,1800.7839],[37.1592,-1.5043,1924.5953],[37.1629,-1.4999,1986.1764],[37.1602,-1.497,1994.7295],[37.1677,-1.4889,2011.967],[37.1694,-1.483,2023.2938],[37.1762,-1.4834,2050.8474],[37.1789,-1.4807,1994.7479],[37.1826,-1.4808,2011.153],[37.1875,-1.4785,2000.0822],[37.1894,-1.4748,2076.3579],[37.1865,-1.4744,1954.626],[37.1867,-1.4723,2018.1954],[37.1843,-1.4696,1927.755],[37.1848,-1.4639,2021.8295],[37.1794,-1.4652,1988.1184],[37.1796,-1.4591,1986.5536],[37.1844,-1.4567,1884.6117],[37.1871,-1.4582,1937.2888],[37.1872,-1.457,1905.0132],[37.1865,-1.4558,1872.3188],[37.1808,-1.4534,1842.0652],[37.1765,-1.4468,1824.649],[37.1706,-1.4431,1773.9944],[37.1668,-1.4367,1697.0669],[37.1581,-1.4284,1632.0291],[37.1437,-1.4309,1604.6833],[37.1358,-1.4477,1640.3274],[37.1252,-1.4511,1637.1643],[37.1143,-1.4592,1645.5048],[37.0428,-1.356,1476.0535],[37.0419,-1.3657,1479.4833],[37.0388,-1.366,1506.7],[37.0366,-1.3684,1487.1561],[37.0419,-1.3784,1477.7991],[37.029,-1.3863,1482.6901],[37.024,-1.3841,1485.7935],[37.0189,-1.3854,1488.1011],[37.0205,-1.3932,1486.6782],[37.0238,-1.3959,1487.5608],[37.0258,-1.4009,1486.1025],[37.0203,-1.4043,1498.3373],[37.015,-1.4035,1496.3823],[37.0093,-1.4082,1501.7587],[37.0127,-1.4109,1490.5452],[37.0116,-1.4116,1487.9297],[37.0133,-1.4162,1488.2487],[37.0093,-1.4204,1490.5708],[37.0057,-1.4209,1493.5758],[37.005,-1.429,1496.6801],[37.01,-1.4383,1502.4387],[37.009,-1.4431,1509.8979],[37.0145,-1.4439,1513.4995],[37.0158,-1.4468,1515.6046],[37.0148,-1.4483,1508.5972],[37.0096,-1.4487,1513.6857],[37.0092,-1.4533,1511.8474],[37.0063,-1.4576,1516.7312],[37.0074,-1.463,1514.3884],[37.0037,-1.4743,1522.3973],[36.9991,-1.4752,1532.7218],[36.9945,-1.4851,1534.1907],[36.9943,-1.49,1538.0944],[36.9869,-1.4899,1545.5474],[36.9884,-1.4977,1541.7809],[36.9845,-1.5016,1550.5148],[36.9859,-1.5092,1546.8591],[36.9824,-1.5133,1561.135],[36.9764,-1.5154,1571.5614],[36.9683,-1.5111,1591.53],[36.9628,-1.5123,1594.4489],[36.9629,-1.5266,1598.3259],[36.9613,-1.53,1595.3458],[36.9589,-1.5296,1597.2117],[36.9563,-1.5386,1583.5133],[36.9572,-1.5423,1583.8087],[36.9644,-1.5522,1579.9625],[36.9735,-1.5549,1573.356],[36.9752,-1.552,1572.7148],[36.9776,-1.5531,1576.4788],[36.996,-1.581,1605.6179],[36.9908,-1.5849,1606.3315],[37.0004,-1.5973,1610.0049],[37.0065,-1.5927,1610.0514],[37.0289,-1.6228,1621.2793]]]]}}