{"type":"Feature","properties":{"GID_3":"KEN.24.6.3_1","GID_0":"KEN","country":"Kenya","GID_1":"KEN.24_1","province":"Mandera","NL_NAME_1":"NA","GID_2":"KEN.24.6_1","county":"ManderaWest","NL_NAME_2":"NA","city":"Lagsure","VARNAME_3":"NA","NL_NAME_3":"NA","TYPE_3":"Ward","ENGTYPE_3":"Ward","CC_3":"193","HASC_3":"NA","name":"Lagsure.city"},
"geometry":{"type": "MultiPolygon","coordinates": [[[[40.2781,3.7717,775.1302],[40.2773,3.7691,775.8757],[40.2733,3.7657,771.5469],[40.2577,3.7583,759.5797],[40.2569,3.7529,777.1857],[40.2417,3.7261,742.1738],[40.2339,3.7353,740.0901],[40.2331,3.7387,743.7421],[40.2357,3.7461,755.8987],[40.2451,3.7554,765.8996],[40.2436,3.7618,750.7718],[40.2379,3.7693,747.9045],[40.2287,3.7595,738.6187],[40.2279,3.7508,737.071],[40.2211,3.7367,723.7061],[40.2007,3.7249,708.0696],[40.1913,3.7133,698.8009],[40.1866,3.7198,701.3657],[40.1806,3.7241,701.8624],[40.1647,3.7289,694.4717],[40.1399,3.7489,694.8271],[40.1353,3.7509,695.1052],[40.1289,3.7516,694.9061],[40.1198,3.7502,695.5237],[40.1069,3.7419,678.9698],[40.1019,3.7471,685.682],[40.0981,3.7567,689.4743],[40.0997,3.7693,686.842],[40.0404,3.7219,698.553],[40.1094,3.6648,670.8915],[40.1287,3.6517,655.8485],[40.1291,3.6466,656.9819],[40.1259,3.6416,655.0164],[40.1276,3.637,652.6082],[40.1266,3.626,653.011],[40.1345,3.6238,648.6895],[40.1318,3.6173,646.0076],[40.1365,3.6133,648.0564],[40.145,3.6133,642.9863],[40.1464,3.6103,641.3766],[40.1505,3.6092,640.3289],[40.1509,3.6063,639.2589],[40.1583,3.6052,636.4878],[40.1598,3.6015,635.8539],[40.1656,3.5986,633.8574],[40.1651,3.5953,632.5219],[40.1668,3.5934,632.7134],[40.1658,3.5888,632.0678],[40.1636,3.5858,631.2224],[40.159,3.5841,631.726],[40.1602,3.5804,628.4741],[40.157,3.5771,635.0125],[40.169,3.5698,626.4791],[40.17,3.5652,622.8516],[40.1671,3.5609,624.5247],[40.1729,3.5523,619.4113],[40.1721,3.5492,619.4413],[40.1742,3.5476,618.1728],[40.1781,3.536,618.8237],[40.189,3.5314,613.0542],[40.1918,3.5284,610.5601],[40.1936,3.5189,607.8999],[40.204,3.5107,604.4961],[40.211,3.5084,602.3964],[40.219,3.4912,597.1125],[40.2183,3.4857,595.7833],[40.2202,3.484,594.8926],[40.2244,3.4721,593.2785],[40.2277,3.466,594.424],[40.2321,3.4629,590.2061],[40.236,3.4567,588.7224],[40.2351,3.4449,587.6743],[40.2375,3.4389,590.7805],[40.2414,3.4377,587.3447],[40.2458,3.4395,584.5598],[40.2567,3.436,587.6398],[40.2622,3.4371,595.7692],[40.2693,3.4433,597.1209],[40.2766,3.4453,597.5578],[40.2903,3.4541,594.3066],[40.2981,3.4565,592.5428],[40.3037,3.4553,592.4319],[40.3102,3.4497,589.0967],[40.3321,3.4468,589.8679],[40.3304,3.4529,592.8409],[40.3296,3.4755,602.7122],[40.3308,3.504,619.7831],[40.3238,3.5308,641.471],[40.3164,3.5534,676.9835],[40.2975,3.5907,677.4791],[40.2908,3.6116,682.1991],[40.2874,3.616,682.1628],[40.2911,3.6192,685.5296],[40.2921,3.6247,691.0972],[40.2917,3.6417,710.4202],[40.2898,3.6519,712.6305],[40.2931,3.6571,723.1508],[40.2935,3.6642,730.6126],[40.2987,3.679,732.7132],[40.2989,3.6881,735.4498],[40.3069,3.7038,774.2595],[40.3051,3.7227,780.1448],[40.3061,3.7254,786.2897],[40.3033,3.7265,789.1501],[40.3021,3.7293,806.6397],[40.2939,3.7623,807.5819],[40.2781,3.7717,775.1302]]]]}}