{"type":"Feature","properties":{"GID_3":"KEN.24.2.4_1","GID_0":"KEN","country":"Kenya","GID_1":"KEN.24_1","province":"Mandera","NL_NAME_1":"NA","GID_2":"KEN.24.2_1","county":"Lafey","NL_NAME_2":"NA","city":"Waranqara","VARNAME_3":"NA","NL_NAME_3":"NA","TYPE_3":"Ward","ENGTYPE_3":"Ward","CC_3":"219","HASC_3":"NA","name":"Waranqara.city"},
"geometry":{"type": "MultiPolygon","coordinates": [[[[41.0491,3.1656,505.8165],[41.0673,3.1857,508.948],[41.0903,3.1981,490.2033],[41.1013,3.2101,495.2598],[41.1047,3.2329,503.6326],[41.0985,3.2493,525.7774],[41.0985,3.2551,519.3115],[41.0995,3.2607,517.3242],[41.1067,3.2693,507.1439],[41.1075,3.2727,510.7468],[41.1051,3.2921,518.3084],[41.1029,3.2961,517.2411],[41.0905,3.3071,532.5807],[41.0833,3.3181,534.0397],[41.0805,3.3257,530.6781],[41.0787,3.3387,519.0794],[41.1015,3.3467,510.2218],[41.1049,3.3453,508.4794],[41.1119,3.3345,503.2954],[41.123,3.3305,496.1987],[41.1181,3.3395,501.6459],[41.1053,3.3539,515.0181],[41.1053,3.3587,517.2253],[41.1101,3.3717,533.8082],[41.1115,3.3816,549.1529],[41.1107,3.3976,574.3874],[41.1043,3.409,612.1416],[41.0845,3.4203,605.3474],[41.083,3.424,611.6793],[41.0849,3.4331,643.5933],[41.0915,3.4401,665.4829],[41.0933,3.4463,692.3843],[41.1009,3.4559,773.7646],[41.1021,3.4601,739.025],[41.0945,3.4877,644.7301],[41.0771,3.5239,759.0344],[41.0769,3.5291,675.8336],[41.0795,3.5332,682.1556],[41.0804,3.5381,648.1503],[41.095,3.5449,702.0276],[41.1061,3.5461,622.8209],[41.1172,3.5557,604.6688],[41.1289,3.5584,589.2186],[41.1355,3.5661,576.7903],[41.1401,3.5681,575.936],[41.1425,3.5775,564.1899],[41.1447,3.5787,566.1094],[41.1529,3.5732,673.702],[41.1727,3.5526,530.7281],[41.1917,3.5452,510.9972],[41.2207,3.5468,483.1304],[41.2336,3.5555,471.9324],[41.2385,3.5607,469.8863],[41.242,3.5607,467.949],[41.2465,3.5574,465.9191],[41.26,3.5607,458.5854],[41.2695,3.5578,454.4438],[41.2745,3.5586,453.388],[41.2675,3.5657,457.3102],[41.2595,3.5841,465.3605],[41.2535,3.5915,467.1325],[41.2527,3.5975,471.3883],[41.2541,3.6055,478.9498],[41.2561,3.6113,485.7187],[41.3073,3.6939,618.528],[41.2935,3.6943,560.1354],[41.2823,3.6971,471.8785],[41.2711,3.7049,494.6512],[41.2653,3.7129,453.1938],[41.2545,3.7195,471.6735],[41.2343,3.7247,445.6815],[41.2205,3.7317,466.7932],[41.2131,3.7375,469.7196],[41.1861,3.7769,405.2915],[41.1853,3.7867,392.2108],[41.1867,3.7897,390.3591],[41.1619,3.7649,422.2535],[41.1487,3.7551,422.2135],[41.1449,3.7441,426.3061],[41.1299,3.7307,433.7495],[41.1201,3.7161,440.3265],[41.1183,3.7193,440.648],[41.1157,3.7353,438.3383],[41.0813,3.7321,466.0263],[41.0557,3.7203,500.2287],[41.0417,3.7079,503.284],[40.9887,3.6399,531.5712],[40.9987,3.6063,556.1541],[40.9933,3.6013,567.0688],[40.9897,3.5911,567.4177],[40.9965,3.5777,581.8251],[40.9959,3.5641,593.4797],[40.9891,3.5531,609.5785],[40.9849,3.5345,623.2601],[40.9759,3.5275,624.9946],[40.9707,3.5195,625.9464],[40.9541,3.4735,607.3729],[40.9577,3.4519,594.7936],[40.9651,3.4429,591.1786],[40.9667,3.4319,589.2581],[40.9507,3.4171,624.6701],[40.9429,3.4127,637.8242],[40.9379,3.4077,649.6635],[40.9271,3.4033,648.9816],[40.9141,3.3923,638.6288],[40.9107,3.3835,636.2822],[40.9099,3.3739,638.4156],[40.9073,3.3713,628.8104],[40.9067,3.3657,613.6548],[40.8921,3.3303,573.1336],[40.9113,3.3327,592.3239],[40.9305,3.3321,605.676],[40.9427,3.3289,614.4121],[40.9435,3.3157,633.6433],[40.9403,3.3061,646.0483],[40.9423,3.3003,673.948],[40.9521,3.2893,725.8055],[40.9547,3.2805,703.0693],[40.9537,3.2759,678.6534],[40.9667,3.2657,660.2695],[40.9779,3.2521,617.6495],[40.9835,3.2485,600.1068],[40.9867,3.2443,596.4905],[40.9883,3.2299,585.702],[40.9867,3.2253,596.8846],[40.9807,3.2185,585.2158],[40.9755,3.2155,570.2522],[40.9651,3.2137,555.9454],[40.9611,3.2091,550.3226],[40.9509,3.2057,538.1312],[40.9423,3.1999,561.5062],[40.9383,3.1947,542.3123],[40.9367,3.1869,520.8642],[40.9217,3.1715,498.0909],[40.9213,3.1569,483.1501],[40.9277,3.1403,467.7159],[40.9281,3.1333,462.0025],[40.9323,3.1295,460.494],[40.9348,3.1297,460.4648],[40.9323,3.1334,462.214],[40.9516,3.1354,470.6745],[41.0069,3.1471,486.6711],[41.0345,3.1599,493.666],[41.0483,3.1688,509.4754],[41.0491,3.1656,505.8165]]]]}}