{"type": "Feature","bbox": [35.8138,2.0543,36.2202,2.8329],"geometry": {"type": "MultiPolygon","coordinates": [[[[35.8612,2.714,524.589],[35.8574,2.6854,537.3762],[35.8461,2.6594,548.9223],[35.8406,2.6404,554.7935],[35.8382,2.637,557.9036],[35.8324,2.6334,562.2051],[35.8278,2.622,565.502],[35.8299,2.6075,565.662],[35.8271,2.5984,569.5431],[35.8318,2.5908,571.9923],[35.8296,2.5768,578.6913],[35.8363,2.5691,578.7605],[35.8376,2.5544,584.6052],[35.8352,2.5509,586.15],[35.834,2.5434,588.4022],[35.8353,2.5275,592.5054],[35.8318,2.5149,598.32],[35.8329,2.5074,599.5756],[35.8269,2.4998,602.809],[35.8304,2.493,605.1896],[35.8282,2.4852,608.5406],[35.8276,2.4712,612.9906],[35.8315,2.4532,618.4645],[35.8301,2.4437,622.6747],[35.8343,2.4218,629.1019],[35.8398,2.4065,637.3954],[35.8377,2.3996,642.2617],[35.8321,2.3915,645.2595],[35.8286,2.3785,649.6855],[35.8247,2.3393,632.0643],[35.8203,2.3329,631.4168],[35.8191,2.3283,628.5593],[35.8223,2.3146,632.0243],[35.8147,2.2998,636.5801],[35.8138,2.2904,641.7176],[35.8164,2.2783,646.796],[35.8149,2.2631,653.6392],[35.8163,2.2568,656.4108],[35.8226,2.2448,661.8452],[35.8216,2.2374,664.0489],[35.8185,2.2305,667.2536],[35.8205,2.2234,672.8529],[35.8191,2.2122,675.6641],[35.8226,2.2101,686.5385],[35.9681,2.1945,621.0634],[35.9726,2.1896,619.4191],[35.9814,2.1676,630.8503],[35.9796,2.1479,653.7418],[35.9926,2.1226,648.4252],[35.9937,2.1154,653.9648],[35.9883,2.0949,636.5667],[35.9892,2.0851,627.0073],[35.991,2.0814,639.6524],[36.0039,2.071,648.158],[36.0081,2.0615,620.1254],[36.0138,2.0603,606.9357],[36.0237,2.0647,601.0085],[36.0309,2.0701,601.5232],[36.0432,2.0623,598.3287],[36.0482,2.0612,590.9849],[36.0532,2.0554,585.9285],[36.0561,2.0543,585.2911],[36.067,2.056,577.8171],[36.0818,2.0632,567.6384],[36.0946,2.0622,563.502],[36.1097,2.1236,550.4795],[36.116,2.1794,532.317],[36.1236,2.2131,521.3589],[36.1252,2.234,526.0041],[36.1239,2.249,525.6956],[36.1194,2.2562,527.6953],[36.1094,2.2653,532.798],[36.0939,2.2845,549.7959],[36.0913,2.2861,548.075],[36.0823,2.2861,566.1096],[36.0763,2.2901,570.9333],[36.0754,2.2933,562.5081],[36.0758,2.3053,560.2791],[36.0828,2.3529,574.261],[36.0866,2.4066,535.5238],[36.0978,2.4424,520.7547],[36.0967,2.4471,523.6447],[36.0912,2.4567,519.5312],[36.0915,2.4624,517.8879],[36.0953,2.4664,514.489],[36.1086,2.4695,512.3413],[36.118,2.4745,510.3233],[36.1282,2.4773,505.2675],[36.1358,2.4823,501.0703],[36.1423,2.4902,499.3304],[36.1531,2.4949,495.4126],[36.1567,2.5,494.2076],[36.166,2.5053,488.8798],[36.1821,2.5075,482.909],[36.2202,2.5331,469.4991],[36.2048,2.5378,472.9543],[36.1952,2.5364,477.9932],[36.189,2.5381,487.805],[36.1753,2.5367,489.3112],[36.1646,2.5323,491.0923],[36.158,2.5324,498.3753],[36.1451,2.5415,496.0174],[36.1091,2.5601,506.8241],[36.1001,2.5669,509.8129],[36.0859,2.5744,513.2844],[36.0791,2.5736,523.8257],[36.0723,2.5696,531.611],[36.0671,2.5693,534.3544],[36.0597,2.5742,554.6339],[36.059,2.5797,555.2168],[36.0672,2.5998,518.9205],[36.0708,2.618,501.869],[36.0713,2.647,490.6374],[36.0692,2.6654,481.0109],[36.0657,2.6696,487.3288],[36.0544,2.6769,494.0744],[36.0516,2.6815,501.7146],[36.058,2.698,486.4784],[36.0576,2.7104,488.0138],[36.0453,2.7255,500.8386],[36.028,2.7369,495.8188],[36.023,2.7426,501.9279],[36.0218,2.7512,508.0479],[36.0237,2.7717,486.4078],[36.0208,2.7801,479.0641],[35.9965,2.8077,468.8742],[35.9677,2.8318,466.7852],[35.9626,2.8329,467.3259],[35.9586,2.8312,469.3901],[35.9558,2.8254,474.0415],[35.9564,2.8194,475.7662],[35.9512,2.8058,490.2392],[35.949,2.8034,495.3811],[35.9488,2.7992,496.2543],[35.923,2.7626,542.5791],[35.9076,2.744,549.5294],[35.8931,2.7311,534.6824],[35.8711,2.7154,529.3005],[35.8645,2.7126,526.3098],[35.8612,2.714,524.589]]]]}
,"properties": {"GID_3": "KEN.43.5.1_1","GID_0": "KEN","country": "Kenya","GID_1": "KEN.43_1","province": "Turkana","NL_NAME_1": "NA","GID_2": "KEN.43.5_1","county": "TurkanaSouth","NL_NAME_2": "NA","city": "Kalapata","VARNAME_3": "NA","NL_NAME_3": "NA","TYPE_3": "Ward","ENGTYPE_3": "Ward","CC_3": "636","HASC_3": "NA","name": "Kalapata.city","area_km2": 2031.276,"hist_schema_id": "Elevation0-9000","hist_area_km2": {"475": 27.13,"500": 86.118,"525": 134.672,"550": 238.705,"575": 344.464,"600": 375.482,"625": 323.624,"650": 195.819,"675": 104.835,"700": 61.133,"725": 39.463,"750": 26.457,"775": 19.319,"800": 15.146,"825": 13.79,"850": 10.591,"875": 5.444,"900": 4.024,"925": 2.33,"950": 1.525,"975": 0.593,"1000": 0.36,"1025": 0.191,"1050": 0.064}}}