{"type": "Feature","bbox": [34.2936,0.4514,34.4085,0.5443],"geometry": {"type": "MultiPolygon","coordinates": [[[[34.3873,0.5443,1235.1803],[34.3707,0.5318,1240.3308],[34.3717,0.5211,1221.4973],[34.3692,0.5166,1225.8779],[34.3629,0.5147,1241.766],[34.3574,0.5084,1229.4987],[34.3527,0.5079,1239.6283],[34.3467,0.4956,1224.5267],[34.3311,0.4961,1220.6458],[34.3289,0.4984,1210.0056],[34.3209,0.5,1219.2168],[34.3074,0.49,1211.7939],[34.3047,0.4892,1211.293],[34.3045,0.4911,1212.855],[34.3018,0.4901,1208.2689],[34.2965,0.4917,1194.6663],[34.2936,0.4675,1240.7628],[34.3006,0.4547,1242.0714],[34.3075,0.4514,1221.2781],[34.3108,0.4523,1212.5493],[34.3154,0.4612,1214.4341],[34.3218,0.466,1224.8406],[34.3289,0.4636,1202.5884],[34.3317,0.4607,1214.6475],[34.3366,0.4608,1220.8778],[34.3375,0.4591,1219.2461],[34.342,0.4592,1225.3171],[34.3434,0.4577,1222.0228],[34.353,0.4581,1224.9463],[34.3584,0.4619,1230.1478],[34.3659,0.4617,1224.0348],[34.367,0.4635,1230.7266],[34.3705,0.4627,1230.1558],[34.3766,0.4649,1231.6055],[34.3822,0.4628,1235.735],[34.3868,0.4664,1242.939],[34.3896,0.4656,1238.4647],[34.3911,0.4724,1250.1804],[34.3887,0.4756,1259.3462],[34.3859,0.4892,1253.1514],[34.3859,0.4989,1227.4417],[34.3896,0.5034,1247.6338],[34.4042,0.505,1252.5212],[34.4085,0.51,1257.0851],[34.4067,0.5161,1263.522],[34.401,0.5215,1257.119],[34.3912,0.5421,1241.2404],[34.3873,0.5443,1235.1803]]]]}
,"properties": {"GID_3": "KEN.4.5.2_1","GID_0": "KEN","country": "Kenya","GID_1": "KEN.4_1","province": "Busia","NL_NAME_1": "NA","GID_2": "KEN.4.5_1","county": "Nambale","NL_NAME_2": "NA","city": "BukhayoEast","VARNAME_3": "NA","NL_NAME_3": "NA","TYPE_3": "Ward","ENGTYPE_3": "Ward","CC_3": "1135","HASC_3": "NA","name": "Bukhayo_East.city","area_km2": 59.00358,"hist_schema_id": "Elevation0-9000","hist_area_km2": {"1200": 7.80213,"1225": 30.10604,"1250": 19.78092,"1275": 1.31449}}}