{"type":"Feature","properties":{"GID_3":"KEN.22.5.5_1","GID_0":"KEN","country":"Kenya","GID_1":"KEN.22_1","province":"Machakos","NL_NAME_1":"NA","GID_2":"KEN.22.5_1","county":"Matungulu","NL_NAME_2":"NA","city":"Tala","VARNAME_3":"NA","NL_NAME_3":"NA","TYPE_3":"Ward","ENGTYPE_3":"Ward","CC_3":"385","HASC_3":"NA","name":"Tala.city"},
"geometry":{"type": "MultiPolygon","coordinates": [[[[37.3271,-1.2819,1526.0165],[37.3282,-1.276,1535.0537],[37.3315,-1.2782,1534.1156],[37.3345,-1.2743,1545.3184],[37.3372,-1.275,1554.3827],[37.3367,-1.2714,1554.3142],[37.3451,-1.2733,1551.6271],[37.3473,-1.2695,1551.2794],[37.3498,-1.2685,1556.4514],[37.3484,-1.2645,1549.0027],[37.3424,-1.2579,1527.875],[37.3401,-1.2491,1523.4589],[37.3339,-1.2464,1482.8],[37.3254,-1.2357,1458.0171],[37.3249,-1.2291,1460.9941],[37.3203,-1.2227,1438.4067],[37.3218,-1.2149,1418.2294],[37.3205,-1.2096,1447.0618],[37.3146,-1.2199,1466.3079],[37.3076,-1.2231,1448.6473],[37.308,-1.2362,1485.2675],[37.3012,-1.2426,1503.5837],[37.2997,-1.2508,1510.0432],[37.2858,-1.2595,1511.0566],[37.2856,-1.2687,1513.9495],[37.2892,-1.27,1515.8158],[37.2871,-1.2722,1515.0947],[37.2879,-1.2751999999999999,1516.2225],[37.2908,-1.2774,1512.7539],[37.2911,-1.2852,1506.613],[37.2966,-1.2907,1486.1562],[37.2954,-1.2937,1481.4709],[37.2932,-1.293,1492.6967],[37.2942,-1.2947,1476.573],[37.2921,-1.2953,1488.3723],[37.2933,-1.2957,1488.3723],[37.2913,-1.2987,1494.6998],[37.2923,-1.2998,1472.9916],[37.29,-1.3004,1485.3812],[37.2898,-1.3032,1467.1223],[37.287,-1.3048,1465.9553],[37.2825,-1.3135,1482.056],[37.2749,-1.3159,1456.595],[37.27,-1.3212,1463.8165],[37.2714,-1.3223,1469.5503],[37.2704,-1.3242,1446.4264],[37.2745,-1.3259,1446.7522],[37.2728,-1.3264,1445.8916],[37.2727,-1.3304,1447.015],[37.2793,-1.3252,1462.9143],[37.286,-1.3253,1482.8914],[37.2956,-1.3112,1495.6083],[37.3034,-1.3064,1499.9989],[37.3084,-1.3055,1509.8628],[37.3173,-1.3067,1529.989],[37.3263,-1.3025,1557.3873],[37.323,-1.2998,1548.3044],[37.3263,-1.2932,1539.7837],[37.3251,-1.2912,1538.9832],[37.3267,-1.2882,1527.4666],[37.3248,-1.2821,1518.1338],[37.3271,-1.2819,1526.0165]]]]}}