{"type":"Feature","properties":{"GID_3":"KEN.20.2.4_1","GID_0":"KEN","country":"Kenya","GID_1":"KEN.20_1","province":"Laikipia","NL_NAME_1":"NA","GID_2":"KEN.20.2_1","county":"LaikipiaNorth","NL_NAME_2":"NA","city":"Sosian","VARNAME_3":"NA","NL_NAME_3":"NA","TYPE_3":"Ward","ENGTYPE_3":"Ward","CC_3":"822","HASC_3":"NA","name":"Sosian.city"},
"geometry":{"type": "MultiPolygon","coordinates": [[[[36.4051,0.7233,1895.8439],[36.4572,0.6952,2042.9995],[36.5346,0.6654,1926.9495],[36.5884,0.6388,1832.5447],[36.5733,0.5762,1923.5979],[36.5329,0.4823,1936.6536],[36.4892,0.5213,1953.5525],[36.4749,0.5298,1955.4375],[36.473,0.5332,1959.2983],[36.4586,0.5377,1963.6085],[36.4538,0.5372,1958.5582],[36.4429,0.5429,1966.2288],[36.4274,0.5452,1971.4841],[36.4217,0.5482,1959.0742],[36.3792,0.5008,1926.0881],[36.3985,0.4705,2002.924],[36.4126,0.4667,2001.4445],[36.427,0.4501,2006.7872],[36.4411,0.4277,1959.1212],[36.454,0.4337,1980.3978],[36.4707,0.3781,1899.861],[36.4807,0.3856,1901.3258],[36.5133,0.3288,1890.0471],[36.5225,0.3344,1881.2064],[36.5269,0.3338,1875.2483],[36.5273,0.3362,1877.278],[36.5295,0.3363,1875.082],[36.5574,0.2942,1846.4807],[36.5488,0.2873,1851.6881],[36.5446,0.2782,1837.3097],[36.5479,0.2727,1827.5283],[36.5504,0.2772,1831.9846],[36.5562,0.2786,1820.5164],[36.5568,0.2841,1838.6592],[36.562,0.288,1817.8884],[36.5657,0.3001,1811.9614],[36.5729,0.3079,1807.0319],[36.5782,0.3198,1802.959],[36.5866,0.3258,1801.3494],[36.5991,0.3293,1800.3359],[36.6186,0.3376,1791.2109],[36.6236,0.3429,1789.7518],[36.6251,0.3484,1790.5623],[36.6299,0.3539,1790.2749],[36.6315,0.3583,1793.2715],[36.6457,0.3669,1783.7191],[36.6485,0.3749,1785.6387],[36.6516,0.3785,1781.5266],[36.6519,0.3841,1783.0508],[36.6555,0.388,1779.9337],[36.6543,0.3953,1789.4663],[36.6628,0.402,1768.7529],[36.6622,0.4093,1776.1943],[36.6677,0.4138,1762.8169],[36.6702,0.4187,1756.0212],[36.6695,0.4212,1766.3457],[36.6728,0.4251,1765.4741],[36.6834,0.4315,1764.0665],[36.6919,0.4297,1759.2283],[36.704,0.4309,1732.2617],[36.7083,0.4414,1734.0093],[36.7195,0.4411,1736.197],[36.7293,0.4438,1754.931],[36.732,0.4426,1706.72],[36.741,0.4429,1687.8344],[36.7432,0.4454,1678.3806],[36.7466,0.4462,1707.5928],[36.7422,0.4492,1676.4839],[36.7423,0.4609,1705.002],[36.7516,0.463,1680.986],[36.7511,0.4675,1682.4365],[36.7539,0.4697,1666.5549],[36.7525,0.4769,1691.7085],[36.7659,0.4797,1640.8999],[36.7689,0.4828,1651.5482],[36.7721,0.4818,1645.7389],[36.7743,0.4848,1651.5095],[36.7809,0.4808,1633.5654],[36.7978,0.4824,1694.5388],[36.8084,0.4801,1640.4937],[36.8158,0.4813,1619.0516],[36.8186,0.4841,1607.6532],[36.8181,0.489,1619.4388],[36.8216,0.4926,1599.0345],[36.8222,0.5042,1615.058],[36.8301,0.5049,1596.3987],[36.8277,0.5166,1620.7114],[36.8324,0.5184,1627.2068],[36.835,0.5161,1603.3037],[36.8358,0.5196,1623.4149],[36.8374,0.5198,1622.9012],[36.8437,0.5166,1600.6072],[36.8464,0.5123,1593.3281],[36.8492,0.5116,1580.1294],[36.8522,0.5132,1577.8821],[36.8516,0.5196,1596.2871],[36.8566,0.5242,1589.7268],[36.8581,0.532,1603.8533],[36.8632,0.533,1575.6172],[36.8674,0.5381,1577.6176],[36.8577,0.5529,1558.3364],[36.8565,0.559,1601.0608],[36.8586,0.5605,1587.1016],[36.8625,0.5602,1566.1448],[36.8642,0.5627,1557.4528],[36.8644,0.5705,1558.875],[36.8659,0.5727,1550.6438],[36.8645,0.5737,1571.6699],[36.8673,0.5785,1550.3849],[36.8681,0.5873,1537.2639],[36.8661,0.5931,1540.7418],[36.8675,0.5967,1544.5322],[36.8721,0.5999,1544.4978],[36.8757,0.6055,1536.5909],[36.8791,0.6059,1555.8152],[36.8841,0.6129,1515.085],[36.8873,0.6107,1504.4158],[36.8909,0.6233,1508.9918],[36.8939,0.6235,1492.8525],[36.8973,0.6309,1480.2631],[36.9059,0.6319,1473.9629],[36.9089,0.6343,1405.3676],[36.9083,0.6453,1503.1738],[36.9123,0.6525,1389.1266],[36.9139,0.6623,1477.6472],[36.9217,0.6621,1438.0317],[36.9235,0.6669,1354.6619],[36.9235,0.6703,1384.3876],[36.9265,0.6761,1361.3489],[36.9262,0.723,1380.1837],[36.9273,0.7303,1263.4626],[36.9307,0.7341,1272.4695],[36.9315,0.7468,1185.1587],[36.929,0.7469,1400.439],[36.9284,0.745,1391.194],[36.9248,0.7456,1463.2032],[36.9187,0.7421,1500.8556],[36.9197,0.7404,1418.9636],[36.9166,0.7357,1496.9172],[36.9176,0.7337,1393.6157],[36.9148,0.7328,1520.749],[36.9119,0.7342,1560.6794],[36.9111,0.7326,1553.7158],[36.9078,0.7357,1529.6974],[36.9083,0.7411,1542.8997],[36.9048,0.7421,1557.854],[36.9026,0.7454,1572.4729],[36.8895,0.743,1654.5471],[36.8866,0.7399,1701.1393],[36.8765,0.7428,1724.6879],[36.8761,0.7412,1723.3459],[36.865,0.7428,1744.7582],[36.8481,0.7838,1736.0596],[36.8413,0.795,1773.184],[36.8442,0.8003,1740.2264],[36.8344,0.8065,1753.7322],[36.8331,0.8193,1753.5139],[36.8192,0.8467,1785.7927],[36.8192,0.86,1747.425],[36.7928,0.8755,1756.0374],[36.7811,0.8734,1759.4868],[36.7569,0.8646,1764.084],[36.7371,0.8342,1770.7682],[36.7132,0.8238,1788.1604],[36.7019,0.8272,1786.5664],[36.6806,0.8248,1836.3362],[36.6787,0.8221,1843.707],[36.6752,0.8235,1847.6821],[36.6759,0.8189,1844.3785],[36.4833,0.8189,1713.0646],[36.4838,0.8287,1721.099],[36.4901,0.8523,1631.082],[36.4754,0.8431,1685.702],[36.469,0.8264,1844.0464],[36.4051,0.7233,1895.8439]]]]}}