{"type": "Feature","bbox": [35.1948,0.3305,35.3271,0.4679],"geometry": {"type": "MultiPolygon","coordinates": [[[[35.2264,0.3305,2129.6816],[35.2518,0.3512,2138.3022],[35.2634,0.3802,2111.9033],[35.267,0.3788,2115.7339],[35.2782,0.3807,2128.2397],[35.2789,0.3793,2126.5195],[35.2816,0.3814,2132.54],[35.2835,0.3792,2135.3962],[35.286,0.3794,2138.9084],[35.2898,0.3747,2141.2876],[35.2935,0.3758,2147.5015],[35.2942,0.3743,2144.6855],[35.3125,0.3988,2163.0222],[35.3143,0.3965,2156.3308],[35.3209,0.3964,2165.2246],[35.3271,0.4198,2184.0776],[35.3194,0.42,2175.9583],[35.3103,0.4365,2171.4419],[35.3173,0.4515,2171.3103],[35.2984,0.4596,2155.3955],[35.2931,0.4485,2144.2764],[35.2834,0.4511,2137.7903],[35.2842,0.4547,2142.0276],[35.2763,0.4646,2135.9814],[35.2643,0.4679,2131.0759],[35.2611,0.4614,2134.7808],[35.2505,0.4642,2113.064],[35.2387,0.4251,2098.9609],[35.2353,0.4232,2092.137],[35.2336,0.4195,2089.1121],[35.2206,0.419,2081.0386],[35.2203,0.3958,2079.2295],[35.2177,0.3946,2073.3696],[35.21,0.3972,2059.3057],[35.1948,0.3842,2044.8303],[35.2264,0.3305,2129.6816]]]]}
,"properties": {"GID_3": "KEN.44.2.4_1","GID_0": "KEN","country": "Kenya","GID_1": "KEN.44_1","province": "UasinGishu","NL_NAME_1": "NA","GID_2": "KEN.44.2_1","county": "Kapseret","NL_NAME_2": "NA","city": "Ngeria","VARNAME_3": "NA","NL_NAME_3": "NA","TYPE_3": "Ward","ENGTYPE_3": "Ward","CC_3": "724","HASC_3": "NA","name": "Ngeria.city","area_km2": 109.37945,"hist_schema_id": "Elevation0-9000","hist_area_km2": {"2025": 1.01768,"2050": 4.98241,"2075": 10.30404,"2100": 23.00385,"2125": 39.66831,"2150": 22.53736,"2175": 7.8658}}}