{"type":"Feature","properties":{"GID_3":"KEN.14.5.4_1","GID_0":"KEN","country":"Kenya","GID_1":"KEN.14_1","province":"Kilifi","NL_NAME_1":"NA","GID_2":"KEN.14.5_1","county":"Magarini","NL_NAME_2":"NA","city":"Magarini","VARNAME_3":"NA","NL_NAME_3":"NA","TYPE_3":"Ward","ENGTYPE_3":"Ward","CC_3":"81","HASC_3":"NA","name":"Magarini.city"},
"geometry":{"type": "MultiPolygon","coordinates": [[[[40.0715,-3.1564,8.4518],[40.0776,-3.1621,4.1085],[40.092,-3.1603,12.1306],[40.0968,-3.152,24.6092],[40.1023,-3.1509,8.5342],[40.1036,-3.1426,4.5502],[40.1139,-3.1431,13.9363],[40.1187,-3.1471,2.6828],[40.1243,-3.1462,12.9239],[40.1259,-3.1442,15.0933],[40.1262,-3.1418,32.8471],[40.1231,-3.1405,23.6787],[40.1223,-3.1385,23.2682],[40.1237,-3.1306,34.6593],[40.1169,-3.1169,30.8649],[40.1165,-3.1031,28.1193],[40.1141,-3.0907,31.8049],[40.1105,-3.0878,32.8725],[40.1101,-3.0784,29.8378],[40.1075,-3.0748,29.5331],[40.1032,-3.0756,34.0048],[40.0935,-3.0817,41.3592],[40.0852,-3.0806,41.7638],[40.076,-3.0853,25.1406],[40.0697,-3.1104,10.5361],[40.0702,-3.1187,6.3731],[40.0649,-3.1186,6.5356],[40.0709,-3.1394,6.5696],[40.0715,-3.1564,8.4518]]]]}}