{"type":"Feature","properties":{"GID_2":"KEN.29.4_1","GID_0":"KEN","country":"Kenya","GID_1":"KEN.29_1","province":"Murang'a","NL_NAME_1":"NA","county":"Kigumo","VARNAME_2":"NA","NL_NAME_2":"NA","TYPE_2":"Constituency","ENGTYPE_2":"Constituency","CC_2":"107","HASC_2":"NA","name":"Kigumo.county"},
"geometry":{"type": "MultiPolygon","coordinates": [[[[37.1248,-0.8814,1416.4115],[37.1407,-0.8683,1369.9614],[37.1397,-0.8593,1369.6492],[37.1407,-0.8486,1349.0997],[37.1379,-0.8383,1367.1597],[37.1368,-0.8205,1367.7517],[37.1247,-0.8204,1383.4478],[37.1117,-0.8163,1390.6371],[37.1029,-0.8235,1402.6741],[37.0935,-0.8247,1467.1525],[37.0727,-0.8192,1480.0391],[37.0585,-0.8205,1491.3923],[37.0628,-0.8152,1497.9578],[37.0558,-0.8146,1552.7529],[37.055,-0.8133,1513.2474],[37.0508,-0.8147,1566.2738],[37.0459,-0.8106,1573.9924],[37.0426,-0.8106,1595.5874],[37.0347,-0.8037,1564.1836],[37.0144,-0.7974,1656.675],[37.0156,-0.7904,1649.8242],[37.0095,-0.7789,1604.0614],[37.0105,-0.7773,1537.9883],[37.0188,-0.7754,1528.2668],[37.0201,-0.7729,1656.9846],[37.0168,-0.7727,1576.8418],[37.0164,-0.7701,1620.7837],[37.0105,-0.7669,1639.4685],[37.0059,-0.7667,1679.5597],[37.0039,-0.7694,1651.1677],[36.9965,-0.7661,1663.0057],[36.9865,-0.7646,1682.0133],[36.9844,-0.7673,1699.3157],[36.9789,-0.7676,1677.2891],[36.9729,-0.7657,1737.7927],[36.9707,-0.7622,1735.7324],[36.9626,-0.7635,1814.4429],[36.957,-0.7613,1766.6012],[36.9531,-0.7619,1760.7734],[36.9466,-0.7555,1837.6482],[36.9376,-0.7518,1879.9956],[36.9326,-0.752,1854.9641],[36.931,-0.7507,1901.2209],[36.9306,-0.7521,1864.4536],[36.9226,-0.7516,1880.0856],[36.9214,-0.7505,1916.4915],[36.9198,-0.7522,1882.1101],[36.9154,-0.7522,1933.7659],[36.9147,-0.7498,1975.103],[36.9113,-0.7477,1933.8181],[36.8998,-0.7482,1960.1906],[36.8977,-0.745,2021.67],[36.8947,-0.7461,1995.9001],[36.8901,-0.7427,2019.5485],[36.8843,-0.7418,1965.3324],[36.8825,-0.7376,2045.4567],[36.8799,-0.7374,1960.13],[36.8762,-0.734,2012.4707],[36.8757,-0.7307,1994.1277],[36.8737,-0.7311,1922.291],[36.8715,-0.7273,1935.5988],[36.8673,-0.7285,2039.6849],[36.8617,-0.7265,2116.4749],[36.8596,-0.7236,2075.5981],[36.8579,-0.7247,2104.199],[36.846,-0.722,2115.0928],[36.8417,-0.7163,2147.1299],[36.8387,-0.7176,2167.7937],[36.8373,-0.715,2209.3345],[36.833,-0.714,2252.4575],[36.8289,-0.7095,2277.5623],[36.8224,-0.7097,2275.8091],[36.819,-0.7069,2299.8157],[36.8141,-0.7076,2285.5911],[36.8121,-0.7158,2280.6541],[36.8049,-0.7309,2362.875],[36.802,-0.7273,2372.4077],[36.7953,-0.7247,2434.7012],[36.7864,-0.7169,2478.811],[36.7771,-0.713,2516.3003],[36.7717,-0.702,2629.6941],[36.7683,-0.7007,2541.1309],[36.7647,-0.6952,2667.1736],[36.7598,-0.6929,2626.1445],[36.7568,-0.6942,2641.8413],[36.7546,-0.6929,2713.4568],[36.7495,-0.6874,2734.0857],[36.7484,-0.6825,2820.5632],[36.7422,-0.6818,2733.8779],[36.7392,-0.6837,2884.3523],[36.7294,-0.6811,3041.542],[36.725,-0.6733,3120.6553],[36.723,-0.6731,3191.1682],[36.7093,-0.6593,3405.7842],[36.7078,-0.6718,3291.9844],[36.7087,-0.681,3146.3696],[36.7066,-0.6912,3011.8198],[36.7113,-0.6772,3410.3821],[36.7242,-0.681,3068.0776],[36.7243,-0.6828,3085.9524],[36.7304,-0.6873,2882.8997],[36.7297,-0.6961,2814.4631],[36.7359,-0.7038,2836.447],[36.7353,-0.7052,2760.5208],[36.7385,-0.7056,2812.4211],[36.7412,-0.7091,2817.1396],[36.7425,-0.7163,2654.6187],[36.7415,-0.7178,2642.915],[36.745,-0.7242,2643.4614],[36.7455,-0.7351,2523.917],[36.7506,-0.7398,2551.6289],[36.7504,-0.7422,2540.3801],[36.7555,-0.7458,2511.0811],[36.7622,-0.7544,2433.8682],[36.7671,-0.7563,2437.1641],[36.7667,-0.7587,2418.5762],[36.7754,-0.7674,2356.6292],[36.786,-0.7727,2321.6758],[36.7895,-0.7724,2284.73],[36.79,-0.7745,2298.0991],[36.792,-0.7746,2313.822],[36.7965,-0.7843,2278.1194],[36.8009,-0.7859,2246.4138],[36.8022,-0.7896,2202.7925],[36.804,-0.7888,2238.7571],[36.8058,-0.7903,2215.5518],[36.8083,-0.7943,2189.8296],[36.8073,-0.7957,2153.0635],[36.8101,-0.799,2134.9976],[36.8089,-0.8001,2093.5774],[36.8148,-0.8032,2106.6572],[36.8168,-0.8029,2158.5276],[36.8167,-0.8053,2098.1201],[36.8192,-0.807,2097.5874],[36.8282,-0.809,2068.5],[36.8301,-0.8078,2070.7598],[36.832,-0.8106,2066.4666],[36.8345,-0.81,2091.5967],[36.8364,-0.8122,2050.1013],[36.8386,-0.811,2042.5],[36.838,-0.8126,2042.5],[36.8394,-0.8126,2067.3943],[36.8379,-0.8147,2042.5],[36.8405,-0.8148,2042.5],[36.8408,-0.8172,2042.5],[36.8444,-0.8182,2042.5],[36.8467,-0.8166,2042.5],[36.8457,-0.815,2062.3267],[36.8472,-0.8135,2047.9951],[36.8625,-0.8161,2030.176],[36.8549,-0.8024,2061.7595],[36.8571,-0.7969,2008.1289],[36.8581,-0.7957,2090.0613],[36.862,-0.7967,2064.5068],[36.8641,-0.8015,2013.5605],[36.8702,-0.8029,2012.0781],[36.8703,-0.7942,2003.4639],[36.8731,-0.7924,2018.7527],[36.8769,-0.7959,2031.9088],[36.8893,-0.7938,2024.3201],[36.8968,-0.7906,1949.7684],[36.8997,-0.795,1975.0972],[36.9106,-0.7997,1904.9856],[36.9137,-0.7985,1914.3746],[36.9177,-0.8007,1930.9342],[36.92,-0.7995,1897.8883],[36.9257,-0.8019,1916.9015],[36.9333,-0.7997,1864.1229],[36.9337,-0.7979,1873.9961],[36.9391,-0.7979,1838.3674],[36.9548,-0.8033,1786.1687],[36.9745,-0.8217,1747.3748],[36.9803,-0.8209,1749.1936],[36.9943,-0.8298,1705.9104],[37.0035,-0.8297,1674.5754],[37.0138,-0.8382,1667.5439],[37.0186,-0.8381,1675.2341],[37.0249,-0.8421,1648.7487],[37.0299,-0.843,1651.0375],[37.0318,-0.8463,1588.9805],[37.0341,-0.8464,1640.828],[37.0363,-0.85,1602.4827],[37.041,-0.852,1569.4142],[37.0427,-0.8549,1580.938],[37.0464,-0.8523,1553.3658],[37.053,-0.8546,1524.3094],[37.0579,-0.853,1531.9694],[37.0688,-0.8589,1465.8397],[37.0717,-0.8636,1472.4243],[37.0826,-0.872,1453.3838],[37.0918,-0.8734,1429.0343],[37.0956,-0.8716,1486.9146],[37.103,-0.8728,1454.1472],[37.1189,-0.8808,1437.25],[37.1248,-0.8814,1416.4115]]]]}}