{"type": "Feature","bbox": [34.8369,0.647,34.9982,0.7295],"geometry": {"type": "MultiPolygon","coordinates": [[[[34.9268,0.647,1631.0385],[34.9282,0.6539,1676.9878],[34.935,0.6557,1682.4617],[34.9466,0.656,1696.7479],[34.952,0.6591,1710.1685],[34.9553,0.6592,1711.9128],[34.9576,0.6643,1736.8396],[34.9671,0.6702,1747.8792],[34.9851,0.6769,1802.9124],[34.9882,0.6831,1828.4202],[34.9982,0.6903,1861.7213],[34.9922,0.7006,1842.6061],[34.9828,0.7057,1835.6343],[34.9784,0.7131,1841.3639],[34.9744,0.7143,1832.7709],[34.9681,0.7213,1819.4174],[34.9576,0.7214,1808.5852],[34.9491,0.724,1704.9568],[34.9403,0.7234,1684.0254],[34.9367,0.7261,1670.907],[34.9222,0.7295,1633.4272],[34.9223,0.7269,1627.72],[34.9291,0.7164,1617.0352],[34.9294,0.7129,1620.1948],[34.9263,0.7064,1618.746],[34.9198,0.7045,1642.3538],[34.9179,0.6989,1622.801],[34.9127,0.6969,1631.5958],[34.9099,0.6911,1610.0924],[34.8994,0.6907,1626.5671],[34.8925,0.6957,1612.6785],[34.8817,0.6881,1628.8494],[34.8729,0.6895,1631.0189],[34.8688,0.6889,1637.9292],[34.867,0.6869,1608.8528],[34.8627,0.6894,1617.1564],[34.8578,0.6857,1596.333],[34.8581,0.6791,1566.9662],[34.8519,0.6754,1581.3394],[34.8457,0.674,1568.7677],[34.8418,0.6684,1551.3496],[34.8411,0.6642,1539.5383],[34.8369,0.6616,1561.041],[34.8384,0.6593,1559.901],[34.8383,0.6545,1538.6858],[34.8415,0.6557,1540.5151],[34.8395,0.6574,1538.1555],[34.84,0.6597,1547.4943],[34.8427,0.6601,1537.0731],[34.8436,0.6575,1545.26],[34.8506,0.6548,1580.4706],[34.8517,0.6556,1588.1958],[34.8503,0.6586,1581.8159],[34.8558,0.657,1592.5156],[34.8555,0.6594,1596.1132],[34.8575,0.6606,1601.0018],[34.8662,0.6576,1614.6155],[34.8671,0.6542,1597.277],[34.8721,0.6519,1593.5908],[34.8766,0.6528,1602.0566],[34.8809,0.656,1623.9393],[34.8893,0.6551,1603.6871],[34.8899,0.6533,1601.2028],[34.8939,0.6533,1622.9681],[34.8958,0.6507,1611.3604],[34.9018,0.6518,1609.4298],[34.906,0.6492,1618.7551],[34.9067,0.6513,1633.6284],[34.9268,0.647,1631.0385]]]]}
,"properties": {"GID_3": "KEN.3.6.2_1","GID_0": "KEN","country": "Kenya","GID_1": "KEN.3_1","province": "Bungoma","NL_NAME_1": "NA","GID_2": "KEN.3.6_1","county": "Lugari","NL_NAME_2": "NA","city": "Lugari","VARNAME_3": "NA","NL_NAME_3": "NA","TYPE_3": "Ward","ENGTYPE_3": "Ward","CC_3": "992","HASC_3": "NA","name": "Lugari.city","area_km2": 81.51669,"hist_schema_id": "Elevation0-9000","hist_area_km2": {"1525": 0.16961,"1550": 2.54409,"1575": 3.73133,"1600": 9.92193,"1625": 12.69922,"1650": 10.98196,"1675": 11.57559,"1700": 5.78779,"1725": 3.54052,"1750": 3.0317,"1775": 2.45928,"1800": 2.94689,"1825": 6.23299,"1850": 5.89378}}}