{"type": "Feature","bbox": [39.5407,1.7296,40.0244,2.2758],"geometry": {"type": "MultiPolygon","coordinates": [[[[39.5407,2.2366,366.4145],[39.6124,2.1883,351.7966],[39.6175,2.1855,350.8293],[39.6267,2.185,348.7269],[39.6475,2.1707,344.649],[39.6538,2.1831,345.2827],[39.6557,2.181,344.9352],[39.6767,2.1522,338.3918],[39.6935,2.1204,331.4471],[39.7062,2.0905,325.6505],[39.7165,2.0775,322.4027],[39.735,2.0441,316.1962],[39.744,2.0139,312.2529],[39.7478,2.0046,312.0097],[39.7511,2.003,312.4919],[39.7509,1.9977,309.2919],[39.7535,1.9878,305.8071],[39.7656,1.9718,302.4529],[39.7883,1.9577,299.083],[39.8007,1.9403,294.3617],[39.8115,1.9346,293.9901],[39.8156,1.9305,293.8871],[39.8217,1.8984,286.9297],[39.8273,1.8935,286.8787],[39.8306,1.8933,287.6316],[39.8061,1.885,285.6841],[39.8135,1.8757,283.4272],[39.8147,1.8435,277.9557],[39.8244,1.8252,273.7157],[39.832,1.8182,271.9737],[39.8405,1.7891,268.0148],[39.8386,1.7816,266.5338],[39.8519,1.7559,263.4251],[39.8511,1.7502,262.9158],[39.8545,1.7427,261.7834],[39.8526,1.7373,261.098],[39.8535,1.7351,260.7176],[39.8594,1.733,260.091],[39.8613,1.7296,259.5345],[39.935,1.8428,279.8486],[40.0105,1.7825,267.712],[40.0171,1.7903,268.4325],[40.0244,1.7923,269.2692],[40.0079,1.8342,279.6322],[39.9965,1.8459,282.3428],[39.9903,1.8549,281.0673],[39.9909,1.8645,285.3526],[39.9964,1.8727,288.0768],[39.9946,1.8768,287.7738],[39.9911,1.8791,287.3735],[39.9789,1.8943,291.7492],[39.9407,1.9291,296.4881],[39.8977,1.9781,303.2444],[39.8835,2.0017,307.1775],[39.8783,2.0551,319.1035],[39.8699,2.1049,327.9196],[39.8673,2.1317,333.6239],[39.8669,2.1523,337.0592],[39.8708,2.1818,343.3605],[39.8709,2.1945,347.5938],[39.8523,2.2714,359.2086],[39.8105,2.2717,356.4116],[39.7098,2.266,361.9426],[39.703,2.2663,362.5974],[39.6885,2.2703,361.7528],[39.6549,2.2717,359.868],[39.6382,2.2758,362.4495],[39.5407,2.2366,366.4145]]]]}
,"properties": {"GID_3": "KEN.46.1.3_1","GID_0": "KEN","country": "Kenya","GID_1": "KEN.46_1","province": "Wajir","NL_NAME_1": "NA","GID_2": "KEN.46.1_1","county": "Eldas","NL_NAME_2": "NA","city": "Elnur/TulaTula","VARNAME_3": "NA","NL_NAME_3": "NA","TYPE_3": "Ward","ENGTYPE_3": "Ward","CC_3": "183","HASC_3": "NA","name": "Elnur_Tula_Tula.city","area_km2": 1083.4311,"hist_schema_id": "Elevation0-9000","hist_area_km2": {"250": 1.8649,"275": 212.9726,"300": 227.2188,"325": 281.3343,"350": 340.846,"375": 19.1944}}}