{"type": "Feature","bbox": [36.8692,-1.3013,37.1034,-1.2027],"geometry": {"type": "MultiPolygon","coordinates": [[[[37.0065,-1.2339,1490.9819],[36.9951,-1.2303,1497.3673],[36.9915,-1.2228,1498.1226],[36.9864,-1.221,1500.8462],[36.9774,-1.2223,1507.5808],[36.9694,-1.2269,1519.1296],[36.9612,-1.2252,1514.255],[36.9568,-1.2271,1523.0861],[36.9531,-1.2242,1526.3081],[36.949,-1.2246,1518.7894],[36.9376,-1.2192,1532.4825],[36.9314,-1.2201,1533.2523],[36.9155,-1.2103,1543.9672],[36.9124,-1.2051,1547.8998],[36.8962,-1.2117,1570.5278],[36.8692,-1.2359,1620.8329],[36.8748,-1.2382,1603.437],[36.8761,-1.2364,1613.0991],[36.8808,-1.2369,1615.5863],[36.8855,-1.2342,1617.0692],[36.8936,-1.2354,1592.2849],[36.897,-1.2319,1599.5021],[36.9016,-1.2329,1593.7257],[36.9055,-1.231,1594.1991],[36.9188,-1.2386,1558.7129],[36.9228,-1.2375,1574.1553],[36.9257,-1.2392,1565.0725],[36.9305,-1.2376,1551.595],[36.9259,-1.2403,1539.7974],[36.917,-1.2403,1537.9277],[36.9033,-1.2495,1594.5876],[36.9021,-1.253,1593.3508],[36.8988,-1.2542,1600.375],[36.9091,-1.2546,1584.6421],[36.9137,-1.2564,1589.7849],[36.9336,-1.2506,1565.9219],[36.9361,-1.2575,1572.5662],[36.9675,-1.2584,1553.7816],[36.98,-1.2663,1515.5957],[36.9902,-1.2808,1565.2507],[36.9948,-1.2791,1561.8912],[37.0019,-1.2984,1568.1804],[37.026,-1.2895,1505.3231],[37.0756,-1.3013,1466.2727],[37.0757,-1.2984,1473.717],[37.0723,-1.2971,1467.8906],[37.0724,-1.2925,1471.8036],[37.076,-1.2889,1466.429],[37.0773,-1.2815,1468.3105],[37.0823,-1.2826,1467.4717],[37.085,-1.2763,1467.0743],[37.0972,-1.2707,1464.0161],[37.1007,-1.273,1464.8567],[37.1034,-1.2619,1463.2073],[37.0862,-1.2462,1489.0491],[37.0948,-1.2423,1489.3829],[37.0882,-1.2311,1485.9041],[37.0803,-1.2349,1489.3396],[37.0627,-1.2027,1474.9309],[37.0576,-1.2066,1476.5063],[37.0535,-1.2041,1478.0808],[37.0379,-1.21,1479.8998],[37.0335,-1.2134,1482.3987],[37.0307,-1.2181,1483.5186],[37.0228,-1.2217,1486.1161],[37.0222,-1.2249,1486.2003],[37.0173,-1.2246,1487.1001],[37.0165,-1.2265,1486.834],[37.0145,-1.2265,1487.4957],[37.0129,-1.2284,1488.688],[37.0127,-1.2328,1488.9977],[37.0065,-1.2339,1490.9819]]]]}
,"properties": {"GID_2": "KEN.30.9_1","GID_0": "KEN","country": "Kenya","GID_1": "KEN.30_1","province": "Nairobi","NL_NAME_1": "NA","county": "Kasarani","VARNAME_2": "NA","NL_NAME_2": "NA","TYPE_2": "Constituency","ENGTYPE_2": "Constituency","CC_2": "280","HASC_2": "NA","name": "Kasarani.county","area_km2": 136.8913,"hist_schema_id": "Elevation0-9000","hist_area_km2": {"1475": 29.6761,"1500": 63.2734,"1525": 18.3567,"1550": 11.2557,"1575": 6.444,"1600": 5.7021,"1625": 2.1833}}}