{"type": "Feature","bbox": [33.9499,-0.3171,34.1033,-0.0102],"geometry": {"type": "MultiPolygon","coordinates": [[[[33.9499,-0.0225,1133.0],[33.987,-0.1285,1133.0],[33.9839,-0.1656,1133.0],[33.9587,-0.3171,1133.0],[34.1033,-0.0889,1133.0],[34.0832,-0.0637,1141.7563],[34.0323,-0.0102,1138.2375],[34.0292,-0.0142,1137.8571],[34.0158,-0.0239,1139.7903],[34.0073,-0.0222,1133.0],[33.9499,-0.0225,1133.0]]]]}
,"properties": {"GID_3": "KEN.38.2.5_1","GID_0": "KEN","country": "Kenya","GID_1": "KEN.38_1","province": "Siaya","NL_NAME_1": "NA","GID_2": "KEN.38.2_1","county": "Bondo","NL_NAME_2": "NA","city": "WestYimbo","VARNAME_3": "NA","NL_NAME_3": "NA","TYPE_3": "Ward","ENGTYPE_3": "Ward","CC_3": "1175","HASC_3": "NA","name": "West_Yimbo.city","area_km2": 252.7295,"hist_schema_id": "Elevation0-9000","hist_area_km2": {"1125": 221.6471,"1150": 26.5875,"1175": 4.0708,"1200": 0.1696,"1225": 0.106,"1250": 0.1484}}}