{"type":"Feature","properties":{"GID_3":"KEN.27.8.1_1","GID_0":"KEN","country":"Kenya","GID_1":"KEN.27_1","province":"Migori","NL_NAME_1":"NA","GID_2":"KEN.27.8_1","county":"Uriri","NL_NAME_2":"NA","city":"CentralKanyamkago","VARNAME_3":"NA","NL_NAME_3":"NA","TYPE_3":"Ward","ENGTYPE_3":"Ward","CC_3":"1279","HASC_3":"NA","name":"Central_Kanyamkago.city"},
"geometry":{"type": "MultiPolygon","coordinates": [[[[34.3685,-0.8918,1282.4965],[34.3641,-0.8965,1332.2867],[34.3652,-0.9029,1278.4319],[34.3701,-0.9044,1307.3729],[34.3701,-0.9072,1277.6442],[34.375,-0.9079,1240.8916],[34.3785,-0.9146,1258.8284],[34.3846,-0.9133,1288.8369],[34.388,-0.91,1266.0759],[34.3935,-0.9103,1277.5823],[34.4003,-0.9069,1277.0638],[34.4033,-0.9109,1279.825],[34.4097,-0.9129,1298.7241],[34.4092,-0.9154,1304.1838],[34.4111,-0.9183,1298.9231],[34.41,-0.9195,1287.5024],[34.4129,-0.9233,1297.0801],[34.4145,-0.9226,1302.8568],[34.4195,-0.9258,1339.9705],[34.4227,-0.9251,1340.082],[34.4241,-0.9294,1331.9237],[34.4265,-0.929,1345.8738],[34.4305,-0.9339,1327.8025],[34.4343,-0.9329,1344.2649],[34.4383,-0.9369,1370.7463],[34.4435,-0.9362,1433.0948],[34.4532,-0.9448,1331.6013],[34.4581,-0.9451,1390.1194],[34.4719,-0.9639,1402.0604],[34.4777,-0.9651,1379.2258],[34.4827,-0.9685,1400.9626],[34.4862,-0.9685,1410.5618],[34.4878,-0.9715,1411.6831],[34.4947,-0.9714,1478.2275],[34.4968,-0.9744,1469.2449],[34.4998,-0.9748,1405.3514],[34.4993,-0.978,1390.1191],[34.5006,-0.9794,1390.1191],[34.5028,-0.9673,1472.7411],[34.5001,-0.962,1496.4139],[34.5035,-0.9506,1527.1028],[34.5052,-0.949,1532.2489],[34.516,-0.9477,1467.0995],[34.516,-0.9421,1454.1624],[34.5128,-0.9385,1465.4633],[34.5176,-0.9342,1468.8702],[34.5085,-0.9261,1449.8005],[34.4906,-0.9148,1438.4562],[34.491,-0.913,1433.1941],[34.4846,-0.9098,1460.428],[34.4815,-0.9112,1465.7819],[34.4696,-0.9099,1470.5327],[34.4594,-0.9118,1399.3245],[34.4549,-0.9105,1401.682],[34.4516,-0.9064,1379.962],[34.4312,-0.9063,1427.8362],[34.423,-0.9018,1374.6091],[34.4227,-0.8962,1339.6033],[34.4159,-0.8925,1355.8893],[34.4134,-0.8928,1343.2395],[34.404,-0.9015,1289.0769],[34.3985,-0.8936,1284.3214],[34.3955,-0.8978,1284.9122],[34.389,-0.8985,1275.9332],[34.3844,-0.8967,1272.6567],[34.3802,-0.8927,1258.6732],[34.3755,-0.8947,1243.5072],[34.3743,-0.89,1243.5374],[34.3685,-0.8918,1282.4965]]]]}}