{"type": "Feature","bbox": [39.5178,0.459,39.6897,0.626],"geometry": {"type": "MultiPolygon","coordinates": [[[[39.6897,0.5787,169.2368],[39.6876,0.5835,169.6544],[39.6759,0.5979,170.8869],[39.6747,0.6027,170.9991],[39.6639,0.6153,172.3839],[39.6623,0.6203,172.5977],[39.6578,0.626,173.1021],[39.5178,0.515,189.919],[39.539,0.459,195.3448],[39.5493,0.4634,190.8046],[39.5538,0.4676,192.1339],[39.5728,0.4669,186.8643],[39.5761,0.4716,185.8624],[39.5802,0.4729,186.1603],[39.5907,0.4724,184.4153],[39.5944,0.4697,181.9205],[39.6005,0.4708,181.6422],[39.6086,0.4695,178.6169],[39.618,0.4732,178.76],[39.625,0.4711,175.6236],[39.6381,0.4721,172.4253],[39.6516,0.4832,168.5989],[39.659,0.4859,167.3607],[39.6684,0.4946,165.6177],[39.6732,0.5065,165.9591],[39.6897,0.5787,169.2368]]]]}
,"properties": {"GID_3": "KEN.7.6.1_1","GID_0": "KEN","country": "Kenya","GID_1": "KEN.7_1","province": "Garissa","NL_NAME_1": "NA","GID_2": "KEN.7.6_1","county": "Lagdera","NL_NAME_2": "NA","city": "Baraki","VARNAME_3": "NA","NL_NAME_3": "NA","TYPE_3": "Ward","ENGTYPE_3": "Ward","CC_3": "145","HASC_3": "NA","name": "Baraki.city","area_km2": 201.1154,"hist_schema_id": "Elevation0-9000","hist_area_km2": {"175": 180.7196,"200": 20.3958}}}