{"type":"Feature","properties":{"GID_3":"KEN.21.1.2_1","GID_0":"KEN","country":"Kenya","GID_1":"KEN.21_1","province":"Lamu","NL_NAME_1":"NA","GID_2":"KEN.21.1_1","county":"LamuEast","NL_NAME_2":"NA","city":"Faza","VARNAME_3":"NA","NL_NAME_3":"NA","TYPE_3":"Ward","ENGTYPE_3":"Ward","CC_3":"101","HASC_3":"NA","name":"Faza.city"},
"geometry":{"type": "MultiPolygon","coordinates": [[[[40.9768,-2.1888,1.6771],[40.9751,-2.1888,1.6771],[40.9749,-2.194,1.734],[40.9774,-2.1982,0.0],[40.9787,-2.1924,9.5937],[40.9768,-2.1888,1.6771]]],
[[[41.051,-2.1399,0.0],[41.0523,-2.1399,0.0],[41.0474,-2.1266,2.962],[41.0523,-2.1084,7.0914],[41.0592,-2.0977,5.5893],[41.0601,-2.0916,2.981],[41.0489,-2.0874,2.9328],[41.0485,-2.0902,4.9266],[41.0478,-2.0874,4.6036],[41.0404,-2.0813,0.595],[41.0243,-2.0899,1.7799],[41.0121,-2.0904,0.0],[41.0082,-2.0921,0.0],[41.0076,-2.0946,1.0074],[41.0068,-2.0921,0.0],[41.0024,-2.0912,0.0],[40.9996,-2.0924,0.0],[40.9929,-2.0971,0.0],[40.9874,-2.1046,4.5412],[40.9751,-2.1082,3.8956],[40.9701,-2.1143,0.369],[40.969,-2.1179,1.5595],[40.9699,-2.126,1.8469],[40.9674,-2.131,0.0],[40.9696,-2.1315,5.0887],[40.969,-2.1363,1.3397],[40.9712,-2.1379,2.8052],[40.9724,-2.1424,0.7642],[40.9712,-2.1415,0.7642],[40.971,-2.1385,5.5272],[40.9643,-2.1399,0.0],[40.9624,-2.1424,0.0],[40.9629,-2.1493,6.491],[40.9604,-2.1504,0.0],[40.9613,-2.1587,1.7245],[40.9674,-2.1729,0.7583],[40.9693,-2.1751,0.0],[40.9735,-2.1754,3.7213],[40.9749,-2.1776,5.0862],[40.969,-2.1826,1.8566],[40.9682,-2.1857,0.0],[40.9732,-2.1865,0.0],[40.9763,-2.1804,1.6174],[40.9763,-2.1862,0.0],[40.9787,-2.186,1.2253],[40.9799,-2.1837,0.0],[40.9782,-2.1818,4.6032],[40.9776,-2.174,3.532],[40.9799,-2.1724,4.9934],[40.9818,-2.1776,3.6601],[40.9865,-2.1776,5.9216],[40.9874,-2.179,6.796],[40.9868,-2.1815,0.0],[40.9899,-2.1921,3.2868],[40.9879,-2.1951,1.8324],[40.9899,-2.2007,0.8695],[41.0001,-2.2096,0.0],[41.0113,-2.209,1.5723],[41.016,-2.2049,0.0],[41.0157,-2.2004,0.0],[41.0143,-2.2007,0.0],[41.0146,-2.1987,0.0],[41.009,-2.1974,1.2433],[41.0101,-2.1882,0.0],[41.0068,-2.1812,0.0],[41.0035,-2.1815,0.0],[41.0032,-2.1835,4.3334],[40.999,-2.1815,5.2042],[40.9993,-2.1743,1.2722],[40.9943,-2.1676,4.5337],[40.9943,-2.1626,2.0377],[40.9921,-2.1582,1.0347],[40.9968,-2.1571,0.7638],[40.9985,-2.159,3.696],[40.9982,-2.1638,1.8173],[41.0024,-2.1657,0.0],[41.0051,-2.161,0.0],[41.004,-2.1579,0.5932],[41.0054,-2.1568,0.5932],[41.0035,-2.1512,1.5184],[40.9993,-2.1474,1.1892],[41.0038,-2.149,2.724],[41.0076,-2.1543,0.9298],[41.0118,-2.1496,3.3654],[41.0157,-2.1501,0.0],[41.0174,-2.1485,0.7748],[41.0168,-2.1507,0.865],[41.0193,-2.1512,1.9903],[41.0257,-2.1493,1.8249],[41.0307,-2.1462,0.0],[41.0307,-2.1432,0.0],[41.0285,-2.1404,0.0],[41.0324,-2.141,1.9769],[41.0371,-2.1335,0.0],[41.0379,-2.1287,2.7976],[41.0396,-2.1279,2.1784],[41.039,-2.1343,3.5385],[41.0351,-2.1426,0.7825],[41.0351,-2.1471,0.0],[41.0371,-2.1487,0.0],[41.0385,-2.1462,8.454],[41.0432,-2.1451,0.0],[41.0415,-2.1549,1.6406],[41.0424,-2.1615,0.0],[41.0476,-2.1651,0.0],[41.0563,-2.1668,0.0],[41.0596,-2.1649,0.0],[41.0621,-2.1585,0.0],[41.0535,-2.1468,0.0],[41.0457,-2.144,2.1655],[41.0454,-2.1421,2.1317],[41.051,-2.1399,0.0]]]]}}