{"type":"Feature","properties":{"GID_3":"KEN.10.1.3_1","GID_0":"KEN","country":"Kenya","GID_1":"KEN.10_1","province":"Kajiado","NL_NAME_1":"NA","GID_2":"KEN.10.1_1","county":"KajiadoCentral","NL_NAME_2":"NA","city":"MatapatoNorth","VARNAME_3":"NA","NL_NAME_3":"NA","TYPE_3":"Ward","ENGTYPE_3":"Ward","CC_3":"919","HASC_3":"NA","name":"Matapato_North.city"},
"geometry":{"type": "MultiPolygon","coordinates": [[[[36.842,-2.0524,1493.7351],[36.8178,-2.0585,1551.0597],[36.813,-2.0546,1569.4785],[36.8051,-2.0526,1597.891],[36.7964,-2.0457,1647.097],[36.7969,-2.0616,1627.6576],[36.7937,-2.0791,1607.066],[36.7778,-2.0905,1573.6805],[36.7516,-2.0832,1589.6603],[36.7315,-2.0685,1633.7567],[36.7131,-2.0902,1639.9764],[36.704,-2.0911,1673.8696],[36.6365,-2.0645,1504.8275],[36.5158,-2.1377,1305.2257],[36.5101,-2.147,1308.9497],[36.5014,-2.1555,1296.5176],[36.5002,-2.1601,1296.5615],[36.4886,-2.1705,1271.9324],[36.4709,-2.1971,1267.608],[36.4475,-2.2221,1233.3918],[36.5534,-2.2724,1834.4869],[36.607,-2.2708,1599.3799],[36.6103,-2.2649,1605.2036],[36.6126,-2.2651,1587.9277],[36.6128,-2.2626,1598.2777],[36.6157,-2.2643,1588.6307],[36.6181,-2.263,1586.927],[36.6268,-2.2639,1578.6189],[36.6313,-2.2601,1575.8082],[36.6408,-2.2595,1572.7119],[36.6423,-2.258,1569.0688],[36.6531,-2.2598,1550.2622],[36.654,-2.2586,1549.7866],[36.6614,-2.2591,1548.5627],[36.6669,-2.2626,1544.0757],[36.6751,-2.2647,1530.1357],[36.6808,-2.2689,1532.8381],[36.692,-2.2651,1519.424],[36.6964,-2.2658,1514.2821],[36.6978,-2.2685,1501.1959],[36.7055,-2.2672,1495.6132],[36.7086,-2.2694,1491.1086],[36.7153,-2.2659,1485.5261],[36.7186,-2.2663,1485.5652],[36.7213,-2.2704,1474.2595],[36.7393,-2.3351,1670.4934],[36.8019,-2.3373,1389.4056],[36.8289,-2.3231,1437.1377],[36.8303,-2.3308,1442.7916],[36.873,-2.2934,1469.7639],[36.9025,-2.3054,1345.679],[36.9195,-2.3558,1513.8278],[36.9558,-2.3523,1330.0945],[36.9581,-2.3475,1317.7974],[36.9586,-2.3437,1317.97],[36.9486,-2.3409,1370.9913],[36.9443,-2.3356,1342.236],[36.9364,-2.3153,1316.1005],[36.9374,-2.3113,1317.8755],[36.9422,-2.3125,1314.6311],[36.9412,-2.3131,1313.301],[36.9431,-2.3151,1313.0328],[36.9542,-2.3119,1304.3167],[36.9572,-2.3144,1302.7167],[36.9639,-2.3154,1303.3329],[36.9688,-2.309,1291.5211],[36.9711,-2.3099,1290.1672],[36.9716,-2.3079,1288.5905],[36.9742,-2.3091,1287.7229],[36.9763,-2.3074,1286.71],[36.9771,-2.3088,1286.392],[36.9812,-2.3082,1283.9701],[36.9831,-2.31,1283.3726],[36.9826,-2.3116,1283.4932],[36.9887,-2.3109,1281.7075],[36.9958,-2.3149,1276.1482],[37.0005,-2.3154,1273.9607],[37.0016,-2.3173,1273.5505],[37.0027,-2.3162,1273.6499],[37.0016,-2.3186,1272.7317],[37.006,-2.321,1270.3159],[37.0057,-2.323,1268.2039],[37.009,-2.3236,1267.28],[37.0088,-2.3257,1267.2126],[37.0105,-2.3253,1266.1177],[37.0103,-2.3267,1265.7194],[37.0166,-2.3241,1263.5345],[37.0216,-2.325,1262.0704],[37.0245,-2.3278,1258.562],[37.0266,-2.3268,1257.7689],[37.0283,-2.3287,1257.0393],[37.027,-2.33,1256.7603],[37.0278,-2.3322,1255.9879],[37.0336,-2.3374,1253.4054],[37.0349,-2.3421,1249.4329],[37.044,-2.3498,1244.0428],[37.0481,-2.3563,1240.2053],[37.0537,-2.3557,1239.1531],[37.0612,-2.3652,1232.7699],[37.0695,-2.3201,1249.1366],[37.0869,-2.2682,1295.4012],[37.0939,-2.257,1314.6969],[37.1006,-2.2384,1312.519],[37.1174,-2.2205,1298.4646],[37.1384,-2.2103,1309.7297],[37.1553,-2.1967,1303.417],[37.1878,-2.1852,1273.1282],[37.181,-2.1837,1271.9467],[37.1743,-2.1869,1275.2642],[37.1695,-2.1849,1278.6885],[37.1651,-2.1868,1280.1531],[37.1604,-2.1814,1282.2595],[37.1542,-2.1827,1288.1644],[37.1506,-2.1777,1288.4856],[37.1498,-2.1602,1293.8402],[37.1455,-2.1548,1297.3101],[37.1429,-2.1425,1300.0348],[37.1407,-2.1421,1302.7249],[37.1425,-2.1385,1304.7458],[37.1359,-2.137,1309.6243],[37.1361,-2.1306,1315.5105],[37.1318,-2.1302,1311.1611],[37.1289,-2.1265,1312.3239],[37.1287,-2.1182,1331.0057],[37.1264,-2.1103,1323.0294],[37.1144,-2.1011,1332.5361],[37.1131,-2.0924,1335.2125],[37.1059,-2.0879,1337.9926],[37.106,-2.085,1339.3817],[36.997,-2.1096,1624.5474],[36.9843,-2.1075,1637.3193],[36.9542,-2.0918,1676.317],[36.8557,-2.0883,1457.8949],[36.8558,-2.087,1461.9816],[36.853,-2.0859,1461.7603],[36.8531,-2.0836,1461.8965],[36.8508,-2.085,1469.9967],[36.8516,-2.0784,1463.0609],[36.8473,-2.0713,1469.0925],[36.8493,-2.0685,1475.4517],[36.848,-2.0661,1483.8176],[36.8505,-2.0632,1483.8271],[36.8492,-2.0577,1488.4562],[36.8515,-2.0556,1493.3229],[36.8494,-2.0534,1494.0542],[36.842,-2.0524,1493.7351]]]]}}