{"type":"Feature","properties":{"GID_3":"KEN.13.10.3_1","GID_0":"KEN","country":"Kenya","GID_1":"KEN.13_1","province":"Kiambu","NL_NAME_1":"NA","GID_2":"KEN.13.10_1","county":"Limuru","NL_NAME_2":"NA","city":"LimuruEast","VARNAME_3":"NA","NL_NAME_3":"NA","TYPE_3":"Ward","ENGTYPE_3":"Ward","CC_3":"604","HASC_3":"NA","name":"Limuru_East.city"},
"geometry":{"type": "MultiPolygon","coordinates": [[[[36.6749,-1.0564,2360.9565],[36.6768,-1.0461,2287.3257],[36.6726,-1.0458,2315.5244],[36.6642,-1.0547,2394.5803],[36.6608,-1.0619,2385.27],[36.6621,-1.0642,2376.7534],[36.66,-1.0678,2334.812],[36.6576,-1.0668,2321.4983],[36.6533,-1.0684,2342.7949],[36.6502,-1.0663,2305.9136],[36.6488,-1.0669,2315.0894],[36.6476,-1.0732,2308.7817],[36.6485,-1.0794,2344.2632],[36.6452,-1.0845,2312.4819],[36.6465,-1.0926,2276.7832],[36.6427,-1.103,2264.3032],[36.6426,-1.112,2245.833],[36.6445,-1.1169,2249.4133],[36.6502,-1.1165,2268.0903],[36.6675,-1.1208,2197.4146],[36.678,-1.117,2222.4058],[36.6806,-1.1191,2139.7029],[36.6927,-1.123,2104.0034],[36.6951,-1.1259,2092.9509],[36.6996,-1.1258,2072.7495],[36.7044,-1.1287,2080.8447],[36.7117,-1.1362,2028.5254],[36.7128,-1.1393,2014.5088],[36.7189,-1.139,2012.1511],[36.7258,-1.1444,1977.0273],[36.7355,-1.1454,1945.5667],[36.7364,-1.1467,1942.4668],[36.7423,-1.1413,1978.657],[36.7312,-1.1326,1985.9911],[36.7302,-1.1256,2043.027],[36.7353,-1.1199,1999.4204],[36.7305,-1.1179,2028.5803],[36.7271,-1.1234,2044.2782],[36.724,-1.1239,2057.0315],[36.7239,-1.1167,2081.9844],[36.7347,-1.1013,2024.406],[36.7312,-1.0966,2033.8934],[36.7316,-1.0939,2070.6702],[36.7278,-1.0899,2093.0349],[36.7282,-1.0875,2106.2898],[36.7215,-1.0866,2136.3896],[36.7183,-1.088,2133.7285],[36.7141,-1.0845,2182.0283],[36.7125,-1.0798,2201.2444],[36.7073,-1.0745,2188.4629],[36.6981,-1.0769,2265.8325],[36.6903,-1.0755,2282.0518],[36.6894,-1.0738,2294.7654],[36.6844,-1.0724,2306.0708],[36.6797,-1.0724,2295.7585],[36.6758,-1.075,2292.126],[36.6746,-1.0736,2304.3428],[36.6754,-1.0654,2366.0967],[36.6735,-1.0655,2372.1062],[36.6749,-1.0564,2360.9565]]]]}}