{"type": "Feature","bbox": [36.8504,-1.2606,36.8687,-1.2421],"geometry": {"type": "MultiPolygon","coordinates": [[[[36.8588,-1.2606,1630.181],[36.8639,-1.2545,1628.4299],[36.8671,-1.2535,1613.9829],[36.8658,-1.2496,1623.6482],[36.8682,-1.2486,1621.8607],[36.8687,-1.2441,1619.7332],[36.866,-1.2421,1626.537],[36.855,-1.2539,1644.8881],[36.8504,-1.2561,1645.9028],[36.8555,-1.2605,1633.9146],[36.8588,-1.2606,1630.181]]]]}
,"properties": {"GID_3": "KEN.30.15.5_1","GID_0": "KEN","country": "Kenya","GID_1": "KEN.30_1","province": "Nairobi","NL_NAME_1": "NA","GID_2": "KEN.30.15_1","county": "Ruaraka","NL_NAME_2": "NA","city": "Utalii","VARNAME_3": "NA","NL_NAME_3": "NA","TYPE_3": "Ward","ENGTYPE_3": "Ward","CC_3": "1402","HASC_3": "NA","name": "Utalii.city","area_km2": 1.716968,"hist_schema_id": "Elevation0-9000","hist_area_km2": {"1625": 1.314223,"1650": 0.402745}}}