{"type":"Feature","properties":{"GID_3":"KEN.2.2.5_1","GID_0":"KEN","country":"Kenya","GID_1":"KEN.2_1","province":"Bomet","NL_NAME_1":"NA","GID_2":"KEN.2.2_1","county":"BometEast","NL_NAME_2":"NA","city":"Merigi","VARNAME_3":"NA","NL_NAME_3":"NA","TYPE_3":"Ward","ENGTYPE_3":"Ward","CC_3":"976","HASC_3":"NA","name":"Merigi.city"},
"geometry":{"type": "MultiPolygon","coordinates": [[[[35.3877,-0.7188,2070.2917],[35.3853,-0.7179,2110.2439],[35.3824,-0.721,2100.1528],[35.3816,-0.7197,2119.0903],[35.3802,-0.7207,2119.0903],[35.3794,-0.7188,2109.9841],[35.3778,-0.7241,2050.947],[35.3819,-0.7233,2052.5493],[35.3818,-0.7255,2001.4954],[35.3843,-0.7253,2009.3433],[35.3868,-0.728,2044.3264],[35.3877,-0.7346,2007.803],[35.3898,-0.7372,2013.1104],[35.3891,-0.7395,2005.2576],[35.3905,-0.7398,2043.8768],[35.3933,-0.7465,2070.7861],[35.3917,-0.7504,2067.2903],[35.385,-0.749,2161.699],[35.3859,-0.7444,2136.998],[35.3822,-0.7484,2082.6567],[35.3832,-0.7492,2082.6567],[35.3812,-0.7493,2110.9297],[35.3846,-0.7515,2156.4265],[35.3856,-0.7589,2137.9299],[35.3922,-0.7623,2108.9971],[35.3947,-0.7611,2085.0911],[35.3989,-0.7699,2204.8105],[35.394,-0.7655,2145.2004],[35.3908,-0.7669,2148.738],[35.3881,-0.7709,2086.3086],[35.3791,-0.7695,1987.8658],[35.3719,-0.7588,1979.6689],[35.3659,-0.7569,1951.4008],[35.3623,-0.7604,1920.0725],[35.364,-0.7534,1949.4211],[35.3613,-0.7536,1942.8469],[35.3617,-0.7451,1982.4001],[35.3409,-0.7432,2006.9718],[35.3409,-0.7568,1979.1801],[35.3354,-0.7675,1962.4811],[35.3318,-0.7705,1965.6832],[35.3291,-0.7701,1948.1219],[35.3304,-0.7724,1940.8108],[35.3277,-0.7763,1947.4874],[35.3319,-0.7881,1910.4551],[35.3337,-0.7898,1918.8635],[35.3333,-0.7932,1904.7168],[35.3383,-0.7891,1942.5413],[35.3393,-0.791,1928.1277],[35.3406,-0.7907,1928.1277],[35.3407,-0.7869,1938.3829],[35.3433,-0.7892,1909.9299],[35.343,-0.7843,1948.1506],[35.3471,-0.7831,1916.4739],[35.3489,-0.7807,1922.8297],[35.351,-0.7809,1917.7467],[35.35,-0.7785,1920.2939],[35.3661,-0.779,1992.1704],[35.3859,-0.7872,2017.2653],[35.3993,-0.7992,2236.7263],[35.416,-0.7878,2144.6997],[35.4126,-0.7862,2136.6667],[35.4182,-0.7816,2080.7415],[35.4142,-0.7769,2175.4377],[35.4253,-0.7673,2032.1743],[35.4382,-0.7754,2135.2939],[35.4528,-0.7718,2160.1536],[35.4552,-0.7696,2107.272],[35.4595,-0.7724,2058.9299],[35.4753,-0.7691,2226.1235],[35.4849,-0.7807,2101.573],[35.4907,-0.7772,2096.9771],[35.4975,-0.7704,2146.2881],[35.4977,-0.7685,2172.8203],[35.5019,-0.7661,2143.1362],[35.4977,-0.7629,2232.7537],[35.4791,-0.757,2265.187],[35.4342,-0.7211,2186.5847],[35.431,-0.7261,2158.9214],[35.4273,-0.7262,2181.9404],[35.4248,-0.7288,2120.8872],[35.4253,-0.7262,2189.4197],[35.4236,-0.7262,2163.9204],[35.4216,-0.7294,2129.4795],[35.4152,-0.7298,2125.9287],[35.414,-0.7366,2060.9819],[35.4098,-0.7407,2120.4912],[35.4053,-0.7376,2140.5796],[35.402,-0.7373,2142.332],[35.402,-0.7359,2147.0166],[35.3974,-0.7395,2125.6367],[35.3973,-0.7379,2136.1641],[35.3925,-0.7364,2047.8018],[35.3933,-0.7353,2034.0454],[35.3911,-0.7314,2044.4797],[35.3919,-0.725,2023.8972],[35.3877,-0.722,2060.0229],[35.3877,-0.7188,2070.2917]]]]}}