{"type": "Feature","bbox": [36.6479,-1.3704,36.7028,-1.2984],"geometry": {"type": "MultiPolygon","coordinates": [[[[36.6608,-1.3694,1953.8344],[36.6663,-1.3676,1966.5483],[36.6738,-1.3704,1909.6571],[36.6792,-1.3701,1896.9557],[36.6854,-1.3671,1863.0154],[36.6875,-1.3632,1889.4318],[36.6908,-1.3622,1853.0018],[36.6964,-1.3653,1844.5022],[36.7028,-1.3638,1829.4624],[36.6894,-1.3471,1864.1313],[36.6849,-1.3348,1879.4216],[36.6826,-1.3349,1872.6783],[36.6789,-1.326,1886.8342],[36.6749,-1.3278,1883.8958],[36.6691,-1.3236,1888.7355],[36.6728,-1.3219,1896.0309],[36.6635,-1.3173,1894.7708],[36.6662,-1.3125,1905.9366],[36.6625,-1.3072,1896.4973],[36.6618,-1.3027,1949.4597],[36.6597,-1.3005,1946.2251],[36.6484,-1.2984,2006.5254],[36.6479,-1.3198,1996.2451],[36.6618,-1.3255,1900.4797],[36.6651,-1.3252,1899.0566],[36.6736,-1.3304,1878.1288],[36.6718,-1.3385,1886.1019],[36.6653,-1.3423,1907.6648],[36.6591,-1.3499,1920.8287],[36.6595,-1.3562,1926.3142],[36.6607,-1.3562,1924.0818],[36.6608,-1.3694,1953.8344]]]]}
,"properties": {"GID_3": "KEN.10.3.4_1","GID_0": "KEN","country": "Kenya","GID_1": "KEN.10_1","province": "Kajiado","NL_NAME_1": "NA","GID_2": "KEN.10.3_1","county": "KajiadoNorth","NL_NAME_2": "NA","city": "Oloolua","VARNAME_3": "NA","NL_NAME_3": "NA","TYPE_3": "Ward","ENGTYPE_3": "Ward","CC_3": "914","HASC_3": "NA","name": "Oloolua.city","area_km2": 18.2501,"hist_schema_id": "Elevation0-9000","hist_area_km2": {"1825": 0.14837,"1850": 1.90767,"1875": 5.72302,"1900": 3.83655,"1925": 2.43758,"1950": 1.71691,"1975": 1.12342,"2000": 1.2718,"2025": 0.08479}}}