{"type":"Feature","properties":{"GID_3":"KEN.27.3.1_1","GID_0":"KEN","country":"Kenya","GID_1":"KEN.27_1","province":"Migori","NL_NAME_1":"NA","GID_2":"KEN.27.3_1","county":"KuriaWest","NL_NAME_2":"NA","city":"BukiraCentrl/Ikerege","VARNAME_3":"NA","NL_NAME_3":"NA","TYPE_3":"Ward","ENGTYPE_3":"Ward","CC_3":"1290","HASC_3":"NA","name":"Bukira_Centrl_Ikerege.city"},
"geometry":{"type": "MultiPolygon","coordinates": [[[[34.5954,-1.234,1503.3965],[34.5928,-1.2226,1485.9453],[34.594,-1.2208,1481.77],[34.5928,-1.2145,1476.8782],[34.5943,-1.2108,1486.828],[34.5926,-1.2092,1467.4102],[34.5909,-1.2001,1478.2954],[34.5946,-1.1963,1470.8037],[34.5938,-1.1952,1474.0059],[34.597,-1.1931,1453.4623],[34.5988,-1.1685,1437.6614],[34.6012,-1.1605,1436.255],[34.6053,-1.1535,1412.8845],[34.6049,-1.1485,1410.5812],[34.6082,-1.143,1409.2491],[34.6062,-1.1367,1422.4119],[34.6044,-1.1356,1413.7079],[34.6017,-1.1415,1420.7069],[34.592,-1.1511,1439.9919],[34.5824,-1.1506,1423.4542],[34.5761,-1.1592,1448.5731],[34.5721,-1.1741,1457.5424],[34.5646,-1.178,1486.3409],[34.5646,-1.1851,1487.1246],[34.5577,-1.1882,1495.9595],[34.5592,-1.178,1467.3782],[34.5562,-1.1629,1432.8794],[34.5528,-1.1582,1425.3365],[34.5514,-1.1442,1411.1353],[34.5346,-1.1579,1461.8566],[34.5299,-1.1588,1459.5674],[34.5175,-1.1749,1427.9819],[34.5165,-1.1795,1438.8289],[34.5181,-1.1806,1454.6761],[34.5178,-1.1884,1439.6848],[34.521,-1.1929,1456.2638],[34.5194,-1.1949,1443.9243],[34.5194,-1.2024,1464.2479],[34.5224,-1.2057,1470.1849],[34.5257,-1.2179,1475.6672],[34.5259,-1.2223,1486.4114],[34.5242,-1.2257,1483.1317],[34.5311,-1.23,1526.7224],[34.5329,-1.2224,1518.6125],[34.5363,-1.22,1499.5542],[34.5364,-1.2169,1502.9436],[34.5419,-1.2125,1493.9271],[34.5554,-1.2182,1501.7281],[34.5725,-1.2226,1502.6879],[34.5789,-1.2256,1527.3065],[34.588,-1.233,1550.4379],[34.5954,-1.234,1503.3965]]]]}}