{"type": "Feature","id": "891","bbox": [33.89047,-0.1157,35.17091,1.10302],"geometry": {"type": "Polygon","coordinates": [[[34.79713,0.82672,1720.101],[34.7914,0.8276,1739.8801],[34.78592,0.82899,1717.9041],[34.78127,0.83091,1706.3535],[34.77274,0.83597,1696.4387],[34.7684,0.84078,1703.0024],[34.76452,0.84724,1758.6948],[34.76018,0.85948,1931.5634],[34.75956,0.86909,1931.5983],[34.76003,0.87876,2048.7549],[34.76189,0.89075,2146.582],[34.76065,0.89746,2190.9265],[34.75786,0.90222,2203.0293],[34.75352,0.9046,2201.4097],[34.74825,0.90584,2093.1582],[34.7422,0.90666,2181.0723],[34.73662,0.90801,2220.1777],[34.73176,0.90976,2236.9668],[34.72696,0.91317,2313.1279],[34.62438,1.02076,3121.564],[34.60593,1.04877,3397.2107],[34.60453,1.06733,3530.9829],[34.5757,1.09285,4102.6929],[34.56688,1.10302,4108.1436],[34.56123,1.09337,4060.3052],[34.56006,1.09315,4112.709],[34.54035,1.08939,4017.0789],[34.52402,1.09864,3889.0972],[34.50748,1.10252,3977.6108],[34.48702,1.08247,3540.8672],[34.4772,1.06459,3417.6194],[34.46883,1.04423,3063.6331],[34.46366,1.02294,3100.2366],[34.46335,0.99999,2956.5474],[34.46304,0.97808,2822.7231],[34.45715,0.95762,2603.519],[34.43121,0.89354,2085.031],[34.40238,0.85607,1534.7781],[34.38801,0.81582,1393.964],[34.37085,0.80021,1360.0164],[34.30667,0.76807,1303.3376],[34.2984,0.75928,1309.5835],[34.29625,0.74675,1319.4371],[34.2923,0.72373,1288.4148],[34.27618,0.68084,1178.5887],[34.2521,0.655,1170.1293],[34.21975,0.63857,1123.9918],[34.17913,0.62389,1148.0728],[34.14957,0.60363,1130.8875],[34.13242,0.57283,1110.6965],[34.13159,0.56943,1125.3263],[34.10751,0.47072,1218.8715],[34.10441,0.46225,1226.0892],[34.09738,0.45181,1214.2715],[34.08012,0.43134,1210.2737],[34.07568,0.42225,1181.8386],[34.07671,0.40385,1184.8981],[34.08798,0.36737,1173.6495],[34.08519,0.34701,1154.8862],[34.07661,0.33378,1150.2998],[34.04064,0.30587,1155.5909],[33.96027,0.19868,1133.0],[33.95176,0.18733,1133.0],[33.89357,0.10981,1133.0],[33.89047,0.09007,1133.0],[33.92158,-0.01297,1133.0],[33.95248,-0.1157,1133.0],[33.9996,0.00217,1137.0488],[34.00281,0.00884,1133.0],[34.01785,0.03426,1137.1641],[34.01987,0.03907,1137.4971],[34.02111,0.04449,1137.1978],[34.02142,0.05018,1138.531],[34.01863,0.06754,1138.3157],[34.01863,0.07369,1137.4446],[34.01956,0.07932,1137.8711],[34.02126,0.08408,1141.9169],[34.02359,0.0878,1139.851],[34.02576,0.09028,1142.1343],[34.03583,0.09927,1140.4852],[34.04777,0.10759,1142.8782],[34.05707,0.11209,1142.5717],[34.07588,0.11875,1142.751],[34.07805,0.12077,1143.1881],[34.08023,0.12418,1145.4691],[34.08255,0.13214,1144.746],[34.08317,0.13648,1145.2057],[34.08441,0.16893,1227.2502],[34.08782,0.19053,1195.4553],[34.09185,0.20665,1228.2744],[34.09371,0.21079,1215.3171],[34.09573,0.21404,1212.5387],[34.1134,0.2327,1289.625],[34.14337,0.2511,1272.059],[34.14988,0.25306,1267.5302],[34.15919,0.25347,1253.7881],[34.17686,0.25213,1252.8483],[34.18559,0.25337,1240.2979],[34.1921,0.25544,1236.4695],[34.19552,0.25885,1244.6616],[34.19893,0.26283,1239.0679],[34.20156,0.26701,1227.8834],[34.20916,0.28624,1261.8938],[34.21148,0.29016,1280.3406],[34.21412,0.29316,1285.2065],[34.21598,0.29497,1283.283],[34.22296,0.29993,1276.1833],[34.22761,0.30215,1284.3182],[34.23288,0.30381,1272.027],[34.23866,0.30494,1265.2035],[34.24626,0.30536,1252.0004],[34.25448,0.30494,1279.8225],[34.30817,0.29456,1257.7443],[34.31995,0.29332,1243.7476],[34.32569,0.29378,1270.502],[34.3308,0.29564,1282.2008],[34.33923,0.30086,1274.5015],[34.34868,0.30515,1276.5898],[34.35427,0.3066,1284.604],[34.36155,0.30551,1269.6521],[34.37023,0.30164,1250.3025],[34.38822,0.28345,1253.1891],[34.39194,0.27776,1230.2806],[34.39535,0.26789,1232.8643],[34.39814,0.24955,1262.8151],[34.39866,0.23022,1251.2266],[34.3999,0.22459,1260.7942],[34.4016,0.21963,1284.4491],[34.40408,0.21544,1289.5249],[34.45855,0.16046,1370.5836],[34.46087,0.15591,1348.37],[34.46072,0.15095,1327.7272],[34.45762,0.13493,1378.2759],[34.46056,0.12878,1357.4362],[34.46847,0.12191,1399.7648],[34.48661,0.11467,1444.9766],[34.51296,0.09829,1418.4526],[34.51813,0.09353,1399.0221],[34.5203,0.08925,1386.2053],[34.52139,0.08397,1369.6663],[34.52092,0.0786,1358.4294],[34.5186,0.06744,1338.3353],[34.51844,0.03695,1408.2726],[34.51488,0.02672,1369.7568],[34.51007,0.01783,1344.8081],[34.50831,0.01302,1318.7211],[34.50583,0.00367,1373.8633],[34.50537,0.0,1413.6422],[34.5063,-0.00408,1393.4302],[34.50831,-0.00796,1420.2639],[34.5111,-0.0123,1392.3549],[34.51534,-0.01586,1353.187],[34.52154,-0.01974,1339.4792],[34.52883,-0.02098,1316.4589],[34.53735,-0.02041,1344.7423],[34.54976,-0.01648,1428.1564],[34.57678,-0.00506,1456.5042],[34.59337,-0.00072,1507.7371],[34.59942,-0.00103,1538.2382],[34.6221,-0.00749,1478.2031],[34.64582,-0.01902,1584.6692],[34.65264,-0.01964,1435.543],[34.66117,-0.01865,1385.8167],[34.68386,-0.01075,1414.6428],[34.69192,-0.00873,1415.4669],[34.69967,-0.00842,1395.9067],[34.72013,-0.01276,1477.0154],[34.73507,-0.01369,1531.8683],[34.75863,-0.00749,1403.2349],[34.77522,0.01736,1469.2206],[34.81744,0.06,1657.4],[34.83635,0.08315,1695.2799],[34.8438,0.10537,1680.7473],[34.85082,0.12092,1665.8773],[34.85563,0.12873,1701.1995],[34.85997,0.13379,1681.6311],[34.87098,0.14413,1667.415],[34.90002,0.16666,1651.3635],[34.91025,0.17875,1579.657],[34.91397,0.18877,1562.668],[34.92265,0.22335,1605.0647],[34.93103,0.24283,1658.8817],[34.93366,0.25228,1630.2202],[34.93397,0.26004,1609.5398],[34.93196,0.26453,1589.2173],[34.92932,0.26913,1597.4652],[34.92513,0.27859,1631.7479],[34.92048,0.29466,1616.4197],[34.91955,0.30706,1600.3674],[34.92824,0.37212,1653.8625],[34.92824,0.37827,1695.4022],[34.92715,0.3839,1633.0022],[34.91707,0.41507,1615.5812],[34.91366,0.43274,1625.9891],[34.90033,0.46116,1615.843],[34.89764,0.46519,1630.6621],[34.89423,0.4686,1624.0823],[34.89036,0.47139,1620.1602],[34.84896,0.49124,1540.278],[34.83759,0.49847,1544.4768],[34.83604,0.50576,1520.5004],[34.83821,0.54865,1531.3601],[34.84116,0.56208,1680.267],[34.84504,0.57066,1581.5781],[34.85827,0.57816,1604.9121],[34.86338,0.57996,1578.8749],[34.86881,0.58126,1583.1523],[34.87485,0.58203,1580.8198],[34.88059,0.58152,1593.863],[34.88602,0.58007,1611.6317],[34.89981,0.57304,1639.7267],[34.90477,0.57159,1701.5338],[34.91056,0.57097,1763.6924],[34.91645,0.57154,1864.3708],[34.92312,0.57542,1961.0986],[34.93056,0.58214,1802.5195],[34.95573,0.62074,1667.1755],[34.95986,0.62477,1689.1559],[34.96394,0.6273,1719.8793],[34.96782,0.62864,1735.005],[34.97014,0.62895,1749.8123],[34.97309,0.62875,1761.3698],[34.98611,0.62554,1732.7916],[34.99185,0.62503,1782.0593],[34.99728,0.62513,1797.4082],[35.00053,0.62575,1804.5435],[35.00441,0.62699,1826.0746],[35.02182,0.63634,1833.1406],[35.03267,0.63898,1849.3135],[35.03887,0.63913,1820.8732],[35.04446,0.63851,1857.2189],[35.04973,0.63702,1843.3098],[35.05872,0.63247,1855.0662],[35.06368,0.63076,1804.9849],[35.07536,0.62973,1815.5337],[35.08047,0.6303,1822.0225],[35.08388,0.63138,1845.2736],[35.08714,0.63278,1872.9417],[35.10543,0.64508,1831.2725],[35.11241,0.65149,1886.2759],[35.11613,0.658,1907.7438],[35.12156,0.67598,1925.6814],[35.12502,0.68146,1935.0831],[35.12905,0.68544,1945.3394],[35.15215,0.69779,1963.3396],[35.15649,0.70089,1950.7971],[35.16424,0.70802,1950.0701],[35.16796,0.71391,1953.2119],[35.17044,0.72083,1963.5063],[35.17091,0.72781,1948.7965],[35.17013,0.73696,1923.8765],[35.16812,0.74311,1914.2458],[35.16517,0.74771,1934.3384],[35.15897,0.75411,1932.5039],[35.15742,0.75784,1921.5186],[35.15665,0.76125,1909.1918],[35.15696,0.78631,1862.783],[35.1554,0.80207,1876.4753],[35.15292,0.80734,1879.6323],[35.1351,0.83142,1840.046],[35.12998,0.84543,1871.0764],[35.12843,0.84853,1907.8818],[35.12636,0.85132,1913.9027],[35.12378,0.85395,1866.3037],[35.12094,0.85576,1854.8152],[35.11412,0.85933,1831.2845],[35.09474,0.8663,1798.413],[35.08404,0.86904,1819.1135],[35.07908,0.8709,1840.231],[35.06973,0.87561,1817.6697],[35.06151,0.88083,1843.7939],[35.05655,0.88258,1819.3872],[35.05112,0.88367,1823.9285],[34.99371,0.88558,1807.0896],[34.96239,0.88181,1736.41],[34.95697,0.88031,1744.9252],[34.95195,0.87824,1718.9739],[34.94777,0.87561,1707.7712],[34.9442,0.87245,1715.8613],[34.94079,0.86894,1709.834],[34.92327,0.84538,1720.875],[34.91971,0.84227,1707.9822],[34.91506,0.84021,1681.6204],[34.90963,0.84,1711.2491],[34.90446,0.84134,1743.2815],[34.8994,0.84351,1751.9619],[34.89423,0.84507,1751.4102],[34.8885,0.84538,1764.1489],[34.88276,0.84465,1787.9077],[34.85501,0.83824,1727.7258],[34.83387,0.83111,1685.413],[34.79713,0.82672,1720.101]]]}
,"properties": {"ISO3166-1-Alpha-3": "KEN","country": "Kenya","fill": "#F0F","name": "Western","area_km2": 8367.215,"hist_schema_id": "Elevation0-9000","hist_area_km2": {"1100": 16.07,"1125": 334.779,"1150": 225.459,"1175": 215.196,"1200": 278.843,"1225": 330.786,"1250": 304.772,"1275": 312.321,"1300": 306.087,"1325": 299.45,"1350": 273.839,"1375": 270.362,"1400": 278.524,"1425": 322.984,"1450": 380.504,"1475": 398.652,"1500": 362.8,"1525": 304.793,"1550": 311.492,"1575": 309.796,"1600": 280.24,"1625": 234.102,"1650": 198.758,"1675": 195.724,"1700": 155.738,"1725": 118.807,"1750": 93.578,"1775": 84.928,"1800": 84.864,"1825": 83.72,"1850": 77.826,"1875": 69.559,"1900": 69.368,"1925": 40.726,"1950": 19.123,"1975": 11.406,"2000": 12.211,"2025": 13.547,"2050": 15.328,"2075": 16.154,"2100": 16.642,"2125": 17.278,"2150": 16.663,"2175": 17.808,"2200": 17.405,"2225": 17.829,"2250": 16.981,"2275": 16.303,"2300": 15.9,"2325": 18.465,"2350": 20.267,"2375": 19.716,"2400": 16.069,"2425": 15.73,"2450": 14.967,"2475": 12.72,"2500": 11.448,"2525": 10.812,"2550": 11.532,"2575": 11.448,"2600": 10.706,"2625": 10.472,"2650": 9.879,"2675": 10.154,"2700": 10.388,"2725": 10.79,"2750": 10.027,"2775": 10.091,"2800": 9.264,"2825": 9.688,"2850": 9.561,"2875": 9.858,"2900": 10.303,"2925": 9.158,"2950": 7.674,"2975": 7.526,"3000": 8.352,"3025": 8.119,"3050": 8.246,"3075": 8.819,"3100": 7.801,"3125": 7.335,"3150": 6.89,"3175": 5.321,"3200": 5.851,"3225": 5.469,"3250": 5.978,"3275": 5.575,"3300": 5.236,"3325": 5.278,"3350": 5.596,"3375": 5.618,"3400": 5.045,"3425": 5.745,"3450": 4.812,"3475": 4.325,"3500": 3.879,"3525": 4.07,"3550": 3.328,"3575": 3.328,"3600": 3.371,"3625": 4.261,"3650": 3.689,"3675": 3.201,"3700": 2.65,"3725": 2.226,"3750": 1.823,"3775": 1.971,"3800": 1.802,"3825": 2.014,"3850": 2.289,"3875": 2.268,"3900": 1.696,"3925": 1.95,"3950": 1.611,"3975": 1.357,"4000": 1.187,"4025": 0.975,"4050": 0.848,"4075": 0.594,"4100": 0.233,"4125": 0.106,"4150": 0.127,"4175": 0.106}}}