{"type":"Feature","properties":{"GID_3":"KEN.2.5.5_1","GID_0":"KEN","country":"Kenya","GID_1":"KEN.2_1","province":"Bomet","NL_NAME_1":"NA","GID_2":"KEN.2.5_1","county":"Sotik","NL_NAME_2":"NA","city":"Rongena/Manaret","VARNAME_3":"NA","NL_NAME_3":"NA","TYPE_3":"Ward","ENGTYPE_3":"Ward","CC_3":"970","HASC_3":"NA","name":"Rongena_Manaret.city"},
"geometry":{"type": "MultiPolygon","coordinates": [[[[35.0823,-0.6474,1720.9678],[35.0797,-0.6462,1753.2439],[35.0809,-0.6399,1716.9106],[35.0832,-0.6366,1719.1235],[35.0797,-0.6337,1782.1808],[35.0831,-0.6338,1739.078],[35.081,-0.6298,1775.5538],[35.0842,-0.6271,1757.1733],[35.0878,-0.6197,1750.7301],[35.0823,-0.6162,1760.0432],[35.0856,-0.6143,1713.709],[35.084,-0.6108,1724.7603],[35.0868,-0.6032,1743.1709],[35.0814,-0.6005,1741.0746],[35.0819,-0.5947,1687.4603],[35.084,-0.594,1708.135],[35.0726,-0.5931,1765.824],[35.067,-0.5992,1783.7878],[35.0632,-0.6166,1816.9602],[35.0592,-0.6166,1807.1024],[35.0641,-0.6237,1814.0084],[35.0641,-0.6267,1804.6272],[35.059,-0.6312,1807.9219],[35.0554,-0.6395,1836.9973],[35.0569,-0.6432,1824.1438],[35.0548,-0.6507,1834.8488],[35.0572,-0.6592,1843.5454],[35.0632,-0.6659,1848.8762],[35.0623,-0.6708,1843.0189],[35.0668,-0.6773,1817.1305],[35.0693,-0.6783,1772.1409],[35.0724,-0.6871,1765.8037],[35.0676,-0.6903,1775.9321],[35.0603,-0.6906,1785.0969],[35.0502,-0.6966,1849.9087],[35.0477,-0.7021,1851.5245],[35.0913,-0.7969,1802.574],[35.1012,-0.8038,1804.5677],[35.1163,-0.7851,1765.4243],[35.1422,-0.7729,1785.8917],[35.1386,-0.772,1775.7561],[35.1362,-0.7687,1778.8289],[35.129,-0.7694,1758.1591],[35.1252,-0.7632,1762.345],[35.1306,-0.7619,1760.2468],[35.129,-0.7614,1760.2468],[35.1301,-0.7591,1768.302],[35.1272,-0.7582,1756.593],[35.1293,-0.7561,1773.4684],[35.1239,-0.7549,1759.3514],[35.1245,-0.7535,1758.3765],[35.1217,-0.7508,1751.2433],[35.1227,-0.745,1759.8138],[35.1205,-0.744,1749.576],[35.124,-0.741,1765.9171],[35.1215,-0.7413,1760.2723],[35.1201,-0.7396,1737.8169],[35.118,-0.7327,1779.6624],[35.1221,-0.732,1746.6249],[35.1211,-0.7258,1765.4928],[35.1171,-0.7205,1803.2307],[35.1119,-0.7199,1765.8755],[35.112,-0.7178,1775.0786],[35.1087,-0.7144,1739.526],[35.1091,-0.7121,1751.8947],[35.1058,-0.7107,1736.2184],[35.107,-0.7068,1732.6926],[35.106,-0.7054,1728.5946],[35.1037,-0.7059,1728.9077],[35.1023,-0.7027,1757.1278],[35.1038,-0.7,1772.0865],[35.0995,-0.6992,1743.1572],[35.0972,-0.697,1739.6055],[35.0969,-0.6938,1725.2146],[35.0921,-0.6912,1767.6758],[35.0944,-0.6879,1732.5482],[35.098,-0.6867,1752.0161],[35.0942,-0.6819,1743.1287],[35.0974,-0.6791,1730.8372],[35.0978,-0.6763,1722.9768],[35.1022,-0.6747,1767.2369],[35.1007,-0.6722,1750.8022],[35.0974,-0.6721,1766.1603],[35.099,-0.6703,1778.6582],[35.0981,-0.6689,1786.366],[35.0916,-0.6707,1744.1614],[35.0892,-0.6652,1751.8129],[35.0874,-0.667,1743.4263],[35.083,-0.6675,1718.2366],[35.084,-0.6639,1761.0103],[35.0799,-0.66,1731.1953],[35.0782,-0.6538,1719.499],[35.0795,-0.6514,1715.9506],[35.0778,-0.6484,1735.7811],[35.0786,-0.6468,1755.4792],[35.0816,-0.6492,1723.2969],[35.0823,-0.6474,1720.9678]]]]}}