{"type":"Feature","properties":{"GID_3":"KEN.4.2.4_1","GID_0":"KEN","country":"Kenya","GID_1":"KEN.4_1","province":"Busia","NL_NAME_1":"NA","GID_2":"KEN.4.2_1","county":"Butula","NL_NAME_2":"NA","city":"MarachiEast","VARNAME_3":"NA","NL_NAME_3":"NA","TYPE_3":"Ward","ENGTYPE_3":"Ward","CC_3":"1145","HASC_3":"NA","name":"Marachi_East.city"},
"geometry":{"type": "MultiPolygon","coordinates": [[[[34.3006,0.3595,1239.0309],[34.2953,0.3492,1247.8828],[34.2888,0.3412,1254.3682],[34.2927,0.332,1252.4427],[34.2922,0.3224,1259.7275],[34.2948,0.3123,1273.2672],[34.3165,0.3119,1285.7621],[34.3344,0.314,1270.8259],[34.3676,0.3069,1251.9927],[34.3793,0.3163,1270.6769],[34.3827,0.321,1267.4305],[34.3856,0.3391,1269.9937],[34.385,0.3547,1294.8208],[34.3867,0.3575,1299.2834],[34.3653,0.3567,1246.1259],[34.3634,0.3583,1245.7604],[34.3594,0.3506,1256.8773],[34.356,0.3488,1288.3411],[34.3495,0.3486,1301.1006],[34.3396,0.3598,1258.9641],[34.3251,0.3603,1257.2363],[34.3174,0.3663,1230.486],[34.315,0.3635,1243.8302],[34.3083,0.3617,1244.1367],[34.3072,0.3568,1248.4896],[34.3006,0.3595,1239.0309]]]]}}