{"type":"Feature","properties":{"GID_3":"KEN.28.6.2_1","GID_0":"KEN","country":"Kenya","GID_1":"KEN.28_1","province":"Mombasa","NL_NAME_1":"NA","GID_2":"KEN.28.6_1","county":"Nyali","NL_NAME_2":"NA","city":"Kadzandani","VARNAME_3":"NA","NL_NAME_3":"NA","TYPE_3":"Ward","ENGTYPE_3":"Ward","CC_3":"20","HASC_3":"NA","name":"Kadzandani.city"},
"geometry":{"type": "MultiPolygon","coordinates": [[[[39.6879,-4.0196,26.4247],[39.6928,-4.0221,25.2522],[39.6944,-4.0247,22.9788],[39.7168,-4.0188,13.234],[39.7205,-4.0148,18.7178],[39.7222,-4.005,8.2236],[39.7083,-4.0001,26.1757],[39.698,-3.9999,28.3513],[39.6879,-4.0196,26.4247]]]]}}