{"type": "Feature","bbox": [34.916,0.1685,34.9878,0.2459],"geometry": {"type": "MultiPolygon","coordinates": [[[[34.92,0.1855,1597.4744],[34.916,0.1774,1614.1638],[34.9186,0.1744,1645.0679],[34.9212,0.1737,1682.384],[34.9284,0.1766,1677.1577],[34.9418,0.1737,1697.7889],[34.9437,0.1746,1719.3986],[34.9448,0.1723,1726.4344],[34.9435,0.1707,1698.5114],[34.9463,0.1694,1718.7708],[34.9497,0.1709,1740.2201],[34.9496,0.1743,1732.6613],[34.9519,0.1736,1753.5914],[34.9529,0.1767,1743.8022],[34.9592,0.1685,1739.9596],[34.9691,0.1744,1796.9663],[34.9722,0.1689,1766.5281],[34.9839,0.176,1839.6448],[34.9868,0.1819,1854.559],[34.9848,0.1895,1905.2917],[34.9878,0.21,2014.2964],[34.9785,0.2459,2071.3569],[34.9565,0.2458,1664.1973],[34.9432,0.2131,1645.4448],[34.929,0.2136,1597.5612],[34.92,0.1855,1597.4744]]]]}
,"properties": {"GID_3": "KEN.32.3.2_1","GID_0": "KEN","country": "Kenya","GID_1": "KEN.32_1","province": "Nandi","NL_NAME_1": "NA","GID_2": "KEN.32.3_1","county": "Emgwen","NL_NAME_2": "NA","city": "Kapkangani","VARNAME_3": "NA","NL_NAME_3": "NA","TYPE_3": "Ward","ENGTYPE_3": "Ward","CC_3": "771","HASC_3": "NA","name": "Kapkangani.city","area_km2": 44.79998,"hist_schema_id": "Elevation0-9000","hist_area_km2": {"1550": 0.0212,"1575": 0.27563,"1600": 1.73857,"1625": 3.62555,"1650": 5.32172,"1675": 6.08499,"1700": 5.49134,"1725": 4.34643,"1750": 3.45594,"1775": 3.34993,"1800": 2.50185,"1825": 1.84458,"1850": 2.0142,"1875": 1.20852,"1900": 0.80568,"1925": 0.57246,"1950": 0.63606,"1975": 0.42404,"2000": 0.29683,"2025": 0.25442,"2050": 0.19082,"2075": 0.10601,"2100": 0.10601,"2125": 0.08481,"2150": 0.0424}}}