{"type":"Feature","properties":{"GID_3":"KEN.20.3.4_1","GID_0":"KEN","country":"Kenya","GID_1":"KEN.20_1","province":"Laikipia","NL_NAME_1":"NA","GID_2":"KEN.20.3_1","county":"LaikipiaWest","NL_NAME_2":"NA","city":"Ol-Moran","VARNAME_3":"NA","NL_NAME_3":"NA","TYPE_3":"Ward","ENGTYPE_3":"Ward","CC_3":"811","HASC_3":"NA","name":"Ol-Moran.city"},
"geometry":{"type": "MultiPolygon","coordinates": [[[[36.2568,0.4857,1975.6433],[36.3288,0.4909,1995.5413],[36.357,0.4758,2027.2631],[36.3489,0.3851,2048.271],[36.3823,0.4,2036.9011],[36.4411,0.4277,1959.1212],[36.427,0.4501,2006.7872],[36.4126,0.4667,2001.4445],[36.3985,0.4705,2002.924],[36.3792,0.5008,1926.0881],[36.4217,0.5482,1959.0742],[36.4274,0.5452,1971.4841],[36.4429,0.5429,1966.2288],[36.4538,0.5372,1958.5582],[36.4586,0.5377,1963.6085],[36.473,0.5332,1959.2983],[36.4749,0.5298,1955.4375],[36.4892,0.5213,1953.5525],[36.5329,0.4823,1936.6536],[36.5733,0.5762,1923.5979],[36.5884,0.6388,1832.5447],[36.5346,0.6654,1926.9495],[36.4572,0.6952,2042.9995],[36.4051,0.7233,1895.8439],[36.3474,0.666,1875.541],[36.2891,0.6507,1672.9731],[36.2779,0.637,1289.1261],[36.2941,0.5704,1412.8572],[36.2568,0.4857,1975.6433]]]]}}