{"type":"Feature","properties":{"GID_3":"KEN.21.2.5_1","GID_0":"KEN","country":"Kenya","GID_1":"KEN.21_1","province":"Lamu","NL_NAME_1":"NA","GID_2":"KEN.21.2_1","county":"LamuWest","NL_NAME_2":"NA","city":"Mkunumbi","VARNAME_3":"NA","NL_NAME_3":"NA","TYPE_3":"Ward","ENGTYPE_3":"Ward","CC_3":"107","HASC_3":"NA","name":"Mkunumbi.city"},
"geometry":{"type": "MultiPolygon","coordinates": [[[[40.4333,-1.9351,72.7668],[40.4033,-1.9472,73.0607],[40.3595,-1.968,53.5526],[40.3627,-1.9755,57.5172],[40.368899999999996,-2.0026,54.0675],[40.3799,-2.0189,53.0509],[40.3935,-2.034,53.2609],[40.3997,-2.0362,54.6885],[40.4065,-2.0417,49.9752],[40.4294,-2.0691,47.628],[40.4397,-2.0703,45.3184],[40.4501,-2.0747,43.2341],[40.4527,-2.0818,41.9357],[40.4541,-2.0932,43.707],[40.4441,-2.1082,36.9802],[40.4403,-2.1216,35.2049],[40.4425,-2.1253,34.3924],[40.4445,-2.137,32.1421],[40.4497,-2.1471,30.4485],[40.4551,-2.1535,30.0514],[40.4559,-2.1595,28.6004],[40.4597,-2.1634,27.4222],[40.4599,-2.1694,29.0198],[40.4637,-2.1779,33.918],[40.4687,-2.1807,32.3213],[40.4803,-2.1809,32.6552],[40.5095,-2.2217,24.9956],[40.5297,-2.2277,22.2176],[40.5313,-2.3442,15.1955],[40.5363,-2.3519,17.9056],[40.5379,-2.3737,18.0859],[40.5567,-2.363,18.0213],[40.5593,-2.3661,20.8191],[40.5649,-2.3639,17.3767],[40.5695,-2.3598,14.2539],[40.5679,-2.3559,15.8225],[40.5703,-2.3545,14.8287],[40.6795,-2.3142,14.6184],[40.6993,-2.3459,12.6408],[40.7011,-2.3496,12.4404],[40.6972,-2.3524,13.2782],[40.7061,-2.3672,10.8934],[40.7199,-2.3576,10.9259],[40.7277,-2.3715,9.8621],[40.7363,-2.3678,10.8022],[40.7445,-2.3604,10.3068],[40.7523,-2.3721,8.8877],[40.7639,-2.3659,7.9353],[40.7607,-2.3611,7.6258],[40.7774,-2.3508,2.3034],[40.7754,-2.3374,3.0204],[40.7776,-2.3332,0.0],[40.7735,-2.331,0.0],[40.7713,-2.326,0.0],[40.7674,-2.3226,0.0],[40.7515,-2.3143,0.0],[40.751,-2.3118,0.0],[40.7435,-2.3032,2.3895],[40.7346,-2.299,0.0],[40.7238,-2.2974,0.0],[40.7301,-2.2895,2.4352],[40.7284,-2.2664,5.523],[40.7239,-2.2673,3.632],[40.7213,-2.2633,2.6122],[40.7153,-2.2624,3.9281],[40.7085,-2.2641,1.1421],[40.7055,-2.2621,1.4439],[40.7041,-2.2584,1.5294],[40.7085,-2.26,6.5386],[40.7171,-2.2591,6.7801],[40.7233,-2.2511,7.1285],[40.7263,-2.2518,4.0321],[40.7275,-2.243,6.1048],[40.7247,-2.2341,4.1919],[40.7145,-2.2191,3.0418],[40.7111,-2.218,6.2476],[40.7031,-2.2077,5.1807],[40.6991,-2.2066,8.2336],[40.7045,-2.2005,9.1507],[40.7061,-2.1939,10.3205],[40.7085,-2.1933,11.0942],[40.7104,-2.19,8.9446],[40.7107,-2.1855,10.4205],[40.7061,-2.1798,9.0893],[40.7049,-2.1744,12.5357],[40.7045,-2.1702,13.5101],[40.7065,-2.1697,11.0574],[40.7059,-2.1631,12.4791],[40.7021,-2.1552,13.7124],[40.7033,-2.1393,14.2892],[40.6976,-2.1274,13.8834],[40.6981,-2.1243,15.2838],[40.6955,-2.1167,15.9536],[40.6909,-2.1142,16.6602],[40.6848,-2.1147,15.813],[40.6807,-2.1132,17.8671],[40.6685,-2.1009,17.8027],[40.6601,-2.0998,17.7523],[40.6605,-2.0866,19.7748],[40.6585,-2.0849,20.852],[40.6527,-2.0846,22.143],[40.6535,-2.0761,22.9329],[40.6507,-2.0728,21.1426],[40.6501,-2.0664,21.4455],[40.6445,-2.0643,21.5971],[40.6374,-2.0657,20.6815],[40.6287,-2.0586,20.6275],[40.6263,-2.0516,21.6957],[40.6103,-2.0323,24.8376],[40.6119,-2.028,24.4011],[40.6073,-2.0182,26.5107],[40.6065,-2.0124,26.5166],[40.5879,-1.9972,31.5231],[40.5811,-1.9808,32.0525],[40.5715,-1.976,32.7966],[40.5641,-1.9614,35.1743],[40.5545,-1.9532,43.0261],[40.5483,-1.9419,38.9775],[40.5389,-1.936,40.5221],[40.5327,-1.9287,44.786],[40.5235,-1.9103,46.1778],[40.5185,-1.9063,45.3594],[40.5169,-1.8997,51.0241],[40.4333,-1.9351,72.7668]]]]}}