{"type":"Feature","properties":{"GID_2":"KEN.30.8_1","GID_0":"KEN","country":"Kenya","GID_1":"KEN.30_1","province":"Nairobi","NL_NAME_1":"NA","county":"Kamukunji","VARNAME_2":"NA","NL_NAME_2":"NA","TYPE_2":"Constituency","ENGTYPE_2":"Constituency","CC_2":"288","HASC_2":"NA","name":"Kamukunji.county"},
"geometry":{"type": "MultiPolygon","coordinates": [[[[36.8517,-1.289,1630.0798],[36.8515,-1.2874,1641.0175],[36.8699,-1.2782,1615.1318],[36.8745,-1.2658,1615.3661],[36.8773,-1.2656,1609.1316],[36.8783,-1.2635,1604.7698],[36.8783,-1.2599,1613.8184],[36.8687,-1.259,1622.7635],[36.8583,-1.2635,1617.2776],[36.8432,-1.2651,1650.9524],[36.8458,-1.2778,1651.2251],[36.8438,-1.2779,1652.5634],[36.8437,-1.2805,1652.7681],[36.8379,-1.2825,1657.4281],[36.8394,-1.2843,1647.4397],[36.8315,-1.2834,1657.4829],[36.8399,-1.2866,1640.416],[36.8402,-1.2898,1650.6536],[36.8506,-1.2919,1642.1846],[36.8517,-1.289,1630.0798]]]]}}