{"type":"Feature","properties":{"GID_2":"KEN.30.17_1","GID_0":"KEN","country":"Kenya","GID_1":"KEN.30_1","province":"Nairobi","NL_NAME_1":"NA","county":"Westlands","VARNAME_2":"NA","NL_NAME_2":"NA","TYPE_2":"Constituency","ENGTYPE_2":"Constituency","CC_2":"274","HASC_2":"NA","name":"Westlands.county"},
"geometry":{"type": "MultiPolygon","coordinates": [[[[36.7492,-1.2717,1814.9172],[36.7569,-1.2712,1778.8949],[36.7575,-1.2686,1798.01],[36.7616,-1.2678,1800.225],[36.7593,-1.265,1811.3787],[36.7528,-1.2616,1820.6636],[36.7789,-1.2563,1758.6594],[36.7987,-1.2591,1720.391],[36.8117,-1.2725,1693.4509],[36.8152,-1.2671,1688.0005],[36.8317,-1.2649,1659.3405],[36.8398,-1.2609,1653.7506],[36.8463,-1.2462,1638.8514],[36.8437,-1.2413,1661.9181],[36.8423,-1.2299,1662.9792],[36.8345,-1.2182,1696.5945],[36.834,-1.2124,1689.6729],[36.791,-1.1889,1767.1635],[36.7841,-1.2018,1744.9316],[36.7844,-1.2037,1743.9445],[36.7874,-1.2048,1749.2017],[36.7835,-1.2083,1752.6304],[36.7845,-1.2091,1752.6304],[36.7783,-1.2203,1770.3737],[36.7716,-1.217,1785.5594],[36.7701,-1.2199,1774.1624],[36.7567,-1.2125,1807.9197],[36.7467,-1.2307,1815.3137],[36.7292,-1.2278,1849.6365],[36.7277,-1.2391,1828.9684],[36.7249,-1.2415,1834.3386],[36.7255,-1.2485,1849.1442],[36.7184,-1.2606,1905.4829],[36.7373,-1.2754,1838.843],[36.7492,-1.2717,1814.9172]]]]}}