{"type":"Feature","properties":{"GID_3":"KEN.13.12.3_1","GID_0":"KEN","country":"Kenya","GID_1":"KEN.13_1","province":"Kiambu","NL_NAME_1":"NA","GID_2":"KEN.13.12_1","county":"ThikaTown","NL_NAME_2":"NA","city":"Kamenu","VARNAME_3":"NA","NL_NAME_3":"NA","TYPE_3":"Ward","ENGTYPE_3":"Ward","CC_3":"565","HASC_3":"NA","name":"Kamenu.city"},
"geometry":{"type": "MultiPolygon","coordinates": [[[[37.1063,-1.0886,1476.7463],[37.1161,-1.089,1441.7863],[37.1267,-1.094,1469.3243],[37.1352,-1.101,1451.6995],[37.1384,-1.101,1467.1729],[37.1332,-1.0839,1472.0291],[37.134,-1.061,1476.4725],[37.1187,-1.0595,1481.8481],[37.1185,-1.0519,1480.5103],[37.1053,-1.0465,1485.2948],[37.0949,-1.0449,1490.1633],[37.0942,-1.0428,1483.7401],[37.08,-1.0361,1499.6017],[37.0774,-1.0314,1477.9441],[37.0723,-1.0307,1506.3247],[37.0703,-1.0369,1506.954],[37.062,-1.0338,1495.9845],[37.0536,-1.055,1510.8892],[37.0778,-1.0697,1473.6334],[37.0799,-1.0655,1496.3098],[37.095,-1.0819,1469.7932],[37.0962,-1.0851,1452.3794],[37.1035,-1.0891,1476.6129],[37.1063,-1.0886,1476.7463]]]]}}