{"type":"Feature","properties":{"GID_3":"KEN.44.2.1_1","GID_0":"KEN","country":"Kenya","GID_1":"KEN.44_1","province":"UasinGishu","NL_NAME_1":"NA","GID_2":"KEN.44.2_1","county":"Kapseret","NL_NAME_2":"NA","city":"Kipkenyo","VARNAME_3":"NA","NL_NAME_3":"NA","TYPE_3":"Ward","ENGTYPE_3":"Ward","CC_3":"723","HASC_3":"NA","name":"Kipkenyo.city"},
"geometry":{"type": "MultiPolygon","coordinates": [[[[35.2432,0.4709,2093.9153],[35.2496,0.4615,2114.5918],[35.267,0.4952,2103.4656],[35.2663,0.5035,2095.553],[35.2699,0.5068,2100.1006],[35.276,0.5035,2102.7559],[35.2787,0.4992,2096.0146],[35.282,0.5078,2075.1868],[35.282,0.5152,2093.9692],[35.2788,0.5131,2074.9207],[35.2769,0.5185,2084.001],[35.2725,0.5197,2088.719],[35.2705,0.5226,2090.3081],[35.2617,0.5192,2081.2112],[35.2589,0.522,2070.1252],[35.253,0.5215,2048.9326],[35.2491,0.5285,2060.1848],[35.2475,0.5254,2056.6768],[35.2446,0.5271,2053.2327],[35.2429,0.5263,2040.9539],[35.2393,0.5289,2005.5424],[35.2412,0.5313,2025.7539],[35.2341,0.5405,2030.291],[35.2312,0.5393,1992.1577],[35.23,0.5425,1977.4817],[35.2251,0.5412,1973.308],[35.2233,0.5427,1968.6832],[35.2277,0.5497,1984.7852],[35.2215,0.5488,1985.632],[35.2164,0.5519,1972.1019],[35.2167,0.5547,1979.8481],[35.2129,0.5575,1964.0829],[35.2077,0.5364,2017.5363],[35.2354,0.5142,2045.698],[35.2445,0.5136,2067.2234],[35.2419,0.5112,2061.8638],[35.2553,0.5,2083.3628],[35.2432,0.4709,2093.9153]]]]}}