{"type":"Feature","properties":{"GID_3":"KEN.4.1.3_1","GID_0":"KEN","country":"Kenya","GID_1":"KEN.4_1","province":"Busia","NL_NAME_1":"NA","GID_2":"KEN.4.1_1","county":"Budalangi","NL_NAME_2":"NA","city":"BunyalaSouth","VARNAME_3":"NA","NL_NAME_3":"NA","TYPE_3":"Ward","ENGTYPE_3":"Ward","CC_3":"1155","HASC_3":"NA","name":"Bunyala_South.city"},
"geometry":{"type": "MultiPolygon","coordinates": [[[[34.0119,0.0951,1139.0],[34.0063,0.098,1137.8823],[34.0063,0.1021,1137.9819],[34.0021,0.1017,1137.9543],[34.0009,0.098,1138.084],[33.9983,0.1012,1137.6985],[33.9969,0.0975,1137.906],[33.9944,0.0961,1162.6979],[33.9917,0.1006,1152.7589],[33.9867,0.099,1191.1875],[33.9839,0.0954,1155.8809],[33.9881,0.0935,1139.9574],[33.9864,0.0923,1141.377],[33.987,0.0843,1137.9568],[33.985,0.0834,1137.745],[33.9844,0.0794,1137.2692],[33.9802,0.0814,1138.4985],[33.9781,0.0774,1137.9121],[33.9766,0.0799,1138.001],[33.9725,0.0775,1136.842],[33.9702,0.0789,1135.9164],[33.9698,0.0729,1136.2838],[33.9671,0.0739,1136.5051],[33.9647,0.0692,1137.9081],[33.9525,0.0702,1133.0],[33.9233,0.0667,1133.0],[33.9126,0.1035,1249.4406],[33.9102,0.105,1133.0],[33.9096,0.102,1133.0],[33.9127,0.0995,1155.3978],[33.9413,0.0019,1133.0],[33.9499,-0.0225,1133.0],[34.0073,-0.0222,1133.0],[34.0158,-0.0239,1139.7903],[34.03,-0.0135,1137.8573],[34.0421,0.0043,1139.9589],[34.0497,0.032,1140.5825],[34.0197,0.0394,1137.4971],[34.0153,0.0433,1136.5461],[34.0119,0.0951,1139.0]]]]}}