{"type":"Feature","properties":{"GID_2":"KEN.33.4_1","GID_0":"KEN","country":"Kenya","GID_1":"KEN.33_1","province":"Narok","NL_NAME_1":"NA","county":"NarokNorth","VARNAME_2":"NA","NL_NAME_2":"NA","TYPE_2":"Constituency","ENGTYPE_2":"Constituency","CC_2":"179","HASC_2":"NA","name":"Narok_North.county"},
"geometry":{"type": "MultiPolygon","coordinates": [[[[35.9533,-1.0861,1884.1265],[35.9579,-1.0763,1897.4055],[35.9683,-1.0718,1903.6211],[35.9651,-1.0701,1913.4574],[35.9635,-1.0672,1938.1384],[35.9664,-1.0653,1917.3717],[35.9658,-1.0597,1930.1631],[35.9677,-1.0575,1927.9237],[35.9657,-1.0539,1945.6691],[35.9681,-1.0497,1940.4214],[35.966,-1.0424,1951.9303],[35.9634,-1.0409,1951.8766],[35.9646,-1.0355,1975.7374],[35.9631,-1.0351,1986.3932],[35.9634,-1.0329,2010.0819],[35.9576,-1.0299,1977.5222],[35.9583,-1.0279,2013.5997],[35.9568,-1.0253,2024.478],[35.9514,-1.0208,2016.5809],[35.9518,-1.0105,2040.514],[35.956,-1.0078,2034.4583],[35.958,-0.9982,2065.5693],[35.9614,-0.9983,2068.1758],[35.9629,-0.9951,2069.1841],[35.9651,-0.9946,2043.3604],[35.9647,-0.9914,2053.8398],[35.9665,-0.9889,2081.4514],[35.976,-0.9852,2131.9272],[35.981,-0.9802,2132.5195],[35.9881,-0.9595,2262.5662],[35.993899999999996,-0.9559,2254.9526],[35.9972,-0.9489,2292.1057],[35.9957,-0.9416,2344.6433],[36.0028,-0.9335,2296.5178],[36.0012,-0.9248,2408.8394],[36.0156,-0.9029,2446.2991],[36.0144,-0.8985,2502.292],[36.0178,-0.8923,2537.3875],[36.0412,-0.8772,2663.2339],[36.0475,-0.8722,2709.1577],[36.0534,-0.8646,2706.9253],[36.0686,-0.8524,2841.5544],[36.07,-0.8352,2911.207],[36.0778,-0.8272,2954.7505],[36.0844,-0.8227,2992.8821],[36.0972,-0.8181,2954.0867],[36.0983,-0.8236,3040.6309],[36.1025,-0.827,2947.6836],[36.1108,-0.84,2908.0276],[36.1064,-0.8844,2954.8513],[36.1157,-0.884,2785.9673],[36.1201,-0.881,2725.95],[36.1296,-0.894,2760.6775],[36.1347,-0.8953,2763.4172],[36.1392,-0.9004,2596.8818],[36.1417,-0.9005,2618.4241],[36.1412,-0.8968,2662.374],[36.1442,-0.893,2668.2178],[36.1463,-0.886,2640.2559],[36.1474,-0.8773,2655.6514],[36.1457,-0.8729,2689.2751],[36.1729,-0.8715,2679.0225],[36.1584,-0.8307,2705.6658],[36.1883,-0.7982,2191.1462],[36.1908,-0.7783,2094.4016],[36.1835,-0.7726,2081.5361],[36.1928,-0.7599,2037.0085],[36.1911,-0.7575,2050.2527],[36.1888,-0.7593,2068.4238],[36.1835,-0.7526,2085.6387],[36.1715,-0.7475,2126.1506],[36.1687,-0.7411,2173.9346],[36.1615,-0.7389,2119.8362],[36.1594,-0.7355,2162.9001],[36.1595,-0.7278,2229.3911],[36.1542,-0.72,2157.9854],[36.1527,-0.7143,2187.8989],[36.1538,-0.7085,2242.3413],[36.1474,-0.7051,2310.5364],[36.1438,-0.7052,2279.8486],[36.1427,-0.7091,2206.6191],[36.0999,-0.6706,2615.502],[36.0974,-0.6333,2375.2058],[36.0554,-0.6548,2891.4839],[36.0281,-0.6728,2904.0527],[36.0117,-0.6571,2912.3594],[35.9458,-0.7074,2720.6006],[35.9303,-0.6992,2736.1753],[35.9313,-0.6943,2714.7102],[35.9301,-0.6893,2737.1128],[35.8931,-0.6432,2751.1453],[35.8783,-0.6444,2760.0327],[35.8762,-0.6317,2789.7239],[35.9161,-0.6295,2857.625],[35.9508,-0.6598,2780.9368],[35.9826,-0.6248,2845.6113],[35.9518,-0.5624,2785.9243],[35.9475,-0.5586,2722.3228],[35.9473,-0.551,2789.3955],[35.9447,-0.5487,2761.2754],[35.9359,-0.5503,2833.1423],[35.933,-0.5445,2827.8296],[35.9122,-0.5431,2831.0107],[35.9045,-0.5399,2956.2627],[35.8902,-0.5195,3028.6067],[35.8531,-0.5003,2956.4106],[35.8543,-0.4983,2968.5457],[35.8321,-0.4885,2942.5576],[35.8391,-0.4675,2972.8406],[35.8364,-0.4606,2970.2305],[35.8306,-0.4607,2976.1606],[35.8271,-0.4672,2964.7546],[35.8145,-0.4702,2911.4932],[35.8161,-0.4609,2958.5474],[35.813,-0.4522,2961.6587],[35.8006,-0.4501,2938.0156],[35.797,-0.4525,2962.4253],[35.7943,-0.4623,2889.9756],[35.7951,-0.4677,2892.9714],[35.778,-0.5086,2788.8879],[35.7735,-0.5313,2727.8984],[35.7405,-0.5239,2635.1819],[35.734,-0.5273,2624.4971],[35.7237,-0.542,2616.584],[35.717,-0.5464,2585.1799],[35.7111,-0.5471,2571.2598],[35.7091,-0.5531,2539.0947],[35.7106,-0.5543,2539.0947],[35.7112,-0.5525,2552.3096],[35.7125,-0.5532,2533.8943],[35.7118,-0.5638,2525.2339],[35.7133,-0.5649,2545.2603],[35.7117,-0.571,2515.2246],[35.708,-0.5796,2522.2551],[35.7054,-0.5805,2546.8916],[35.7037,-0.585,2515.6421],[35.6951,-0.5911,2530.2197],[35.6927,-0.5951,2506.9917],[35.6925,-0.5997,2481.4006],[35.6886,-0.6066,2508.709],[35.689,-0.6102,2484.6121],[35.6845,-0.6165,2482.6152],[35.6865,-0.621,2437.2961],[35.6856,-0.6326,2400.7954],[35.6813,-0.64,2444.6648],[35.6812,-0.6453,2390.2437],[35.6778,-0.6476,2483.9214],[35.6769,-0.6527,2421.2607],[35.6723,-0.6522,2435.3391],[35.6688,-0.6563,2448.7383],[35.6677,-0.6602,2429.5676],[35.6655,-0.6612,2445.0837],[35.6662,-0.6637,2399.8779],[35.6637,-0.669,2463.8521],[35.664,-0.6731,2350.6362],[35.6531,-0.6787,2438.4248],[35.6502,-0.6887,2343.5552],[35.6476,-0.6898,2409.6797],[35.6456,-0.6955,2335.5986],[35.6422,-0.6951,2428.4849],[35.6288,-0.6777,2362.3096],[35.6106,-0.6664,2323.884],[35.5984,-0.6491,2355.7717],[35.5872,-0.5833,2349.2422],[35.4974,-0.6096,2242.0388],[35.5087,-0.6401,2228.5486],[35.6005,-0.7386,2329.3184],[35.6091,-0.7391,2318.1533],[35.6389,-0.7703,2197.1133],[35.6385,-0.7734,2189.3848],[35.6372,-0.7722,2179.7576],[35.6344,-0.7727,2266.6482],[35.635,-0.7745,2275.1414],[35.6334,-0.7754,2231.7651],[35.6365,-0.7785,2149.875],[35.638,-0.784,2190.8572],[35.6418,-0.7869,2217.3411],[35.6395,-0.7915,2120.0825],[35.6345,-0.7945,2228.4263],[35.632,-0.8051,2111.8806],[35.6343,-0.8065,2094.7102],[35.6336,-0.8092,2090.8357],[35.6423,-0.8161,2167.9126],[35.6448,-0.8231,2070.6089],[35.6481,-0.8252,2140.6709],[35.6473,-0.8285,2070.0823],[35.6849,-0.8005,2167.5491],[35.6975,-0.7882,2238.0034],[35.7197,-0.7737,2432.7295],[35.7281,-0.7801,2231.1399],[35.7426,-0.7969,2383.6299],[35.7477,-0.8051,2342.0037],[35.7412,-0.8205,2250.2874],[35.7403,-0.8502,2177.02],[35.7372,-0.8537,2208.3108],[35.7354,-0.8591,2197.1033],[35.737,-0.8623,2153.0227],[35.7378,-0.8737,2148.9607],[35.7419,-0.8838,2126.3965],[35.7394,-0.8893,2138.3621],[35.7434,-0.9033,2102.1904],[35.7416,-0.9147,2106.7961],[35.7434,-0.923,2086.8325],[35.7403,-0.9345,2085.3462],[35.7416,-0.9364,2074.8013],[35.7405,-0.9384,2069.48],[35.7426,-0.9475,2065.1636],[35.741,-0.9512,2070.7092],[35.7382,-0.9528,2077.3516],[35.7365,-0.9623,2044.542],[35.7381,-0.9679,2033.2574],[35.7351,-0.9729,2041.6074],[35.7389,-0.9762,2027.3271],[35.7376,-0.9831,2024.1255],[35.7395,-0.987,2015.8081],[35.7381,-0.9925,2011.2173],[35.7393,-0.9946,2015.0083],[35.7366,-0.9998,2014.6777],[35.7389,-1.0019,2005.1589],[35.7403,-1.0099,1992.614],[35.7393,-1.0181,1993.7789],[35.7417,-1.0238,1978.8752],[35.7438,-1.0251,1988.0753],[35.744,-1.0284,1978.9717],[35.7489,-1.0306,1980.8523],[35.7556,-1.0386,1975.2853],[35.7082,-1.0714,1904.6152],[35.7146,-1.0761,1900.4102],[35.7164,-1.0811,1887.8805],[35.7214,-1.0852,1893.915],[35.721,-1.088,1878.5476],[35.7253,-1.0897,1881.4353],[35.7239,-1.0941,1876.7172],[35.7259,-1.0985,1877.101],[35.7303,-1.1053,1883.0977],[35.7326,-1.1052,1888.5591],[35.7313,-1.1119,1871.2323],[35.733,-1.1156,1864.718],[35.7317,-1.1177,1863.755],[35.7354,-1.1199,1865.8977],[35.7339,-1.1217,1864.2068],[35.7374,-1.1265,1860.5607],[35.7364,-1.1287,1859.6025],[35.7388,-1.131,1857.6217],[35.746,-1.1332,1865.0215],[35.7474,-1.1357,1860.8955],[35.7493,-1.1344,1868.2419],[35.7518,-1.1352,1865.178],[35.7551,-1.1433,1855.3101],[35.7595,-1.1447,1859.411],[35.7578,-1.1483,1846.3318],[35.7589,-1.1513,1846.1174],[35.7567,-1.1526,1847.3086],[35.7595,-1.1565,1843.196],[35.7591,-1.1596,1841.6543],[35.7628,-1.1604,1845.3049],[35.7666,-1.1584,1848.9242],[35.7748,-1.1664,1840.3533],[35.775,-1.1692,1838.3579],[35.7764,-1.1683,1838.3579],[35.7779,-1.1732,1834.3335],[35.7813,-1.1752,1838.5005],[35.7854,-1.1746,1842.4869],[35.786,-1.1762,1842.4869],[35.7888,-1.1755,1844.8777],[35.7925,-1.1777,1841.1835],[35.7943,-1.1763,1841.8452],[35.7955,-1.1785,1835.2958],[35.801,-1.1746,1832.1438],[35.802,-1.1766,1829.7085],[35.8045,-1.1765,1835.458],[35.8066,-1.1799,1830.1177],[35.8107,-1.1801,1833.2838],[35.8138,-1.1858,1829.0911],[35.8182,-1.1879,1835.1982],[35.8173,-1.1937,1817.9102],[35.8188,-1.1945,1817.5621],[35.8184,-1.1974,1818.2445],[35.8211,-1.1984,1817.7942],[35.8208,-1.2014,1816.0276],[35.8284,-1.2069,1821.9893],[35.8288,-1.212,1811.5811],[35.8334,-1.2169,1805.9574],[35.8372,-1.2161,1818.3521],[35.8389,-1.2189,1814.3707],[35.841,-1.2183,1812.6451],[35.8403,-1.2242,1802.3805],[35.846,-1.2234,1795.0007],[35.8471,-1.2201,1791.053],[35.844,-1.2189,1808.2195],[35.844,-1.2159,1815.5095],[35.8474,-1.2129,1820.3781],[35.8532,-1.2146,1807.6899],[35.8568,-1.2127,1807.172],[35.857,-1.21,1814.2026],[35.8593,-1.2084,1811.8217],[35.8614,-1.2086,1814.8872],[35.8645,-1.2126,1804.299],[35.866,-1.2094,1816.9016],[35.8699,-1.2078,1815.2467],[35.8763,-1.2134,1781.0503],[35.8793,-1.2112,1792.6995],[35.8764,-1.2078,1795.9236],[35.882,-1.2064,1790.3567],[35.9147,-1.1731,1905.6224],[35.9598,-1.113,1805.1599],[35.9551,-1.1004,1834.022],[35.9562,-1.0988,1835.7538],[35.9556,-1.0913,1843.5708],[35.9539,-1.0893,1849.4133],[35.9561,-1.0873,1858.377],[35.9533,-1.0861,1884.1265]]]]}}