{"type": "Feature","bbox": [36.658,-0.5671,36.9767,-0.4767],"geometry": {"type": "MultiPolygon","coordinates": [[[[36.6703,-0.5671,3245.7041],[36.6869,-0.5529,3078.3335],[36.6959,-0.549,3047.6648],[36.6988,-0.5463,3046.0986],[36.6982,-0.5432,3033.2454],[36.7013,-0.5401,2983.8755],[36.7097,-0.536,2995.2627],[36.7136,-0.531,2951.9646],[36.7185,-0.5296,2912.2607],[36.7219,-0.5245,2928.498],[36.733,-0.5264,2937.1465],[36.7433,-0.5213,2848.0288],[36.7487,-0.5211,2583.7043],[36.7525,-0.5147,2428.4858],[36.7589,-0.519,2514.2266],[36.7716,-0.5206,2747.9226],[36.7748,-0.5206,2716.8877],[36.7791,-0.5176,2679.5918],[36.7844,-0.5197,2655.8118],[36.7902,-0.5176,2652.8538],[36.7988,-0.5226,2574.6797],[36.8027,-0.5217,2501.4016],[36.8053,-0.5228,2458.0798],[36.8085,-0.5259,2493.6973],[36.8217,-0.5201,2371.2051],[36.8276,-0.5288,2252.7825],[36.8299,-0.5302,2251.7024],[36.8326,-0.5294,2359.5283],[36.8377,-0.5328,2284.0269],[36.849,-0.5332,2156.4644],[36.8509,-0.5312,2212.8201],[36.8537,-0.5328,2172.8804],[36.8584,-0.5316,2164.5989],[36.8605,-0.5327,2127.8821],[36.8609,-0.5238,2134.7637],[36.8663,-0.521,2070.2671],[36.8784,-0.526,2051.1125],[36.8875,-0.5203,2012.2368],[36.8944,-0.5209,1936.8879],[36.8978,-0.5195,1938.4734],[36.9018,-0.5216,1955.7078],[36.9152,-0.5224,1885.9424],[36.9229,-0.5285,1896.3322],[36.9294,-0.5254,1822.3711],[36.932,-0.5275,1861.7319],[36.9414,-0.5276,1878.7227],[36.9421,-0.53,1883.2794],[36.9442,-0.5306,1860.0299],[36.9517,-0.5273,1842.8982],[36.9554,-0.5238,1740.8464],[36.9542,-0.5184,1773.9672],[36.9591,-0.5172,1760.1716],[36.9598,-0.5155,1787.8666],[36.9575,-0.5126,1723.2207],[36.9606,-0.5118,1749.5477],[36.9634,-0.5063,1763.156],[36.9647,-0.5083,1717.2914],[36.9656,-0.5074,1764.9032],[36.969,-0.5094,1728.3477],[36.9731,-0.5064,1778.9448],[36.9767,-0.5059,1787.0144],[36.9715,-0.5038,1803.2706],[36.9681,-0.5048,1806.9646],[36.9671,-0.5028,1826.2644],[36.9601,-0.5044,1738.9677],[36.9548,-0.4939,1840.5309],[36.9489,-0.4904,1829.9711],[36.9468,-0.4919,1842.0924],[36.935,-0.4929,1833.7112],[36.9331,-0.4917,1837.5887],[36.9315,-0.4949,1866.399],[36.9293,-0.4947,1848.9052],[36.9264,-0.4979,1918.0085],[36.9131,-0.5009,1925.2407],[36.9083,-0.4981,1978.0718],[36.8994,-0.498,1970.2817],[36.8961,-0.4937,2044.9688],[36.8822,-0.4943,2070.6714],[36.8777,-0.4931,2008.8513],[36.8725,-0.4881,2096.0342],[36.8587,-0.4916,2084.4561],[36.8551,-0.4895,2182.0762],[36.851,-0.4908,2165.1401],[36.8378,-0.487,2284.1157],[36.8261,-0.4924,2123.1577],[36.8237,-0.4916,2123.5415],[36.8186,-0.4833,2412.3826],[36.8107,-0.4845,2464.8801],[36.8033,-0.4917,2297.9202],[36.7861,-0.4934,2411.4902],[36.7795,-0.4985,2297.2974],[36.758,-0.5,2710.8472],[36.7529,-0.4984,2783.5627],[36.7456,-0.4908,2922.5498],[36.736,-0.4888,2949.5728],[36.7291,-0.4767,2948.3574],[36.7206,-0.4774,2986.2075],[36.7125,-0.4807,3008.8018],[36.7059,-0.4795,2984.6992],[36.6995,-0.4893,3007.2988],[36.695,-0.493,3040.7332],[36.6927,-0.5018,3042.0193],[36.6879,-0.5063,3037.8696],[36.6706,-0.5106,3119.8481],[36.658,-0.5051,3181.5146],[36.6589,-0.5114,3182.8838],[36.6644,-0.522,3188.2393],[36.6639,-0.5287,3236.4446],[36.6684,-0.5362,3203.7275],[36.67,-0.5436,3285.7483],[36.6689,-0.5525,3277.5127],[36.6703,-0.5671,3245.7041]]]]}
,"properties": {"GID_3": "KEN.36.5.4_1","GID_0": "KEN","country": "Kenya","GID_1": "KEN.36_1","province": "Nyeri","NL_NAME_1": "NA","GID_2": "KEN.36.5_1","county": "Othaya","NL_NAME_2": "NA","city": "Mahiga","VARNAME_3": "NA","NL_NAME_3": "NA","TYPE_3": "Ward","ENGTYPE_3": "Ward","CC_3": "483","HASC_3": "NA","name": "Mahiga.city","area_km2": 129.7099,"hist_schema_id": "Elevation0-9000","hist_area_km2": {"1700": 0.0848,"1725": 0.6784,"1750": 1.2085,"1775": 1.8869,"1800": 2.5654,"1825": 3.265,"1850": 3.371,"1875": 3.6678,"1900": 3.1802,"1925": 2.3534,"1950": 2.4806,"1975": 2.7138,"2000": 2.5018,"2025": 1.9717,"2050": 3.0106,"2075": 3.5618,"2100": 3.053,"2125": 2.947,"2150": 2.3322,"2175": 2.3958,"2200": 2.2049,"2225": 2.6502,"2250": 1.8445,"2275": 1.8021,"2300": 2.1625,"2325": 1.4629,"2350": 1.6113,"2375": 1.9929,"2400": 1.9081,"2425": 1.4205,"2450": 1.5901,"2475": 1.4629,"2500": 1.4629,"2525": 1.1661,"2550": 0.7845,"2575": 0.6996,"2600": 0.636,"2625": 0.7632,"2650": 1.1237,"2675": 0.9541,"2700": 0.9965,"2725": 0.6784,"2750": 0.424,"2775": 0.4664,"2800": 0.424,"2825": 0.4452,"2850": 0.3604,"2875": 0.4452,"2900": 0.9329,"2925": 2.523,"2950": 4.7067,"2975": 5.4276,"3000": 6.1696,"3025": 3.0954,"3050": 3.6254,"3075": 4.1343,"3100": 5.9364,"3125": 3.8798,"3150": 1.1237,"3175": 1.3993,"3200": 1.3781,"3225": 0.5724,"3250": 0.318,"3275": 0.4876,"3300": 0.318,"3325": 0.2968,"3350": 0.0848,"3375": 0.0848,"3400": 0.0424}}}