{"type": "Feature","bbox": [36.0076,-0.5429,36.0763,-0.3941],"geometry": {"type": "MultiPolygon","coordinates": [[[[36.0581,-0.3992,1879.0811],[36.0289,-0.4022,2023.8142],[36.032,-0.426,2041.556],[36.0313,-0.4443,2036.7946],[36.0367,-0.4581,2024.0289],[36.0435,-0.4597,2000.3455],[36.0142,-0.4783,2167.186],[36.0149,-0.4795,2167.186],[36.0132,-0.4819,2178.1111],[36.0076,-0.4848,2217.7319],[36.0163,-0.4961,2212.5515],[36.0455,-0.5429,2296.2085],[36.0523,-0.5383,2219.2881],[36.0507,-0.5096,2074.3123],[36.0471,-0.4935,2033.2883],[36.0763,-0.4837,1840.2264],[36.0627,-0.4009,1864.7141],[36.0669,-0.4007,1812.4272],[36.0661,-0.3941,1772.9021],[36.0581,-0.3992,1879.0811]]]]}
,"properties": {"GID_3": "KEN.31.9.1_1","GID_0": "KEN","country": "Kenya","GID_1": "KEN.31_1","province": "Nakuru","NL_NAME_1": "NA","GID_2": "KEN.31.9_1","county": "Njoro","NL_NAME_2": "NA","city": "Kihingo","VARNAME_3": "NA","NL_NAME_3": "NA","TYPE_3": "Ward","ENGTYPE_3": "Ward","CC_3": "832","HASC_3": "NA","name": "Kihingo.city","area_km2": 59.47023,"hist_schema_id": "Elevation0-9000","hist_area_km2": {"1775": 0.19082,"1800": 0.31802,"1825": 0.33922,"1850": 1.14488,"1875": 2.33217,"1900": 2.22616,"1925": 2.03535,"1950": 2.81981,"1975": 5.78802,"2000": 9.30748,"2025": 11.17321,"2050": 6.23325,"2075": 2.54418,"2100": 1.90813,"2125": 1.86572,"2150": 2.31095,"2175": 2.31095,"2200": 2.05653,"2225": 1.5901,"2250": 0.69964,"2275": 0.23321,"2300": 0.0424}}}