{"type":"Feature","properties":{"GID_3":"KEN.17.1.7_1","GID_0":"KEN","country":"Kenya","GID_1":"KEN.17_1","province":"Kisumu","NL_NAME_1":"NA","GID_2":"KEN.17.1_1","county":"KisumuCentral","NL_NAME_2":"NA","city":"ShaurimoyoKaloleni","VARNAME_3":"NA","NL_NAME_3":"NA","TYPE_3":"Ward","ENGTYPE_3":"Ward","CC_3":"1198","HASC_3":"NA","name":"Shaurimoyo_Kaloleni.city"},
"geometry":{"type": "MultiPolygon","coordinates": [[[[34.7734,-0.0771,1168.722],[34.7687,-0.0829,1174.4768],[34.7652,-0.0816,1158.1382],[34.7544,-0.0917,1148.1937],[34.7613,-0.0993,1174.3271],[34.7747,-0.1033,1144.811],[34.7752,-0.0838,1180.5211],[34.7734,-0.0771,1168.722]]]]}}