{"type":"Feature","properties":{"GID_3":"KEN.35.2.4_1","GID_0":"KEN","country":"Kenya","GID_1":"KEN.35_1","province":"Nyandarua","NL_NAME_1":"NA","GID_2":"KEN.35.2_1","county":"Kipipiri","NL_NAME_2":"NA","city":"Wanjohi","VARNAME_3":"NA","NL_NAME_3":"NA","TYPE_3":"Ward","ENGTYPE_3":"Ward","CC_3":"449","HASC_3":"NA","name":"Wanjohi.city"},
"geometry":{"type": "MultiPolygon","coordinates": [[[[36.6043,-0.3619,3771.4773],[36.6167,-0.3497,3749.1497],[36.6109,-0.339,3863.1609],[36.6093,-0.326,3782.4849],[36.6104,-0.3206,3890.3933],[36.615,-0.3122,3962.9578],[36.6153,-0.3036,3883.2471],[36.6209,-0.2933,3709.1055],[36.6142,-0.2899,3748.958],[36.609,-0.2892,3672.2134],[36.6029,-0.2784,3605.5291],[36.5914,-0.2772,3447.5789],[36.5877,-0.2734,3414.2437],[36.5792,-0.2709,3249.4363],[36.5705,-0.2633,3190.6953],[36.5612,-0.2634,3095.2158],[36.5532,-0.2586,3037.6484],[36.5464,-0.2572,2918.4839],[36.5384,-0.2454,2944.2302],[36.5347,-0.244,2927.416],[36.5273,-0.2193,2855.3323],[36.5016,-0.2173,2699.1172],[36.4776,-0.2315,2342.3076],[36.4418,-0.24,2342.5571],[36.439,-0.2415,2347.0071],[36.4413,-0.2479,2338.0271],[36.4412,-0.2535,2324.2065],[36.4391,-0.2541,2331.8936],[36.4388,-0.2579,2331.7832],[36.4368,-0.2592,2337.2246],[36.4353,-0.2577,2344.7798],[36.435,-0.2601,2346.5483],[36.4176,-0.259,2303.1682],[36.414,-0.2516,2296.6306],[36.4112,-0.2537,2305.8862],[36.4105,-0.2526,2318.6289],[36.4097,-0.2546,2309.1313],[36.4081,-0.2542,2339.813],[36.4101,-0.2559,2309.1313],[36.41,-0.2681,2304.1978],[36.4128,-0.2721,2329.9319],[36.4115,-0.2735,2299.0786],[36.415,-0.2784,2302.1021],[36.4142,-0.2864,2303.8882],[36.4156,-0.2945,2276.7002],[36.4117,-0.3012,2283.1719],[36.4149,-0.3059,2275.4849],[36.4152,-0.309,2274.0667],[36.4126,-0.3141,2290.4365],[36.4168,-0.3256,2265.3447],[36.4154,-0.3269,2266.0244],[36.4176,-0.3312,2282.9199],[36.4158,-0.333,2274.0408],[36.4198,-0.3388,2283.3982],[36.4188,-0.3427,2263.312],[36.4156,-0.3426,2271.8369],[36.4181,-0.3488,2263.9619],[36.4573,-0.3429,2321.6465],[36.4797,-0.3378,2340.4502],[36.4895,-0.3422,2378.0139],[36.4951,-0.343,2383.6646],[36.5014,-0.3402,2460.717],[36.5094,-0.3403,2483.6389],[36.5164,-0.3345,2399.7739],[36.5192,-0.3456,2413.7505],[36.517,-0.3572,2465.8577],[36.5219,-0.3652,2505.2234],[36.5305,-0.3867,2745.9802],[36.5326,-0.3864,2755.2153],[36.5552,-0.3659,2646.7607],[36.5722,-0.3702,3145.0837],[36.5904,-0.3608,3743.1875],[36.6,-0.3605,3835.5854],[36.6043,-0.3619,3771.4773]]]]}}