{"type": "Feature","bbox": [35.8948,-0.5794,36.0455,-0.3871],"geometry": {"type": "MultiPolygon","coordinates": [[[[36.0076,-0.4848,2217.7319],[35.9979,-0.4722,2276.4751],[35.9952,-0.4622,2242.9934],[35.9992,-0.4561,2191.292],[35.9998,-0.4436,2157.2368],[36.0052,-0.4423,2116.9116],[35.9976,-0.4354,2139.6616],[35.9888,-0.4336,2187.1868],[35.9733,-0.4186,2276.4277],[35.9648,-0.3871,2202.9802],[35.9571,-0.3883,2220.7202],[35.9572,-0.4016,2248.6897],[35.9536,-0.406,2272.7749],[35.9529,-0.4166,2326.9277],[35.9566,-0.4298,2349.4622],[35.9494,-0.4315,2390.4377],[35.9394,-0.4373,2451.5166],[35.9317,-0.4426,2514.1597],[35.9249,-0.4502,2645.1692],[35.9126,-0.4568,2625.3113],[35.9159,-0.4622,2634.1094],[35.914,-0.4656,2624.4844],[35.9154,-0.4734,2656.4497],[35.9141,-0.4814,2695.1431],[35.9144,-0.4865,2705.5552],[35.9172,-0.4904,2738.8047],[35.9166,-0.4931,2691.1445],[35.9144,-0.4935,2734.9084],[35.9047,-0.5042,2823.0422],[35.8992,-0.5048,2901.9871],[35.8948,-0.5241,3027.9995],[35.8956,-0.5271,3012.5752],[35.9045,-0.5399,2956.2627],[35.9122,-0.5431,2831.0107],[35.933,-0.5445,2827.8296],[35.9359,-0.5503,2833.1423],[35.9447,-0.5487,2761.2754],[35.9474,-0.5514,2784.9656],[35.9483,-0.5603,2736.6616],[35.9519,-0.5627,2800.5659],[35.9742,-0.5438,2566.3408],[35.9645,-0.5269,2551.1777],[35.9618,-0.516,2548.9829],[35.9689,-0.517,2505.3804],[35.9698,-0.525,2542.2385],[35.9789,-0.5308,2514.3933],[35.9986,-0.5627,2500.2664],[36.0006,-0.5622,2470.2009],[36.0138,-0.5794,2553.489],[36.0202,-0.569,2459.5],[36.0342,-0.5716,2523.4302],[36.035,-0.5643,2464.8159],[36.0337,-0.5598,2420.0942],[36.0356,-0.5585,2470.5298],[36.0408,-0.5598,2431.9116],[36.0424,-0.5585,2413.925],[36.0455,-0.5429,2296.2085],[36.0163,-0.4961,2212.5515],[36.0076,-0.4848,2217.7319]]]]}
,"properties": {"GID_3": "KEN.31.9.4_1","GID_0": "KEN","country": "Kenya","GID_1": "KEN.31_1","province": "Nakuru","NL_NAME_1": "NA","GID_2": "KEN.31.9_1","county": "Njoro","NL_NAME_2": "NA","city": "Mauche","VARNAME_3": "NA","NL_NAME_3": "NA","TYPE_3": "Ward","ENGTYPE_3": "Ward","CC_3": "831","HASC_3": "NA","name": "Mauche.city","area_km2": 166.1978,"hist_schema_id": "Elevation0-9000","hist_area_km2": {"2100": 0.0212,"2125": 0.2332,"2150": 0.6785,"2175": 0.9541,"2200": 1.6113,"2225": 3.2014,"2250": 7.3993,"2275": 9.5831,"2300": 12.8905,"2325": 8.5866,"2350": 7.5477,"2375": 9.795,"2400": 10.3887,"2425": 8.9258,"2450": 8.0353,"2475": 7.4205,"2500": 6.848,"2525": 5.3215,"2550": 4.5159,"2575": 4.0283,"2600": 3.0318,"2625": 2.947,"2650": 3.3074,"2675": 3.0318,"2700": 3.689,"2725": 4.6855,"2750": 5.3639,"2775": 6.2332,"2800": 4.9399,"2825": 4.2827,"2850": 3.0742,"2875": 0.2968,"2900": 0.5936,"2925": 0.636,"2950": 0.2332,"2975": 0.424,"3000": 0.4876,"3025": 0.8269,"3050": 0.1272}}}