{"type": "Feature","bbox": [39.3469,-3.8677,39.6041,-3.6383],"geometry": {"type": "MultiPolygon","coordinates": [[[[39.352,-3.6398,224.4935],[39.3567,-3.6546,219.8992],[39.3541,-3.6612,221.8581],[39.3553,-3.6692,217.9565],[39.3533,-3.6739,217.0246],[39.3531,-3.6886,212.1776],[39.3519,-3.6919,211.2885],[39.3485,-3.6921,210.3288],[39.3469,-3.6988,211.4312],[39.3488,-3.7045,207.1205],[39.3537,-3.708,206.4207],[39.3531,-3.7104,205.7489],[39.3583,-3.7192,203.0614],[39.3581,-3.7269,200.6081],[39.3635,-3.7338,206.7256],[39.3697,-3.7356,210.1795],[39.3763,-3.7405,198.7713],[39.3907,-3.7367,190.6952],[39.3919,-3.7472,187.9847],[39.3983,-3.7553,193.942],[39.4087,-3.7597,211.5963],[39.4319,-3.7733,209.5068],[39.4385,-3.7819,202.7067],[39.4479,-3.7865,199.846],[39.4591,-3.7999,192.7554],[39.4741,-3.8033,189.1681],[39.4791,-3.8099,191.3245],[39.4837,-3.8101,189.182],[39.4901,-3.808,185.9763],[39.4977,-3.8089,176.1626],[39.5013,-3.8112,175.6462],[39.5049,-3.821,173.0709],[39.5229,-3.8376,173.7982],[39.5353,-3.8385,170.4591],[39.5439,-3.8371,195.9675],[39.5469,-3.8382,198.1628],[39.5473,-3.8424,191.0923],[39.5453,-3.8475,187.0413],[39.5457,-3.8572,187.3044],[39.5527,-3.8677,190.3401],[39.5757,-3.8535,158.7651],[39.5749,-3.843,170.347],[39.578,-3.8391,181.2944],[39.5981,-3.8376,181.5367],[39.6021,-3.8361,179.2779],[39.5971,-3.8325,190.2779],[39.5959,-3.8288,202.3178],[39.5901,-3.8245,213.0652],[39.5879,-3.8206,224.9824],[39.5985,-3.8179,251.1633],[39.6041,-3.8018,218.7151],[39.5863,-3.7947,260.0162],[39.5843,-3.7875,274.4841],[39.5733,-3.768,298.1135],[39.5723,-3.7635,288.2066],[39.5741,-3.7528,275.0323],[39.5717,-3.7488,284.9786],[39.5689,-3.7463,283.6521],[39.5619,-3.7454,295.8025],[39.5487,-3.7651,248.742],[39.5408,-3.7662,241.4706],[39.5397,-3.753,231.3994],[39.5347,-3.7285,247.6843],[39.5309,-3.7197,265.595],[39.5309,-3.71,281.1365],[39.4965,-3.7149,205.049],[39.4969,-3.7209,202.4668],[39.486,-3.7515,190.0087],[39.4851,-3.7566,187.8678],[39.4873,-3.7616,186.0112],[39.4863,-3.7649,185.9195],[39.4845,-3.7675,186.5092],[39.4799,-3.7662,191.3975],[39.4723,-3.7546,189.7792],[39.4739,-3.7296,192.6203],[39.4691,-3.7262,194.5411],[39.4641,-3.7253,195.5059],[39.4613,-3.7224,195.8286],[39.4579,-3.7,200.5455],[39.4589,-3.6957,201.0206],[39.4561,-3.6872,203.4639],[39.4407,-3.682,206.0014],[39.4389,-3.6853,206.7786],[39.4171,-3.6691,216.1525],[39.4139,-3.665,219.0899],[39.4049,-3.6627,228.149],[39.3949,-3.6572,223.3374],[39.3839,-3.6556,232.5884],[39.3671,-3.6494,248.0991],[39.3579,-3.6444,232.2135],[39.3515,-3.6383,225.6962],[39.352,-3.6398,224.4935]]]]}
,"properties": {"GID_3": "KEN.14.2.2_1","GID_0": "KEN","country": "Kenya","GID_1": "KEN.14_1","province": "Kilifi","NL_NAME_1": "NA","GID_2": "KEN.14.2_1","county": "Kaloleni","NL_NAME_2": "NA","city": "Kayafungo","VARNAME_3": "NA","NL_NAME_3": "NA","TYPE_3": "Ward","ENGTYPE_3": "Ward","CC_3": "64","HASC_3": "NA","name": "Kayafungo.city","area_km2": 268.923,"hist_schema_id": "Elevation0-9000","hist_area_km2": {"150": 0.0212,"175": 27.269,"200": 116.0221,"225": 89.7707,"250": 19.1263,"275": 10.2822,"300": 5.5853,"325": 0.8463}}}