{"type": "Feature","bbox": [34.6887,-0.0562,34.7659,0.0001],"geometry": {"type": "MultiPolygon","coordinates": [[[[34.7659,-0.0418,1388.9626],[34.7625,-0.0344,1395.7102],[34.7505,-0.0274,1515.5992],[34.7466,-0.0169,1495.4797],[34.7413,-0.0177,1544.8623],[34.7397,-0.0193,1543.614],[34.7317,-0.0061,1487.0735],[34.7261,0.0001,1514.88],[34.7155,-0.0037,1490.2322],[34.7095,-0.0148,1439.1161],[34.6959,-0.0136,1381.5892],[34.6887,-0.0197,1375.9125],[34.6896,-0.0316,1411.8695],[34.6926,-0.0377,1418.8429],[34.6921,-0.0522,1389.4897],[34.696,-0.0545,1401.5466],[34.6995,-0.0526,1438.0553],[34.7033,-0.0458,1450.9858],[34.7095,-0.0511,1360.6859],[34.7143,-0.0487,1304.3949],[34.72,-0.0531,1292.8679],[34.7237,-0.0487,1388.1945],[34.7277,-0.0487,1348.2029],[34.7291,-0.0526,1295.5701],[34.7303,-0.0514,1323.8752],[34.7345,-0.0542,1366.1018],[34.7376,-0.0527,1373.3862],[34.7377,-0.0549,1353.6848],[34.74,-0.0523,1377.1534],[34.7407,-0.0542,1368.7183],[34.7424,-0.0539,1342.3586],[34.7432,-0.0562,1310.5073],[34.7446,-0.0561,1353.4448],[34.7469,-0.0537,1372.7164],[34.7484,-0.0553,1375.1963],[34.7512,-0.0543,1382.8014],[34.759,-0.0481,1362.8716],[34.7611,-0.0493,1340.2467],[34.7629,-0.0437,1371.7347],[34.7659,-0.0418,1388.9626]]]]}
,"properties": {"GID_3": "KEN.17.3.2_1","GID_0": "KEN","country": "Kenya","GID_1": "KEN.17_1","province": "Kisumu","NL_NAME_1": "NA","GID_2": "KEN.17.3_1","county": "KisumuWest","NL_NAME_2": "NA","city": "KisumuNorth","VARNAME_3": "NA","NL_NAME_3": "NA","TYPE_3": "Ward","ENGTYPE_3": "Ward","CC_3": "1193","HASC_3": "NA","name": "Kisumu_North.city","area_km2": 32.99063,"hist_schema_id": "Elevation0-9000","hist_area_km2": {"1300": 0.10601,"1325": 0.67847,"1350": 1.31454,"1375": 3.75279,"1400": 5.02492,"1425": 5.00372,"1450": 5.34296,"1475": 4.7917,"1500": 3.22274,"1525": 2.73508,"1550": 1.01771}}}