{"type":"Feature","properties":{"GID_3":"KEN.22.7.3_1","GID_0":"KEN","country":"Kenya","GID_1":"KEN.22_1","province":"Machakos","NL_NAME_1":"NA","GID_2":"KEN.22.7_1","county":"Mwala","NL_NAME_2":"NA","city":"Masii","VARNAME_3":"NA","NL_NAME_3":"NA","TYPE_3":"Ward","ENGTYPE_3":"Ward","CC_3":"407","HASC_3":"NA","name":"Masii.city"},
"geometry":{"type": "MultiPolygon","coordinates": [[[[37.3755,-1.4084,1351.3359],[37.3714,-1.4102,1412.954],[37.3651,-1.4096,1514.4224],[37.3651,-1.414,1500.0789],[37.3609,-1.4143,1435.65],[37.3603,-1.4211,1410.5404],[37.3574,-1.4249,1368.4026],[37.3575,-1.4272,1352.8378],[37.3595,-1.4277,1362.7869],[37.359,-1.4321,1339.804],[37.3615,-1.4335,1332.5394],[37.359,-1.4343,1336.6213],[37.3591,-1.4357,1347.7177],[37.366,-1.4361,1330.0397],[37.3644,-1.438,1345.1033],[37.3643,-1.4466,1335.7505],[37.3621,-1.451,1323.4169],[37.3685,-1.4541,1321.875],[37.3674,-1.4603,1326.7075],[37.364,-1.4605,1348.8972],[37.3666,-1.4631,1317.8684],[37.3659,-1.4671,1312.0035],[37.368,-1.4688,1316.5947],[37.3675,-1.4708,1316.6163],[37.3701,-1.4714,1318.8247],[37.3683,-1.473,1314.6862],[37.3698,-1.4744,1304.9388],[37.3678,-1.4783,1312.8807],[37.3695,-1.4811,1307.826],[37.3648,-1.484,1313.8486],[37.3663,-1.4854,1300.3121],[37.3657,-1.4875,1303.1154],[37.3688,-1.4878,1312.5482],[37.3674,-1.4923,1318.8672],[37.3692,-1.4942,1300.5364],[37.3671,-1.4958,1319.6332],[37.3708,-1.4959,1304.6616],[37.3716,-1.5,1312.0848],[37.3781,-1.5041,1317.2708],[37.3786,-1.5089,1290.8916],[37.3844,-1.5162,1300.9436],[37.387,-1.517,1288.739],[37.3871,-1.5201,1272.0266],[37.394,-1.5212,1309.6278],[37.3991,-1.5202,1342.1467],[37.4215,-1.53,1262.6399],[37.427,-1.5314,1244.017],[37.429,-1.5301,1253.1846],[37.4313,-1.5315,1238.5554],[37.4331,-1.5302,1259.3923],[37.4353,-1.5318,1232.4823],[37.4377,-1.531,1226.2997],[37.4388,-1.5278,1262.7097],[37.4413,-1.5309,1229.3297],[37.4484,-1.5291,1247.0579],[37.4519,-1.5236,1238.1377],[37.4553,-1.5212,1223.6177],[37.4587,-1.5209,1222.7456],[37.4594,-1.5187,1231.6987],[37.4659,-1.5172,1226.3007],[37.4713,-1.5181,1216.8126],[37.4707,-1.5154,1220.1504],[37.4659,-1.512,1222.6539],[37.4561,-1.5099,1244.5798],[37.4514,-1.5032,1257.5555],[37.4575,-1.4874,1303.7523],[37.4649,-1.4809,1269.5806],[37.4622,-1.4772,1290.0898],[37.4634,-1.4763,1262.2632],[37.4635,-1.4671,1291.2843],[37.4657,-1.4667,1287.8833],[37.4671,-1.4632,1284.8461],[37.4698,-1.4615,1290.537],[37.4708,-1.4559,1318.0881],[37.4785,-1.4454,1342.3284],[37.4811,-1.4447,1361.1132],[37.4861,-1.433,1304.1471],[37.4983,-1.4286,1283.1327],[37.5009,-1.4252,1262.9324],[37.5078,-1.4255,1256.7704],[37.5124,-1.4296,1245.9893],[37.5178,-1.4255,1269.698],[37.5217,-1.4198,1269.7428],[37.5194,-1.4137,1278.2191],[37.5279,-1.3975,1245.7305],[37.5255,-1.3878,1231.0858],[37.5182,-1.3713,1206.0228],[37.508,-1.379,1251.7501],[37.5111,-1.381,1242.4469],[37.5078,-1.3899,1302.1124],[37.5105,-1.3957,1316.8412],[37.5061,-1.4018,1296.7577],[37.4985,-1.4053,1296.7676],[37.4895,-1.4031,1307.4138],[37.4808,-1.4031,1303.807],[37.4773,-1.408,1299.9213],[37.4701,-1.4092,1302.4558],[37.461,-1.4199,1312.576],[37.4567,-1.4154,1292.2268],[37.4495,-1.4194,1317.5815],[37.4443,-1.4175,1303.3411],[37.4423,-1.4185,1323.0812],[37.4361,-1.429,1353.7584],[37.4315,-1.4241,1362.0911],[37.421,-1.4213,1432.0945],[37.4125,-1.4161,1500.4547],[37.4122,-1.4125,1405.423],[37.4052,-1.4051,1574.9331],[37.4032,-1.4001,1588.7958],[37.3937,-1.3989,1450.2969],[37.3914,-1.4014,1449.2502],[37.3839,-1.4014,1390.9329],[37.3793,-1.4056,1380.2021],[37.3776,-1.4103,1354.512],[37.3755,-1.4084,1351.3359]]]]}}