{"type":"Feature","properties":{"GID_2":"KEN.16.9_1","GID_0":"KEN","country":"Kenya","GID_1":"KEN.16_1","province":"Kisii","NL_NAME_1":"NA","county":"SouthMugirango","VARNAME_2":"NA","NL_NAME_2":"NA","TYPE_2":"Constituency","ENGTYPE_2":"Constituency","CC_2":"262","HASC_2":"NA","name":"South_Mugirango.county"},
"geometry":{"type": "MultiPolygon","coordinates": [[[[34.6702,-0.966,1585.8032],[34.6786,-0.9671,1598.8336],[34.7157,-0.9582,1899.9497],[34.711,-0.9496,1951.1763],[34.7102,-0.9394,1957.4504],[34.7071,-0.9345,1964.408],[34.7016,-0.9351,1890.41],[34.6982,-0.9329,1771.7516],[34.6957,-0.9228,1833.7585],[34.6898,-0.9182,1795.3204],[34.6854,-0.9045,1717.9146],[34.6887,-0.8656,1958.4138],[34.6869,-0.8625,1920.8351],[34.6871,-0.8559,1763.3142],[34.6833,-0.8501,1648.0729],[34.6847,-0.8394,1606.866],[34.6831,-0.8386,1582.3386],[34.6833,-0.836,1570.5933],[34.6807,-0.8322,1509.0278],[34.6763,-0.8291,1577.849],[34.6794,-0.8255,1602.7983],[34.6802,-0.8216,1598.0924],[34.6848,-0.8203,1565.085],[34.6868,-0.8146,1591.1083],[34.69,-0.8135,1574.845],[34.69,-0.8119,1584.3822],[34.692,-0.813,1568.9332],[34.692,-0.8107,1573.3848],[34.6961,-0.81,1547.7667],[34.6955,-0.8068,1575.5975],[34.6988,-0.8015,1562.5442],[34.691,-0.7922,1653.6525],[34.6888,-0.7855,1695.135],[34.6836,-0.7792,1693.0677],[34.6818,-0.7732,1738.4102],[34.683,-0.7701,1785.1621],[34.6824,-0.7594,1704.735],[34.6775,-0.751,1639.1084],[34.6748,-0.7409,1611.6494],[34.6802,-0.7265,1530.7546],[34.6802,-0.7181,1533.7542],[34.6851,-0.7095,1483.516],[34.6575,-0.7088,1510.7528],[34.6486,-0.7063,1460.7175],[34.6419,-0.6993,1424.2556],[34.6281,-0.7262,1454.9529],[34.6303,-0.7348,1493.2804],[34.6282,-0.7411,1507.6085],[34.6287,-0.7465,1500.8835],[34.6256,-0.7511,1467.7886],[34.6216,-0.8177,1468.0933],[34.6247,-0.82,1488.6925],[34.6252,-0.8238,1481.3181],[34.6219,-0.83,1476.2803],[34.6208,-0.8366,1417.3267],[34.6169,-0.8353,1474.2661],[34.6102,-0.8364,1407.9431],[34.6103,-0.8529,1430.8468],[34.6174,-0.8669,1470.8168],[34.6143,-0.8771,1499.429],[34.6143,-0.8833,1488.9182],[34.6148,-0.8862,1472.2148],[34.6173,-0.8885,1492.7115],[34.6167,-0.8931,1481.2065],[34.6236,-0.9188,1574.0853],[34.6218,-0.9324,1556.0573],[34.6226,-0.9385,1543.4381],[34.6272,-0.9507,1534.3516],[34.6314,-0.955,1534.9667],[34.6316,-0.9591,1527.3623],[34.6355,-0.9592,1520.332],[34.6418,-0.963,1519.3416],[34.6504,-0.9602,1533.0609],[34.6642,-0.9671,1585.2634],[34.6702,-0.966,1585.8032]]]]}}