{"type": "Feature","bbox": [34.8395,0.5966,34.9632,0.6606],"geometry": {"type": "MultiPolygon","coordinates": [[[[34.9268,0.647,1631.0385],[34.9067,0.6513,1633.6284],[34.906,0.6492,1618.7551],[34.9018,0.6518,1609.4298],[34.8958,0.6507,1611.3604],[34.8939,0.6533,1622.9681],[34.8899,0.6533,1601.2028],[34.8893,0.6551,1603.6871],[34.8809,0.656,1623.9393],[34.8766,0.6528,1602.0566],[34.8721,0.6519,1593.5908],[34.8671,0.6542,1597.277],[34.8662,0.6576,1614.6155],[34.8575,0.6606,1601.0018],[34.8555,0.6594,1596.1132],[34.8558,0.657,1592.5156],[34.8503,0.6586,1581.8159],[34.8517,0.6556,1588.1958],[34.8506,0.6548,1580.4706],[34.8436,0.6575,1545.26],[34.8427,0.6601,1537.0731],[34.8396,0.6594,1547.4943],[34.8395,0.6574,1538.1555],[34.8904,0.6121,1723.5731],[34.8992,0.6101,1714.754],[34.9073,0.6017,1736.5581],[34.9185,0.5966,1779.8356],[34.9435,0.6127,1730.1526],[34.953,0.613,1673.1471],[34.9578,0.6156,1654.1254],[34.9632,0.6143,1655.1421],[34.9622,0.6166,1660.4802],[34.959,0.6181,1662.798],[34.9582,0.6214,1666.7152],[34.954,0.6211,1667.1755],[34.9502,0.6289,1704.3822],[34.9482,0.6276,1690.528],[34.945,0.6294,1687.3671],[34.9446,0.6279,1680.6681],[34.9412,0.6278,1656.823],[34.9348,0.633,1626.7701],[34.9342,0.6382,1624.175],[34.9271,0.6404,1614.9231],[34.9315,0.6452,1642.9609],[34.9268,0.647,1631.0385]]]]}
,"properties": {"GID_3": "KEN.3.6.1_1","GID_0": "KEN","country": "Kenya","GID_1": "KEN.3_1","province": "Bungoma","NL_NAME_1": "NA","GID_2": "KEN.3.6_1","county": "Lugari","NL_NAME_2": "NA","city": "Chekalini","VARNAME_3": "NA","NL_NAME_3": "NA","TYPE_3": "Ward","ENGTYPE_3": "Ward","CC_3": "994","HASC_3": "NA","name": "Chekalini.city","area_km2": 42.71986,"hist_schema_id": "Elevation0-9000","hist_area_km2": {"1525": 0.0636,"1550": 0.82683,"1575": 3.56174,"1600": 6.80548,"1625": 5.97865,"1650": 6.9327,"1675": 4.96102,"1700": 4.4522,"1725": 5.38505,"1750": 3.09535,"1775": 0.65723}}}