{"type": "Feature","id": "1193","bbox": [37.57789,-4.6775,41.53594,-0.02382],"geometry": {"type": "MultiPolygon","coordinates": [[[[41.16277,-2.09092,10.9782],[41.14332,-2.0595,0.0],[41.12273,-2.04778,1.8088],[41.09278,-2.03802,0.0],[41.06568,-2.03631,0.0],[41.05397,-2.04957,0.0],[41.04518,-2.06976,0.0],[41.02467,-2.08017,0.0],[41.00115,-2.08717,0.0],[40.98292,-2.09734,0.0],[40.96925,-2.11981,3.6181],[40.95737,-2.1513,0.0],[40.95729,-2.174,0.0],[40.9795,-2.16937,1.9318],[40.98146,-2.18157,0.0],[40.98585,-2.19134,0.0],[40.99366,-2.1972,5.6562],[41.00611,-2.19736,9.2926],[41.00994,-2.18719,0.0],[41.00229,-2.18011,0.0],[40.99155,-2.17376,6.2545],[40.98618,-2.16595,5.8226],[40.98894,-2.15228,3.1885],[40.99562,-2.14381,1.8664],[41.00441,-2.14219,8.9769],[41.01352,-2.14886,3.9895],[41.05079,-2.12949,3.4474],[41.06861,-2.12347,9.137],[41.0818,-2.12151,3.6405],[41.08286,-2.12371,2.7296],[41.08644,-2.12835,6.8851],[41.09197,-2.13299,7.6765],[41.09889,-2.13535,7.4574],[41.10483,-2.13405,7.3969],[41.10776,-2.13152,7.3393],[41.10963,-2.129,8.2196],[41.11256,-2.1277,11.4887],[41.11891,-2.12428,1.726],[41.12281,-2.1159,1.956],[41.12428,-2.10467,8.0242],[41.12338,-2.09368,6.6245],[41.13689,-2.11549,5.5225],[41.15528,-2.11207,7.7945],[41.16277,-2.09092,10.9782]]],
[[[38.5737,-0.02382,292.5],[38.54652,-0.02424,322.2628],[38.49613,-0.06124,313.7798],[38.46621,-0.07514,318.4513],[38.44352,-0.06522,346.5124],[38.43443,-0.06925,347.4871],[38.42513,-0.06945,341.2238],[38.41536,-0.06759,333.1654],[38.41588,-0.08056,346.0353],[38.87068,-0.86517,412.2749],[38.98938,-1.12417,340.9148],[38.99651,-1.14629,336.972],[39.00013,-1.68682,307.1336],[38.99868,-1.69251,306.5396],[38.99486,-1.70103,307.7965],[38.97233,-1.72398,317.2543],[38.96194,-1.73736,319.343],[38.95946,-1.75085,319.1075],[38.96024,-1.76434,320.0063],[38.98566,-1.91968,285.9748],[38.98396,-1.94737,289.0373],[38.97946,-1.96887,283.9376],[38.79715,-2.33366,322.5228],[38.79312,-2.33784,330.5555],[38.78242,-2.34647,331.3368],[38.77808,-2.34864,335.6644],[38.77296,-2.35055,335.7632],[38.75648,-2.35479,334.4532],[38.75183,-2.35676,339.3669],[38.74361,-2.36228,342.6082],[38.74035,-2.36564,342.1273],[38.72082,-2.39417,350.4443],[38.71725,-2.39711,350.6003],[38.69953,-2.4075,352.3542],[38.69472,-2.40952,353.985],[38.6893,-2.41122,354.3935],[38.67674,-2.41267,362.1855],[38.66465,-2.41236,366.9426],[38.64863,-2.40983,371.0437],[38.63344,-2.40559,373.9048],[38.62863,-2.40719,380.991],[38.63002,-2.41143,378.8342],[39.04214,-3.01806,207.9605],[39.04199,-3.02028,205.4876],[39.04028,-3.02183,206.7718],[39.0299,-3.02152,208.7185],[39.02447,-3.02023,211.9991],[39.01982,-3.01827,210.1774],[39.0116,-3.0131,220.8074],[39.00711,-3.01175,227.9549],[39.00246,-3.01175,233.3495],[38.99961,-3.01268,234.4983],[38.9962,-3.0148,232.3179],[38.98938,-3.02106,225.7901],[38.97931,-3.03196,225.5693],[38.97512,-3.03418,230.5425],[38.96969,-3.03459,231.6697],[38.96473,-3.03351,239.4396],[38.95512,-3.02953,238.2569],[38.95016,-3.02803,232.4261],[38.94442,-3.02783,242.1294],[38.93383,-3.0302,238.6332],[38.92887,-3.03201,233.1387],[38.92329,-3.03273,247.0028],[38.9174,-3.03279,241.4366],[38.89972,-3.03046,274.4227],[38.89352,-3.03062,266.7925],[38.88758,-3.0318,262.879],[38.88262,-3.03356,272.8072],[38.87843,-3.03615,268.4106],[38.8634,-3.04813,271.6586],[38.85905,-3.05077,277.3178],[38.85425,-3.05263,277.8008],[38.83689,-3.05403,269.2756],[38.83192,-3.05537,282.2661],[38.82753,-3.05759,288.725],[38.8235,-3.06028,276.4001],[38.81885,-3.06245,284.0928],[38.80381,-3.06746,276.2714],[38.79947,-3.06777,269.9129],[38.79653,-3.06741,281.2682],[38.79405,-3.06555,293.5686],[38.79405,-3.06266,294.2899],[38.79498,-3.0578,295.0819],[38.79746,-3.0503,285.8173],[38.7956,-3.04581,308.4909],[38.79172,-3.04317,314.9562],[38.74361,-3.03909,321.4461],[38.71415,-3.02741,336.187],[38.70868,-3.02596,333.2294],[38.70294,-3.02503,352.6979],[38.69658,-3.02493,372.713],[38.66744,-3.02953,362.9753],[38.66186,-3.02989,344.8076],[38.65669,-3.02896,347.6552],[38.65235,-3.02674,351.2065],[38.63607,-3.01542,361.6594],[38.62646,-3.01175,352.7635],[38.61545,-3.00907,364.7221],[38.61049,-3.00721,383.1796],[38.60677,-3.00462,359.9938],[38.60429,-3.00214,381.9527],[38.59974,-2.99677,395.3921],[38.5968,-2.99398,418.2825],[38.58889,-2.98834,427.5902],[38.58455,-2.98592,409.7047],[38.57013,-2.98033,440.957],[38.55339,-2.97,622.8008],[38.54419,-2.96581,626.4153],[38.53907,-2.96395,641.9106],[38.52822,-2.96147,521.9093],[38.5228,-2.96096,456.1708],[38.51737,-2.96132,444.8208],[38.51163,-2.96499,422.7371],[38.50791,-2.96845,419.2635],[38.50404,-2.97098,437.8161],[38.50063,-2.97129,448.5673],[38.48647,-2.97026,461.8558],[38.47376,-2.97108,470.9631],[38.46321,-2.97346,498.2531],[38.45748,-2.97625,484.6179],[38.45469,-2.97832,483.3148],[38.44895,-2.98586,478.3432],[38.44709,-2.98664,477.2939],[38.44414,-2.98493,488.6715],[38.43779,-2.97847,497.445],[38.42549,-2.96333,537.8021],[38.41123,-2.95088,668.7708],[38.40704,-2.94824,589.8295],[38.36374,-2.93109,609.577],[38.3594,-2.92845,612.7734],[38.35195,-2.92184,616.3855],[38.34901,-2.91812,616.3826],[38.34684,-2.91378,618.9825],[38.34188,-2.89817,617.5225],[38.32152,-2.85698,622.2665],[38.27811,-2.79079,648.707],[38.26038,-2.77482,682.8951],[38.2562,-2.77223,686.7438],[38.24209,-2.76619,694.599],[38.23697,-2.76479,700.3762],[38.20328,-2.75048,738.1702],[38.17259,-2.72717,769.7727],[38.16933,-2.72376,773.9299],[38.15145,-2.7002,759.782],[38.14819,-2.69679,769.4267],[38.14432,-2.69374,783.4271],[38.13982,-2.69157,781.2108],[38.13486,-2.69002,793.6545],[38.12913,-2.69151,799.2562],[38.12246,-2.69575,795.7343],[38.11362,-2.70671,807.1625],[38.08861,-2.72252,846.6083],[37.96758,-2.78004,1586.2396],[37.94371,-2.78763,1479.1106],[37.91792,-2.77993,1226.0043],[37.85043,-3.01005,849.0367],[37.83462,-3.15314,910.6038],[37.8309,-3.16497,903.5545],[37.82439,-3.17391,905.6522],[37.80837,-3.17515,930.2199],[37.79876,-3.175,937.6628],[37.79023,-3.17407,939.1627],[37.6982,-3.18658,1016.6445],[37.68,-3.19215,1045.9932],[37.70005,-3.31437,872.5],[37.68186,-3.31571,957.6229],[37.67194,-3.32429,951.9122],[37.66843,-3.33824,922.0897],[37.66988,-3.35612,893.4312],[37.65096,-3.35757,925.3089],[37.62719,-3.37028,949.8728],[37.60487,-3.38796,832.6718],[37.59029,-3.40408,817.5037],[37.58523,-3.41297,781.208],[37.58048,-3.42413,769.2143],[37.57789,-3.43581,749.6229],[37.57944,-3.44635,732.3314],[37.58668,-3.45369,721.3112],[37.60311,-3.45576,714.5095],[37.60817,-3.46361,709.8226],[37.60414,-3.48015,709.6713],[37.59619,-3.49968,705.7623],[37.59908,-3.51343,703.9241],[37.64693,-3.51064,707.2115],[37.66833,-3.5125,709.27],[37.68941,-3.51808,708.8057],[37.70832,-3.52717,710.7803],[37.72228,-3.53999,715.2494],[37.72982,-3.55539,713.0312],[37.74718,-3.61699,709.3809],[37.75721,-3.63745,709.0164],[37.77096,-3.65543,709.3336],[37.82542,-3.6945,715.49],[37.91079,-3.756,744.0414],[37.99606,-3.81749,761.5021],[38.08153,-3.87899,752.053],[38.1668,-3.94038,676.5326],[38.25206,-4.00187,722.4888],[38.33754,-4.06327,677.9598],[38.41617,-4.11998,621.9337],[38.4228,-4.12476,628.4642],[38.50827,-4.18615,541.7368],[38.59354,-4.24754,487.872],[38.67881,-4.30904,377.8185],[38.76428,-4.37053,386.9677],[38.84965,-4.43192,261.0118],[38.93502,-4.49342,166.1077],[39.02039,-4.55491,108.7996],[39.10576,-4.61631,103.7544],[39.1906,-4.6775,2.8232],[39.19386,-4.67327,8.0844],[39.19711,-4.67181,2.8598],[39.20069,-4.67148,3.5648],[39.20484,-4.6701,2.7495],[39.22438,-4.65586,5.7046],[39.24269,-4.62737,1.3652],[39.26433,-4.60662,2.4889],[39.29371,-4.61549,0.7145],[39.29965,-4.60076,0.0],[39.30047,-4.59498,2.8515],[39.32439,-4.62461,7.1165],[39.36248,-4.63397,16.2252],[39.39617,-4.629,12.536],[39.40626,-4.61517,0.0],[39.39064,-4.59344,4.7418],[39.38868,-4.58514,4.4885],[39.39137,-4.57106,4.4203],[39.39772,-4.57008,3.3421],[39.4048,-4.57391,2.8103],[39.40968,-4.57448,2.765],[39.41782,-4.5595,0.9819],[39.42384,-4.54388,3.9672],[39.431,-4.52996,4.8851],[39.44386,-4.51995,3.2591],[39.44744,-4.53427,3.9199],[39.44435,-4.56341,11.0777],[39.45069,-4.58196,8.394],[39.48487,-4.47894,6.811],[39.48797,-4.47454,11.2985],[39.50221,-4.4616,0.0],[39.50538,-4.45599,0.0],[39.50441,-4.44354,0.5973],[39.50603,-4.43808,10.9676],[39.51401,-4.42685,0.0],[39.52247,-4.41815,4.8671],[39.5311,-4.41741,7.5331],[39.54005,-4.43043,9.1368],[39.55112,-4.40211,0.0],[39.58383,-4.27939,13.6844],[39.6159,-4.19785,31.4094],[39.66586,-4.11207,0.0],[39.66969,-4.08799,21.2562],[39.65008,-4.06959,0.0],[39.61508,-4.05934,0.0],[39.58188,-4.06162,0.0],[39.56739,-4.08115,3.9467],[39.56324,-4.0709,18.0905],[39.56129,-4.06097,32.0914],[39.56056,-4.03981,3.3379],[39.56422,-4.03289,3.3829],[39.57325,-4.03183,3.2133],[39.58448,-4.03289,2.3221],[39.59474,-4.03265,55.1186],[39.62615,-4.02549,50.8708],[39.63559,-4.01702,18.2585],[39.64308,-3.9992,1.0544],[39.61647,-3.99285,11.2743],[39.60467,-3.98821,20.0693],[39.59474,-3.97869,22.6949],[39.60572,-3.96966,7.845],[39.61736,-3.97145,32.5851],[39.64308,-3.98553,1.1403],[39.66049,-3.9708,1.0959],[39.66196,-3.98463,1.5552],[39.65984,-4.00758,0.2345],[39.66668,-4.01971,23.3858],[39.67449,-4.025,24.7314],[39.68116,-4.04795,16.7549],[39.69077,-4.05316,20.6721],[39.69947,-4.04844,21.4461],[39.70834,-4.03753,19.0183],[39.71551,-4.02516,11.7923],[39.71827,-4.01629,10.8036],[39.72136,-4.00921,11.6666],[39.74244,-3.98594,0.0],[39.74529,-3.96868,16.5731],[39.73422,-3.96331,15.8732],[39.71209,-3.96502,14.9456],[39.702,-3.95582,2.162],[39.69752,-3.94671,24.4828],[39.6941,-3.93727,19.9239],[39.68735,-3.92718,3.0725],[39.68377,-3.91717,39.2845],[39.68995,-3.9096,4.1177],[39.71209,-3.89739,6.6036],[39.71192,-3.93133,16.3913],[39.73211,-3.94638,22.7362],[39.76075,-3.94183,17.8187],[39.78639,-3.91717,0.0],[39.86704,-3.69492,12.4698],[39.86899,-3.66334,6.6551],[39.86647,-3.64853,0.0],[39.86012,-3.63323,20.3417],[39.84897,-3.62518,25.6256],[39.81422,-3.63934,0.0],[39.80014,-3.6347,4.2635],[39.79607,-3.62298,29.1338],[39.80812,-3.60882,3.425],[39.78793,-3.60914,37.9224],[39.77589,-3.60019,3.8768],[39.77312,-3.58489,33.972],[39.78094,-3.56658,62.8339],[39.79127,-3.57488,30.7579],[39.79054,-3.57887,10.4286],[39.78639,-3.58758,11.3385],[39.813,-3.58978,108.8444],[39.81772,-3.59075,65.1211],[39.83082,-3.60589,41.277],[39.83562,-3.60882,42.9988],[39.85727,-3.61826,19.2074],[39.86598,-3.61647,15.4088],[39.87867,-3.60508,9.6303],[39.89015,-3.58172,3.8029],[39.90056,-3.52418,6.0344],[39.92726,-3.48138,4.6396],[39.9476,-3.42799,9.7754],[39.96518,-3.39918,4.6441],[39.96339,-3.39324,11.5948],[39.95965,-3.38779,3.1417],[39.95777,-3.38226,7.5681],[39.96363,-3.3576,4.6402],[39.96461,-3.34832,0.0],[39.96437,-3.33424,0.9511],[39.96608,-3.32122,5.2142],[39.97397,-3.31146,21.9943],[39.99195,-3.30706,15.9543],[39.99008,-3.3209,1.9148],[39.97926,-3.35906,6.4908],[39.97145,-3.37607,0.5537],[39.98911,-3.37322,9.0645],[40.00261,-3.36248,13.0627],[40.02662,-3.33441,15.3565],[40.03981,-3.32562,15.0673],[40.08815,-3.30364,15.2295],[40.10239,-3.2942,12.1717],[40.11402,-3.28167,8.4483],[40.12289,-3.26735,9.1612],[40.12908,-3.25189,10.8624],[40.12924,-3.23333,0.0],[40.11842,-3.19695,17.2427],[40.11915,-3.18353,15.0273],[40.15317,-3.13519,31.7618],[40.15952,-3.11777,7.4937],[40.16383,-3.06699,10.9464],[40.1692,-3.05495,6.4615],[40.19011,-3.02703,8.9886],[40.22511,-2.99375,22.0291],[40.23292,-2.98187,9.7324],[40.23211,-2.97064,0.0],[40.21127,-2.98602,0.0],[40.19068,-2.98805,0.2752],[40.17856,-2.9765,4.2748],[40.18377,-2.95029,0.0],[40.16261,-2.93426,2.391],[40.16489,-2.90146,3.5768],[40.18377,-2.83758,0.0],[40.18483,-2.82887,0.0],[40.18865,-2.81357,0.0],[40.18751,-2.80706,0.0],[40.17262,-2.7872,5.4551],[40.17066,-2.77947,6.4061],[40.17498,-2.76263,5.1448],[40.20484,-2.72487,5.7444],[40.22332,-2.68304,11.4818],[40.23211,-2.66904,11.639],[40.24391,-2.65667,9.5405],[40.29371,-2.61639,3.5593],[40.32309,-2.59808,5.9418],[40.34832,-2.5901,0.0],[40.38982,-2.56032,1.6915],[40.4909,-2.5285,11.6066],[40.52361,-2.52508,5.4596],[40.55543,-2.5324,22.9202],[40.58522,-2.54583,16.9328],[40.6159,-2.5525,9.6852],[40.65056,-2.53932,0.0],[40.71176,-2.46657,11.1634],[40.75815,-2.44744,10.1545],[40.78932,-2.42498,0.0],[40.81691,-2.39788,34.3381],[40.82862,-2.37477,0.0],[40.82179,-2.36077,0.0],[40.79347,-2.34197,5.1859],[40.78696,-2.32733,3.7094],[40.79371,-2.3165,1.6944],[40.79558,-2.30999,0.0],[40.79078,-2.30722,0.0],[40.78256,-2.30429,0.0],[40.77719,-2.29681,1.3426],[40.77459,-2.28777,0.0],[40.77394,-2.27923,0.0],[40.79469,-2.29046,2.5974],[40.81568,-2.27191,3.5871],[40.83806,-2.24505,1.7553],[40.86305,-2.23138,4.4416],[40.8777,-2.22869,3.1288],[40.88445,-2.22633,4.6466],[40.88315,-2.22405,5.9616],[40.89373,-2.2282,1.9841],[40.89438,-2.23203,3.2401],[40.89308,-2.23707,0.0],[40.89682,-2.24505,0.0],[40.92107,-2.2706,5.5551],[40.93491,-2.27988,8.1101],[40.95216,-2.28607,6.1362],[40.91944,-2.30242,0.0],[40.92262,-2.31373,5.6473],[40.94483,-2.30934,10.5718],[40.96949,-2.27899,25.9892],[40.98072,-2.25302,8.0191],[40.97926,-2.24212,0.795],[40.96949,-2.22772,3.9005],[40.95688,-2.21893,0.0],[40.94467,-2.21836,0.0],[40.93377,-2.21966,4.3101],[40.92482,-2.21722,2.9848],[40.91196,-2.19199,4.5959],[40.90602,-2.15325,13.6189],[40.90431,-2.08034,2.0077],[40.90113,-2.07366,1.9568],[40.89381,-2.07204,3.6684],[40.88649,-2.06976,3.9875],[40.88315,-2.06015,2.1296],[40.88543,-2.05446,5.0437],[40.8947,-2.04909,0.8965],[40.89682,-2.04241,9.6555],[40.89381,-2.02606,12.2942],[40.8851,-2.01483,1.0126],[40.87224,-2.01141,0.4411],[40.85597,-2.01849,2.0017],[40.85857,-2.00579,14.0462],[40.85564,-1.99261,8.2629],[40.84913,-1.97763,0.0],[40.86101,-1.96347,14.2764],[40.87037,-1.96722,2.1971],[40.87957,-1.9778,4.1083],[40.88998,-1.98382,15.366],[40.90821,-1.99774,0.0],[40.92677,-2.05926,0.0],[40.94532,-2.07317,6.7066],[40.96664,-2.04656,1.7811],[40.97071,-1.92897,17.8817],[41.00611,-1.90179,5.1339],[40.99106,-1.92409,16.8718],[40.98699,-1.93646,0.0],[40.98943,-1.95029,8.2386],[40.99008,-1.9625,1.3813],[40.98024,-1.99017,0.0],[40.9795,-2.00498,0.0],[40.98365,-2.0193,7.5415],[40.99024,-2.0289,3.4746],[40.99977,-2.03558,5.1753],[41.01295,-2.04241,8.2151],[41.02866,-2.04323,6.2978],[41.03956,-2.032,2.9398],[41.04998,-2.01849,5.3154],[41.077,-2.00709,1.4577],[41.09685,-1.98528,3.4206],[41.10914,-1.97763,6.5842],[41.11785,-1.97829,1.1517],[41.15691,-1.98748,3.8377],[41.1858,-1.99017,3.1475],[41.19508,-1.96705,2.1389],[41.19899,-1.94313,0.0],[41.219,-1.92246,2.5725],[41.21998,-1.94402,0.0],[41.23146,-1.9555,6.4261],[41.24871,-1.95729,3.9107],[41.26734,-1.94964,9.8427],[41.28273,-1.96852,6.8403],[41.30348,-1.95615,20.6219],[41.33912,-1.91237,10.4803],[41.39601,-1.86061,7.6686],[41.41765,-1.84726,4.5513],[41.42237,-1.82977,3.4185],[41.45834,-1.77483,9.3313],[41.53452,-1.69687,0.0],[41.53509,-1.6963,0.0],[41.5351,-1.69628,0.0],[41.5351,-1.69627,0.0],[41.53594,-1.67631,10.5852],[41.53564,-1.67633,10.5852],[41.0029,-1.70997,37.6466],[40.99655,-1.71111,35.6387],[40.223,-2.05708,29.3591],[40.16823,-2.07812,24.9102],[40.16404,-2.05946,28.7765],[40.16404,-2.05326,24.8108],[40.16833,-2.04303,30.4351],[40.16373,-2.02835,30.5283],[40.14978,-1.99802,30.2334],[40.13737,-1.94309,35.8708],[40.12931,-1.92913,31.924],[40.13293,-1.92593,34.2752],[40.1397,-1.91849,32.783],[40.14358,-1.91549,40.6163],[40.13727,-1.90149,37.794],[40.12931,-1.85405,40.1838],[40.12471,-1.84681,36.8061],[40.11402,-1.83539,46.5406],[40.10942,-1.82609,39.4637],[40.10864,-1.81839,44.0709],[40.11438,-1.80764,38.5138],[40.11562,-1.79942,38.648],[40.10875,-1.75509,41.3871],[40.10942,-1.73798,41.8294],[40.11154,-1.73462,41.639],[40.11593,-1.7309,44.402],[40.12048,-1.72553,43.1948],[40.12311,-1.71747,43.3792],[40.12151,-1.71679,44.8982],[40.11562,-1.69018,44.6995],[40.11345,-1.62615,51.0739],[40.1057,-1.61101,50.0986],[40.09221,-1.59773,50.9621],[40.08384,-1.58641,51.803],[40.04255,-1.4996,58.0832],[40.03681,-1.49092,57.5535],[40.03345,-1.48043,63.5591],[40.02689,-1.41583,68.1439],[40.01697,-1.38069,69.7662],[40.01046,-1.34209,72.6936],[40.00575,-1.25755,76.3738],[39.99392,-1.21874,84.1678],[39.97165,-1.19269,81.3058],[39.96762,-1.17156,85.6545],[39.9563,-1.15114,85.2345],[39.93899,-1.13698,90.8417],[39.91703,-1.13466,89.3444],[39.92452,-1.11657,91.7325],[39.93015,-1.1081,90.5305],[39.93749,-1.1005,89.4483],[39.92318,-1.08624,93.0536],[39.88767,-1.01518,95.5469],[39.88132,-0.98661,98.9504],[39.87543,-0.97017,98.8374],[39.8624,-0.94904,100.9625],[39.86292,-0.92857,103.8668],[39.8624,-0.92237,104.6401],[39.84721,-0.87659,106.1891],[39.84194,-0.86713,106.6598],[39.84551,-0.85984,109.3117],[39.84706,-0.85385,108.0321],[39.84876,-0.83917,106.684],[39.84194,-0.83917,110.1895],[39.83398,-0.84047,109.2946],[39.83099,-0.83044,112.1773],[39.82825,-0.79887,113.6604],[39.81548,-0.76579,114.334],[39.81336,-0.75081,115.6459],[39.82143,-0.7368,118.8021],[39.81238,-0.72729,121.1016],[39.81135,-0.71133,124.111],[39.8129,-0.69629,121.5546],[39.8115,-0.68962,119.0838],[39.78107,-0.64461,127.5431],[39.77921,-0.62652,126.1692],[39.77388,-0.61247,126.0467],[39.76494,-0.60162,127.5276],[39.75254,-0.59278,131.2601],[39.73662,-0.58648,128.652],[39.71042,-0.58384,129.0059],[39.69854,-0.57914,133.1557],[39.69487,-0.57268,133.4091],[39.66986,-0.54265,132.7374],[39.66376,-0.54188,137.421],[39.66278,-0.5272,132.9695],[39.65911,-0.51542,137.5836],[39.65182,-0.50751,136.2043],[39.63989,-0.50467,140.1053],[39.63322,-0.48953,138.0294],[39.59441,-0.34628,151.9099],[39.58123,-0.32241,148.4958],[39.56418,-0.31223,157.207],[39.56108,-0.3083,155.9778],[39.5509,-0.29011,154.4563],[39.54707,-0.28494,154.4882],[39.53788,-0.28158,153.3792],[39.52305,-0.2836,151.5359],[39.51235,-0.27807,163.1752],[39.50088,-0.25022,156.3863],[39.4955,-0.24179,159.3987],[39.48139,-0.23203,160.9394],[39.47245,-0.21616,161.0686],[39.45902,-0.20469,161.5517],[39.44321,-0.19477,163.6889],[39.43039,-0.18872,162.9538],[39.39458,-0.18071,177.3205],[39.38884,-0.1788,178.8552],[39.38636,-0.17343,167.993],[39.38021,-0.16795,167.4046],[39.37251,-0.16371,175.9186],[39.3428,-0.1589,173.098],[39.33164,-0.15141,176.8549],[39.3227,-0.14216,178.1843],[39.30688,-0.1341,177.0096],[39.28539,-0.13291,176.653],[39.2657,-0.13741,178.3184],[39.24699,-0.13942,180.6344],[39.2287,-0.13069,179.5268],[39.14302,-0.12728,194.4723],[39.09005,-0.06211,199.1346],[39.07785,-0.05214,201.7168],[39.07341,-0.04992,205.6742],[39.06969,-0.04501,200.7176],[39.06488,-0.04015,206.8037],[39.05708,-0.03788,213.2875],[39.02633,-0.03788,217.3248],[38.99455,-0.04361,209.6132],[38.97869,-0.04889,213.4389],[38.96799,-0.05529,220.5391],[38.96039,-0.06646,213.0329],[38.95409,-0.07886,213.878],[38.94628,-0.08893,218.3135],[38.93383,-0.09312,219.7413],[38.74578,-0.06522,274.0588],[38.72134,-0.05643,286.1183],[38.7093,-0.04951,302.0567],[38.70418,-0.04129,308.284],[38.69891,-0.0433,295.8066],[38.68615,-0.04563,276.9082],[38.67044,-0.04496,303.9777],[38.65638,-0.03788,315.9283],[38.63271,-0.04361,303.5872],[38.5737,-0.02382,292.5]]]]}
,"properties": {"ISO3166-1-Alpha-3": "KEN","country": "Kenya","fill": "#F0F","name": "Coast","area_km2": 82634.99,"hist_schema_id": "Elevation0-9000","hist_area_km2": {"0": 3366.95,"25": 6786.0,"50": 3078.81,"75": 2742.3,"100": 3103.32,"125": 3907.25,"150": 4944.46,"175": 6435.85,"200": 5921.82,"225": 5042.38,"250": 4396.77,"275": 4041.74,"300": 3497.7,"325": 2776.32,"350": 2024.28,"375": 1623.74,"400": 1415.45,"425": 1399.81,"450": 1176.69,"475": 963.64,"500": 818.72,"525": 669.37,"550": 479.44,"575": 458.01,"600": 518.15,"625": 562.26,"650": 638.65,"675": 674.81,"700": 719.92,"725": 979.95,"750": 822.48,"775": 721.09,"800": 657.29,"825": 569.33,"850": 543.33,"875": 508.41,"900": 542.18,"925": 473.41,"950": 438.79,"975": 440.93,"1000": 371.5,"1025": 342.93,"1050": 258.48,"1075": 168.12,"1100": 111.12,"1125": 69.93,"1150": 42.82,"1175": 32.13,"1200": 28.05,"1225": 27.18,"1250": 22.73,"1275": 20.89,"1300": 21.38,"1325": 19.47,"1350": 17.82,"1375": 15.64,"1400": 15.16,"1425": 15.66,"1450": 15.52,"1475": 14.1,"1500": 12.91,"1525": 13.27,"1550": 11.94,"1575": 13.31,"1600": 13.06,"1625": 12.04,"1650": 10.63,"1675": 8.21,"1700": 4.76,"1725": 4.66,"1750": 3.39,"1775": 3.03,"1800": 2.88,"1825": 2.43,"1850": 1.63,"1875": 0.91,"1900": 0.74,"1950": 0.66}}}