{"type":"Feature","properties":{"GID_3":"KEN.38.6.1_1","GID_0":"KEN","country":"Kenya","GID_1":"KEN.38_1","province":"Siaya","NL_NAME_1":"NA","GID_2":"KEN.38.6_1","county":"Ugunja","NL_NAME_2":"NA","city":"Sidindi","VARNAME_3":"NA","NL_NAME_3":"NA","TYPE_3":"Ward","ENGTYPE_3":"Ward","CC_3":"1160","HASC_3":"NA","name":"Sidindi.city"},
"geometry":{"type": "MultiPolygon","coordinates": [[[[34.451,0.2111,1329.5173],[34.446,0.2205,1348.6986],[34.4429,0.2223,1342.0007],[34.4401,0.2217,1338.1185],[34.428,0.2166,1319.238],[34.4208,0.2081,1305.1567],[34.4111,0.2031,1293.8313],[34.4079,0.1956,1277.4006],[34.404,0.1912,1286.7449],[34.4013,0.1912,1290.623],[34.3943,0.1862,1281.5502],[34.3856,0.1831,1265.6672],[34.3785,0.1851,1248.7742],[34.3753,0.1836,1268.0477],[34.375,0.1819,1263.5435],[34.3698,0.1816,1268.4824],[34.3697,0.1797,1258.494],[34.3654,0.1778,1254.0042],[34.3554,0.1806,1261.569],[34.3492,0.1797,1251.2087],[34.3384,0.1727,1245.9194],[34.3227,0.1664,1215.8691],[34.3126,0.1655,1216.9285],[34.3095,0.1613,1221.668],[34.3038,0.1594,1223.8123],[34.3053,0.1574,1216.9949],[34.3147,0.1556,1217.9187],[34.3233,0.1495,1218.3488],[34.3287,0.1497,1248.6371],[34.3348,0.1477,1247.303],[34.3401,0.149,1255.6217],[34.345,0.1442,1220.353],[34.3489,0.1431,1241.7593],[34.3619,0.1459,1279.9058],[34.3669,0.1494,1261.8936],[34.3821,0.1523,1321.4019],[34.3866,0.1577,1299.4125],[34.3893,0.1581,1308.8003],[34.4065,0.1471,1313.4465],[34.4146,0.1401,1328.5222],[34.4166,0.1422,1320.306],[34.4169,0.1486,1308.0282],[34.4204,0.1578,1300.5735],[34.4254,0.1564,1311.0981],[34.4314,0.1581,1327.77],[34.4413,0.1698,1343.2416],[34.4376,0.1768,1332.2742],[34.4295,0.182,1300.2905],[34.4292,0.1869,1301.5508],[34.4258,0.1896,1309.9591],[34.4267,0.1924,1314.3035],[34.4292,0.1933,1307.8549],[34.4322,0.2014,1320.8256],[34.4357,0.2059,1325.8082],[34.4458,0.2071,1327.1177],[34.451,0.2111,1329.5173]]]]}}