{"type":"Feature","properties":{"GID_3":"KEN.31.1.4_1","GID_0":"KEN","country":"Kenya","GID_1":"KEN.31_1","province":"Nakuru","NL_NAME_1":"NA","GID_2":"KEN.31.1_1","county":"Bahati","NL_NAME_2":"NA","city":"Kiamaina","VARNAME_3":"NA","NL_NAME_3":"NA","TYPE_3":"Ward","ENGTYPE_3":"Ward","CC_3":"867","HASC_3":"NA","name":"Kiamaina.city"},
"geometry":{"type": "MultiPolygon","coordinates": [[[[36.1171,-0.1386,1859.1935],[36.117,-0.1315,1850.2928],[36.1106,-0.1272,1829.454],[36.1057,-0.1268,1807.9034],[36.0891,-0.1323,1810.7168],[36.0894,-0.1418,1841.8506],[36.0313,-0.123,1750.491],[36.0246,-0.1485,2024.6459],[36.0528,-0.1622,1979.0098],[36.0426,-0.1734,2010.0579],[36.0366,-0.1832,2005.7501],[36.0355,-0.1813,2001.1265],[36.0193,-0.2008,1945.0908],[36.0132,-0.2405,2030.6532],[36.0027,-0.2727,1993.7947],[36.0048,-0.2904,1961.8843],[36.0097,-0.2895,1929.0477],[36.0114,-0.2704,1947.1438],[36.0252,-0.2743,1925.8582],[36.0229,-0.2685,1937.5663],[36.0293,-0.2671,1934.6917],[36.0341,-0.2686,1931.3274],[36.0383,-0.2666,1956.0177],[36.0382,-0.2637,1974.6467],[36.0422,-0.2671,1984.2511],[36.0418,-0.2628,2022.49],[36.0438,-0.2625,2026.8563],[36.0434,-0.2522,2117.0261],[36.0535,-0.2451,2024.75],[36.0857,-0.2508,2229.5156],[36.1238,-0.2717,1876.9949],[36.1302,-0.2659,1890.6476],[36.1344,-0.2561,1901.9294],[36.1407,-0.2519,1915.5294],[36.142,-0.2496,1920.0166],[36.1052,-0.2133,1772.3179],[36.1173,-0.1906,1905.3413],[36.115,-0.1467,1863.2263],[36.1171,-0.1386,1859.1935]]]]}}