{"type":"Feature","properties":{"GID_3":"KEN.2.2.4_1","GID_0":"KEN","country":"Kenya","GID_1":"KEN.2_1","province":"Bomet","NL_NAME_1":"NA","GID_2":"KEN.2.2_1","county":"BometEast","NL_NAME_2":"NA","city":"Longisa","VARNAME_3":"NA","NL_NAME_3":"NA","TYPE_3":"Ward","ENGTYPE_3":"Ward","CC_3":"978","HASC_3":"NA","name":"Longisa.city"},
"geometry":{"type": "MultiPolygon","coordinates": [[[[35.4478,-0.824,1998.6428],[35.4465,-0.8258,1967.8846],[35.4417,-0.8251,1993.8848],[35.4207,-0.8424,1939.8386],[35.4217,-0.8405,1954.6544],[35.4204,-0.8372,1978.6208],[35.4105,-0.8318,1980.4391],[35.4118,-0.8347,1973.1934],[35.4064,-0.8384,1991.8934],[35.4046,-0.8431,1978.598],[35.4008,-0.8383,1995.1445],[35.3917,-0.8356,1995.7805],[35.3911,-0.8335,2004.3062],[35.379,-0.8274,2184.4551],[35.3781,-0.8221,2126.0591],[35.3834,-0.8159,2206.9395],[35.3871,-0.803,2196.7002],[35.3946,-0.794,2225.2563],[35.3858,-0.7872,2017.2653],[35.371,-0.7809,2048.9219],[35.3623,-0.7962,1973.817],[35.3521,-0.8071,2001.5488],[35.3546,-0.821,1988.3413],[35.3627,-0.8333,1972.7877],[35.3605,-0.8538,2157.0525],[35.3637,-0.8581,2167.3403],[35.362,-0.8625,2185.0769],[35.366,-0.8643,2058.7729],[35.3808,-0.8624,2138.1772],[35.3796,-0.8687,1986.4286],[35.3819,-0.8702,1951.6415],[35.3847,-0.8791,1906.5377],[35.3859,-0.8801,1901.1807],[35.3928,-0.8749,1939.1692],[35.3945,-0.8752,1941.9346],[35.4002,-0.8817,1925.4216],[35.4016,-0.8875,1909.9541],[35.4101,-0.8989,1895.9918],[35.4164,-0.8978,1874.804],[35.4169,-0.8993,1878.1981],[35.4205,-0.9002,1871.7623],[35.4271,-0.8989,1846.0751],[35.429,-0.8999,1849.9097],[35.4309,-0.8971,1846.7117],[35.4294,-0.8949,1845.7017],[35.4305,-0.8896,1851.5972],[35.4316,-0.8892,1853.3721],[35.4318,-0.8921,1849.5405],[35.4358,-0.8928,1871.7131],[35.4375,-0.8898,1866.5039],[35.4404,-0.8896,1854.8567],[35.4411,-0.8863,1867.2993],[35.4386,-0.8824,1892.3481],[35.4421,-0.8822,1887.7571],[35.4426,-0.8844,1879.0],[35.4428,-0.8812,1892.5251],[35.4456,-0.8805,1872.7307],[35.446,-0.8771,1892.848],[35.4498,-0.877,1901.6722],[35.4489,-0.8786,1886.3883],[35.4503,-0.8791,1885.4453],[35.4536,-0.8759,1912.8494],[35.4532,-0.8782,1884.4949],[35.4557,-0.879,1877.5138],[35.4545,-0.8777,1892.8027],[35.4565,-0.8752,1886.2513],[35.4553,-0.8717,1913.2391],[35.4571,-0.8709,1913.7714],[35.4577,-0.8683,1901.3617],[35.4594,-0.8698,1906.9041],[35.46,-0.8675,1881.299],[35.4621,-0.8674,1885.021],[35.4609,-0.8666,1885.021],[35.4608,-0.8635,1901.3281],[35.4624,-0.8626,1883.7985],[35.4609,-0.8588,1928.3793],[35.463,-0.8583,1905.6682],[35.4651,-0.8477,1952.8066],[35.4624,-0.8436,1973.0739],[35.4597,-0.8424,1944.3335],[35.4587,-0.8395,1959.4133],[35.4599,-0.8381,1959.4133],[35.4559,-0.834,1986.5499],[35.457,-0.8323,2007.2946],[35.4478,-0.824,1998.6428]]]]}}