{"type":"Feature","properties":{"featurecla":"Lake","scalerank":8,"name":"Masinga Res.","name_abb":"Masinga Res.","name_alt":null,"note":null,"delta":null,"dam_name":null,"year":-99,"admin":null,"min_zoom":6.0,"min_label":7.0},
"geometry":{"type": "Polygon","coordinates": [[[37.658448342021956,-0.795258093437724,1095.386],[37.647262505190952,-0.796141185819124,1088.2046],[37.635193575978548,-0.791431359785008,1008.3547],[37.641963950902579,-0.777007517555546,1029.8774],[37.639314673758406,-0.766410408978828,1020.0739],[37.633133027088633,-0.755813300402082,1038.5491],[37.6281288369274,-0.743744371189678,1086.8582],[37.621358462003371,-0.743744371189678,1089.4182],[37.621064097876229,-0.761111854690455,1035.1489],[37.6178260924778,-0.776124425174174,1083.0627],[37.617531728350656,-0.789665175022208,1064.0592],[37.624890831528944,-0.802028468361755,1035.1355],[37.637254124868491,-0.816746674718331,1020.7242],[37.634310483597176,-0.823811413769505,1016.311],[37.621947190257629,-0.826166326786534,1028.5237],[37.60457970675688,-0.826166326786534,1065.4497],[37.595160054688648,-0.824694506150877,1081.1257],[37.585740402620445,-0.822045229006704,1067.9525],[37.5769094788065,-0.820573408371047,1102.2841],[37.570139103882468,-0.822633957260962,1082.3289],[37.567195462611153,-0.83087615282065,1064.4972],[37.570433468009583,-0.837646527744681,1050.3306],[37.573082745153783,-0.845005630922969,1039.8033],[37.566606734356895,-0.853542190609801,1089.6494],[37.556303989907263,-0.854130918864058,1093.6464],[37.544529424822,-0.849715456957085,1085.328],[37.5351097727538,-0.850598549338486,1080.5732],[37.532754859736741,-0.867082940457834,1130.2561],[37.521569022905737,-0.863550570932262,1122.3096],[37.516270468617364,-0.868554761093492,1193.924],[37.512443734964648,-0.875913864271809,1181.9037],[37.504790267659217,-0.880918054433039,1118.5289],[37.496548072099557,-0.880623690305896,1070.4658],[37.489777697175526,-0.878268777288838,1054.9592],[37.484773507014268,-0.875619500144666,1069.552],[37.480946773361552,-0.874442043636151,1061.7745],[37.469172208276291,-0.865611119822177,1055.7438],[37.460341284462345,-0.848538000448542,1059.7322],[37.448861083504227,-0.837352163617538,1077.1226],[37.429138686986391,-0.84677181568577,1080.9003],[37.422957040316618,-0.837352163617538,1109.0938],[37.409121926341442,-0.831759245202051,1072.0864],[37.393226263476322,-0.830287424566393,1063.0188],[37.381451698391061,-0.832936701710565,1091.1516],[37.365850399653084,-0.821456500752447,1088.5103],[37.359374388856196,-0.814097397574159,1086.9824],[37.355253291076338,-0.80497210963307,1093.9248],[37.350249100915107,-0.8099762997943,1080.0266],[37.343478725991076,-0.814980489955531,1082.0076],[37.340240720592618,-0.819395951862504,1082.0842],[37.305211389463949,-0.797613006454782,1054.5],[37.292553731997288,-0.791431359785008,1054.6733],[37.2972635580314,-0.810859392175701,1054.5],[37.30874375898955,-0.823517049642362,1066.0021],[37.337002715194188,-0.842945082033054,1054.5],[37.349366008533707,-0.854425282991173,1055.2729],[37.359374388856196,-0.858546380771031,1077.4148],[37.388810801569349,-0.860312565533832,1054.5],[37.391754442840664,-0.862373114423747,1066.3257],[37.414714844756929,-0.869437853474892,1054.5],[37.415303573011215,-0.867082940457834,1054.5],[37.422073947935218,-0.870615309983435,1055.8308],[37.426195045715076,-0.87090967411055,1054.5],[37.428549958732134,-0.873853315381865,1060.3782],[37.429138686986391,-0.884156059831497,1086.8038],[37.427078138096476,-0.892398255391157,1076.4727],[37.417658486028245,-0.896519353171016,1100.5897],[37.415303573011215,-0.905055912857819,1091.1261],[37.417952850155388,-0.91359247254465,1080.218],[37.4226626761895,-0.918891026833023,1085.4126],[37.425606317460819,-0.925072673502797,1075.8187],[37.422957040316618,-0.9353754179524,1075.4308],[37.431199235876306,-0.942440157003546,1055.9618],[37.437969610800337,-0.935964146206658,1054.5],[37.445034349851511,-0.923600852867139,1054.5],[37.453570909538314,-0.911826287781849,1056.2681],[37.467111659386376,-0.905350276984962,1054.7562],[37.491249517811184,-0.90858828238342,1054.5],[37.504790267659217,-0.901229179205131,1054.5],[37.528045033702625,-0.913003744290393,1054.5],[37.558364538797207,-0.882978603322954,1054.5],[37.580441848332072,-0.88768842935707,1054.5],[37.580441848332072,-0.874736407763265,1054.5],[37.58367985373053,-0.865611119822177,1032.1011],[37.590744592781675,-0.862667478550861,1012.8221],[37.601047337231279,-0.867082940457834,1022.9071],[37.621064097876229,-0.852070369974143,1021.5549],[37.629306293435917,-0.843828174414455,1006.5835],[37.635193575978548,-0.832936701710565,1036.8632],[37.658448342021956,-0.841178897270254,1042.7655],[37.671105999488617,-0.827932511549335,1004.0],[37.682291836319621,-0.778184974064089,1020.6993],[37.670222907107217,-0.789370810895093,1021.4973],[37.658448342021956,-0.795258093437724,1095.386]]]}}