{"type": "Feature","bbox": [37.737632292220383,-0.818512859481132,37.812695144638951,-0.783483528352463],"geometry": {"type": "Polygon","coordinates": [[[37.759709601755247,-0.795846821691981,898.9951],[37.737632292220383,-0.785249713115235,943.6962],[37.741164661745955,-0.800262283598954,952.8334],[37.747935036669986,-0.812919941065616,944.1729],[37.758532145246733,-0.818512859481132,880.8136],[37.772367259221909,-0.812625576938501,845.9182],[37.7823756395444,-0.809387571540043,815.5999],[37.800626215426547,-0.802028468361755,807.3826],[37.812695144638951,-0.798790462963296,774.7285],[37.799448758918032,-0.783483528352463,822.7728],[37.759709601755247,-0.795846821691981,898.9951]]]}
,"properties": {"featurecla": "Lake","scalerank": 8,"name": "null415","name_abb": null,"name_alt": null,"note": "_untitled_16","delta": null,"dam_name": null,"year": -99,"admin": null,"min_zoom": 6.0,"min_label": 7.0,"area_km2": 16.79051,"hist_schema_id": "Elevation0-9000","hist_area_km2": {"775": 0.106,"800": 0.424,"825": 2.01401,"850": 3.98563,"875": 3.66762,"900": 2.62882,"925": 2.77722,"950": 1.18721}}}