{"type": "Feature","bbox": [35.1133,0.8575,35.224,0.9314],"geometry": {"type": "MultiPolygon","coordinates": [[[[35.116,0.8575,1838.1335],[35.1302,0.8644,1850.092],[35.1432,0.8663,1915.2476],[35.143,0.8707,1857.0586],[35.1673,0.8801,1900.575],[35.1939,0.8839,1959.174],[35.221,0.8925,1964.4238],[35.224,0.9259,1868.8231],[35.219,0.925,1847.5444],[35.2158,0.9271,1850.2737],[35.212,0.9263,1855.8513],[35.2075,0.9285,1858.1676],[35.1989,0.9279,1856.151],[35.1943,0.9313,1854.4464],[35.1904,0.9314,1854.6472],[35.1876,0.9297,1853.2292],[35.1832,0.9297,1852.0598],[35.1813,0.9272,1846.3826],[35.1791,0.9282,1848.7754],[35.1726,0.9253,1835.6348],[35.1665,0.9283,1843.9238],[35.1633,0.9261,1843.782],[35.1571,0.9254,1849.6063],[35.1551,0.9234,1833.7043],[35.1526,0.9248,1838.5118],[35.144,0.9235,1823.6477],[35.1406,0.9264,1816.5334],[35.1342,0.9244,1809.8278],[35.128,0.9254,1828.3337],[35.1273,0.9187,1807.7312],[35.1237,0.9181,1832.3481],[35.1233,0.9167,1822.5187],[35.1204,0.9173,1828.7698],[35.1209,0.9149,1816.3772],[35.1163,0.9125,1811.895],[35.1174,0.9045,1791.7998],[35.1148,0.903,1794.3401],[35.1133,0.8976,1790.1311],[35.1155,0.8958,1788.0115],[35.1153,0.893,1787.4],[35.1178,0.8915,1786.8262],[35.116,0.8885,1787.9858],[35.1138,0.8883,1800.4935],[35.116,0.8575,1838.1335]]]]}
,"properties": {"GID_3": "KEN.44.5.4_1","GID_0": "KEN","country": "Kenya","GID_1": "KEN.44_1","province": "UasinGishu","NL_NAME_1": "NA","GID_2": "KEN.44.5_1","county": "Soy","NL_NAME_2": "NA","city": "Moi'SBridge","VARNAME_3": "NA","NL_NAME_3": "NA","TYPE_3": "Ward","ENGTYPE_3": "Ward","CC_3": "701","HASC_3": "NA","name": "Moi'S_Bridge.city","area_km2": 63.91675,"hist_schema_id": "Elevation0-9000","hist_area_km2": {"1775": 0.55119,"1800": 7.80145,"1825": 16.28126,"1850": 15.15768,"1875": 7.29266,"1900": 4.64272,"1925": 4.74872,"1950": 4.85471,"1975": 2.58636}}}