{"type":"Feature","properties":{"GID_3":"KEN.36.4.5_1","GID_0":"KEN","country":"Kenya","GID_1":"KEN.36_1","province":"Nyeri","NL_NAME_1":"NA","GID_2":"KEN.36.4_1","county":"NyeriTown","NL_NAME_2":"NA","city":"Rware","VARNAME_3":"NA","NL_NAME_3":"NA","TYPE_3":"Ward","ENGTYPE_3":"Ward","CC_3":"492","HASC_3":"NA","name":"Rware.city"},
"geometry":{"type": "MultiPolygon","coordinates": [[[[36.9686,-0.4099,1732.8857],[36.9635,-0.4103,1764.7966],[36.9587,-0.4088,1774.5598],[36.9548,-0.3988,1791.473],[36.9535,-0.4,1773.6315],[36.9507,-0.3982,1774.6586],[36.9493,-0.399,1780.3159],[36.9457,-0.3954,1810.7544],[36.9441,-0.3971,1790.9343],[36.948,-0.3997,1759.0601],[36.9442,-0.4027,1738.3696],[36.9473,-0.4041,1731.9856],[36.9284,-0.4122,1820.8738],[36.9355,-0.4278,1852.3604],[36.9509,-0.4232,1795.7094],[36.9608,-0.4271,1771.4596],[36.9646,-0.4216,1719.4678],[36.9745,-0.4226,1750.6986],[36.9813,-0.4196,1728.5676],[36.9779,-0.4165,1694.9067],[36.9781,-0.4116,1746.0947],[36.9717,-0.4121,1757.4915],[36.9714,-0.4156,1750.5916],[36.9694,-0.417,1764.5015],[36.9686,-0.4099,1732.8857]]]]}}