{"type":"Feature","properties":{"GID_3":"KEN.24.1.4_1","GID_0":"KEN","country":"Kenya","GID_1":"KEN.24_1","province":"Mandera","NL_NAME_1":"NA","GID_2":"KEN.24.1_1","county":"Banissa","NL_NAME_2":"NA","city":"Kiliwehiri","VARNAME_3":"NA","NL_NAME_3":"NA","TYPE_3":"Ward","ENGTYPE_3":"Ward","CC_3":"200","HASC_3":"NA","name":"Kiliwehiri.city"},
"geometry":{"type": "MultiPolygon","coordinates": [[[[39.9914,3.9332,756.5716],[39.99,3.9227,808.447],[40.0097,3.9071,758.1415],[40.0161,3.9045,746.155],[40.0183,3.8933,737.7958],[40.0129,3.8815,732.7119],[40.0215,3.8701,733.8867],[40.0275,3.8683,727.5443],[40.0547,3.8691,731.9956],[40.0563,3.8809,742.0481],[40.0611,3.8885,746.2904],[40.0689,3.8959,753.8472],[40.0745,3.9061,761.7012],[40.0791,3.9111,767.0953],[40.1389,3.9397,838.2482],[40.1461,3.9463,850.751],[40.1537,3.9565,884.1526],[40.1709,3.9625,908.4672],[40.1741,3.9651,915.8018],[40.1687,3.9341,880.6622],[40.1693,3.9243,892.4658],[40.1723,3.9143,853.0676],[40.1751,3.9153,847.9717],[40.1825,3.9111,841.9756],[40.1871,3.9111,845.9326],[40.1947,3.9151,865.7941],[40.2031,3.9171,840.2684],[40.2111,3.9257,859.821],[40.2277,3.9329,863.2059],[40.2347,3.9435,884.5474],[40.2433,3.9523,942.9623],[40.2621,3.9663,974.7983],[40.2653,3.9679,974.6614],[40.2717,3.9653,971.8804],[40.2837,4.0185,999.0873],[40.293,4.0709,1005.1721],[40.2309,4.0463,1030.2119],[40.1908,4.0361,1017.9229],[40.1264,4.0024,876.2795],[40.119,3.9963,858.4099],[40.1066,3.9896,843.3348],[40.0181,3.9474,770.9119],[39.9914,3.9332,756.5716]]]]}}