{"type":"Feature","properties":{"GID_3":"KEN.15.3.8_1","GID_0":"KEN","country":"Kenya","GID_1":"KEN.15_1","province":"Kirinyaga","NL_NAME_1":"NA","GID_2":"KEN.15.3_1","county":"Mwea","NL_NAME_2":"NA","city":"Wamumu","VARNAME_3":"NA","NL_NAME_3":"NA","TYPE_3":"Ward","ENGTYPE_3":"Ward","CC_3":"499","HASC_3":"NA","name":"Wamumu.city"},
"geometry":{"type": "MultiPolygon","coordinates": [[[[37.4712,-0.7254,1076.6344],[37.4712,-0.723,1082.7559],[37.4665,-0.7221,1081.0835],[37.4661,-0.7186,1087.8452],[37.4641,-0.7176,1095.3313],[37.4569,-0.723,1089.7604],[37.4544,-0.723,1095.5183],[37.4509,-0.7266,1092.5239],[37.4418,-0.7217,1106.1384],[37.4362,-0.7258,1101.1895],[37.4307,-0.7274,1107.5748],[37.4256,-0.7246,1111.4521],[37.4206,-0.726,1110.8427],[37.4214,-0.7229,1115.4006],[37.4098,-0.7195,1117.8663],[37.4078,-0.7206,1114.8143],[37.4055,-0.7183,1116.293],[37.3936,-0.7215,1117.976],[37.3904,-0.7202,1119.5054],[37.3887,-0.7225,1119.2472],[37.385,-0.7207,1120.9667],[37.3836,-0.7221,1121.0248],[37.3851,-0.7228,1120.1417],[37.3831,-0.7235,1120.6639],[37.3763,-0.7212,1123.8103],[37.3747,-0.7164,1126.2238],[37.3723,-0.7164,1125.7246],[37.3701,-0.714,1127.0859],[37.3711,-0.7113,1128.2377],[37.3684,-0.7081,1128.6609],[37.3674,-0.7021,1130.6897],[37.3711,-0.7033,1130.0112],[37.3716,-0.6993,1140.0024],[37.3621,-0.6962,1136.8435],[37.3597,-0.6927,1139.4695],[37.3552,-0.7001,1134.7775],[37.345,-0.7085,1147.1893],[37.3347,-0.7119,1149.7385],[37.3266,-0.7125,1150.0532],[37.3296,-0.7306,1141.144],[37.3406,-0.7487,1133.0264],[37.3281,-0.7655,1151.2506],[37.3469,-0.7722,1140.8732],[37.3586,-0.7697,1146.8541],[37.3589,-0.7616,1131.9991],[37.3671,-0.762,1132.764],[37.3711,-0.764,1135.0654],[37.3876,-0.7529,1134.8214],[37.4063,-0.7476,1123.5504],[37.4213,-0.7473,1111.8303],[37.4444,-0.7306,1101.1838],[37.4639,-0.7336,1082.4456],[37.4633,-0.7287,1086.1516],[37.4671,-0.7286,1083.8413],[37.4673,-0.7264,1085.1265],[37.4712,-0.7254,1076.6344]]]]}}