{"type":"Feature","properties":{"GID_3":"KEN.27.5.4_1","GID_0":"KEN","country":"Kenya","GID_1":"KEN.27_1","province":"Migori","NL_NAME_1":"NA","GID_2":"KEN.27.5_1","county":"Rongo","NL_NAME_2":"NA","city":"SouthKamagambo","VARNAME_3":"NA","NL_NAME_3":"NA","TYPE_3":"Ward","ENGTYPE_3":"Ward","CC_3":"1264","HASC_3":"NA","name":"South_Kamagambo.city"},
"geometry":{"type": "MultiPolygon","coordinates": [[[[34.624,-0.784,1521.7927],[34.6212,-0.7884,1517.3302],[34.6148,-0.7838,1488.5215],[34.6119,-0.7835,1502.8101],[34.6107,-0.7809,1519.7014],[34.6012,-0.783,1476.726],[34.6005,-0.7859,1473.3925],[34.5909,-0.7849,1448.2322],[34.5916,-0.7891,1440.25],[34.589,-0.7895,1426.1245],[34.5905,-0.7928,1447.7985],[34.5845,-0.7951,1455.3428],[34.5866,-0.7975,1435.3657],[34.5866,-0.8023,1396.7156],[34.5848,-0.8059,1398.7983],[34.5871,-0.8065,1432.9097],[34.5869,-0.8117,1444.6462],[34.5885,-0.8124,1452.2961],[34.5868,-0.8156,1436.0784],[34.5867,-0.823,1413.6724],[34.5882,-0.8242,1436.5774],[34.5872,-0.8277,1404.6313],[34.5856,-0.8307,1387.77],[34.5836,-0.8307,1378.8833],[34.5805,-0.8338,1454.2935],[34.5799,-0.8366,1428.6445],[34.5738,-0.8389,1468.114],[34.5721,-0.8421,1457.387],[34.5731,-0.8506,1442.0068],[34.571,-0.852,1464.1509],[34.5724,-0.8551,1463.7445],[34.5755,-0.8568,1476.5142],[34.5738,-0.8597,1489.4736],[34.5747,-0.8649,1484.4563],[34.5785,-0.8627,1447.5939],[34.581,-0.8649,1478.6616],[34.5801,-0.8712,1470.9617],[34.5826,-0.8752,1477.5186],[34.5798,-0.8816,1458.205],[34.5847,-0.9004,1464.0518],[34.5846,-0.9112,1476.376],[34.5876,-0.9218,1504.0704],[34.5842,-0.9293,1484.1008],[34.5895,-0.9305,1484.4998],[34.5942,-0.9287,1507.5436],[34.5992,-0.9429,1489.3373],[34.6027,-0.9455,1497.5227],[34.6054,-0.9534,1502.2964],[34.6102,-0.9586,1504.2042],[34.604,-0.9615,1483.8705],[34.6071,-0.965,1476.5659],[34.6152,-0.9676,1489.5986],[34.618,-0.973,1479.25],[34.6179,-0.9776,1486.5789],[34.6222,-0.982,1507.1737],[34.642,-0.9627,1526.858],[34.6355,-0.9592,1520.332],[34.6316,-0.9591,1527.3623],[34.6314,-0.955,1534.9667],[34.6272,-0.9507,1534.3516],[34.6266,-0.9464,1543.3098],[34.6231,-0.9406,1549.4634],[34.6218,-0.9324,1556.0573],[34.6236,-0.9188,1574.0853],[34.6167,-0.8931,1481.2065],[34.6173,-0.8885,1492.7115],[34.6148,-0.8862,1472.2148],[34.6143,-0.8833,1488.9182],[34.6143,-0.8771,1499.429],[34.6174,-0.8669,1470.8168],[34.6103,-0.8529,1430.8468],[34.6102,-0.8364,1407.9431],[34.6169,-0.8353,1474.2661],[34.6208,-0.8366,1417.3267],[34.6219,-0.83,1476.2803],[34.6252,-0.8238,1481.3181],[34.6247,-0.82,1488.6925],[34.6216,-0.8177,1468.0933],[34.624,-0.784,1521.7927]]]]}}