{"type": "Feature","bbox": [35.3246,-0.2388,35.4092,-0.081],"geometry": {"type": "MultiPolygon","coordinates": [[[[35.3832,-0.2251,1905.9343],[35.3803,-0.2202,1875.5643],[35.3766,-0.2066,1634.4172],[35.3634,-0.2015,1591.2993],[35.366,-0.1998,1611.101],[35.3692,-0.2012,1621.2771],[35.3752,-0.1992,1627.5413],[35.3747,-0.2011,1614.6985],[35.3795,-0.2045,1670.4559],[35.3808,-0.2024,1655.4973],[35.3852,-0.2019,1741.7966],[35.389,-0.1988,1712.7383],[35.3909,-0.2002,1772.3807],[35.3922,-0.199,1849.2849],[35.3979,-0.1994,1907.0297],[35.4007,-0.1951,1932.7498],[35.4059,-0.195,1921.6622],[35.4075,-0.1935,2009.9457],[35.4092,-0.1943,1965.7178],[35.4086,-0.1848,1822.2423],[35.3984,-0.1615,1842.125],[35.4003,-0.1609,1856.6969],[35.4003,-0.158,1825.4873],[35.4036,-0.1549,1782.9185],[35.4029,-0.1529,1811.1604],[35.405,-0.1522,1790.1548],[35.4041,-0.1506,1833.069],[35.4058,-0.1503,1810.5647],[35.405,-0.1475,1846.6575],[35.4068,-0.1463,1817.1743],[35.4038,-0.1443,1867.8666],[35.3985,-0.1364,2010.6946],[35.3964,-0.1237,2044.0634],[35.3923,-0.1236,1992.0887],[35.3918,-0.121,2071.5227],[35.3945,-0.1167,2021.6621],[35.3938,-0.1145,2077.7712],[35.3971,-0.1079,2077.7861],[35.3964,-0.1063,2077.7861],[35.4085,-0.1033,2182.1265],[35.399,-0.0892,2175.1721],[35.401,-0.081,2293.3911],[35.3898,-0.0912,2182.5437],[35.3719,-0.1033,2263.7354],[35.3395,-0.1017,2360.9058],[35.3266,-0.143,1827.2371],[35.328,-0.1508,1785.7877],[35.3248,-0.1595,1776.4368],[35.3246,-0.1701,1665.2095],[35.3307,-0.1707,1679.6111],[35.331,-0.1864,1752.3484],[35.3364,-0.2029,1628.1348],[35.343,-0.2317,1741.342],[35.3467,-0.2286,1749.5499],[35.3518,-0.2307,1670.3027],[35.3519,-0.2337,1686.8082],[35.3554,-0.2365,1660.7074],[35.3641,-0.2388,1795.1821],[35.368,-0.2344,1871.7405],[35.3766,-0.2306,1905.1848],[35.3832,-0.2251,1905.9343]]]]}
,"properties": {"GID_3": "KEN.12.5.1_1","GID_0": "KEN","country": "Kenya","GID_1": "KEN.12_1","province": "Kericho","NL_NAME_1": "NA","GID_2": "KEN.12.5_1","county": "KipkelionWest","NL_NAME_2": "NA","city": "Chilchila","VARNAME_3": "NA","NL_NAME_3": "NA","TYPE_3": "Ward","ENGTYPE_3": "Ward","CC_3": "943","HASC_3": "NA","name": "Chilchila.city","area_km2": 104.82328,"hist_schema_id": "Elevation0-9000","hist_area_km2": {"1525": 0.23322,"1550": 1.71737,"1575": 2.39583,"1600": 3.41353,"1625": 3.94359,"1650": 4.26162,"1675": 5.0885,"1700": 4.41003,"1725": 5.66096,"1750": 5.97899,"1775": 5.0461,"1800": 4.74927,"1825": 4.26162,"1850": 3.71037,"1875": 3.87999,"1900": 3.62556,"1925": 3.9648,"1950": 3.34994,"1975": 3.28633,"2000": 4.04961,"2025": 2.65027,"2050": 2.09901,"2075": 2.43825,"2100": 2.33224,"2125": 2.67147,"2150": 3.32874,"2175": 2.77748,"2200": 2.52306,"2225": 2.31104,"2250": 2.01421,"2275": 1.33574,"2300": 0.42404,"2325": 0.36044,"2350": 0.25443,"2375": 0.12721,"2400": 0.08481,"2425": 0.06361}}}