{"type":"Feature","properties":{"GID_3":"KEN.38.1.1_1","GID_0":"KEN","country":"Kenya","GID_1":"KEN.38_1","province":"Siaya","NL_NAME_1":"NA","GID_2":"KEN.38.1_1","county":"AlegoUsonga","NL_NAME_2":"NA","city":"CentralAlego","VARNAME_3":"NA","NL_NAME_3":"NA","TYPE_3":"Ward","ENGTYPE_3":"Ward","CC_3":"1165","HASC_3":"NA","name":"Central_Alego.city"},
"geometry":{"type": "MultiPolygon","coordinates": [[[[34.3046,0.158,1216.9949],[34.3024,0.1601,1228.624],[34.3013,0.1587,1221.5098],[34.2957,0.16,1207.8162],[34.2896,0.1587,1207.8284],[34.2844,0.1616,1209.4912],[34.2829,0.1587,1202.8658],[34.2755,0.1542,1206.4971],[34.265,0.1528,1213.8289],[34.2438,0.1559,1205.7673],[34.2358,0.1534,1197.9426],[34.2275,0.1575,1180.6946],[34.2257,0.1616,1183.8245],[34.2201,0.1632,1165.7211],[34.2187,0.1512,1200.1259],[34.214,0.1454,1201.5797],[34.2165,0.135,1231.6592],[34.2157,0.1307,1245.9292],[34.2205,0.1262,1266.8945],[34.2221,0.119,1265.6418],[34.2159,0.1128,1237.1533],[34.2153,0.108,1227.0693],[34.218,0.106,1225.2693],[34.218,0.1021,1219.3104],[34.2133,0.0972,1228.8103],[34.2039,0.0919,1241.9122],[34.2082,0.0838,1209.481],[34.1938,0.0785,1164.9155],[34.1787,0.0699,1144.5],[34.1479,0.0657,1144.7915],[34.1414,0.0672,1163.9193],[34.1425,0.0605,1144.5736],[34.149,0.0575,1144.5],[34.151,0.0498,1144.9287],[34.1474,0.0442,1143.1349],[34.1468,0.0398,1143.8213],[34.1493,0.0365,1147.448],[34.1522,0.0372,1146.5234],[34.1542,0.0321,1149.2334],[34.1538,0.0286,1145.0616],[34.1644,0.0268,1155.739],[34.1788,0.015,1185.9252],[34.1853,0.0117,1207.5507],[34.1942,0.0141,1190.3287],[34.2017,0.0191,1221.757],[34.2087,0.021,1224.0142],[34.2122,0.0248,1218.8215],[34.2238,0.0271,1219.8615],[34.2275,0.0293,1242.2179],[34.2325,0.0346,1261.2542],[34.2343,0.0409,1250.382],[34.2307,0.0493,1204.1465],[34.2325,0.0546,1219.2866],[34.2317,0.0567,1224.114],[34.2403,0.0592,1245.0818],[34.2396,0.0661,1244.6597],[34.2433,0.0718,1230.2073],[34.2429,0.0797,1245.7258],[34.2522,0.0832,1237.8392],[34.256,0.0824,1240.1064],[34.2634,0.0848,1257.1875],[34.267,0.0833,1275.6366],[34.2668,0.0857,1258.9696],[34.2681,0.0854,1265.9077],[34.2705,0.0905,1273.1326],[34.2682,0.0945,1276.3453],[34.2682,0.0997,1264.9921],[34.2734,0.105,1293.0259],[34.2741,0.1082,1274.4918],[34.2807,0.1137,1273.3373],[34.2795,0.1143,1263.0669],[34.2802,0.1163,1254.9697],[34.283,0.1162,1259.2324],[34.2874,0.1242,1216.4823],[34.2939,0.1303,1220.2244],[34.2962,0.1302,1241.3571],[34.299,0.1355,1244.2778],[34.3048,0.14,1223.4573],[34.3031,0.1479,1217.9153],[34.3046,0.158,1216.9949]]]]}}