{"type": "Feature","bbox": [33.9286,-0.8012,34.3082,-0.4659],"geometry": {"type": "MultiPolygon","coordinates": [[[[34.1973,-0.7301,1306.6729],[34.2034,-0.7253,1321.3168],[34.2204,-0.7179,1497.7791],[34.2907,-0.6685,1323.5607],[34.3065,-0.5722,1158.7195],[34.3082,-0.5702,1161.3276],[34.3045,-0.5651,1157.218],[34.3039,-0.557,1161.5376],[34.2996,-0.5525,1161.01],[34.297,-0.5452,1162.4877],[34.2918,-0.5425,1153.4843],[34.2937,-0.5381,1154.1101],[34.2919,-0.5322,1150.3229],[34.2845,-0.533,1172.5144],[34.2782,-0.5317,1183.6373],[34.2573,-0.5431,1220.3031],[34.2483,-0.544,1220.6565],[34.2349,-0.5325,1346.6216],[34.2288,-0.5247,1642.9255],[34.2201,-0.5189,1758.9652],[34.2163,-0.513,1593.3778],[34.2095,-0.5112,1845.8369],[34.2082,-0.5092,1836.678],[34.2099,-0.5028,1686.5403],[34.2043,-0.5028,1471.9231],[34.2021,-0.4994,1432.4392],[34.1501,-0.4659,1133.0],[34.0757,-0.5027,1133.0],[34.0145,-0.5188,1133.0],[33.9293,-0.5324,1133.0],[33.9286,-0.6725,1133.0],[33.9364,-0.8009,1133.0],[34.0796,-0.8012,1145.3296],[34.0839,-0.7843,1165.4008],[34.0865,-0.7811,1148.7052],[34.0975,-0.7786,1220.1844],[34.1117,-0.7777,1202.6755],[34.1198,-0.7735,1210.1348],[34.1388,-0.7736,1471.5074],[34.1447,-0.7719,1403.2118],[34.1528,-0.7625,1305.2747],[34.1693,-0.7587,1274.2897],[34.1904,-0.7416,1436.7622],[34.1993,-0.7383,1450.4836],[34.1973,-0.7301,1306.6729]]]]}
,"properties": {"GID_2": "KEN.8.8_1","GID_0": "KEN","country": "Kenya","GID_1": "KEN.8_1","province": "HomaBay","NL_NAME_1": "NA","county": "Suba","VARNAME_2": "NA","NL_NAME_2": "NA","TYPE_2": "Constituency","ENGTYPE_2": "Constituency","CC_2": "252","HASC_2": "NA","name": "Suba.county","area_km2": 1147.6668,"hist_schema_id": "Elevation0-9000","hist_area_km2": {"1125": 561.6956,"1150": 31.335,"1175": 50.7765,"1200": 64.9172,"1225": 59.0231,"1250": 53.0232,"1275": 41.7443,"1300": 36.1049,"1325": 28.8119,"1350": 26.1406,"1375": 21.752,"1400": 17.7027,"1425": 16.4095,"1450": 14.3106,"1475": 12.3813,"1500": 11.8089,"1525": 11.1305,"1550": 8.9468,"1575": 8.6712,"1600": 7.9716,"1625": 7.2507,"1650": 7.0175,"1675": 6.2967,"1700": 5.1094,"1725": 4.8126,"1750": 4.4734,"1775": 3.4982,"1800": 3.2013,"1825": 2.3957,"1850": 2.2685,"1875": 2.2473,"1900": 1.7173,"1925": 1.9505,"1950": 1.5477,"1975": 1.4841,"2000": 1.2085,"2025": 1.1024,"2050": 1.1873,"2075": 1.06,"2100": 0.8904,"2125": 0.9328,"2150": 0.53,"2175": 0.318,"2200": 0.2544,"2225": 0.1908,"2250": 0.0636}}}