{"type": "Feature","bbox": [39.6738,-4.0654,39.7318,-3.9999],"geometry": {"type": "MultiPolygon","coordinates": [[[[39.7154,-4.0399,10.8438],[39.7229,-4.0268,9.5192],[39.7262,-4.0246,0.0],[39.7296,-4.0246,0.0],[39.7318,-4.0196,8.4792],[39.7315,-4.0176,0.0],[39.7282,-4.0176,0.9541],[39.7265,-4.0149,1.7813],[39.7276,-4.0061,8.083],[39.7083,-4.0001,26.1757],[39.698,-3.9999,28.3513],[39.6827,-4.0289,25.1816],[39.6816,-4.0344,21.1924],[39.6738,-4.0432,0.9325],[39.6799,-4.0429,9.9506],[39.6818,-4.0446,2.1125],[39.681,-4.0549,9.0289],[39.684,-4.0576,4.8043],[39.6843,-4.0629,0.0],[39.6876,-4.0654,0.0],[39.6924,-4.0635,2.3996],[39.6954,-4.064,0.0],[39.7018,-4.0604,0.0],[39.7154,-4.0399,10.8438]]]]}
,"properties": {"GID_2": "KEN.28.6_1","GID_0": "KEN","country": "Kenya","GID_1": "KEN.28_1","province": "Mombasa","NL_NAME_1": "NA","county": "Nyali","VARNAME_2": "NA","NL_NAME_2": "NA","TYPE_2": "Constituency","ENGTYPE_2": "Constituency","CC_2": "4","HASC_2": "NA","name": "Nyali.county","area_km2": 25.35859,"hist_schema_id": "Elevation0-9000","hist_area_km2": {"0": 4.80101,"25": 20.53643,"50": 0.02115}}}