{"type": "Feature","bbox": [38.0287,-2.5695,38.3172,-2.3206],"geometry": {"type": "MultiPolygon","coordinates": [[[[38.1364,-2.3206,671.7692],[38.125,-2.3275,673.598],[38.1236,-2.3329,677.4386],[38.1258,-2.334,669.8965],[38.1256,-2.3404,678.1599],[38.1224,-2.3413,687.8492],[38.1213,-2.3434,684.5051],[38.1225,-2.3447,685.2991],[38.1223,-2.3508,689.9097],[38.1242,-2.3509,686.8116],[38.122,-2.3586,696.7567],[38.1117,-2.3555,706.7741],[38.1083,-2.3624,713.6974],[38.1045,-2.3615,714.6281],[38.0994,-2.3659,725.5458],[38.0995,-2.3692,715.7926],[38.0933,-2.3706,727.3519],[38.0908,-2.3752,726.0507],[38.0872,-2.3745,734.716],[38.084,-2.3804,728.1398],[38.0808,-2.3808,734.9416],[38.0742,-2.3762,755.5679],[38.0715,-2.3789,743.3929],[38.0675,-2.3757,746.4197],[38.0663,-2.3794,745.8475],[38.058,-2.3835,757.3585],[38.0499,-2.3922,769.7076],[38.0494,-2.4005,777.0462],[38.0428,-2.4107,795.9308],[38.033,-2.41,818.3431],[38.0309,-2.4123,825.0773],[38.032,-2.4192,822.4382],[38.0287,-2.4313,851.2978],[38.0332,-2.4382,869.8684],[38.0295,-2.4399,879.4078],[38.0324,-2.4437,863.7325],[38.0362,-2.4433,865.0777],[38.0422,-2.4522,872.6182],[38.0428,-2.4545,869.1566],[38.0406,-2.4575,872.5992],[38.0548,-2.4633,832.6179],[38.0572,-2.467,826.3975],[38.0615,-2.4661,827.7651],[38.0636,-2.4682,816.451],[38.0656,-2.4672,821.1089],[38.0671,-2.4731,814.7456],[38.0714,-2.4758,807.3877],[38.0788,-2.4744,810.7512],[38.0788,-2.4759,802.9083],[38.0808,-2.4768,797.0878],[38.0902,-2.4724,794.3059],[38.0934,-2.4749,782.4035],[38.0985,-2.4746,794.0281],[38.1008,-2.4766,812.8675],[38.0986,-2.4808,820.8475],[38.0305,-2.5219,932.1204],[38.0476,-2.5353,900.4385],[38.0614,-2.549,870.9553],[38.0688,-2.5589,857.0057],[38.0705,-2.5695,819.2567],[38.0824,-2.5496,828.4899],[38.0854,-2.5471,825.9954],[38.0877,-2.5481,816.7226],[38.0908,-2.5418,840.6072],[38.1211,-2.5346,782.9459],[38.1299,-2.534,779.2267],[38.1323,-2.5371,769.5477],[38.1459,-2.542,752.1722],[38.1486,-2.5445,748.309],[38.1559,-2.5458,738.2607],[38.1632,-2.5432,731.5636],[38.1714,-2.5433,721.029],[38.1769,-2.5394,711.3202],[38.1856,-2.5409,703.7576],[38.1937,-2.5358,693.4551],[38.1999,-2.5389,685.1018],[38.2122,-2.5308,673.6691],[38.2192,-2.5312,665.9327],[38.2218,-2.5281,660.5798],[38.2253,-2.5272,658.9986],[38.292,-2.527,594.4999],[38.3134,-2.5184,552.9069],[38.3154,-2.522,555.5423],[38.3172,-2.5222,549.7517],[38.3171,-2.5158,550.5046],[38.312,-2.511,558.5557],[38.3121,-2.5021,556.7145],[38.3021,-2.4981,553.9507],[38.2986,-2.4935,552.76],[38.2969,-2.4874,555.1001],[38.2884,-2.4831,560.6791],[38.2827,-2.4522,564.4579],[38.2803,-2.448,566.0115],[38.2739,-2.4238,572.4818],[38.2596,-2.4199,594.1022],[38.2526,-2.4207,598.5236],[38.2471,-2.4167,590.6899],[38.2446,-2.4123,594.4224],[38.236,-2.4093,615.7839],[38.2321,-2.402,615.8167],[38.2226,-2.3993,613.1623],[38.2111,-2.3553,620.5559],[38.1978,-2.3532,624.6249],[38.1947,-2.347,630.4753],[38.189,-2.3403,642.8564],[38.1852,-2.3382,643.1572],[38.1742,-2.3383,641.8611],[38.1523,-2.3278,678.1176],[38.1474,-2.3211,676.4009],[38.1364,-2.3206,671.7692]]]]}
,"properties": {"GID_3": "KEN.23.2.2_1","GID_0": "KEN","country": "Kenya","GID_1": "KEN.23_1","province": "Makueni","NL_NAME_1": "NA","GID_2": "KEN.23.2_1","county": "KibweziEast","NL_NAME_2": "NA","city": "Masongaleni","VARNAME_3": "NA","NL_NAME_3": "NA","TYPE_3": "Ward","ENGTYPE_3": "Ward","CC_3": "437","HASC_3": "NA","name": "Masongaleni.city","area_km2": 493.7074,"hist_schema_id": "Elevation0-9000","hist_area_km2": {"550": 3.0502,"575": 14.2769,"600": 22.3899,"625": 42.514,"650": 52.2162,"675": 56.1565,"700": 58.4865,"725": 56.2831,"750": 47.2591,"775": 41.8571,"800": 34.2946,"825": 27.876,"850": 22.0717,"875": 10.2944,"900": 3.6644,"925": 1.0167}}}