{"type":"Feature","properties":{"GID_2":"KEN.24.5_1","GID_0":"KEN","country":"Kenya","GID_1":"KEN.24_1","province":"Mandera","NL_NAME_1":"NA","county":"ManderaSouth","VARNAME_2":"NA","NL_NAME_2":"NA","TYPE_2":"Constituency","ENGTYPE_2":"Constituency","CC_2":"42","HASC_2":"NA","name":"Mandera_South.county"},
"geometry":{"type": "MultiPolygon","coordinates": [[[[40.9873,2.729,385.7215],[40.9854,2.7849,384.4778],[40.9866,2.8194,381.9519],[40.9921,2.8248,382.034],[40.9921,2.8297,381.8165],[41.1772,3.0127,373.2334],[41.1469,3.0243,380.2938],[41.1458,3.0287,380.845],[40.9852,3.0904,436.8101],[40.9626,3.0959,443.0038],[40.9507,3.1016,444.3037],[40.9395,3.1183,453.2858],[40.9348,3.1297,460.4648],[40.9324,3.1295,460.494],[40.9373,3.1199,454.4739],[40.9245,3.1189,456.9948],[40.9197,3.1121,454.2002],[40.9131,3.0969,445.0597],[40.9065,3.0923,443.0043],[40.8857,3.0913,440.498],[40.8691,3.1647,470.4437],[40.8669,3.1855,480.9783],[40.8635,3.1971,487.4088],[40.8635,3.2041,490.1528],[40.8659,3.2113,495.4525],[40.8645,3.2275,501.4901],[40.8651,3.2483,513.5963],[40.8439,3.2569,515.135],[40.8385,3.2573,515.5763],[40.8221,3.2515,508.7728],[40.8177,3.2519,508.9583],[40.8085,3.2559,513.5234],[40.8031,3.2635,515.7383],[40.7985,3.2641,516.9917],[40.7909,3.2611,526.3561],[40.7775,3.2519,509.1638],[40.7465,3.2443,505.5727],[40.7387,3.2449,508.2862],[40.7275,3.2503,513.661],[40.7193,3.2495,516.7886],[40.7095,3.2265,507.5546],[40.7085,3.2193,508.4296],[40.7067,3.2209,508.5818],[40.7027,3.1937,502.2119],[40.6941,3.1809,501.7706],[40.6925,3.1601,494.7336],[40.6891,3.1427,489.061],[40.6949,3.1323,488.3391],[40.7107,3.1199,475.867],[40.7147,3.1147,473.3929],[40.7191,3.1017,468.6838],[40.7187,3.0937,466.4983],[40.7237,3.0789,461.0469],[40.7219,3.0681,455.9692],[40.7279,3.0563,450.8124],[40.7557,3.0379,436.8819],[40.7605,3.0309,431.8845],[40.7747,3.0189,427.1389],[40.7889,3.0109,421.6576],[40.7943,2.9991,416.4828],[40.7977,2.9951,414.647],[40.7975,2.9891,413.1383],[40.7863,2.9759,412.629],[40.7853,2.9633,408.7757],[40.7867,2.9593,406.8975],[40.7945,2.9539,404.6144],[40.8087,2.9403,397.4732],[40.8365,2.9219,391.3689],[40.8419,2.9159,390.5428],[40.8517,2.8993,388.7957],[40.8719,2.8803,387.9311],[40.8849,2.8609,389.2459],[40.8873,2.8591,388.222],[40.8914,2.8635,385.527],[40.8878,2.8592,388.222],[40.8788,2.8539,388.2213],[40.8748,2.8389,387.064],[40.8773,2.8258,386.7782],[40.8661,2.8303,387.0908],[40.8373,2.8355,388.0653],[40.8133,2.8437,389.0999],[40.8055,2.8439,390.5719],[40.7887,2.8409,398.2396],[40.6891,2.8453,461.7242],[40.6837,2.8459,465.6357],[40.6733,2.8533,465.6998],[40.6697,2.8537,473.7942],[40.6459,2.8499,489.2027],[40.6365,2.8503,499.7495],[40.6163,2.8557,510.9211],[40.6075,2.8545,492.6985],[40.6017,2.8555,481.3511],[40.5727,2.8667,456.1217],[40.5625,2.8683,450.7765],[40.5197,2.8647,449.1743],[40.4993,2.8709,446.1006],[40.4929,2.8673,449.0211],[40.4953,2.8583,442.7868],[40.4939,2.8563,442.2444],[40.4973,2.8515,441.6497],[40.4945,2.8455,441.9767],[40.4947,2.8391,440.0384],[40.4991,2.8343,439.1941],[40.4965,2.8269,436.1763],[40.4985,2.8213,434.2852],[40.4955,2.8191,433.9287],[40.5031,2.8103,436.8608],[40.4963,2.8049,430.9643],[40.4943,2.7999,430.6628],[40.4957,2.7979,429.7271],[40.5021,2.7955,429.6078],[40.5011,2.7873,432.5211],[40.5035,2.7843,430.9407],[40.5083,2.7845,428.7575],[40.5129,2.7787,425.6342],[40.5187,2.7779,424.0934],[40.5207,2.7761,422.5301],[40.5185,2.7739,421.5734],[40.5179,2.7701,425.9036],[40.5193,2.7659,423.5216],[40.5179,2.7555,423.5816],[40.5193,2.7527,423.3089],[40.5199,2.7403,418.043],[40.5121,2.7351,416.6738],[40.5065,2.7257,416.8083],[40.4997,2.7229,413.5784],[40.4999,2.7201,410.13],[40.5195,2.6963,404.2879],[40.5267,2.6739,396.4969],[40.5269,2.6661,401.696],[40.5357,2.6529,393.3422],[40.5499,2.6111,385.857],[40.5491,2.6023,385.8184],[40.5539,2.5935,384.6046],[40.5599,2.5891,375.9645],[40.5581,2.5787,381.0684],[40.5629,2.5727,375.1657],[40.5653,2.5667,374.9434],[40.5689,2.5651,369.5634],[40.5793,2.5497,368.4136],[40.5793,2.5303,363.3731],[40.5969,2.5131,357.0309],[40.5973,2.5099,360.7535],[40.5915,2.5031,361.7283],[40.5939,2.4997,356.3302],[40.6037,2.4927,352.4756],[40.6033,2.4819,351.207],[40.6135,2.4643,346.7852],[40.6215,2.4551,344.7731],[40.6291,2.4499,342.7625],[40.6319,2.4449,342.1561],[40.6363,2.4417,340.6628],[40.6385,2.4421,340.399],[40.6411,2.4371,340.246],[40.6557,2.4337,336.5409],[40.6617,2.4283,336.378],[40.6639,2.4249,336.2881],[40.6645,2.4099,334.2667],[40.6659,2.4065,336.7869],[40.6655,2.3911,335.3081],[40.6749,2.3837,332.757],[40.6763,2.3761,333.3521],[40.6905,2.3685,323.9361],[40.7105,2.3491,319.9211],[40.7181,2.3297,318.8011],[40.7379,2.3141,312.6076],[40.7461,2.3139,311.1375],[40.7561,2.3163,310.7867],[40.7745,2.3141,311.7426],[40.8011,2.2917,304.0665],[40.8233,2.2923,301.6747],[40.8329,2.2881,299.2281],[40.8573,2.2627,294.6177],[40.8627,2.2531,291.4996],[40.8645,2.2409,290.1148],[40.8673,2.2357,288.4095],[40.8843,2.2165,283.9925],[40.9203,2.1881,279.7213],[40.9437,2.1773,275.6816],[40.9507,2.1761,275.6403],[40.9651,2.1761,278.71],[40.9786,2.1784,285.2245],[40.9869,2.2289,294.3124],[40.9861,2.7015,395.9285],[40.9873,2.729,385.7215]]]]}}