{"type": "Feature","bbox": [34.5409,0.5372,34.5706,0.6104],"geometry": {"type": "MultiPolygon","coordinates": [[[[34.559,0.6104,1451.421],[34.5487,0.6054,1464.4325],[34.547,0.6072,1465.6111],[34.5447,0.6062,1474.3112],[34.5409,0.5992,1469.1392],[34.552,0.5997,1455.9359],[34.5576,0.587,1446.2579],[34.5634,0.584,1436.9712],[34.5606,0.5673,1431.3054],[34.553,0.5501,1430.5122],[34.5523,0.5386,1447.0197],[34.5624,0.5372,1392.1638],[34.5638,0.5441,1386.2565],[34.5624,0.5508,1400.7944],[34.5684,0.5738,1401.4034],[34.5706,0.5938,1429.3242],[34.559,0.6104,1451.421]]]]}
,"properties": {"GID_3": "KEN.3.3.4_1","GID_0": "KEN","country": "Kenya","GID_1": "KEN.3_1","province": "Bungoma","NL_NAME_1": "NA","GID_2": "KEN.3.3_1","county": "Kanduyi","NL_NAME_2": "NA","city": "Khalaba","VARNAME_3": "NA","NL_NAME_3": "NA","TYPE_3": "Ward","ENGTYPE_3": "Ward","CC_3": "1099","HASC_3": "NA","name": "Khalaba.city","area_km2": 9.180087,"hist_schema_id": "Elevation0-9000","hist_area_km2": {"1400": 1.314475,"1425": 5.42749,"1450": 1.823293,"1475": 0.61483}}}