{"type": "Feature","bbox": [34.5122,0.2147,34.6165,0.2866],"geometry": {"type": "MultiPolygon","coordinates": [[[[34.5122,0.2147,1361.7736],[34.5168,0.2174,1358.3728],[34.523,0.2156,1379.8514],[34.5309,0.2174,1370.3285],[34.5369,0.2151,1379.0229],[34.5462,0.2183,1360.6782],[34.5567,0.2162,1389.8765],[34.5609,0.2264,1387.7435],[34.5667,0.2283,1410.1746],[34.5751,0.2367,1412.1721],[34.5788,0.2371,1400.5104],[34.5825,0.2341,1409.9912],[34.592,0.2307,1439.7534],[34.6019,0.2354,1423.9854],[34.6079,0.2491,1401.1971],[34.6084,0.2563,1392.0037],[34.6051,0.2621,1353.2955],[34.6098,0.2609,1375.1992],[34.6164,0.267,1364.6274],[34.6165,0.2698,1340.9873],[34.6139,0.2729,1326.9924],[34.6133,0.2802,1326.6299],[34.6097,0.285,1344.9373],[34.6057,0.2866,1336.4823],[34.5995,0.2791,1330.146],[34.5897,0.2789,1355.1952],[34.588,0.2731,1328.5691],[34.5851,0.2741,1342.7888],[34.5822,0.2723,1326.1136],[34.5775,0.2752,1351.1942],[34.5758,0.2738,1349.8918],[34.5737,0.2749,1340.0306],[34.5712,0.2738,1336.4844],[34.5688,0.2777,1315.752],[34.5669,0.2781,1307.4077],[34.5649,0.2761,1314.6501],[34.5645,0.2785,1306.9858],[34.5623,0.2801,1312.7344],[34.5606,0.2792,1318.7698],[34.5583,0.2824,1338.9507],[34.5529,0.2787,1318.8383],[34.5505,0.2817,1353.4783],[34.5445,0.2758,1335.9421],[34.5489,0.2664,1332.2498],[34.5489,0.2631,1326.0251],[34.5406,0.2515,1387.9291],[34.5379,0.2528,1368.5889],[34.537,0.2517,1365.8263],[34.5365,0.2483,1375.2283],[34.5382,0.2447,1406.4088],[34.5143,0.2328,1384.0334],[34.5173,0.2266,1389.3],[34.5122,0.2147,1361.7736]]]]}
,"properties": {"GID_3": "KEN.11.1.4_1","GID_0": "KEN","country": "Kenya","GID_1": "KEN.11_1","province": "Kakamega","NL_NAME_1": "NA","GID_2": "KEN.11.1_1","county": "Butere","NL_NAME_2": "NA","city": "MaramaWest","VARNAME_3": "NA","NL_NAME_3": "NA","TYPE_3": "Ward","ENGTYPE_3": "Ward","CC_3": "1032","HASC_3": "NA","name": "Marama_West.city","area_km2": 48.55259,"hist_schema_id": "Elevation0-9000","hist_area_km2": {"1300": 2.50183,"1325": 9.6681,"1350": 7.63272,"1375": 11.89433,"1400": 12.38198,"1425": 4.28281,"1450": 0.19082}}}