{"type":"Feature","properties":{"GID_3":"KEN.8.6.3_1","GID_0":"KEN","country":"Kenya","GID_1":"KEN.8_1","province":"HomaBay","NL_NAME_1":"NA","GID_2":"KEN.8.6_1","county":"Ndhiwa","NL_NAME_2":"NA","city":"Kanyadoto","VARNAME_3":"NA","NL_NAME_3":"NA","TYPE_3":"Ward","ENGTYPE_3":"Ward","CC_3":"1246","HASC_3":"NA","name":"Kanyadoto.city"},
"geometry":{"type": "MultiPolygon","coordinates": [[[[34.302,-0.7222,1395.3885],[34.2973,-0.724,1385.8728],[34.2946,-0.727,1411.1427],[34.295,-0.7296,1395.0869],[34.3043,-0.7383,1387.4547],[34.3097,-0.7459,1404.5417],[34.3173,-0.7775,1326.2676],[34.3168,-0.786,1302.0051],[34.3221,-0.7887,1294.9207],[34.3229,-0.7959,1296.5448],[34.3283,-0.7983,1289.6974],[34.3303,-0.8433,1284.5327],[34.3317,-0.8473,1304.1241],[34.3381,-0.8525,1312.106],[34.3484,-0.8495,1261.9777],[34.3692,-0.8475,1265.261],[34.3723,-0.8427,1263.6356],[34.3695,-0.8306,1257.6299],[34.3695,-0.8211,1263.0197],[34.3675,-0.8182,1259.355],[34.3675,-0.81,1265.0857],[34.3698,-0.8085,1266.7372],[34.3699,-0.8019,1278.3885],[34.3651,-0.7911,1310.6899],[34.3665,-0.7857,1271.8035],[34.3631,-0.7825,1287.9816],[34.3541,-0.7796,1298.9479],[34.3519,-0.7754,1306.0112],[34.3534,-0.7716,1326.0669],[34.3566,-0.7704,1328.4617],[34.3729,-0.7834,1264.2114],[34.3765,-0.7816,1274.9934],[34.3785,-0.7735,1289.9417],[34.3729,-0.7609,1295.0226],[34.3614,-0.7489,1310.4785],[34.355,-0.7461,1331.9141],[34.3557,-0.7401,1304.2329],[34.3601,-0.7341,1300.139],[34.3487,-0.7303,1332.3413],[34.342,-0.7319,1314.9806],[34.3351,-0.7307,1327.9607],[34.3284,-0.7317,1363.1943],[34.302,-0.7222,1395.3885]]]]}}