{"type":"Feature","properties":{"GID_3":"KEN.13.9.4_1","GID_0":"KEN","country":"Kenya","GID_1":"KEN.13_1","province":"Kiambu","NL_NAME_1":"NA","GID_2":"KEN.13.9_1","county":"Lari","NL_NAME_2":"NA","city":"Lari/Kirenga","VARNAME_3":"NA","NL_NAME_3":"NA","TYPE_3":"Ward","ENGTYPE_3":"Ward","CC_3":"610","HASC_3":"NA","name":"Lari_Kirenga.city"},
"geometry":{"type": "MultiPolygon","coordinates": [[[[36.6972,-1.0409,2195.3328],[36.6998,-1.0382,2148.0527],[36.7016,-1.03,2191.2178],[36.6902,-1.0158,2253.9668],[36.6828,-1.0124,2242.1663],[36.6849,-1.0019,2236.2273],[36.681,-0.9998,2262.6401],[36.674,-0.9996,2294.322],[36.6727,-0.9957,2310.7947],[36.6652,-0.9914,2351.6064],[36.6498,-0.9914,2358.4551],[36.6386,-0.9969,2385.8809],[36.6379,-0.9986,2379.0984],[36.634,-0.9902,2390.1587],[36.6205,-0.9904,2253.9443],[36.6236,-0.9821,2267.3193],[36.6227,-0.9793,2317.4797],[36.6181,-0.9768,2211.5977],[36.6134,-0.9778,2198.3716],[36.609,-0.9731,2150.3667],[36.6021,-0.9727,2047.7139],[36.5965,-0.9793,2017.1299],[36.5962,-0.9857,1939.3052],[36.6001,-0.9872,2024.9338],[36.5966,-0.9913,1909.293],[36.5951,-1.0059,1826.1453],[36.5878,-1.0365,1829.9996],[36.5907,-1.0464,1781.7007],[36.5923,-1.0682,1938.9949],[36.6094,-1.0696,2275.2607],[36.6085,-1.0621,2271.2644],[36.6104,-1.0568,2306.5012],[36.6172,-1.0575,2324.9128],[36.6229,-1.0558,2413.5923],[36.6282,-1.0558,2407.9771],[36.6434,-1.0605,2379.752],[36.6477,-1.0592,2369.8242],[36.6479,-1.0612,2369.5662],[36.6453,-1.0638,2354.9365],[36.6461,-1.0662,2316.8733],[36.6502,-1.0663,2305.9136],[36.6533,-1.0684,2342.7949],[36.6576,-1.0668,2321.4983],[36.66,-1.0678,2334.812],[36.6621,-1.0642,2376.7534],[36.6606,-1.0631,2382.5649],[36.6623,-1.0583,2379.3499],[36.67,-1.0476,2329.1626],[36.6726,-1.0458,2315.5244],[36.6768,-1.0461,2287.3257],[36.6749,-1.0564,2360.9565],[36.6858,-1.0534,2248.7065],[36.6972,-1.0409,2195.3328]]]]}}