{"type": "Feature","bbox": [36.8666,-1.2895,36.8835,-1.2746],"geometry": {"type": "MultiPolygon","coordinates": [[[[36.8666,-1.285,1630.6289],[36.8673,-1.2895,1633.7816],[36.8759,-1.2862,1626.1932],[36.8767,-1.2839,1625.884],[36.8835,-1.2835,1620.8674],[36.8816,-1.2746,1615.9371],[36.8785,-1.2755,1617.751],[36.8805,-1.2797,1621.6226],[36.8777,-1.2795,1621.4027],[36.8755,-1.2813,1623.9043],[36.8739,-1.2787,1621.2053],[36.8666,-1.285,1630.6289]]]]}
,"properties": {"GID_3": "KEN.30.12.1_1","GID_0": "KEN","country": "Kenya","GID_1": "KEN.30_1","province": "Nairobi","NL_NAME_1": "NA","GID_2": "KEN.30.12_1","county": "Makadara","NL_NAME_2": "NA","city": "Harambee","VARNAME_3": "NA","NL_NAME_3": "NA","TYPE_3": "Ward","ENGTYPE_3": "Ward","CC_3": "1432","HASC_3": "NA","name": "Harambee.city","area_km2": 1.1658292,"hist_schema_id": "Elevation0-9000","hist_area_km2": {"1625": 1.1658292}}}