{"type":"Feature","properties":{"GID_2":"KEN.33.5_1","GID_0":"KEN","country":"Kenya","GID_1":"KEN.33_1","province":"Narok","NL_NAME_1":"NA","county":"NarokSouth","VARNAME_2":"NA","NL_NAME_2":"NA","TYPE_2":"Constituency","ENGTYPE_2":"Constituency","CC_2":"181","HASC_2":"NA","name":"Narok_South.county"},
"geometry":{"type": "MultiPolygon","coordinates": [[[[36.0415,-1.7279,1450.4293],[36.0434,-1.7237,1470.9762],[36.046,-1.727,1465.8496],[36.0485,-1.7253,1465.7412],[36.0476,-1.717,1299.8367],[36.0445,-1.7148,1339.3582],[36.0429,-1.7097,1395.2848],[36.0433,-1.704,1434.3345],[36.0457,-1.7031,1411.655],[36.0464,-1.6991,1409.3955],[36.0483,-1.6983,1402.5806],[36.0522,-1.6998,1419.7996],[36.0558,-1.7037,1432.126],[36.0579,-1.6963,1513.3414],[36.0617,-1.6926,1430.9426],[36.0642,-1.6924,1371.0674],[36.062,-1.6863,1279.38],[36.0571,-1.6838,1442.6964],[36.0588,-1.6809,1397.7103],[36.0573,-1.6789,1450.0564],[36.0588,-1.6769,1458.9612],[36.0574,-1.675,1459.8221],[36.0583,-1.6694,1330.9353],[36.0541,-1.6636,1338.1143],[36.0524,-1.6641,1436.4595],[36.0537,-1.659,1317.804],[36.0506,-1.6526,1317.071],[36.0477,-1.6519,1439.8939],[36.0488,-1.649,1372.0862],[36.0465,-1.6477,1456.6006],[36.0487,-1.6455,1414.1135],[36.0524,-1.6452,1409.9541],[36.0529,-1.6376,1379.7913],[36.0511,-1.6346,1420.3604],[36.0534,-1.634,1424.1692],[36.0565,-1.6292,1423.3115],[36.06,-1.6147,1411.7061],[36.0635,-1.6145,1411.1786],[36.0652,-1.6126,1346.9657],[36.063,-1.6071,1417.0908],[36.0651,-1.608,1415.3887],[36.0667,-1.6062,1419.2437],[36.07,-1.596,1417.8334],[36.0742,-1.5895,1412.4585],[36.0791,-1.5923,1408.9026],[36.0803,-1.5807,1415.0428],[36.084,-1.5785,1361.6196],[36.0863,-1.5668,1286.1115],[36.0845,-1.5587,1338.2515],[36.0745,-1.5414,1523.1162],[36.0613,-1.5061,1349.9562],[36.0588,-1.4922,1421.627],[36.0492,-1.4859,1511.3372],[36.0709,-1.4631,1277.2458],[36.0685,-1.462,1277.9287],[36.0664,-1.4641,1276.5908],[36.0655,-1.4626,1277.9221],[36.0669,-1.4599,1280.3408],[36.0656,-1.4604,1280.3408],[36.0651,-1.458,1280.4614],[36.0622,-1.4572,1282.4583],[36.0666,-1.4551,1280.7286],[36.0674,-1.4523,1284.1106],[36.0634,-1.4451,1289.0164],[36.0612,-1.4455,1285.5914],[36.063,-1.4485,1284.9178],[36.0605,-1.448,1281.4342],[36.0587,-1.4441,1284.2437],[36.0597,-1.4419,1289.9457],[36.0559,-1.4354,1293.7534],[36.0475,-1.4311,1304.5499],[36.0411,-1.4327,1382.9839],[36.0357,-1.4312,1372.8458],[36.036,-1.4261,1448.314],[36.0331,-1.4258,1490.9115],[36.03,-1.4223,1438.1433],[36.0271,-1.4126,1534.967],[36.0246,-1.4102,1474.0055],[36.0182,-1.4089,1497.7992],[36.0172,-1.4069,1537.7336],[36.0227,-1.4059,1484.4998],[36.0215,-1.4015,1533.4612],[36.0229,-1.3964,1471.2955],[36.0219,-1.3919,1552.4022],[36.0141,-1.3897,1480.1288],[36.0147,-1.3819,1530.4454],[36.0168,-1.3796,1523.5757],[36.0152,-1.3702,1560.6686],[36.0093,-1.3687,1545.2886],[36.0075,-1.3736,1513.9061],[36.0046,-1.373,1505.8352],[36.0049,-1.3664,1516.1243],[36.0028,-1.3617,1533.6007],[36.0008,-1.3608,1542.1962],[36.0029,-1.3573,1515.4033],[36.0008,-1.3501,1512.8297],[36.0038,-1.3467,1545.3479],[35.9976,-1.3469,1515.5729],[36.0002,-1.3423,1540.1357],[35.9979,-1.3412,1544.7231],[35.9968,-1.3382,1521.0963],[35.9926,-1.3376,1552.142],[35.9965,-1.3358,1527.5913],[35.9941,-1.3318,1539.5503],[35.9976,-1.3291,1532.5217],[35.9966,-1.3189,1562.2075],[35.9986,-1.3172,1557.2422],[35.9993,-1.3123,1556.5498],[36.0015,-1.3111,1552.9467],[36.0014,-1.3058,1579.5475],[36.0071,-1.3022,1594.24],[36.0098,-1.2984,1583.1074],[36.0105,-1.2953,1575.1683],[36.012,-1.2951,1565.3568],[36.0122,-1.2904,1605.9182],[36.0079,-1.2855,1605.7285],[36.0079,-1.283,1661.3353],[36.0055,-1.2821,1607.0692],[36.0054,-1.2774,1596.9115],[36.0013,-1.2708,1707.6146],[35.9999,-1.2712,1638.968],[35.9982,-1.2669,1623.7018],[35.9987,-1.2629,1721.6543],[35.9964,-1.2623,1617.926],[35.9966,-1.2597,1629.2526],[35.9934,-1.2574,1641.0488],[35.9933,-1.2538,1681.5946],[35.9897,-1.2513,1628.1235],[35.988,-1.2469,1716.7543],[35.9823,-1.2451,1666.2196],[35.9821,-1.2428,1738.1597],[35.9769,-1.2409,1624.6494],[35.9777,-1.2382,1626.3854],[35.975,-1.2355,1642.3762],[35.9759,-1.2318,1666.0286],[35.9736,-1.231,1626.625],[35.9713,-1.2266,1657.1401],[35.975,-1.2218,1645.3307],[35.9733,-1.2155,1660.3933],[35.976,-1.2086,1641.9202],[35.9733,-1.203,1736.6045],[35.9793,-1.2009,1649.2842],[35.9802,-1.1977,1658.564],[35.9776,-1.1948,1702.9163],[35.9813,-1.1935,1658.0361],[35.9805,-1.1912,1680.8489],[35.9836,-1.1866,1710.5537],[35.9817,-1.1852,1734.8698],[35.9869,-1.1782,1707.4119],[35.9848,-1.1758,1703.5374],[35.9862,-1.1727,1716.5027],[35.9839,-1.1712,1715.7162],[35.9821,-1.1658,1755.5239],[35.986,-1.164,1769.8513],[35.9874,-1.1606,1784.4661],[35.991,-1.1602,1787.1],[35.9914,-1.1581,1792.9282],[35.9952,-1.1576,1794.3512],[35.9969,-1.1533,1800.629],[35.9996,-1.1519,1773.0652],[35.9979,-1.145,1789.0487],[35.9993,-1.1418,1800.272],[35.9987,-1.1386,1821.6393],[36.0015,-1.1356,1818.5343],[36.0004,-1.1333,1833.6899],[36.0022,-1.1322,1831.2401],[36.0029,-1.1274,1854.5092],[36.0071,-1.121,1853.9734],[36.0076,-1.1151,1872.6252],[36.0113,-1.109,1903.3186],[36.0171,-1.1059,1902.2402],[36.0196,-1.1011,1926.1305],[36.0217,-1.1005,1913.6809],[36.0236,-1.0964,1909.2646],[36.0218,-1.0885,1942.2983],[36.0228,-1.0693,1987.9241],[36.0246,-1.0626,1991.0591],[36.027,-1.0602,1992.3427],[36.027,-1.0565,2019.4117],[36.0302,-1.0528,2018.9329],[36.0303,-1.0481,2046.2761],[36.0351,-1.0425,2078.0298],[36.0398,-1.0433,2082.75],[36.0424,-1.0414,2079.9172],[36.042,-1.0388,2094.6377],[36.048,-1.027,2157.9124],[36.0538,-1.0194,2242.2156],[36.056,-1.0195,2243.4985],[36.0603,-1.0147,2173.6733],[36.0594,-1.0116,2212.1345],[36.0618,-1.0018,2313.8645],[36.069,-0.9999,2264.5349],[36.0783,-0.9903,2379.2026],[36.0812,-0.9899,2423.3262],[36.1021,-0.9774,2579.6506],[36.1091,-0.9678,2583.9885],[36.1162,-0.9618,2667.5273],[36.1241,-0.961,2673.0593],[36.1416,-0.9625,2509.7798],[36.1449,-0.9711,2439.9453],[36.149,-0.9602,2403.5078],[36.1483,-0.9545,2492.4294],[36.1416,-0.9495,2488.9407],[36.1373,-0.9322,2535.4758],[36.1372,-0.9297,2533.3726],[36.1418,-0.9216,2520.9792],[36.1417,-0.9005,2618.4241],[36.1392,-0.9004,2596.8818],[36.1347,-0.8953,2763.4172],[36.1296,-0.894,2760.6775],[36.1201,-0.881,2725.95],[36.1152,-0.8841,2785.9673],[36.1062,-0.8839,2954.8513],[36.1068,-0.8709,2979.0537],[36.1108,-0.8499,2998.4753],[36.1106,-0.8394,2904.9678],[36.1025,-0.827,2947.6836],[36.0983,-0.8236,3040.6309],[36.0967,-0.8177,3001.5061],[36.0844,-0.8227,2992.8821],[36.07,-0.8352,2911.207],[36.0686,-0.8524,2841.5544],[36.0534,-0.8646,2706.9253],[36.0475,-0.8722,2709.1577],[36.0412,-0.8772,2663.2339],[36.0178,-0.8923,2537.3875],[36.0144,-0.8985,2502.292],[36.0156,-0.9029,2446.2991],[36.0012,-0.9248,2408.8394],[36.0028,-0.9335,2296.5178],[35.9957,-0.9416,2344.6433],[35.9972,-0.9489,2292.1057],[35.993899999999996,-0.9559,2254.9526],[35.9881,-0.9595,2262.5662],[35.981,-0.9802,2132.5195],[35.976,-0.9852,2131.9272],[35.9665,-0.9889,2081.4514],[35.9647,-0.9914,2053.8398],[35.9651,-0.9946,2043.3604],[35.9629,-0.9951,2069.1841],[35.9614,-0.9983,2068.1758],[35.958,-0.9982,2065.5693],[35.956,-1.0078,2034.4583],[35.9517,-1.0108,2040.514],[35.9514,-1.0208,2016.5809],[35.9568,-1.0253,2024.478],[35.9583,-1.0279,2013.5997],[35.9576,-1.0299,1977.5222],[35.9634,-1.0329,2010.0819],[35.9631,-1.0351,1986.3932],[35.9646,-1.0355,1975.7374],[35.9634,-1.0409,1951.8766],[35.966,-1.0424,1951.9303],[35.9681,-1.0497,1940.4214],[35.9657,-1.0539,1945.6691],[35.9677,-1.0575,1927.9237],[35.9658,-1.0597,1930.1631],[35.9664,-1.0653,1917.3717],[35.9635,-1.0672,1938.1384],[35.9651,-1.0701,1913.4574],[35.9683,-1.0718,1903.6211],[35.9579,-1.0763,1897.4055],[35.9559,-1.0824,1891.8621],[35.9532,-1.0854,1884.1265],[35.9561,-1.0873,1858.377],[35.9539,-1.0893,1849.4133],[35.9556,-1.0913,1843.5708],[35.9562,-1.0988,1835.7538],[35.9551,-1.1004,1834.022],[35.9598,-1.113,1805.1599],[35.9147,-1.1731,1905.6224],[35.882,-1.2064,1790.3567],[35.8764,-1.2078,1795.9236],[35.8792,-1.2116,1787.8215],[35.8751,-1.2132,1794.881],[35.8739,-1.2099,1804.0469],[35.8692,-1.2077,1817.9667],[35.8657,-1.2097,1812.3525],[35.8641,-1.2126,1804.299],[35.8614,-1.2086,1814.8872],[35.8593,-1.2084,1811.8217],[35.857,-1.21,1814.2026],[35.8568,-1.2127,1807.172],[35.8532,-1.2146,1807.6899],[35.8474,-1.2129,1820.3781],[35.844,-1.2159,1815.5095],[35.844,-1.2189,1808.2195],[35.8471,-1.2201,1791.053],[35.846,-1.2234,1795.0007],[35.8403,-1.2242,1802.3805],[35.841,-1.2183,1812.6451],[35.8389,-1.2189,1814.3707],[35.8372,-1.2161,1818.3521],[35.8334,-1.2169,1805.9574],[35.8288,-1.212,1811.5811],[35.8284,-1.2069,1821.9893],[35.8208,-1.2014,1816.0276],[35.8211,-1.1984,1817.7942],[35.8184,-1.1974,1818.2445],[35.8188,-1.1945,1817.5621],[35.8173,-1.1937,1817.9102],[35.8182,-1.1879,1835.1982],[35.8138,-1.1858,1829.0911],[35.8107,-1.1801,1833.2838],[35.8066,-1.1799,1830.1177],[35.8045,-1.1765,1835.458],[35.802,-1.1766,1829.7085],[35.801,-1.1746,1832.1438],[35.7955,-1.1785,1835.2958],[35.7943,-1.1763,1841.8452],[35.7925,-1.1777,1841.1835],[35.7888,-1.1755,1844.8777],[35.786,-1.1762,1842.4869],[35.7854,-1.1746,1842.4869],[35.7813,-1.1752,1838.5005],[35.7779,-1.1732,1834.3335],[35.7764,-1.1683,1838.3579],[35.775,-1.1692,1838.3579],[35.7748,-1.1664,1840.3533],[35.7666,-1.1584,1848.9242],[35.7628,-1.1604,1845.3049],[35.7591,-1.1596,1841.6543],[35.7595,-1.1565,1843.196],[35.7567,-1.1526,1847.3086],[35.7589,-1.1513,1846.1174],[35.7578,-1.1483,1846.3318],[35.7595,-1.1447,1859.411],[35.7551,-1.1433,1855.3101],[35.7518,-1.1352,1865.178],[35.7493,-1.1344,1868.2419],[35.7474,-1.1357,1860.8955],[35.746,-1.1332,1865.0215],[35.7388,-1.131,1857.6217],[35.7364,-1.1287,1859.6025],[35.7374,-1.1265,1860.5607],[35.7339,-1.1217,1864.2068],[35.7354,-1.1199,1865.8977],[35.7317,-1.1177,1863.755],[35.733,-1.1156,1864.718],[35.7313,-1.1119,1871.2323],[35.7326,-1.1052,1888.5591],[35.7303,-1.1053,1883.0977],[35.7259,-1.0985,1877.101],[35.7239,-1.0941,1876.7172],[35.7253,-1.0897,1881.4353],[35.721,-1.088,1878.5476],[35.7214,-1.0852,1893.915],[35.7164,-1.0811,1887.8805],[35.7146,-1.0761,1900.4102],[35.7082,-1.0714,1904.6152],[35.7556,-1.0386,1975.2853],[35.7489,-1.0306,1980.8523],[35.744,-1.0284,1978.9717],[35.7438,-1.0251,1988.0753],[35.7417,-1.0238,1978.8752],[35.7393,-1.0181,1993.7789],[35.7403,-1.0099,1992.614],[35.7389,-1.0019,2005.1589],[35.7366,-0.9998,2014.6777],[35.7393,-0.9946,2015.0083],[35.7381,-0.9925,2011.2173],[35.7395,-0.987,2015.8081],[35.7376,-0.9831,2024.1255],[35.7389,-0.9762,2027.3271],[35.7351,-0.9729,2041.6074],[35.7381,-0.9679,2033.2574],[35.7365,-0.9623,2044.542],[35.7382,-0.9528,2077.3516],[35.741,-0.9512,2070.7092],[35.7427,-0.9459,2068.4653],[35.7403,-0.9345,2085.3462],[35.7432,-0.9263,2077.6155],[35.7416,-0.9144,2106.7217],[35.7434,-0.9042,2102.1904],[35.742,-0.8949,2134.9734],[35.7394,-0.8893,2138.3621],[35.7419,-0.8838,2126.3965],[35.7378,-0.8737,2148.9607],[35.737,-0.8623,2153.0227],[35.7354,-0.8591,2197.1033],[35.7372,-0.8537,2208.3108],[35.7403,-0.8502,2177.02],[35.7412,-0.8205,2250.2874],[35.7478,-0.8058,2342.0037],[35.7426,-0.7969,2383.6299],[35.7281,-0.7801,2231.1399],[35.7197,-0.7737,2432.7295],[35.6975,-0.7882,2238.0034],[35.6849,-0.8005,2167.5491],[35.6473,-0.8285,2070.0823],[35.6481,-0.8252,2140.6709],[35.6448,-0.8231,2070.6089],[35.6423,-0.8161,2167.9126],[35.6336,-0.8092,2090.8357],[35.6343,-0.8065,2094.7102],[35.632,-0.8051,2111.8806],[35.6345,-0.7945,2228.4263],[35.6395,-0.7915,2120.0825],[35.6418,-0.7869,2217.3411],[35.638,-0.784,2190.8572],[35.6365,-0.7785,2149.875],[35.6334,-0.7754,2231.7651],[35.635,-0.7745,2275.1414],[35.6344,-0.7727,2266.6482],[35.6372,-0.7722,2179.7576],[35.6385,-0.7734,2189.3848],[35.6389,-0.7703,2197.1133],[35.6091,-0.7391,2318.1533],[35.6005,-0.7386,2329.3184],[35.5087,-0.6401,2228.5486],[35.4974,-0.6096,2242.0388],[35.3969,-0.6386,2114.4746],[35.426,-0.7148,2102.8538],[35.4791,-0.757,2265.187],[35.4977,-0.7629,2232.7537],[35.5073,-0.768,2141.0815],[35.5338,-0.7714,2296.2109],[35.5443,-0.7783,2207.283],[35.5467,-0.7816,2172.3789],[35.5444,-0.7871,2134.8525],[35.5381,-0.7919,2154.499],[35.5383,-0.7934,2127.4683],[35.5344,-0.7949,2113.8589],[35.5341,-0.7977,2070.585],[35.5321,-0.7976,2070.585],[35.5308,-0.8003,2043.54],[35.5278,-0.8015,2073.4158],[35.527,-0.8044,2058.406],[35.521,-0.8042,2048.179],[35.5195,-0.8081,2040.9414],[35.5204,-0.8108,2000.4119],[35.5179,-0.8111,2023.8921],[35.5169,-0.813,2029.8418],[35.5127,-0.8117,2010.542],[35.5134,-0.8139,1987.6689],[35.5114,-0.8139,2003.2506],[35.5116,-0.8158,1978.7317],[35.5092,-0.8185,2054.0615],[35.5021,-0.8188,1986.989],[35.5007,-0.8206,1991.0342],[35.5003,-0.8185,2007.8344],[35.4967,-0.819,2029.1377],[35.4947,-0.8202,2020.9664],[35.4945,-0.8233,1980.3502],[35.4909,-0.8233,2004.7375],[35.4905,-0.8255,1992.7589],[35.4865,-0.8266,1976.3293],[35.4868,-0.8309,1931.6082],[35.4886,-0.833,1914.4177],[35.4928,-0.8299,1920.3945],[35.4966,-0.8299,1926.6617],[35.4983,-0.8272,1942.9529],[35.5109,-0.8341,1998.9222],[35.5245,-0.8315,2048.7585],[35.5291,-0.8324,2111.9626],[35.5319,-0.8307,2113.5669],[35.5417,-0.8414,2139.3716],[35.5511,-0.8484,2066.7129],[35.5551,-0.8538,2068.2114],[35.556399999999996,-0.8588,2037.6089],[35.5561,-0.8617,2027.0503],[35.5483,-0.8735,2052.1841],[35.5435,-0.8798,2026.3838],[35.5391,-0.8819,2026.9563],[35.5363,-0.888,2004.869],[35.5338,-0.8898,1996.4329],[35.5339,-0.8931,1996.8566],[35.532,-0.8933,2006.2693],[35.5317,-0.8952,2000.5386],[35.5251,-0.8955,1995.444],[35.5212,-0.8975,1963.8833],[35.5197,-0.9021,1985.3665],[35.5144,-0.9061,1981.2856],[35.5131,-0.9056,1969.4979],[35.5084,-0.911,1979.7792],[35.4841,-0.9581,1939.6062],[35.4955,-0.9582,1973.1062],[35.4976,-0.9597,1957.8202],[35.5025,-0.9596,1970.868],[35.5034,-0.958,1976.3062],[35.5077,-0.9601,1975.9237],[35.5206,-0.962,1992.3445],[35.53,-0.9608,1980.5156],[35.5338,-0.9637,1992.4348],[35.5375,-0.9712,1975.8567],[35.5588,-0.9825,2028.5275],[35.5663,-0.9899,2009.2507],[35.5678,-0.9934,2005.8262],[35.567,-0.9977,1997.4993],[35.5625,-1.0089,1993.1207],[35.5664,-1.0192,1976.6279],[35.5659,-1.0239,1974.1747],[35.5642,-1.0281,1975.512],[35.556399999999996,-1.0342,1965.1586],[35.5509,-1.0457,1959.6073],[35.5488,-1.0556,1954.2135],[35.5494,-1.0645,1948.3955],[35.5538,-1.0718,1945.736],[35.5608,-1.0917,1930.667],[35.5679,-1.0946,1934.751],[35.57,-1.1022,1924.5109],[35.5798,-1.1091,1925.1581],[35.5669,-1.1213,1934.6003],[35.6114,-1.1773,1897.2704],[35.6192,-1.1914,1888.1581],[35.6502,-1.2346,1867.1814],[35.6646,-1.2493,1863.5601],[35.6727,-1.2643,1868.8748],[35.6745,-1.2707,1871.7876],[35.6548,-1.2974,1889.4847],[35.619,-1.3412,1922.7688],[35.6094,-1.3473,1915.0536],[35.6023,-1.3571,1911.7844],[35.5942,-1.3855,1918.2699],[35.5933,-1.4015,1915.1995],[35.5755,-1.4059,1894.0332],[35.5641,-1.4037,1896.8748],[35.556,-1.4512,1876.3313],[35.5627,-1.4537,1896.6227],[35.5651,-1.4561,1871.7424],[35.5719,-1.4577,1881.6873],[35.5781,-1.4618,1903.8875],[35.6858,-1.4792,2178.2271],[35.6887,-1.4755,2268.1169],[35.6962,-1.4756,2235.8257],[35.7091,-1.4851,2242.7773],[35.7108,-1.4874,2230.2219],[35.7115,-1.4938,2100.9023],[35.7146,-1.4959,2096.2185],[35.7236,-1.5091,2227.0195],[35.733,-1.5247,2149.0847],[35.7376,-1.536,2217.6165],[35.7435,-1.576,2432.0493],[35.7443,-1.5908,2332.835],[35.7429,-1.6064,2426.5676],[35.7441,-1.619,2346.3254],[35.7593,-1.6473,2421.6616],[35.7498,-1.6884,2218.0552],[35.7376,-1.705,2145.4673],[35.73,-1.71,2115.1421],[35.7283,-1.7319,2071.1562],[35.7221,-1.7368,2057.0083],[35.7196,-1.737,2056.0952],[35.7163,-1.7429,2063.0996],[35.7128,-1.7453,2056.5071],[35.6977,-1.7496,2028.4847],[35.5329,-1.8353,2095.3584],[35.5359,-1.8371,2089.426],[35.53,-1.8399,2125.5303],[35.8458,-2.0191,1548.4655],[35.8464,-2.0182,1548.4655],[35.869,-2.0307,1730.2118],[35.9962,-2.1026,601.7281],[35.9962,-2.0983,602.082],[36.0001,-2.1006,601.6305],[36.0001,-2.0819,626.6421],[36.0267,-2.0821,606.3483],[36.0267,-2.0372,681.9096],[36.0225,-2.0354,707.4838],[36.0213,-2.0251,729.6538],[36.0245,-2.017,760.2695],[36.0274,-2.0195,735.3365],[36.0286,-2.007,788.8587],[36.0313,-2.0085,779.9422],[36.0346,-2.0029,762.5122],[36.0319,-1.999,803.9553],[36.0338,-1.9982,823.0887],[36.0355,-1.9995,818.9371],[36.0364,-1.9791,914.9965],[36.0395,-1.9716,809.0621],[36.0384,-1.9654,977.0073],[36.0411,-1.9577,885.6744],[36.0386,-1.9458,1017.5306],[36.042,-1.9394,1036.1575],[36.0425,-1.9319,927.5263],[36.0396,-1.9249,983.4468],[36.0366,-1.9235,1042.6208],[36.037,-1.9129,1012.0144],[36.033,-1.9127,1034.1921],[36.0425,-1.909,896.2426],[36.0433,-1.9044,807.7805],[36.0402,-1.9053,859.3879],[36.0354,-1.902,929.6606],[36.0319,-1.9014,1091.9332],[36.0311,-1.896,1016.3391],[36.0258,-1.8893,1021.7487],[36.031,-1.8857,1133.963],[36.0347,-1.89,1136.8867],[36.0368,-1.8864,1129.288],[36.0366,-1.8735,1147.8357],[36.0413,-1.8723,1082.5118],[36.0448,-1.8741,1156.7479],[36.0514,-1.8652,902.1035],[36.0481,-1.8593,1213.8503],[36.0499,-1.8522,1070.2656],[36.0471,-1.8429,1221.2311],[36.0488,-1.836,1014.5469],[36.0404,-1.8284,1234.4973],[36.0432,-1.8267,1120.9261],[36.0431,-1.824,1053.3074],[36.0395,-1.823,1296.1937],[36.0381,-1.8188,1089.2936],[36.0286,-1.8237,1311.2029],[36.0278,-1.8169,1389.1971],[36.0298,-1.8153,1393.6365],[36.028,-1.8041,1079.3164],[36.0224,-1.8006,1315.1763],[36.0166,-1.802,1417.7917],[36.0159,-1.7989,1477.3557],[36.018,-1.7947,1473.5809],[36.0228,-1.7919,1420.6643],[36.0226,-1.7896,1428.0551],[36.0274,-1.7888,1377.9397],[36.0275,-1.7764,1163.0264],[36.0301,-1.7747,1082.9736],[36.0233,-1.7729,1419.6176],[36.031,-1.7659,1420.828],[36.0313,-1.7582,1397.8469],[36.0358,-1.7606,1422.6577],[36.0324,-1.7518,1421.7969],[36.0353,-1.7482,1419.5636],[36.0357,-1.7362,1474.3345],[36.0411,-1.7332,1418.0197],[36.0415,-1.7279,1450.4293]]]]}}