{"type": "Feature","bbox": [37.8181,-1.1307,38.0834,-0.8097],"geometry": {"type": "MultiPolygon","coordinates": [[[[37.8448,-0.8111,742.1822],[37.846,-0.814,735.3127],[37.843,-0.8185,749.264],[37.8475,-0.8213,751.2487],[37.8475,-0.8254,748.8835],[37.8456,-0.8281,764.3287],[37.8491,-0.8325,752.635],[37.8408,-0.835,786.3975],[37.8415,-0.8404,786.5217],[37.8447,-0.8421,779.1264],[37.841,-0.845,796.4064],[37.8373,-0.845,814.2292],[37.8365,-0.8466,814.1852],[37.8382,-0.8485,800.8707],[37.8365,-0.8515,813.9799],[37.831,-0.8536,827.0291],[37.833,-0.855,808.5882],[37.833,-0.8575,810.5475],[37.8299,-0.8572,836.756],[37.8284,-0.8607,831.7607],[37.8318,-0.8641,828.705],[37.8262,-0.8666,870.6809],[37.8274,-0.8722,840.6356],[37.8238,-0.8728,851.4018],[37.8257,-0.8761,852.5969],[37.8216,-0.8798,878.7238],[37.8219,-0.8829,875.285],[37.8198,-0.8826,900.0001],[37.8216,-0.8849,876.6735],[37.8221,-0.8909,897.0701],[37.8242,-0.8913,894.9246],[37.8225,-0.8953,902.6809],[37.8197,-0.8952,926.0416],[37.8181,-0.8974,926.3584],[37.8186,-0.9001,914.9718],[37.8284,-0.9014,916.9715],[37.8308,-0.9053,928.1594],[37.8369,-0.9052,958.3369],[37.8367,-0.9073,937.5591],[37.8331,-0.9078,934.9207],[37.8331,-0.9126,948.6611],[37.8386,-0.9098,941.8979],[37.8375,-0.9202,969.6044],[37.8427,-0.9198,967.7705],[37.8405,-0.9237,966.4997],[37.8438,-0.9236,962.4672],[37.8443,-0.9249,965.5533],[37.8416,-0.9277,969.4866],[37.8466,-0.9283,970.9523],[37.8511,-0.9331,974.9207],[37.8488,-0.9366,989.3364],[37.8513,-0.9352,978.5115],[37.8523,-0.9389,981.1839],[37.8502,-0.9418,995.1078],[37.8468,-0.9402,1003.7235],[37.846,-0.9423,1012.5322],[37.8488,-0.9434,991.002],[37.8463,-0.9473,1009.24],[37.8515,-0.9503,1011.3912],[37.8491,-0.9528,1016.7715],[37.8539,-0.9586,1009.8721],[37.8541,-0.9623,1020.1473],[37.8527,-0.9627,1017.901],[37.8511,-0.959,1028.2107],[37.8507,-0.961,1026.3589],[37.8446,-0.9642,1050.3005],[37.8532,-0.9668,1032.5447],[37.8572,-0.9655,1044.022],[37.8596,-0.9679,1037.0217],[37.864,-0.9689,1048.5203],[37.8622,-0.9738,1052.1353],[37.8661,-0.9728,1041.5312],[37.8681,-0.9741,1047.4075],[37.868,-0.9778,1040.6538],[37.8622,-0.9786,1062.1332],[37.8622,-0.98,1060.1696],[37.8657,-0.9822,1049.9843],[37.8621,-0.9825,1053.7429],[37.8623,-0.9865,1051.46],[37.865,-0.9905,1054.366],[37.8677,-0.9925,1062.8269],[37.8703,-0.9905,1070.5568],[37.8733,-0.9912,1073.8824],[37.8795,-0.997,1065.7462],[37.886,-0.9999,1071.8191],[37.8903,-1.0063,1077.0157],[37.8956,-1.0088,1084.2999],[37.8971,-1.015,1085.84],[37.9,-1.0181,1090.2505],[37.8986,-1.0216,1094.6775],[37.8964,-1.0231,1103.2327],[37.8914,-1.0232,1106.7076],[37.8878,-1.027,1111.6918],[37.8938,-1.0366,1110.8828],[37.8963,-1.0367,1118.176],[37.8969,-1.0391,1113.0334],[37.9003,-1.0412,1113.2488],[37.9026,-1.04,1121.8644],[37.91,-1.0421,1134.6515],[37.9145,-1.0496,1130.6942],[37.9171,-1.0498,1132.2883],[37.9168,-1.0532,1134.1742],[37.9181,-1.053,1134.0554],[37.9211,-1.0575,1142.2964],[37.9281,-1.063,1152.1198],[37.9312,-1.0635,1158.1423],[37.9323,-1.0713,1159.3304],[37.9385,-1.076,1162.5134],[37.9461,-1.0736,1180.9221],[37.95,-1.0796,1175.1464],[37.9499,-1.0868,1186.4877],[37.9532,-1.0882,1186.3013],[37.9547,-1.091,1189.9713],[37.9547,-1.0964,1189.9647],[37.9599,-1.1002,1199.9606],[37.9597,-1.1024,1197.8967],[37.9619,-1.1025,1201.8932],[37.9661,-1.1062,1221.6385],[37.9687,-1.1161,1223.5626],[37.9744,-1.1238,1253.0303],[37.9831,-1.1305,1300.6697],[37.9896,-1.1307,1310.3097],[37.992,-1.128,1305.7883],[37.993,-1.1233,1266.5751],[37.9903,-1.1155,1239.0259],[37.9943,-1.1112,1270.2729],[37.9991,-1.0966,1200.9875],[37.9918,-1.0887,1191.3948],[37.9835,-1.0856,1166.4707],[37.9839,-1.0836,1176.0474],[37.9794,-1.0819,1171.7932],[37.9773,-1.0781,1172.3584],[37.9725,-1.079,1162.983],[37.9701,-1.0772,1153.5371],[37.9664,-1.0721,1152.6011],[37.9671,-1.0684,1156.2942],[37.9642,-1.0656,1158.0498],[37.9597,-1.0646,1142.0486],[37.9571,-1.0576,1136.3628],[37.9548,-1.0559,1137.1039],[37.9556,-1.052,1131.7162],[37.9522,-1.0493,1130.0757],[37.9553,-1.0457,1119.3715],[37.9543,-1.0424,1118.3932],[37.9674,-1.0417,1155.1897],[37.9759,-1.0372,1151.9716],[37.9791,-1.0407,1160.6224],[37.9829,-1.0399,1158.3607],[37.9892,-1.0426,1170.5482],[37.9925,-1.048,1159.8702],[38.004,-1.049,1179.0508],[38.0073,-1.0551,1181.5002],[38.0227,-1.0659,1222.9991],[38.0255,-1.0772,1223.4724],[38.0286,-1.0796,1237.6199],[38.0302,-1.0732,1234.0352],[38.0437,-1.066,1199.1003],[38.0591,-1.0682,1137.3633],[38.0569,-1.0569,1170.9974],[38.0596,-1.0549,1125.993],[38.0632,-1.0559,1114.762],[38.0679,-1.0515,1084.8508],[38.0743,-1.0497,1069.0072],[38.0777,-1.0472,1044.1124],[38.0783,-1.0443,1052.4165],[38.0804,-1.0446,1035.3346],[38.0804,-1.0428,1044.9773],[38.0834,-1.041,1023.3472],[38.0804,-1.0274,1013.1858],[38.0735,-1.0098,1015.0658],[38.0707,-1.0083,1003.7958],[38.0714,-1.0054,1015.887],[38.0648,-1.004,996.7141],[38.0614,-1.0053,991.7941],[38.0611,-1.0006,998.9392],[38.056,-0.999,982.3613],[38.0533,-0.9955,987.822],[38.049,-0.9986,999.1222],[38.0343,-1.0019,1112.7963],[38.0337,-1.0034,1118.8185],[38.0302,-1.0042,1170.0697],[38.0252,-1.0024,1157.3438],[38.0164,-1.0037,1165.2354],[38.0141,-0.9994,1146.3014],[38.0113,-1.0,1169.3982],[38.006,-1.0052,1200.0397],[38.0035,-0.9959,1187.5739],[37.9911,-0.9821,1174.8926],[37.9904,-0.9769,1171.2814],[37.9814,-0.9844,1211.2495],[37.977,-0.9911,1178.91],[37.9573,-0.999,1138.0614],[37.9518,-0.9907,1121.6021],[37.9454,-0.9682,1149.4058],[37.9503,-0.9553,1118.9897],[37.9497,-0.9492,1113.3715],[37.9525,-0.9444,1091.881],[37.9504,-0.9384,1087.3447],[37.9477,-0.9168,1031.9144],[37.9434,-0.9125,1026.0922],[37.9378,-0.9031,1013.2432],[37.9295,-0.9037,1001.2374],[37.9285,-0.9011,1005.1411],[37.9258,-0.9,994.1022],[37.9252,-0.8954,1006.8417],[37.9275,-0.8921,982.0568],[37.9249,-0.8879,989.7406],[37.9183,-0.8891,976.9529],[37.9102,-0.8851,955.3724],[37.9085,-0.8825,957.0027],[37.9059,-0.8844,950.8421],[37.904,-0.8823,943.5991],[37.9043,-0.8792,937.5417],[37.9026,-0.88,953.4068],[37.9038,-0.8762,933.4614],[37.9025,-0.8757,937.5162],[37.9045,-0.8729,927.696],[37.9017,-0.8704,922.2158],[37.8993,-0.8705,908.4642],[37.8996,-0.8692,912.3519],[37.8977,-0.87,904.4089],[37.8976,-0.8673,898.027],[37.8953,-0.8684,906.2475],[37.8948,-0.8646,894.585],[37.8963,-0.8632,887.1156],[37.8934,-0.8605,911.11],[37.8886,-0.8623,873.8935],[37.885,-0.861,853.9518],[37.8838,-0.8574,838.2505],[37.885,-0.8565,840.9642],[37.8825,-0.8556,835.0377],[37.8848,-0.8544,843.9622],[37.8817,-0.8534,843.498],[37.8801,-0.8497,836.5731],[37.8837,-0.8463,815.1869],[37.883,-0.8411,801.4629],[37.8817,-0.8413,801.8791],[37.8823,-0.8385,813.4109],[37.8746,-0.8352,782.8881],[37.8693,-0.8356,763.9943],[37.8682,-0.8344,758.0256],[37.8701,-0.8338,751.9642],[37.8703,-0.8297,748.0035],[37.8673,-0.8272,756.3337],[37.8689,-0.8244,736.1319],[37.8662,-0.8184,738.8349],[37.8698,-0.8141,727.5531],[37.8704,-0.8107,732.676],[37.8665,-0.8097,729.1513],[37.8593,-0.8117,733.3938],[37.855,-0.8098,735.3179],[37.8448,-0.8111,742.1822]]]]}
,"properties": {"GID_3": "KEN.18.8.1_1","GID_0": "KEN","country": "Kenya","GID_1": "KEN.18_1","province": "Kitui","NL_NAME_1": "NA","GID_2": "KEN.18.8_1","county": "MwingiWest","NL_NAME_2": "NA","city": "Kyome/Thaana","VARNAME_3": "NA","NL_NAME_3": "NA","TYPE_3": "Ward","ENGTYPE_3": "Ward","CC_3": "336","HASC_3": "NA","name": "Kyome_Thaana.city","area_km2": 334.6282,"hist_schema_id": "Elevation0-9000","hist_area_km2": {"725": 1.1872,"750": 3.9008,"775": 3.922,"800": 3.3072,"825": 4.4308,"850": 5.4484,"875": 6.8899,"900": 8.7979,"925": 9.3915,"950": 10.8966,"975": 15.1153,"1000": 22.2594,"1025": 23.5524,"1050": 29.0853,"1075": 30.8871,"1100": 27.7918,"1125": 30.0388,"1150": 31.9466,"1175": 29.6358,"1200": 20.7535,"1225": 10.9384,"1250": 2.6286,"1275": 1.2719,"1300": 0.5088,"1325": 0.0424}}}