{"type":"Feature","properties":{"GID_3":"KEN.30.2.6_1","GID_0":"KEN","country":"Kenya","GID_1":"KEN.30_1","province":"Nairobi","NL_NAME_1":"NA","GID_2":"KEN.30.2_1","county":"DagorettiSouth","NL_NAME_2":"NA","city":"Uthiru/Ruthimitu","VARNAME_3":"NA","NL_NAME_3":"NA","TYPE_3":"Ward","ENGTYPE_3":"Ward","CC_3":"1379","HASC_3":"NA","name":"Uthiru_Ruthimitu.city"},
"geometry":{"type": "MultiPolygon","coordinates": [[[[36.6885,-1.2802,1877.264],[36.6915,-1.2826,1890.4056],[36.6956,-1.2826,1883.9775],[36.7036,-1.2777,1875.2289],[36.7195,-1.2728,1829.938],[36.733,-1.2729,1813.2256],[36.7184,-1.2606,1905.4829],[36.7255,-1.2485,1849.1442],[36.7252,-1.2447,1836.7117],[36.7184,-1.2566,1898.3409],[36.7156,-1.2543,1888.8634],[36.7026,-1.2518,1929.8831],[36.7005,-1.2559,1942.2856],[36.6964,-1.2536,1946.537],[36.6937,-1.2539,1945.0756],[36.6949,-1.2558,1950.7432],[36.6931,-1.2578,1942.8165],[36.6968,-1.2614,1877.8447],[36.6931,-1.2622,1899.3191],[36.6947,-1.2643,1892.6509],[36.6901,-1.2652,1885.8762],[36.6915,-1.2731,1885.9768],[36.6893,-1.273,1889.6384],[36.6885,-1.2802,1877.264]]]]}}