{"type": "Feature","bbox": [34.4253,-1.2022,34.5181,-1.1183],"geometry": {"type": "MultiPolygon","coordinates": [[[[34.5165,-1.1795,1438.8289],[34.5149,-1.172,1427.9152],[34.5171,-1.1615,1439.5156],[34.5072,-1.1469,1421.0007],[34.5003,-1.1558,1446.834],[34.4882,-1.1631,1442.8643],[34.4811,-1.1495,1439.2316],[34.472,-1.1417,1413.5492],[34.4738,-1.1325,1409.9786],[34.4769,-1.1281,1393.8137],[34.4758,-1.1206,1400.1199],[34.4632,-1.1183,1388.5127],[34.4489,-1.1194,1412.0874],[34.4431,-1.1227,1433.4603],[34.4358,-1.1215,1422.5063],[34.4347,-1.1292,1422.8949],[34.4281,-1.1374,1396.053],[34.4271,-1.1576,1414.9186],[34.4253,-1.1658,1416.4297],[34.4398,-1.1749,1504.8704],[34.4507,-1.1785,1468.2258],[34.4563,-1.1833,1529.1528],[34.4641,-1.1868,1539.1461],[34.4668,-1.1926,1580.2606],[34.4719,-1.1917,1591.1016],[34.4728,-1.197,1605.8948],[34.477,-1.2013,1579.7017],[34.4804,-1.2022,1576.5159],[34.4957,-1.1944,1537.1544],[34.5002,-1.1947,1527.9871],[34.5065,-1.1878,1481.9261],[34.5158,-1.185,1432.0604],[34.5181,-1.181,1454.6761],[34.5165,-1.1795,1438.8289]]]]}
,"properties": {"GID_3": "KEN.27.3.7_1","GID_0": "KEN","country": "Kenya","GID_1": "KEN.27_1","province": "Migori","NL_NAME_1": "NA","GID_2": "KEN.27.3_1","county": "KuriaWest","NL_NAME_2": "NA","city": "Tagare","VARNAME_3": "NA","NL_NAME_3": "NA","TYPE_3": "Ward","ENGTYPE_3": "Ward","CC_3": "1294","HASC_3": "NA","name": "Tagare.city","area_km2": 54.96605,"hist_schema_id": "Elevation0-9000","hist_area_km2": {"1400": 7.46171,"1425": 14.79618,"1450": 12.52793,"1475": 8.22474,"1500": 5.85057,"1525": 3.01007,"1550": 1.44144,"1575": 1.10228,"1600": 0.55114}}}