{"type":"Feature","properties":{"GID_2":"KEN.24.6_1","GID_0":"KEN","country":"Kenya","GID_1":"KEN.24_1","province":"Mandera","NL_NAME_1":"NA","county":"ManderaWest","VARNAME_2":"NA","NL_NAME_2":"NA","TYPE_2":"Constituency","ENGTYPE_2":"Constituency","CC_2":"39","HASC_2":"NA","name":"Mandera_West.county"},
"geometry":{"type": "MultiPolygon","coordinates": [[[[40.5239,3.3315,681.7589],[40.5218,3.3345,677.6868],[40.5158,3.3336,672.9819],[40.4899,3.3463,605.3345],[40.4587,3.3409,566.3666],[40.4552,3.3397,563.8245],[40.4499,3.3337,555.6393],[40.4456,3.3331,553.2996],[40.4412,3.3331,553.6686],[40.4176,3.3437,554.4999],[40.3868,3.3674,561.7816],[40.3615,3.3939,570.5684],[40.3366,3.4336,583.7736],[40.3304,3.4529,592.8409],[40.3308,3.504,619.7831],[40.3238,3.5308,641.471],[40.3164,3.5534,676.9835],[40.2975,3.5907,677.4791],[40.2908,3.6116,682.1991],[40.2874,3.616,682.1628],[40.2911,3.6192,685.5296],[40.2921,3.6247,691.0972],[40.2917,3.6417,710.4202],[40.2898,3.6519,712.6305],[40.2931,3.6571,723.1508],[40.2935,3.6642,730.6126],[40.2987,3.679,732.7132],[40.2989,3.6881,735.4498],[40.3069,3.7038,774.2595],[40.3051,3.7227,780.1448],[40.3061,3.7254,786.2897],[40.3033,3.7265,789.1501],[40.3021,3.7293,806.6397],[40.2952,3.7596,803.5768],[40.2927,3.7634,803.0449],[40.278,3.7718,775.1302],[40.2773,3.7691,775.8757],[40.2733,3.7657,771.5469],[40.2577,3.7583,759.5797],[40.2569,3.7529,777.1857],[40.2417,3.7261,742.1738],[40.2339,3.7353,740.0901],[40.2331,3.7387,743.7421],[40.2357,3.7461,755.8987],[40.2451,3.7554,765.8996],[40.2436,3.7618,750.7718],[40.2379,3.7693,747.9045],[40.2287,3.7595,738.6187],[40.2279,3.7508,737.071],[40.2211,3.7367,723.7061],[40.2007,3.7249,708.0696],[40.1913,3.7133,698.8009],[40.1866,3.7198,701.3657],[40.1806,3.7241,701.8624],[40.1647,3.7289,694.4717],[40.1399,3.7489,694.8271],[40.1353,3.7509,695.1052],[40.1289,3.7516,694.9061],[40.1198,3.7502,695.5237],[40.1069,3.7419,678.9698],[40.1001,3.7509,692.4679],[40.0981,3.7605,685.51],[40.1003,3.7661,687.0379],[40.1003,3.7803,692.2907],[40.1065,3.7925,692.439],[40.1091,3.8065,696.7336],[40.1007,3.8169,699.701],[40.0981,3.8291,705.0013],[40.0951,3.8331,704.7589],[40.0881,3.8367,707.5058],[40.0759,3.8359,709.9525],[40.0671,3.8409,715.4036],[40.0651,3.8435,715.64],[40.0535,3.8461,719.6667],[40.0485,3.8525,725.451],[40.0379,3.8549,726.7017],[40.0335,3.8597,723.8767],[40.0335,3.8637,724.0714],[40.0289,3.8673,726.22],[40.0319,3.8683,725.5413],[40.0215,3.8701,733.8867],[40.0129,3.8815,732.7119],[40.0183,3.8933,737.7958],[40.0175,3.9019,740.904],[40.0161,3.9045,746.155],[40.0097,3.9071,758.1415],[39.99,3.9227,808.447],[39.9914,3.9332,756.5716],[39.8619,3.8641,860.8292],[39.8543,3.8462,821.4185],[39.8366,3.8133,840.4786],[39.7792,3.6865,879.4476],[39.7826,3.6579,910.9205],[39.7853,3.6603,903.973],[39.7857,3.3453,931.9196],[39.7871,3.3365,777.3726],[40.0335,3.2373,610.3807],[40.0337,3.2337,610.0048],[40.0437,3.2283,598.1824],[40.1699,3.0907,534.627],[40.2639,2.9803,489.6411],[40.2725,2.9815,488.2125],[40.2833,2.9863,488.6172],[40.2985,2.9897,486.4807],[40.3105,2.9869,483.7664],[40.3347,2.9977,481.4138],[40.3389,2.9969,481.1865],[40.3559,2.9991,490.7996],[40.3659,3.0043,483.3939],[40.3843,3.0063,482.8813],[40.3899,3.0087,483.3638],[40.4009,3.0085,483.4048],[40.4079,3.0129,483.9692],[40.4267,3.0161,485.5331],[40.4401,3.0209,482.6291],[40.4825,3.0227,484.636],[40.5067,3.0283,484.8031],[40.5155,3.0433,492.9842],[40.5259,3.0711,515.0457],[40.5305,3.0937,534.9568],[40.5349,3.1049,550.05],[40.5459,3.1191,572.5897],[40.5491,3.1309,613.5281],[40.5561,3.1415,619.071],[40.5667,3.1459,645.5868],[40.5793,3.1941,605.2054],[40.5867,3.2057,614.1273],[40.5923,3.2107,619.837],[40.5949,3.2171,604.691],[40.6137,3.2329,584.9037],[40.6233,3.2381,567.5704],[40.6323,3.2513,555.9834],[40.6493,3.2567,542.7213],[40.6837,3.2585,524.5082],[40.6555,3.2863,544.4429],[40.6133,3.3073,572.9714],[40.5743,3.3103,617.3261],[40.5587,3.3369,655.407],[40.5527,3.3387,652.7527],[40.5413,3.3381,653.9197],[40.5239,3.3315,681.7589]]]]}}