{"type": "Feature","bbox": [35.3212,-0.3754,35.675,0.0319],"geometry": {"type": "MultiPolygon","coordinates": [[[[35.3274,-0.3435,2056.1245],[35.3384,-0.3532,2070.7405],[35.3444,-0.3648,2150.1521],[35.3432,-0.3684,2140.6294],[35.3463,-0.3714,2162.2847],[35.3494,-0.371,2188.687],[35.3531,-0.3727,2168.2183],[35.3544,-0.3697,2183.1499],[35.3566,-0.3691,2184.741],[35.3581,-0.3711,2151.7661],[35.3606,-0.3696,2164.4937],[35.3683,-0.3741,2195.5498],[35.3732,-0.3728,2201.6746],[35.3789,-0.3754,2260.4219],[35.3822,-0.3749,2287.3567],[35.3838,-0.3716,2243.2805],[35.386,-0.3711,2276.1948],[35.391,-0.3745,2309.9668],[35.3962,-0.3714,2335.1267],[35.4072,-0.37,2344.7659],[35.4137,-0.3649,2345.833],[35.4205,-0.3649,2301.7029],[35.4295,-0.359,2349.1243],[35.4427,-0.3443,2370.5874],[35.4139,-0.2969,2277.4248],[35.4545,-0.2819,2334.7622],[35.4707,-0.2723,2362.4238],[35.4877,-0.2693,2279.4937],[35.5048,-0.2633,2244.1995],[35.5106,-0.2651,2259.6926],[35.5255,-0.2646,2270.769],[35.5291,-0.2545,2222.3333],[35.5588,-0.2679,2649.4587],[35.5723,-0.2772,2672.7756],[35.5693,-0.2983,2649.9944],[35.581,-0.3031,2687.6772],[35.585,-0.2867,2664.0518],[35.5918,-0.28,2740.8193],[35.5925,-0.2723,2723.1438],[35.5944,-0.2714,2765.3643],[35.6015,-0.2776,2743.7935],[35.6046,-0.2883,2698.4219],[35.6113,-0.2837,2744.0259],[35.6181,-0.2848,2654.9268],[35.6198,-0.2888,2663.6323],[35.6311,-0.2825,2693.4922],[35.6315,-0.2709,2626.5229],[35.6415,-0.2659,2585.8823],[35.6464,-0.266,2659.8254],[35.6502,-0.2605,2671.1208],[35.6581,-0.2296,2703.2937],[35.6554,-0.2158,2548.2939],[35.6577,-0.2122,2683.103],[35.6555,-0.2071,2570.6743],[35.6561,-0.2012,2603.6895],[35.6576,-0.1994,2585.5271],[35.6619,-0.1997,2589.9238],[35.6642,-0.1888,2519.0996],[35.675,-0.183,2540.3535],[35.6661,-0.1792,2471.406],[35.6704,-0.1577,2548.4478],[35.6674,-0.1567,2546.2632],[35.6541,-0.1588,2474.6777],[35.6516,-0.1541,2461.9548],[35.6516,-0.1497,2466.8735],[35.6472,-0.1454,2468.9304],[35.6409,-0.1442,2453.6133],[35.6299,-0.1472,2429.4766],[35.6255,-0.1446,2442.689],[35.6162,-0.1484,2431.1682],[35.6112,-0.1531,2417.0586],[35.608,-0.1488,2365.3164],[35.6045,-0.1485,2339.7104],[35.6035,-0.1417,2327.1299],[35.6009,-0.1391,2303.3369],[35.6009,-0.128,2313.7012],[35.5971,-0.1236,2300.9553],[35.5989,-0.1165,2306.8052],[35.6037,-0.1172,2324.6528],[35.6121,-0.1127,2336.3547],[35.6126,-0.105,2351.0562],[35.6231,-0.0972,2377.0859],[35.6215,-0.0913,2383.0669],[35.6142,-0.0856,2365.8438],[35.6167,-0.0824,2380.3804],[35.6152,-0.0783,2373.6255],[35.6241,-0.0743,2427.4509],[35.6281,-0.0673,2437.5723],[35.6371,-0.0571,2495.4888],[35.6412,-0.0544,2506.2927],[35.6365,-0.0485,2500.8621],[35.6401,-0.0446,2522.1353],[35.6337,-0.0301,2543.8486],[35.6113,-0.0264,2557.9736],[35.5839,-0.0013,2692.8657],[35.5724,-0.0033,2643.0576],[35.571,-0.0015,2630.9897],[35.5431,-0.0023,2754.979],[35.5229,0.0199,2831.2285],[35.5166,0.0196,2824.4004],[35.5139,0.0127,2857.9922],[35.4983,0.0144,2814.8271],[35.498,0.0165,2805.0298],[35.4942,0.0193,2709.7329],[35.4803,0.02,2754.9631],[35.4578,0.0146,2640.3906],[35.4579,0.0182,2667.3477],[35.4713,0.0242,2693.9888],[35.4664,0.0319,2665.8374],[35.4349,0.0312,2548.1387],[35.4382,0.024,2475.0195],[35.4136,0.0093,1979.1914],[35.4044,-0.0172,2185.4004],[35.4241,-0.072,2103.6501],[35.4438,-0.0737,2296.498],[35.4551,-0.0716,2368.5293],[35.4573,-0.0829,2299.9165],[35.4741,-0.0947,2337.3567],[35.4746,-0.0911,2318.48],[35.4772,-0.0902,2347.5222],[35.481,-0.0814,2300.6904],[35.485,-0.0773,2293.0405],[35.4866,-0.0691,2304.5386],[35.4925,-0.0694,2307.7153],[35.5099,-0.0979,2479.0854],[35.5118,-0.1194,2432.3687],[35.522,-0.1191,2400.7065],[35.5306,-0.1299,2377.0938],[35.5288,-0.138,2372.2473],[35.5206,-0.1405,2376.5417],[35.5139,-0.1373,2400.6274],[35.5179,-0.1606,2240.8174],[35.5172,-0.174,2102.874],[35.5127,-0.1841,2019.4851],[35.5094,-0.1827,2006.838],[35.5075,-0.1789,2014.7115],[35.5048,-0.1813,2005.1449],[35.5017,-0.1798,2020.8185],[35.4944,-0.1847,1999.0886],[35.4858,-0.1851,1996.8478],[35.4843,-0.1876,1983.9973],[35.4852,-0.1901,1966.5189],[35.4747,-0.1943,1992.4548],[35.4746,-0.2049,1986.4084],[35.4623,-0.2095,1935.5367],[35.4592,-0.2009,2082.4683],[35.4503,-0.207,1991.4178],[35.4488,-0.2042,1948.79],[35.4467,-0.204,1924.7496],[35.4449,-0.2074,1906.2662],[35.4381,-0.2068,1953.5002],[35.4368,-0.2079,1961.072],[35.4358,-0.2067,1961.072],[35.4299,-0.2086,1946.2365],[35.4245,-0.2112,1914.5989],[35.4227,-0.2177,1884.0747],[35.4129,-0.2214,1926.7281],[35.4119,-0.2204,1925.7151],[35.4108,-0.2226,1911.1591],[35.4055,-0.224,1939.0815],[35.4064,-0.2265,1924.7749],[35.4012,-0.2304,1935.9816],[35.3999,-0.2284,1887.2633],[35.3964,-0.2294,1850.8204],[35.3887,-0.2217,1933.15],[35.3766,-0.2306,1905.1848],[35.368,-0.2344,1871.7405],[35.3641,-0.2388,1795.1821],[35.3554,-0.2365,1660.7074],[35.3519,-0.2337,1686.8082],[35.3518,-0.2307,1670.3027],[35.3463,-0.2285,1749.5499],[35.342,-0.234,1757.626],[35.3212,-0.2417,1669.0386],[35.3239,-0.2462,1606.8748],[35.33,-0.2495,1659.6616],[35.334,-0.248,1784.6582],[35.3352,-0.2495,1792.7866],[35.3372,-0.2491,1794.9977],[35.3382,-0.2476,1786.1427],[35.3396,-0.249,1796.7056],[35.3399,-0.2473,1776.532],[35.3428,-0.2508,1747.3822],[35.3481,-0.251,1750.934],[35.3503,-0.2539,1846.8074],[35.3546,-0.2542,1853.2673],[35.3561,-0.2571,1779.8954],[35.3618,-0.2548,1916.2705],[35.3629,-0.2621,1777.9517],[35.3654,-0.263,1792.0287],[35.3684,-0.262,1894.0908],[35.3713,-0.2631,1917.1195],[35.3723,-0.2613,1918.0837],[35.3747,-0.2625,1936.616],[35.3773,-0.2609,1934.271],[35.385,-0.2617,1952.8809],[35.3882,-0.2587,1999.2671],[35.3969,-0.2568,2027.0576],[35.3966,-0.2557,2043.6442],[35.4008,-0.2531,2070.7346],[35.4054,-0.2538,2033.7084],[35.4103,-0.2487,2017.0538],[35.4146,-0.248,2057.3777],[35.4157,-0.2505,2050.5918],[35.4089,-0.2546,1978.2778],[35.4076,-0.2576,1974.5079],[35.4085,-0.2611,1956.3707],[35.4061,-0.2615,1970.8817],[35.4041,-0.2669,2000.569],[35.4011,-0.2673,2029.5876],[35.3957,-0.2715,2009.6111],[35.3933,-0.271,2004.8746],[35.3879,-0.2757,2002.0543],[35.3877,-0.2787,2031.3545],[35.3848,-0.2812,2039.3077],[35.3746,-0.2856,1955.9878],[35.373,-0.2883,1984.8284],[35.3689,-0.29,1989.7426],[35.3692,-0.2936,1997.765],[35.3625,-0.2967,1968.4304],[35.3637,-0.3006,1982.2284],[35.3508,-0.3026,1978.8644],[35.3423,-0.313,2042.2828],[35.3304,-0.3232,2031.1097],[35.3276,-0.3271,2058.1553],[35.3397,-0.3409,2110.4419],[35.3345,-0.3407,2059.667],[35.3318,-0.3451,2056.3606],[35.3274,-0.3435,2056.1245]]]]}
,"properties": {"GID_2": "KEN.12.4_1","GID_0": "KEN","country": "Kenya","GID_1": "KEN.12_1","province": "Kericho","NL_NAME_1": "NA","county": "KipkelionEast","VARNAME_2": "NA","NL_NAME_2": "NA","TYPE_2": "Constituency","ENGTYPE_2": "Constituency","CC_2": "188","HASC_2": "NA","name": "Kipkelion_East.county","area_km2": 755.3242,"hist_schema_id": "Elevation0-9000","hist_area_km2": {"1500": 0.0212,"1525": 0.106,"1550": 0.1272,"1575": 0.2544,"1600": 0.318,"1625": 0.4664,"1650": 0.4876,"1675": 0.7209,"1700": 0.7421,"1725": 1.1025,"1750": 1.3781,"1775": 1.6326,"1800": 1.887,"1825": 2.5654,"1850": 3.2863,"1875": 4.0284,"1900": 3.88,"1925": 3.7952,"1950": 4.3888,"1975": 7.3783,"2000": 9.6893,"2025": 9.0745,"2050": 12.5728,"2075": 16.8556,"2100": 20.1843,"2125": 19.9935,"2150": 23.2586,"2175": 27.9654,"2200": 29.5768,"2225": 32.015,"2250": 32.7571,"2275": 30.4885,"2300": 40.0507,"2325": 52.03,"2350": 48.4257,"2375": 31.7396,"2400": 30.7855,"2425": 26.7995,"2450": 28.4745,"2475": 24.1917,"2500": 22.6651,"2525": 21.2658,"2550": 22.2623,"2575": 20.2057,"2600": 17.1313,"2625": 11.64,"2650": 11.746,"2675": 9.8802,"2700": 8.9685,"2725": 8.3748,"2750": 7.0391,"2775": 4.8765,"2800": 1.7174,"2825": 0.8693,"2850": 0.5937,"2875": 0.5089,"2900": 0.0848}}}