{"type":"Feature","properties":{"GID_3":"KEN.29.3.2_1","GID_0":"KEN","country":"Kenya","GID_1":"KEN.29_1","province":"Murang'a","NL_NAME_1":"NA","GID_2":"KEN.29.3_1","county":"Kangema","NL_NAME_2":"NA","city":"Muguru","VARNAME_3":"NA","NL_NAME_3":"NA","TYPE_3":"Ward","ENGTYPE_3":"Ward","CC_3":"517","HASC_3":"NA","name":"Muguru.city"},
"geometry":{"type": "MultiPolygon","coordinates": [[[[36.9594,-0.6929,1731.7124],[36.9678,-0.6906,1731.8771],[36.9785,-0.694,1744.8442],[36.9842,-0.6915,1704.759],[36.9891,-0.6915,1686.5432],[36.991,-0.6935,1721.3201],[36.9998,-0.6924,1689.9185],[37.0025,-0.6934,1675.4274],[37.0078,-0.6911,1588.4103],[37.0097,-0.6915,1545.4219],[37.0097,-0.6949,1610.235],[37.0125,-0.6974,1603.0651],[37.0259,-0.6998,1634.0573],[37.0301,-0.6963,1581.8217],[37.0357,-0.6967,1562.0825],[37.0422,-0.694,1491.2273],[37.049,-0.6964,1505.7344],[37.0535,-0.7005,1498.1129],[37.0599,-0.6994,1508.2537],[37.068,-0.7022,1421.8562],[37.0727,-0.6996,1397.2996],[37.0763,-0.7016,1379.5916],[37.0886,-0.7017,1373.1206],[37.0906,-0.7041,1369.7563],[37.0938,-0.7013,1379.7179],[37.0977,-0.7022,1334.2913],[37.0992,-0.7046,1353.3273],[37.1043,-0.7009,1355.6733],[37.1084,-0.7018,1323.0784],[37.1098,-0.7038,1338.6871],[37.1127,-0.7019,1290.4517],[37.1153,-0.7033,1303.6024],[37.1181,-0.7009,1361.3499],[37.1178,-0.6981,1381.9679],[37.1139,-0.6951,1349.145],[37.1106,-0.6957,1376.3533],[37.1068,-0.6932,1363.5026],[37.1042,-0.6879,1352.4744],[37.0959,-0.6848,1390.6184],[37.094,-0.6857,1390.6184],[37.0918,-0.6816,1436.2255],[37.0836,-0.6804,1401.8431],[37.0783,-0.6755,1457.446],[37.0519,-0.6721,1534.6232],[37.0507,-0.6697,1495.1963],[37.0483,-0.6699,1528.807],[37.0425,-0.6665,1514.5635],[37.0344,-0.6685,1565.5541],[37.0312,-0.6669,1549.502],[37.0259,-0.6698,1535.0649],[37.0204,-0.667,1539.498],[37.0181,-0.6683,1576.0874],[37.0147,-0.6657,1598.1506],[37.0141,-0.6619,1578.5775],[37.0112,-0.6623,1614.9042],[37.011,-0.6606,1625.124],[37.0075,-0.6592,1625.8774],[37.005,-0.6534,1664.51],[37.0,-0.6525,1638.3992],[36.9992,-0.6541,1603.6573],[36.9983,-0.6519,1622.8276],[36.9932,-0.6548,1641.9601],[36.9946,-0.6563,1655.6287],[36.9933,-0.6577,1655.6287],[36.9871,-0.6565,1632.5405],[36.9857,-0.6604,1635.1694],[36.9796,-0.6624,1633.064],[36.9698,-0.662,1712.4666],[36.9662,-0.6638,1740.9585],[36.9614,-0.6623,1721.1688],[36.9591,-0.6594,1726.519],[36.9541,-0.6597,1774.7559],[36.9541,-0.6575,1781.5571],[36.952,-0.6573,1803.4578],[36.9514,-0.6595,1835.0922],[36.948,-0.6586,1830.8297],[36.9419,-0.6607,1840.6715],[36.9421,-0.6622,1814.2076],[36.9393,-0.6614,1842.1886],[36.9365,-0.6627,1853.6053],[36.9346,-0.6658,1863.7499],[36.9313,-0.665,1877.5035],[36.9303,-0.6668,1843.5859],[36.9327,-0.6738,1804.4949],[36.9404,-0.676,1839.7169],[36.9381,-0.6867,1817.6448],[36.9414,-0.689,1767.8857],[36.9416,-0.6914,1728.5969],[36.9445,-0.6932,1751.0803],[36.9561,-0.6915,1757.8335],[36.9594,-0.6929,1731.7124]]]]}}