{"type":"Feature","properties":{"GID_3":"KEN.18.6.1_1","GID_0":"KEN","country":"Kenya","GID_1":"KEN.18_1","province":"Kitui","NL_NAME_1":"NA","GID_2":"KEN.18.6_1","county":"MwingiCentral","NL_NAME_2":"NA","city":"Central","VARNAME_3":"NA","NL_NAME_3":"NA","TYPE_3":"Ward","ENGTYPE_3":"Ward","CC_3":"340","HASC_3":"NA","name":"Central.city"},
"geometry":{"type": "MultiPolygon","coordinates": [[[[38.0549,-0.9962,983.0577],[38.0558,-0.9989,982.3613],[38.0613,-1.0008,998.9392],[38.0614,-1.0053,991.7941],[38.0648,-1.004,996.7141],[38.0714,-1.0054,1015.887],[38.0707,-1.0083,1003.7958],[38.0735,-1.0098,1015.0658],[38.0816,-1.0337,1028.0541],[38.0835,-1.035,1012.9873],[38.0901,-1.0334,1078.949],[38.0933,-1.0257,1055.7771],[38.0968,-1.0235,1035.2856],[38.0986,-1.016,980.3643],[38.1026,-1.0152,961.9165],[38.1059,-1.0187,959.1314],[38.1093,-1.0196,939.7047],[38.1104,-1.0159,932.7476],[38.1144,-1.0155,911.4866],[38.1184,-1.012,900.9193],[38.1175,-1.0067,895.4692],[38.1211,-1.0049,877.199],[38.1216,-1.0014,886.2168],[38.1241,-1.0013,881.3469],[38.1261,-0.9993,873.6598],[38.1295,-0.9997,864.1498],[38.1318,-0.9974,877.3776],[38.1354,-0.9971,874.0175],[38.1368,-1.0003,859.7444],[38.1418,-1.0045,869.1983],[38.1479,-1.0064,825.9522],[38.1488,-1.0125,811.3254],[38.1553,-1.0185,799.7289],[38.1557,-1.0259,791.7114],[38.1601,-1.0206,823.5151],[38.1557,-1.0031,869.868],[38.1521,-0.9996,902.7479],[38.148,-0.9908,956.0533],[38.1445,-0.9885,899.7693],[38.1428,-0.9824,876.7933],[38.1308,-0.9758,952.316],[38.128,-0.9707,949.8741],[38.1247,-0.9714,941.886],[38.1229,-0.9744,953.2234],[38.117,-0.9713,943.3955],[38.1113,-0.9634,957.2554],[38.1094,-0.9502,944.343],[38.0978,-0.9445,930.0731],[38.0901,-0.943,947.2995],[38.0894,-0.9352,945.8982],[38.0858,-0.9334,950.0346],[38.0776,-0.9319,969.8646],[38.0654,-0.9353,1007.4843],[38.0602,-0.932,1023.311],[38.0509,-0.9312,1000.3629],[38.0424,-0.9359,952.5329],[38.0455,-0.9374,947.8324],[38.0443,-0.9398,945.562],[38.0458,-0.945,953.2926],[38.0553,-0.9561,959.7161],[38.0549,-0.9635,957.3676],[38.0578,-0.9654,967.3356],[38.0597,-0.9645,973.5383],[38.0593,-0.9765,967.27],[38.0608,-0.9833,969.9924],[38.0586,-0.9849,978.9733],[38.0578,-0.9886,974.5945],[38.0544,-0.9889,984.8428],[38.0571,-0.9915,977.9059],[38.0549,-0.9962,983.0577]]]]}}