{"type":"Feature","properties":{"GID_3":"KEN.39.3.3_1","GID_0":"KEN","country":"Kenya","GID_1":"KEN.39_1","province":"TaitaTaveta","NL_NAME_1":"NA","GID_2":"KEN.39.3_1","county":"Voi","NL_NAME_2":"NA","city":"Marungu","VARNAME_3":"NA","NL_NAME_3":"NA","TYPE_3":"Ward","ENGTYPE_3":"Ward","CC_3":"128","HASC_3":"NA","name":"Marungu.city"},
"geometry":{"type": "MultiPolygon","coordinates": [[[[38.9465,-3.6704,435.4981],[38.7481,-3.5525,515.3479],[38.7163,-3.5909,585.2502],[38.7137,-3.591,590.4955],[38.6953,-3.6122,626.342],[38.6873,-3.6362,695.1018],[38.7252,-3.6909,554.4799],[38.7619,-3.6704,496.9223],[38.8223,-3.7969,464.0519],[38.8071,-3.8241,480.103],[38.8205,-3.8241,466.2443],[38.8415,-3.8302,453.4927],[38.8713,-3.828,432.9932],[38.8815,-3.8305,415.0662],[38.8835,-3.84,419.3806],[38.8901,-3.8543,423.1109],[38.8915,-3.8664,398.2025],[38.9095,-3.9261,389.237],[38.9189,-3.9484,382.1007],[38.9203,-3.9557,382.837],[38.9277,-3.9659,403.5539],[38.9461,-3.9595,749.2744],[39.0353,-3.7582,360.0426],[38.9305,-3.6958,409.6035],[38.9465,-3.6704,435.4981]]]]}}