{"type":"Feature","properties":{"GID_3":"KEN.31.9.6_1","GID_0":"KEN","country":"Kenya","GID_1":"KEN.31_1","province":"Nakuru","NL_NAME_1":"NA","GID_2":"KEN.31.9_1","county":"Njoro","NL_NAME_2":"NA","city":"Njoro","VARNAME_3":"NA","NL_NAME_3":"NA","TYPE_3":"Ward","ENGTYPE_3":"Ward","CC_3":"835","HASC_3":"NA","name":"Njoro.city"},
"geometry":{"type": "MultiPolygon","coordinates": [[[[35.8864,-0.3121,2236.0522],[35.8877,-0.3092,2229.1592],[35.8917,-0.307,2250.7986],[35.8923,-0.3036,2258.6772],[35.898,-0.309,2279.9824],[35.9018,-0.3081,2272.6907],[35.8987,-0.3126,2288.3303],[35.9148,-0.3408,2279.9316],[35.9089,-0.3502,2310.9661],[35.9005,-0.3444,2365.9543],[35.8975,-0.3475,2376.1831],[35.896,-0.3455,2373.626],[35.8837,-0.3493,2382.8076],[35.8821,-0.3582,2403.0037],[35.8931,-0.3674,2396.8938],[35.8914,-0.3682,2422.6152],[35.8949,-0.3713,2410.5474],[35.9154,-0.3835,2342.0815],[35.9208,-0.4077,2434.4351],[35.9217,-0.4063,2416.1545],[35.9268,-0.4054,2402.1494],[35.9296,-0.3976,2349.655],[35.9572,-0.4013,2248.6897],[35.9559,-0.3808,2216.7966],[35.9646,-0.3698,2153.1255],[35.988,-0.3712,2092.8411],[35.9888,-0.3725,2097.2681],[35.9942,-0.3713,2072.4224],[36.0421,-0.3728,1911.4148],[36.0002,-0.3493,2037.4795],[35.9971,-0.3447,2060.1409],[35.9999,-0.3417,2039.2561],[35.9937,-0.336,2071.5889],[35.991,-0.339,2067.8931],[35.9772,-0.3333,2101.8215],[35.9745,-0.3307,2105.7139],[35.9626,-0.3336,2138.4011],[35.9533,-0.3304,2157.4583],[35.9537,-0.3204,2152.3679],[35.9502,-0.3135,2150.5574],[35.942,-0.3096,2148.0376],[35.8979,-0.2781,2124.1033],[35.8958,-0.2827,2134.676],[35.892,-0.2797,2126.2627],[35.8822,-0.2778,2110.3523],[35.8776,-0.2731,2100.2981],[35.8698,-0.2748,2097.1052],[35.8679,-0.2813,2122.717],[35.8684,-0.288,2151.1755],[35.8665,-0.2907,2172.8008],[35.8699,-0.2981,2183.8088],[35.868899999999996,-0.3124,2258.76],[35.8697,-0.3134,2252.6926],[35.87,-0.3108,2226.8813],[35.8724,-0.3098,2238.8037],[35.8814,-0.3108,2228.6931],[35.8845,-0.3128,2236.7681],[35.8864,-0.3121,2236.0522]]]]}}