{"type": "Feature","bbox": [35.4841,-1.1091,35.7556,-0.7937],"geometry": {"type": "MultiPolygon","coordinates": [[[[35.7467,-1.0455,1978.4905],[35.7552,-1.0399,1969.4458],[35.7556,-1.0382,1975.2853],[35.7489,-1.0306,1980.8523],[35.744,-1.0284,1978.9717],[35.7438,-1.0251,1988.0753],[35.7417,-1.0238,1978.8752],[35.7393,-1.0181,1993.7789],[35.7403,-1.0099,1992.614],[35.7389,-1.0019,2005.1589],[35.7366,-0.9998,2014.6777],[35.7393,-0.9946,2015.0083],[35.7381,-0.9925,2011.2173],[35.7395,-0.987,2015.8081],[35.7376,-0.9831,2024.1255],[35.7389,-0.9762,2027.3271],[35.7351,-0.9729,2041.6074],[35.7381,-0.9679,2033.2574],[35.7365,-0.9623,2044.542],[35.7382,-0.9528,2077.3516],[35.741,-0.9512,2070.7092],[35.7426,-0.9475,2065.1636],[35.7405,-0.9384,2069.48],[35.7416,-0.9364,2074.8013],[35.7403,-0.9345,2085.3462],[35.7434,-0.923,2086.8325],[35.7416,-0.9147,2106.7961],[35.7434,-0.9033,2102.1904],[35.7394,-0.8893,2138.3621],[35.7419,-0.8838,2126.3965],[35.7378,-0.8737,2148.9607],[35.737,-0.8623,2153.0227],[35.7354,-0.8591,2197.1033],[35.7372,-0.8537,2208.3108],[35.7403,-0.8502,2177.02],[35.7412,-0.8205,2250.2874],[35.7478,-0.8058,2342.0037],[35.74,-0.7937,2332.512],[35.7345,-0.8009,2275.5957],[35.7122,-0.8136,2263.9038],[35.7093,-0.8302,2195.5723],[35.7066,-0.8348,2231.0439],[35.7034,-0.8392,2188.8379],[35.6894,-0.8478,2201.53],[35.687,-0.8526,2137.0259],[35.6826,-0.8539,2088.8296],[35.6798,-0.8637,2077.2324],[35.6743,-0.8703,2057.9321],[35.6769,-0.8794,2042.8071],[35.6723,-0.919,2094.6272],[35.6753,-0.936,2032.4211],[35.6744,-0.9449,2012.7754],[35.6692,-0.9643,2001.8799],[35.6643,-0.9663,1992.0564],[35.6588,-0.9727,1993.7982],[35.6513,-0.9678,1971.0493],[35.6529,-0.9646,1965.5187],[35.6511,-0.9619,1972.7729],[35.6537,-0.9582,1987.2004],[35.6498,-0.9573,2005.4901],[35.6483,-0.9549,2009.8883],[35.647,-0.956,1997.4746],[35.6458,-0.9548,1997.4746],[35.6449,-0.9567,1970.3228],[35.6412,-0.9547,1978.1611],[35.6439,-0.9539,1971.9],[35.6443,-0.9514,1975.2179],[35.6423,-0.9508,1974.3379],[35.6434,-0.9472,1986.8654],[35.6409,-0.9459,1977.2266],[35.6414,-0.9437,1978.9198],[35.6384,-0.9419,1994.125],[35.6425,-0.9363,1982.5793],[35.6413,-0.9321,2017.463],[35.6323,-0.9264,1995.6824],[35.6257,-0.9259,1991.5413],[35.6177,-0.9319,2028.3875],[35.6022,-0.9329,2071.9414],[35.5882,-0.9332,2037.7101],[35.5539,-0.9277,2022.9514],[35.5528,-0.929,2017.5696],[35.5483,-0.9275,2016.9471],[35.5434,-0.9282,2007.1561],[35.5369,-0.9259,2016.5706],[35.5318,-0.9214,1952.3538],[35.5296,-0.9163,1934.4713],[35.5223,-0.9115,1977.6039],[35.5205,-0.9132,1969.3417],[35.5082,-0.9118,1966.8059],[35.4841,-0.9581,1939.6062],[35.4955,-0.9582,1973.1062],[35.4976,-0.9597,1957.8202],[35.5025,-0.9596,1970.868],[35.5034,-0.958,1976.3062],[35.5077,-0.9601,1975.9237],[35.5206,-0.962,1992.3445],[35.53,-0.9608,1980.5156],[35.5338,-0.9637,1992.4348],[35.5375,-0.9712,1975.8567],[35.5588,-0.9825,2028.5275],[35.5663,-0.9899,2009.2507],[35.5678,-0.9934,2005.8262],[35.567,-0.9977,1997.4993],[35.5625,-1.0089,1993.1207],[35.5664,-1.0192,1976.6279],[35.5659,-1.0239,1974.1747],[35.5642,-1.0281,1975.512],[35.556399999999996,-1.0342,1965.1586],[35.5523,-1.0421,1966.8491],[35.5492,-1.0509,1958.6531],[35.5493,-1.0634,1948.3955],[35.5538,-1.0718,1945.736],[35.5608,-1.0917,1930.667],[35.5679,-1.0946,1934.751],[35.57,-1.1022,1924.5109],[35.5798,-1.1091,1925.1581],[35.6621,-1.0291,1994.6172],[35.6707,-1.0348,1985.7146],[35.6772,-1.0368,1955.1188],[35.6835,-1.0421,1955.7445],[35.6884,-1.0421,1937.4924],[35.6968,-1.0455,1900.0488],[35.6956,-1.0546,1897.9828],[35.6968,-1.0567,1893.3601],[35.6948,-1.0585,1897.0753],[35.6973,-1.0611,1893.7551],[35.6963,-1.0655,1895.8458],[35.7012,-1.0679,1904.902],[35.703,-1.0668,1911.3612],[35.7082,-1.0714,1904.6152],[35.7467,-1.0455,1978.4905]]]]}
,"properties": {"GID_3": "KEN.33.5.5_1","GID_0": "KEN","country": "Kenya","GID_1": "KEN.33_1","province": "Narok","NL_NAME_1": "NA","GID_2": "KEN.33.5_1","county": "NarokSouth","NL_NAME_2": "NA","city": "Ololulung'A","VARNAME_3": "NA","NL_NAME_3": "NA","TYPE_3": "Ward","ENGTYPE_3": "Ward","CC_3": "902","HASC_3": "NA","name": "Ololulung'A.city","area_km2": 411.8357,"hist_schema_id": "Elevation0-9000","hist_area_km2": {"1900": 3.3706,"1925": 16.6834,"1950": 50.8134,"1975": 77.397,"2000": 75.2778,"2025": 66.0143,"2050": 41.9747,"2075": 23.0226,"2100": 13.6525,"2125": 10.7058,"2150": 8.2255,"2175": 6.7203,"2200": 5.7028,"2225": 3.9432,"2250": 2.8196,"2275": 1.8444,"2300": 1.378,"2325": 0.8056,"2350": 0.6784,"2375": 0.424,"2400": 0.2544,"2425": 0.0848,"2450": 0.0424}}}