{"type":"Feature","properties":{"GID_3":"KEN.46.2.2_1","GID_0":"KEN","country":"Kenya","GID_1":"KEN.46_1","province":"Wajir","NL_NAME_1":"NA","GID_2":"KEN.46.2_1","county":"Tarbaj","NL_NAME_2":"NA","city":"Sarman","VARNAME_3":"NA","NL_NAME_3":"NA","TYPE_3":"Ward","ENGTYPE_3":"Ward","CC_3":"173","HASC_3":"NA","name":"Sarman.city"},
"geometry":{"type": "MultiPolygon","coordinates": [[[[39.8267,2.3865,387.2395],[39.8421,2.3801,383.7414],[39.8529,2.3791,383.5339],[39.8655,2.3715,380.2815],[39.8865,2.3717,381.9408],[39.9023,2.3685,381.3132],[39.9325,2.3531,379.8259],[39.9419,2.3529,380.1101],[39.9511,2.3559,380.8055],[39.9625,2.3521,381.8849],[39.9751,2.3451,384.1797],[39.9839,2.3459,387.1333],[40.0735,2.2765,413.3738],[40.1763,2.2979,474.1502],[40.2173,2.3623,510.8281],[40.2145,2.3805,512.6951],[40.2053,2.3901,524.3824],[40.1955,2.4159,532.0657],[40.1993,2.4529,531.9907],[40.1981,2.4657,504.1138],[40.1861,2.4835,492.4156],[40.1552,2.5185,474.8038],[40.1253,2.5401,457.6166],[40.1171,2.5583,453.1541],[40.1253,2.5867,455.4702],[39.8297,2.5767,452.7946],[39.8171,2.4731,429.0581],[39.8215,2.4105,399.8785],[39.8267,2.3865,387.2395]]]]}}