{"type": "Feature","bbox": [36.8937,-1.23,36.9311,-1.2051],"geometry": {"type": "MultiPolygon","coordinates": [[[[36.9124,-1.2051,1547.8998],[36.8962,-1.2117,1570.5278],[36.8937,-1.2141,1581.4049],[36.9019,-1.2163,1596.8364],[36.907,-1.2214,1592.8243],[36.9107,-1.2206,1591.8264],[36.9263,-1.23,1552.1169],[36.9311,-1.2199,1532.1576],[36.9155,-1.2103,1543.9672],[36.9124,-1.2051,1547.8998]]]]}
,"properties": {"GID_3": "KEN.30.9.1_1","GID_0": "KEN","country": "Kenya","GID_1": "KEN.30_1","province": "Nairobi","NL_NAME_1": "NA","GID_2": "KEN.30.9_1","county": "Kasarani","NL_NAME_2": "NA","city": "ClayCity","VARNAME_3": "NA","NL_NAME_3": "NA","TYPE_3": "Ward","ENGTYPE_3": "Ward","CC_3": "1396","HASC_3": "NA","name": "Clay_City.city","area_km2": 4.727026,"hist_schema_id": "Elevation0-9000","hist_area_km2": {"1525": 0.445146,"1550": 2.649679,"1575": 1.271845,"1600": 0.360356}}}