{"type":"Feature","properties":{"GID_3":"KEN.14.3.1_1","GID_0":"KEN","country":"Kenya","GID_1":"KEN.14_1","province":"Kilifi","NL_NAME_1":"NA","GID_2":"KEN.14.3_1","county":"KilifiNorth","NL_NAME_2":"NA","city":"Dabaso","VARNAME_3":"NA","NL_NAME_3":"NA","TYPE_3":"Ward","ENGTYPE_3":"Ward","CC_3":"54","HASC_3":"NA","name":"Dabaso.city"},
"geometry":{"type": "MultiPolygon","coordinates": [[[[39.9757,-3.334,0.0],[39.9718,-3.3343,0.0],[39.9724,-3.3365,0.0],[39.9793,-3.3365,0.0],[39.979,-3.3349,0.0],[39.9757,-3.334,0.0]]],
[[[39.9796,-3.3287,0.0],[39.9763,-3.3296,0.0],[39.9787,-3.3329,0.0],[39.9799,-3.3329,0.0],[39.9796,-3.3287,0.0]]],
[[[40.024,-3.3525,3.5919],[40.0205,-3.3463,10.4381],[40.0135,-3.3425,12.0248],[40.0151,-3.3394,10.9912],[40.0123,-3.3385,12.1358],[40.0111,-3.3031,15.5674],[40.0205,-3.3001,21.9207],[40.0371,-3.2843,21.1953],[40.0451,-3.2686,22.3492],[40.0395,-3.2685,26.9013],[40.0395,-3.2538,35.8077],[40.0125,-3.2433,48.5002],[40.0139,-3.2334,48.1564],[40.0083,-3.2198,47.3604],[39.9867,-3.2139,99.107],[39.9789,-3.2469,63.9329],[39.9179,-3.2506,93.5581],[39.9179,-3.3601,15.1861],[39.9369,-3.3736,1.2468],[39.9413,-3.3719,2.7185],[39.9429,-3.3728,3.5125],[39.9428,-3.376,10.5733],[39.9479,-3.3783,4.8411],[39.9513,-3.3842,4.6191],[39.9615,-3.3875,0.0],[39.9613,-3.3846,0.0],[39.959,-3.3837,7.3838],[39.9574,-3.3743,2.113],[39.9582,-3.3738,2.113],[39.9613,-3.3796,0.0],[39.9629,-3.3796,0.0],[39.9626,-3.3829,0.0],[39.9649,-3.384,0.0],[39.9646,-3.3796,0.0],[39.9668,-3.3782,0.0],[39.9663,-3.3812,0.0],[39.9676,-3.3807,0.0],[39.9696,-3.3729,0.0],[39.9657,-3.3713,0.0],[39.9615,-3.3751,0.0],[39.9629,-3.3715,0.0],[39.9646,-3.3715,0.0],[39.9657,-3.3668,1.6736],[39.966,-3.3535,2.1563],[39.961,-3.349,1.198],[39.9601,-3.3451,2.7447],[39.9571,-3.344,2.5821],[39.9618,-3.3426,0.0],[39.9615,-3.3393,0.3348],[39.9649,-3.3332,0.3361],[39.9637,-3.3318,1.9425],[39.9676,-3.3332,0.0],[39.9721,-3.3301,0.272],[39.9682,-3.3293,0.0],[39.9693,-3.3257,0.1528],[39.9738,-3.3232,0.0],[39.9771,-3.3232,0.0],[39.9782,-3.3215,0.0],[39.9799,-3.3229,0.0],[39.9915,-3.3218,2.1314],[39.986,-3.3268,0.0],[39.9837,-3.3321,1.3809],[39.984,-3.3365,0.0],[39.9896,-3.3451,8.6163],[39.9871,-3.3474,6.5857],[39.9826,-3.3449,0.9622],[39.9821,-3.3499,9.3366],[39.9774,-3.3507,0.6121],[39.9746,-3.3426,2.2839],[39.9721,-3.3404,1.4001],[39.969,-3.3404,2.1243],[39.9657,-3.3443,0.0],[39.9676,-3.3504,0.0],[39.9718,-3.3543,7.1117],[39.9712,-3.3612,2.1596],[39.9732,-3.371,2.4281],[39.9701,-3.3829,1.4952],[39.9704,-3.3887,0.0],[39.9765,-3.3901,0.0],[39.9801,-3.3857,4.5513],[39.9946,-3.3754,6.0415],[40.0068,-3.3615,3.1616],[40.0121,-3.3604,4.9257],[40.0118,-3.3635,1.2697],[40.0129,-3.3637,1.2697],[40.0151,-3.3615,0.0],[40.0132,-3.3585,11.4456],[40.0174,-3.3562,9.5363],[40.0218,-3.3574,3.5562],[40.0238,-3.356,10.2674],[40.024,-3.3525,3.5919]]]]}}