{"type": "Feature","bbox": [34.9125,0.7457,35.0144,0.8457],"geometry": {"type": "MultiPolygon","coordinates": [[[[34.9887,0.758,1669.6997],[34.9912,0.7845,1734.064],[34.9885,0.7848,1734.4827],[35.0144,0.7994,1760.0779],[35.0131,0.8039,1757.848],[35.01,0.807,1748.0862],[35.0127,0.8089,1767.4559],[34.9985,0.8196,1766.9148],[34.99,0.8327,1804.5514],[34.9789,0.8284,1769.7017],[34.9735,0.8457,1799.354],[34.9577,0.8378,1777.0481],[34.9236,0.8242,1699.9056],[34.9203,0.8172,1687.7017],[34.9173,0.8159,1666.9048],[34.9174,0.8097,1668.0629],[34.9157,0.8088,1673.082],[34.9166,0.8064,1673.2787],[34.9128,0.8009,1666.3208],[34.9137,0.7963,1656.9611],[34.9125,0.796,1659.9993],[34.9145,0.7926,1658.3655],[34.9143,0.7879,1654.4044],[34.9173,0.7837,1662.3835],[34.9214,0.784,1682.5112],[34.9225,0.7819,1672.432],[34.9215,0.7807,1672.432],[34.9264,0.7795,1669.3864],[34.9261,0.7768,1653.3975],[34.9286,0.7763,1664.7954],[34.9291,0.7743,1662.8098],[34.9328,0.7745,1671.7334],[34.9373,0.7678,1659.915],[34.9366,0.7625,1639.1664],[34.939,0.7603,1637.3375],[34.9374,0.7597,1637.3375],[34.9394,0.758,1638.4966],[34.9394,0.7533,1632.8601],[34.9408,0.753,1639.2239],[34.9396,0.7515,1633.9128],[34.9407,0.7457,1630.3159],[34.9491,0.7578,1656.3992],[34.9528,0.7557,1645.7489],[34.956,0.758,1652.0977],[34.9565,0.7535,1636.5187],[34.9625,0.7585,1658.4906],[34.9685,0.7571,1668.9937],[34.977,0.7614,1678.4988],[34.981,0.7576,1652.1426],[34.9855,0.7595,1675.4752],[34.9887,0.758,1669.6997]]]]}
,"properties": {"GID_3": "KEN.3.9.6_1","GID_0": "KEN","country": "Kenya","GID_1": "KEN.3_1","province": "Bungoma","NL_NAME_1": "NA","GID_2": "KEN.3.9_1","county": "Tongaren","NL_NAME_2": "NA","city": "Tongaren","VARNAME_3": "NA","NL_NAME_3": "NA","TYPE_3": "Ward","ENGTYPE_3": "Ward","CC_3": "1119","HASC_3": "NA","name": "Tongaren.city","area_km2": 71.5929,"hist_schema_id": "Elevation0-9000","hist_area_km2": {"1625": 0.2544,"1650": 3.41325,"1675": 10.98172,"1700": 16.45135,"1725": 17.34172,"1750": 12.52925,"1775": 5.91481,"1800": 2.968,"1825": 1.7384}}}