{"type": "Feature","bbox": [36.6002,1.1405,36.8751,1.4625],"geometry": {"type": "MultiPolygon","coordinates": [[[[36.874,1.3443,1115.4574],[36.8728,1.3451,1126.4292],[36.8679,1.3414,1136.3011],[36.8619,1.3416,1158.6752],[36.8552,1.347,1178.6497],[36.8536,1.3502,1158.8043],[36.8567,1.3557,1136.5618],[36.8561,1.3759,1154.4337],[36.8697,1.3903,1118.1486],[36.8642,1.4029,1207.837],[36.8592,1.4074,1211.5969],[36.8567,1.417,1201.4727],[36.8509,1.4173,1218.6777],[36.8448,1.4299,1188.6749],[36.8454,1.4372,1171.146],[36.8434,1.4424,1152.7555],[36.8518,1.4553,1106.8552],[36.8531,1.4625,1187.3136],[36.8435,1.4596,1126.5978],[36.8385,1.4564,1152.3422],[36.837,1.449,1135.4534],[36.8327,1.4455,1148.8807],[36.8344,1.4415,1146.1315],[36.8325,1.4356,1145.3696],[36.8302,1.4339,1154.4534],[36.8307,1.4318,1153.7737],[36.8257,1.4254,1190.4081],[36.8175,1.4203,1252.7334],[36.8145,1.4204,1260.3154],[36.8133,1.4184,1221.6653],[36.8052,1.4216,1236.356],[36.8026,1.4239,1267.8193],[36.803,1.4272,1297.1372],[36.8007,1.4263,1285.5925],[36.7958,1.4315,1305.3077],[36.7895,1.4316,1284.1321],[36.7874,1.4346,1276.3005],[36.7826,1.4343,1281.5155],[36.7811,1.4372,1324.2238],[36.7679,1.435,1505.863],[36.7641,1.4382,1536.5918],[36.7592,1.4369,1548.701],[36.7576,1.4387,1577.7783],[36.7544,1.4371,1585.438],[36.7476,1.4384,1608.4596],[36.739,1.4368,1592.8125],[36.7382,1.4352,1595.1354],[36.7343,1.4354,1567.0654],[36.7328,1.4379,1584.856],[36.7295,1.4382,1584.353],[36.7246,1.4363,1576.0527],[36.7201,1.4304,1573.0543],[36.7095,1.4262,1616.2869],[36.7034,1.4181,1616.8506],[36.7017,1.4109,1615.9146],[36.6929,1.4089,1653.2063],[36.6919,1.4063,1637.6042],[36.6844,1.4043,1690.4865],[36.6814,1.4018,1691.1543],[36.6788,1.4017,1686.241],[36.6769,1.405,1697.3032],[36.6735,1.4053,1688.303],[36.6643,1.4005,1797.3407],[36.6607,1.404,1779.6532],[36.6566,1.4005,1807.0519],[36.657,1.398,1796.0977],[36.6528,1.3932,1774.369],[36.653,1.3898,1801.2356],[36.6496,1.3908,1768.1144],[36.6524,1.3864,1784.8895],[36.6489,1.3843,1789.1328],[36.6453,1.3866,1835.9402],[36.6423,1.3851,1817.9312],[36.6407,1.3817,1843.4111],[36.633,1.3805,1851.7375],[36.6241,1.3769,1916.1604],[36.6223,1.3739,1928.3186],[36.6223,1.369,1867.5599],[36.6272,1.3654,1899.78],[36.6269,1.3576,1937.9962],[36.63,1.3576,1928.2772],[36.6319,1.3492,1920.9614],[36.6304,1.3474,1947.7853],[36.6318,1.3447,1964.2103],[36.6281,1.3378,1953.1853],[36.6275,1.3318,2021.7419],[36.6229,1.327,2085.1106],[36.6195,1.3146,2034.3242],[36.6151,1.31,2173.0869],[36.616,1.3075,2158.8384],[36.6219,1.3096,2022.2634],[36.6191,1.3035,2111.0669],[36.6197,1.2989,2163.4775],[36.6161,1.2807,2273.0723],[36.6053,1.273,2215.853],[36.6002,1.2626,2221.6506],[36.6024,1.2569,2308.6663],[36.602,1.2511,2360.2896],[36.609,1.244,2401.739],[36.6048,1.2374,2442.2715],[36.6075,1.2213,2531.1887],[36.612,1.2179,2440.1704],[36.6124,1.2112,2442.0947],[36.6188,1.2004,2434.1362],[36.618,1.1805,2387.335],[36.7057,1.1809,2103.7424],[36.7378,1.1405,2021.3162],[36.7456,1.1503,2022.8879],[36.7489,1.1629,2019.7682],[36.7565,1.1675,2062.6753],[36.7733,1.172,1911.1382],[36.7755,1.1762,1875.0023],[36.7734,1.1874,1900.4764],[36.7699,1.1924,1930.6702],[36.7682,1.1922,1780.1796],[36.7691,1.1951,1948.1389],[36.767,1.1957,1849.969],[36.7654,1.1996,1805.0211],[36.7637,1.1997,1727.6411],[36.7625,1.205,1617.7289],[36.7585,1.2081,1500.3372],[36.7576,1.216,1488.0803],[36.7593,1.2196,1464.5948],[36.759,1.2273,1453.0719],[36.756,1.2329,1436.4385],[36.7566,1.2369,1434.3303],[36.7547,1.2461,1415.5559],[36.7577,1.2497,1420.9602],[36.7571,1.2531,1408.9943],[36.7599,1.2559,1391.1846],[36.759,1.2575,1404.9052],[36.7604,1.2615,1396.9414],[36.759,1.2628,1417.5188],[36.7613,1.2637,1389.9362],[36.7609,1.2663,1397.7292],[36.7659,1.2687,1370.2211],[36.7654,1.2723,1369.3462],[36.7698,1.2747,1352.7809],[36.7696,1.2771,1350.4625],[36.7725,1.2814,1328.813],[36.776,1.2822,1320.5621],[36.7755,1.2846,1303.1919],[36.779,1.2881,1303.1239],[36.7751,1.2978,1315.08],[36.7788,1.3,1282.8804],[36.7803,1.3047,1301.1428],[36.7868,1.3036,1276.5247],[36.7909,1.3069,1289.6396],[36.7944,1.3036,1268.158],[36.7956,1.3062,1257.1526],[36.7997,1.3076,1261.4932],[36.8209,1.3085,1214.92],[36.8209,1.3102,1219.6995],[36.8232,1.3097,1214.6703],[36.829,1.3158,1208.8855],[36.839,1.3187,1181.9519],[36.8398,1.3219,1172.8971],[36.8429,1.3228,1158.6917],[36.845,1.3273,1180.9911],[36.8487,1.3284,1166.7804],[36.8498,1.3305,1167.2059],[36.8531,1.3302,1157.8022],[36.8657,1.3351,1119.7379],[36.8678,1.3382,1116.8138],[36.8744,1.3369,1098.5581],[36.8751,1.3426,1102.8871],[36.874,1.3443,1115.4574]]]]}
,"properties": {"GID_3": "KEN.37.2.1_1","GID_0": "KEN","country": "Kenya","GID_1": "KEN.37_1","province": "Samburu","NL_NAME_1": "NA","GID_2": "KEN.37.2_1","county": "SamburuNorth","NL_NAME_2": "NA","city": "AngataNanyokie","VARNAME_3": "NA","NL_NAME_3": "NA","TYPE_3": "Ward","ENGTYPE_3": "Ward","CC_3": "670","HASC_3": "NA","name": "Angata_Nanyokie.city","area_km2": 580.1097,"hist_schema_id": "Elevation0-9000","hist_area_km2": {"1100": 0.3179,"1125": 3.031,"1150": 7.1854,"1175": 12.76,"1200": 17.8895,"1225": 19.2672,"1250": 18.377,"1275": 15.6852,"1300": 14.3075,"1325": 15.5581,"1350": 13.7777,"1375": 14.3288,"1400": 11.4037,"1425": 10.7891,"1450": 12.3788,"1475": 12.8027,"1500": 12.5483,"1525": 16.6178,"1550": 9.1991,"1575": 10.0893,"1600": 7.6942,"1625": 5.5323,"1650": 5.0659,"1675": 5.0659,"1700": 5.3203,"1725": 5.1719,"1750": 5.3415,"1775": 5.9774,"1800": 6.4861,"1825": 7.3552,"1850": 7.8215,"1875": 8.9449,"1900": 10.4075,"1925": 10.4711,"1950": 9.7505,"1975": 11.7006,"2000": 9.5598,"2025": 9.9837,"2050": 10.4501,"2075": 9.8566,"2100": 11.1708,"2125": 11.7855,"2150": 15.5798,"2175": 9.1784,"2200": 9.8355,"2225": 10.4714,"2250": 11.7857,"2275": 10.9802,"2300": 9.8144,"2325": 9.454,"2350": 8.5002,"2375": 9.454,"2400": 9.6024,"2425": 8.3306,"2450": 7.6522,"2475": 7.0375,"2500": 5.914,"2525": 3.7731,"2550": 2.1621,"2575": 0.9327,"2600": 0.4027,"2625": 0.0212}}}