{"type": "Feature","bbox": [37.6151,0.1965,37.7815,0.3265],"geometry": {"type": "MultiPolygon","coordinates": [[[[37.6151,0.3223,1155.1721],[37.6163,0.3149,1163.9695],[37.619,0.3113,1169.2888],[37.6217,0.3031,1179.3907],[37.6421,0.2821,1205.7782],[37.6431,0.2801,1211.3998],[37.6421,0.2763,1216.8231],[37.6455,0.2671,1231.8804],[37.6662,0.2763,1229.9027],[37.6699,0.2753,1235.194],[37.6765,0.2693,1236.8778],[37.6943,0.2431,1280.1591],[37.7127,0.2215,1308.4467],[37.7223,0.2173,1340.2606],[37.7339,0.2147,1327.6953],[37.7435,0.2093,1343.153],[37.7479,0.2027,1370.7264],[37.7573,0.2029,1391.7609],[37.7649,0.1973,1412.631],[37.7685,0.1965,1413.7469],[37.7815,0.2049,1461.1625],[37.7779,0.2101,1558.8765],[37.7677,0.2177,1421.7452],[37.7497,0.2269,1345.1378],[37.7323,0.2403,1314.3271],[37.7307,0.2427,1309.1886],[37.7315,0.2501,1332.7997],[37.7349,0.2519,1294.0334],[37.7368,0.2564,1268.0479],[37.7294,0.2696,1246.1819],[37.7303,0.2721,1236.343],[37.7277,0.2789,1223.8927],[37.7253,0.2811,1222.2902],[37.7167,0.2833,1207.6462],[37.7143,0.2879,1191.2915],[37.7095,0.2857,1203.6844],[37.7055,0.2861,1200.1211],[37.6925,0.2915,1186.6084],[37.6861,0.2979,1175.0591],[37.6755,0.3003,1161.7498],[37.6565,0.3119,1141.3733],[37.6509,0.3175,1136.573],[37.6435,0.3211,1135.2098],[37.6335,0.3195,1127.4543],[37.6155,0.3265,1148.3969],[37.6151,0.3223,1155.1721]]]]}
,"properties": {"GID_3": "KEN.26.9.2_1","GID_0": "KEN","country": "Kenya","GID_1": "KEN.26_1","province": "Meru","NL_NAME_1": "NA","GID_2": "KEN.26.9_1","county": "TiganiaWest","NL_NAME_2": "NA","city": "Athwana","VARNAME_3": "NA","NL_NAME_3": "NA","TYPE_3": "Ward","ENGTYPE_3": "Ward","CC_3": "266","HASC_3": "NA","name": "Athwana.city","area_km2": 73.63447,"hist_schema_id": "Elevation0-9000","hist_area_km2": {"1125": 0.65726,"1150": 7.16624,"1175": 9.62567,"1200": 9.71049,"1225": 9.26526,"1250": 7.5055,"1275": 7.56911,"1300": 5.76695,"1325": 7.20869,"1350": 2.58665,"1375": 3.30752,"1400": 1.10251,"1425": 0.82688,"1450": 0.40284,"1475": 0.25442,"1500": 0.19082,"1525": 0.16962,"1550": 0.06361,"1575": 0.06361,"1600": 0.08481,"1625": 0.10601}}}