{"type":"Feature","properties":{"GID_3":"KEN.45.3.4_1","GID_0":"KEN","country":"Kenya","GID_1":"KEN.45_1","province":"Vihiga","NL_NAME_1":"NA","GID_2":"KEN.45.3_1","county":"Luanda","NL_NAME_2":"NA","city":"Mwibona","VARNAME_3":"NA","NL_NAME_3":"NA","TYPE_3":"Ward","ENGTYPE_3":"Ward","CC_3":"1070","HASC_3":"NA","name":"Mwibona.city"},
"geometry":{"type": "MultiPolygon","coordinates": [[[[34.541,-0.0006,1407.7927],[34.5429,-0.0004,1386.4963],[34.5452,0.0041,1404.496],[34.5489,0.0067,1395.3989],[34.5512,0.0051,1417.5416],[34.5567,0.0068,1433.7192],[34.5604,0.0055,1454.069],[34.5688,0.0059,1474.0686],[34.573,0.0038,1444.1809],[34.5778,0.0062,1477.2963],[34.5797,0.0108,1462.7546],[34.5897,0.0172,1510.4919],[34.5941,0.0235,1498.8276],[34.5894,0.0237,1520.7736],[34.5894,0.0267,1507.2662],[34.587,0.029,1494.2526],[34.5823,0.0263,1518.5197],[34.5763,0.0266,1497.5591],[34.5802,0.0333,1501.1576],[34.5836,0.0332,1494.0112],[34.5674,0.0445,1532.7646],[34.5602,0.0521,1482.1843],[34.556,0.0525,1472.7653],[34.5525,0.0474,1498.9695],[34.5521,0.0403,1462.0256],[34.5495,0.0395,1462.189],[34.5501,0.0295,1517.9255],[34.5482,0.023,1433.0546],[34.543,0.0193,1420.5623],[34.544,0.0145,1387.4849],[34.5336,0.009,1380.4652],[34.5369,0.0052,1446.9828],[34.5412,0.0032,1433.4],[34.541,-0.0006,1407.7927]]]]}}