{"type": "Feature","bbox": [34.7993,0.5807,34.8956,0.6557],"geometry": {"type": "MultiPolygon","coordinates": [[[[34.8415,0.6557,1540.5151],[34.8326,0.6514,1555.5028],[34.836,0.6421,1537.177],[34.833,0.6387,1538.1925],[34.8323,0.6309,1537.4924],[34.823,0.6232,1529.8126],[34.8197,0.6238,1551.1146],[34.8147,0.6209,1559.0161],[34.8086,0.6115,1530.2689],[34.8029,0.6111,1538.4795],[34.8023,0.6072,1532.6876],[34.7993,0.6041,1525.7078],[34.8101,0.5943,1509.9724],[34.8102,0.5922,1496.1399],[34.8139,0.5881,1484.3325],[34.8192,0.5857,1534.8416],[34.8204,0.5807,1523.1917],[34.8336,0.585,1558.2288],[34.8405,0.5835,1552.8049],[34.8458,0.5857,1558.8159],[34.8488,0.5841,1566.1492],[34.8531,0.5854,1575.3551],[34.8583,0.5883,1559.3356],[34.8592,0.5924,1559.1246],[34.86,0.5889,1547.5879],[34.862,0.5893,1556.1938],[34.8733,0.5951,1683.1755],[34.8737,0.5978,1637.6143],[34.8752,0.5936,1630.3645],[34.8763,0.594,1618.0326],[34.8732,0.6005,1656.6381],[34.8867,0.6086,1693.7932],[34.8889,0.6084,1701.6936],[34.8882,0.605,1713.6431],[34.8956,0.6073,1727.8136],[34.8415,0.6557,1540.5151]]]]}
,"properties": {"GID_3": "KEN.11.4.2_1","GID_0": "KEN","country": "Kenya","GID_1": "KEN.11_1","province": "Kakamega","NL_NAME_1": "NA","GID_2": "KEN.11.4_1","county": "Lugari","NL_NAME_2": "NA","city": "Lwandeti","VARNAME_3": "NA","NL_NAME_3": "NA","TYPE_3": "Ward","ENGTYPE_3": "Ward","CC_3": "996","HASC_3": "NA","name": "Lwandeti.city","area_km2": 43.82246,"hist_schema_id": "Elevation0-9000","hist_area_km2": {"1475": 0.0212,"1500": 1.18726,"1525": 9.11643,"1550": 10.26128,"1575": 8.11998,"1600": 5.66066,"1625": 4.11299,"1650": 2.60772,"1675": 1.39927,"1700": 0.89044,"1725": 0.44522}}}