{"type":"Feature","properties":{"GID_3":"KEN.13.11.3_1","GID_0":"KEN","country":"Kenya","GID_1":"KEN.13_1","province":"Kiambu","NL_NAME_1":"NA","GID_2":"KEN.13.11_1","county":"Ruiru","NL_NAME_2":"NA","city":"Kiuu","VARNAME_3":"NA","NL_NAME_3":"NA","TYPE_3":"Ward","ENGTYPE_3":"Ward","CC_3":"574","HASC_3":"NA","name":"Kiuu.city"},
"geometry":{"type": "MultiPolygon","coordinates": [[[[36.9629,-1.1437,1515.0295],[36.9567,-1.163,1534.2756],[36.9429,-1.1718,1532.0544],[36.9124,-1.2051,1547.8998],[36.9155,-1.2103,1543.9672],[36.9314,-1.2201,1533.2523],[36.9376,-1.2192,1532.4825],[36.949,-1.2246,1518.7894],[36.9531,-1.2242,1526.3081],[36.9568,-1.2271,1523.0861],[36.9612,-1.2252,1514.255],[36.9694,-1.2269,1519.1296],[36.9774,-1.2223,1507.5808],[36.9864,-1.221,1500.8462],[36.9915,-1.2228,1498.1226],[36.9951,-1.2303,1497.3673],[37.004,-1.234,1492.52],[37.0107,-1.234,1489.9368],[37.0127,-1.2328,1488.9977],[37.0129,-1.2284,1488.688],[37.0145,-1.2265,1487.4957],[37.0165,-1.2265,1486.834],[37.0173,-1.2246,1487.1001],[37.0222,-1.2249,1486.2003],[37.0228,-1.2217,1486.1161],[37.0307,-1.2181,1483.5186],[37.0335,-1.2134,1482.3987],[37.0379,-1.21,1479.8998],[37.0535,-1.2041,1478.0808],[37.0576,-1.2066,1476.5063],[37.0627,-1.2027,1474.9309],[37.0803,-1.2349,1489.3396],[37.0882,-1.2311,1485.9041],[37.0948,-1.2423,1489.3829],[37.0863,-1.2463,1486.3728],[37.1016,-1.2596,1464.5203],[37.1026,-1.2579,1461.8441],[37.1097,-1.2567,1462.8909],[37.1093,-1.2449,1470.4641],[37.1161,-1.2462,1470.4888],[37.119,-1.245,1458.6488],[37.1185,-1.2357,1469.1931],[37.1206,-1.2327,1467.3505],[37.1261,-1.2306,1475.0073],[37.1358,-1.2309,1468.3203],[37.1406,-1.2239,1468.2924],[37.1508,-1.2233,1461.5016],[37.1551,-1.2181,1447.9242],[37.1559,-1.2098,1468.4517],[37.1528,-1.2075,1472.6162],[37.1555,-1.2044,1469.3945],[37.1596,-1.2033,1443.8458],[37.1563,-1.1969,1440.236],[37.1537,-1.1986,1448.7809],[37.1499,-1.1973,1471.3406],[37.1431,-1.1992,1466.9832],[37.138,-1.196,1471.3142],[37.134,-1.2018,1450.3247],[37.131,-1.2028,1458.1406],[37.127,-1.1964,1447.7239],[37.1232,-1.194,1466.2244],[37.1183,-1.1965,1445.2582],[37.1148,-1.1899,1455.0801],[37.1115,-1.1873,1448.0494],[37.111,-1.1836,1469.8438],[37.1001,-1.1828,1455.5229],[37.0956,-1.179,1448.1082],[37.0933,-1.174,1450.9636],[37.0842,-1.1677,1467.6743],[37.0799,-1.168,1449.7687],[37.079,-1.1668,1450.7039],[37.0729,-1.168,1454.45],[37.0705,-1.1656,1477.5659],[37.0696,-1.1691,1456.7072],[37.0662,-1.1685,1477.7467],[37.0633,-1.1713,1460.1354],[37.0613,-1.1686,1478.6274],[37.0554,-1.1688,1479.4297],[37.047,-1.1735,1474.2175],[37.0443,-1.1719,1481.4048],[37.042,-1.1732,1478.2966],[37.036,-1.1722,1484.567],[37.0228,-1.1752,1485.8606],[37.021,-1.1734,1491.3374],[37.0147,-1.1733,1490.0925],[37.0108,-1.1708,1496.7112],[37.0082,-1.1716,1492.197],[36.9986,-1.1646,1497.2133],[36.9978,-1.1657,1497.2133],[36.9933,-1.162,1494.7966],[36.994,-1.1595,1498.5955],[36.9925,-1.156,1506.0137],[36.9869,-1.1536,1497.4263],[36.9852,-1.1509,1515.6056],[36.9798,-1.1504,1507.075],[36.9781,-1.1477,1518.9954],[36.9741,-1.1486,1517.8821],[36.9686,-1.1471,1523.4924],[36.9646,-1.1454,1518.1893],[36.9639,-1.143,1515.0295],[36.9629,-1.1437,1515.0295]]]]}}