{"type": "Feature","bbox": [40.2127,-2.4338,40.5407,-1.9684],"geometry": {"type": "MultiPolygon","coordinates": [[[[40.2129,-2.0397,30.8056],[40.2503,-2.2475,16.3947],[40.2509,-2.3976,7.8335],[40.2993,-2.3992,7.9435],[40.3453,-2.3986,3.9092],[40.3489,-2.401,3.4762],[40.3483,-2.405,4.1312],[40.3546,-2.4121,3.2895],[40.3577,-2.4146,3.1059],[40.3655,-2.417,3.9029],[40.3705,-2.4223,3.3141],[40.3811,-2.4218,2.2943],[40.3839,-2.4256,2.4507],[40.3969,-2.4302,1.9478],[40.4059,-2.4299,2.0365],[40.4064,-2.4338,1.8025],[40.4121,-2.4243,6.3076],[40.4249,-2.4213,7.0229],[40.4271,-2.4177,8.9011],[40.4331,-2.4166,3.2119],[40.4437,-2.4079,9.3524],[40.4457,-2.4034,3.7067],[40.4431,-2.4,4.5796],[40.5273,-2.4246,17.2356],[40.5341,-2.3992,25.2294],[40.5373,-2.3975,19.5724],[40.5379,-2.3744,18.0859],[40.5407,-2.372,20.7176],[40.5379,-2.3737,18.0859],[40.5363,-2.3519,17.9056],[40.5313,-2.3442,15.1955],[40.5297,-2.2277,22.2176],[40.5095,-2.2217,24.9956],[40.4803,-2.1809,32.6552],[40.4659,-2.1798,31.1002],[40.4617,-2.1744,30.9822],[40.4597,-2.1634,27.4222],[40.4559,-2.1595,28.6004],[40.4551,-2.1535,30.0514],[40.4497,-2.1471,30.4485],[40.4445,-2.137,32.1421],[40.4425,-2.1253,34.3924],[40.4403,-2.1216,35.2049],[40.4441,-2.1082,36.9802],[40.4541,-2.0932,43.707],[40.4527,-2.0818,41.9357],[40.4501,-2.0747,43.2341],[40.4397,-2.0703,45.3184],[40.4294,-2.0691,47.628],[40.4065,-2.0417,49.9752],[40.3997,-2.0362,54.6885],[40.3935,-2.034,53.2609],[40.3799,-2.0189,53.0509],[40.368899999999996,-2.0026,54.0675],[40.3627,-1.9755,57.5172],[40.3595,-1.9684,53.5526],[40.2151,-2.0355,31.5682],[40.2127,-2.0375,30.6117],[40.2129,-2.0397,30.8056]]]]}
,"properties": {"GID_3": "KEN.21.2.7_1","GID_0": "KEN","country": "Kenya","GID_1": "KEN.21_1","province": "Lamu","NL_NAME_1": "NA","GID_2": "KEN.21.2_1","county": "LamuWest","NL_NAME_2": "NA","city": "Witu","VARNAME_3": "NA","NL_NAME_3": "NA","TYPE_3": "Ward","ENGTYPE_3": "Ward","CC_3": "109","HASC_3": "NA","name": "Witu.city","area_km2": 1246.088,"hist_schema_id": "Elevation0-9000","hist_area_km2": {"0": 164.7067,"25": 905.5805,"50": 162.5789,"75": 13.2219}}}