{"type":"Feature","properties":{"GID_3":"KEN.34.2.2_1","GID_0":"KEN","country":"Kenya","GID_1":"KEN.34_1","province":"Nyamira","NL_NAME_1":"NA","GID_2":"KEN.34.2_1","county":"KitutuMasaba","NL_NAME_2":"NA","city":"Gesima","VARNAME_3":"NA","NL_NAME_3":"NA","TYPE_3":"Ward","ENGTYPE_3":"Ward","CC_3":"1351","HASC_3":"NA","name":"Gesima.city"},
"geometry":{"type": "MultiPolygon","coordinates": [[[[35.0179,-0.6708,2072.1748],[35.0118,-0.6726,2050.3525],[34.9915,-0.669,1937.4958],[34.9712,-0.6714,1924.0367],[34.966,-0.6665,1889.663],[34.9514,-0.6641,1869.2021],[34.9476,-0.6604,1893.9272],[34.9418,-0.6639,1858.3438],[34.936,-0.6776,1868.5087],[34.931,-0.6828,1881.0001],[34.925,-0.6855,1869.5803],[34.9196,-0.6845,1852.334],[34.9178,-0.6875,1856.5381],[34.9124,-0.6863,1888.6001],[34.9086,-0.6919,1875.3544],[34.9122,-0.6941,1850.7898],[34.9189,-0.6924,1843.5818],[34.9392,-0.7082,1863.0378],[34.9456,-0.7098,1876.6091],[34.9532,-0.7188,1875.6226],[34.9611,-0.723,1907.7925],[34.9715,-0.7379,1946.895],[34.9817,-0.7427,2003.855],[34.9938,-0.7189,2057.4822],[35.0002,-0.7145,2015.0491],[35.0064,-0.7037,2155.0022],[35.0115,-0.7033,2167.5542],[35.0129,-0.7015,2160.6074],[35.0162,-0.6846,2134.9746],[35.0199,-0.6762,2099.7976],[35.0179,-0.6708,2072.1748]]]]}}