{"type":"Feature","properties":{"GID_3":"KEN.36.3.1_1","GID_0":"KEN","country":"Kenya","GID_1":"KEN.36_1","province":"Nyeri","NL_NAME_1":"NA","GID_2":"KEN.36.3_1","county":"Mukurweini","NL_NAME_2":"NA","city":"Gikondi","VARNAME_3":"NA","NL_NAME_3":"NA","TYPE_3":"Ward","ENGTYPE_3":"Ward","CC_3":"487","HASC_3":"NA","name":"Gikondi.city"},
"geometry":{"type": "MultiPolygon","coordinates": [[[[37.139,-0.6328,1414.4438],[37.1317,-0.6306,1390.9924],[37.1262,-0.6258,1425.9467],[37.1207,-0.6247,1422.0447],[37.1206,-0.6204,1443.1338],[37.1183,-0.6186,1472.8344],[37.1072,-0.6162,1489.8494],[37.1067,-0.6143,1488.3865],[37.1036,-0.6134,1530.6433],[37.1003,-0.6156,1506.2156],[37.0964,-0.6145,1484.9473],[37.0943,-0.6109,1489.0964],[37.0901,-0.6099,1505.7703],[37.0895,-0.6084,1508.0863],[37.0931,-0.6023,1555.6614],[37.088,-0.5991,1501.6874],[37.085,-0.5885,1535.8647],[37.0756,-0.5818,1584.0876],[37.0757,-0.5776,1644.6272],[37.0733,-0.5758,1580.8517],[37.0713,-0.5701,1660.9746],[37.0691,-0.572,1638.2031],[37.0666,-0.57,1673.558],[37.0634,-0.5703,1645.6912],[37.0622,-0.5664,1682.705],[37.0524,-0.5674,1686.6548],[37.0475,-0.5663,1719.9868],[37.0443,-0.5632,1732.7898],[37.0354,-0.5629,1719.035],[37.0277,-0.5589,1707.1702],[37.0235,-0.5605,1707.8105],[37.0109,-0.561,1792.1101],[37.0033,-0.5645,1802.4114],[36.9943,-0.572,1785.875],[36.9972,-0.58,1802.2917],[37.016,-0.5796,1718.8748],[37.0261,-0.586,1668.0021],[37.0343,-0.5856,1670.5203],[37.0489,-0.59,1627.5874],[37.056399999999996,-0.5979,1628.5657],[37.0593,-0.6057,1541.9634],[37.0634,-0.6075,1584.8632],[37.0676,-0.6055,1561.7168],[37.0756,-0.611,1524.1821],[37.0782,-0.6105,1507.0154],[37.0793,-0.6145,1532.4941],[37.0826,-0.6146,1523.277],[37.0855,-0.6191,1507.6464],[37.0878,-0.6179,1471.6222],[37.0951,-0.6202,1459.1964],[37.0961,-0.6223,1467.8435],[37.0993,-0.6219,1475.9404],[37.1026,-0.6256,1478.3213],[37.1008,-0.6279,1456.8306],[37.1015,-0.6325,1449.6984],[37.1148,-0.6368,1392.6503],[37.1183,-0.64,1409.2632],[37.1277,-0.6397,1408.3301],[37.139,-0.6328,1414.4438]]]]}}