{"type": "Feature","bbox": [37.5957,-1.6426,37.9003,-1.08],"geometry": {"type": "MultiPolygon","coordinates": [[[[37.8678,-1.3606,1041.2112],[37.8648,-1.3605,1030.0098],[37.8614,-1.3576,1075.359],[37.8641,-1.3542,1044.7983],[37.8608,-1.3517,1056.9055],[37.8289,-1.3532,1134.1024],[37.8293,-1.3471,1137.1846],[37.8202,-1.3192,1137.5966],[37.7931,-1.2867,1150.4542],[37.7816,-1.2763,1159.5902],[37.7803,-1.2727,1168.8071],[37.7758,-1.2514,1191.6617],[37.7762,-1.1893,1212.0707],[37.7735,-1.1832,1205.4431],[37.7736,-1.1767,1204.2798],[37.7754,-1.172,1193.6777],[37.7746,-1.1671,1194.1208],[37.7768,-1.1599,1189.8198],[37.7768,-1.149,1184.9492],[37.7857,-1.1397,1165.0819],[37.7939,-1.125,1158.2831],[37.7336,-1.08,1488.9043],[37.5957,-1.0868,1195.8677],[37.5977,-1.1312,1245.4011],[37.6006,-1.1311,1243.8977],[37.6031,-1.1341,1235.85],[37.6056,-1.1423,1222.2046],[37.6111,-1.1403,1220.7898],[37.6125,-1.1422,1217.4763],[37.6177,-1.1426,1218.491],[37.6243,-1.1472,1210.8176],[37.6261,-1.152,1204.9648],[37.6347,-1.1615,1198.5975],[37.6384,-1.1685,1195.7485],[37.6438,-1.1835,1187.1707],[37.6475,-1.1886,1189.4702],[37.6497,-1.1969,1179.748],[37.6548,-1.2002,1182.184],[37.6561,-1.2057,1174.4921],[37.6615,-1.2104,1171.9639],[37.6637,-1.2158,1169.7571],[37.6668,-1.2164,1172.9071],[37.6652,-1.2188,1163.2487],[37.6715,-1.2245,1165.0918],[37.6716,-1.2267,1159.6633],[37.6729,-1.2262,1164.1707],[37.6754,-1.2291,1155.4236],[37.6756,-1.2314,1151.7339],[37.6781,-1.2332,1151.6848],[37.6844,-1.2341,1161.1665],[37.6886,-1.2395,1145.8262],[37.6897,-1.2417,1143.6025],[37.688,-1.2454,1149.5493],[37.6909,-1.2469,1151.6335],[37.6891,-1.2484,1139.2971],[37.6936,-1.2493,1154.022],[37.6938,-1.2574,1135.8563],[37.6979,-1.2655,1132.4103],[37.6966,-1.268,1134.7915],[37.6986,-1.2709,1127.6318],[37.7026,-1.2717,1129.25],[37.7027,-1.2751999999999999,1125.1295],[37.7067,-1.2792,1117.4404],[37.7085,-1.2891,1112.4374],[37.7139,-1.2904,1122.4991],[37.7136,-1.2985,1112.9022],[37.7174,-1.2992,1116.9801],[37.7172,-1.3031,1106.2397],[37.7217,-1.3121,1102.8888],[37.7251,-1.3135,1108.8102],[37.7239,-1.3169,1096.2214],[37.7257,-1.3197,1097.028],[37.7241,-1.3223,1097.0847],[37.7261,-1.3236,1101.2749],[37.7326,-1.336,1092.9579],[37.7327,-1.3413,1091.3706],[37.7381,-1.3418,1091.2345],[37.7398,-1.3476,1087.0254],[37.7453,-1.3512,1085.801],[37.7448,-1.3565,1081.1123],[37.7489,-1.3577,1091.542],[37.7543,-1.3547,1084.5786],[37.7555,-1.3573,1075.2365],[37.7595,-1.3549,1088.9735],[37.7657,-1.3545,1093.5464],[37.7657,-1.3574,1068.3422],[37.7676,-1.3566,1067.0889],[37.7734,-1.3605,1080.0576],[37.776,-1.36,1070.4268],[37.7813,-1.3717,1064.0715],[37.7842,-1.3707,1074.4335],[37.7853,-1.3754,1053.9657],[37.7906,-1.376,1069.3701],[37.7895,-1.3772,1052.8279],[37.7913,-1.3816,1045.1375],[37.7931,-1.3818,1041.345],[37.7992,-1.392,1036.6145],[37.7987,-1.3961,1040.8806],[37.8047,-1.3935,1034.5944],[37.8049,-1.4028,1027.5712],[37.8085,-1.4164,1022.9519],[37.8077,-1.4181,1031.5824],[37.8102,-1.4199,1028.4965],[37.8101,-1.4238,1021.7312],[37.8128,-1.4266,1027.1965],[37.8117,-1.4293,1032.0001],[37.8137,-1.4339,1015.2838],[37.8128,-1.4388,1016.6338],[37.8181,-1.4417,1015.6298],[37.8162,-1.444,1011.4106],[37.8198,-1.4463,1008.8703],[37.8086,-1.448,1027.4464],[37.7977,-1.4556,1053.5679],[37.7888,-1.4653,1064.7886],[37.7812,-1.4706,1095.4037],[37.7796,-1.4783,1137.3755],[37.7739,-1.4864,1182.6526],[37.7613,-1.4881,1195.1145],[37.7326,-1.4961,1219.4091],[37.7269,-1.4933,1213.0388],[37.7184,-1.4927,1110.132],[37.7127,-1.4884,1060.903],[37.7072,-1.4888,1064.3894],[37.7016,-1.4909,1028.7552],[37.6948,-1.4978,992.5308],[37.7015,-1.508,987.5212],[37.7054,-1.5066,982.4124],[37.7141,-1.5099,967.2853],[37.7205,-1.5227,962.8478],[37.7241,-1.524,994.4977],[37.7245,-1.5284,960.7823],[37.7346,-1.5444,972.2574],[37.7423,-1.5531,972.6553],[37.7501,-1.5541,969.8505],[37.7518,-1.5623,951.0545],[37.7576,-1.5699,949.7179],[37.7602,-1.5762,946.5056],[37.7688,-1.5832,943.0464],[37.7727,-1.5835,945.2378],[37.7727,-1.5872,945.416],[37.7763,-1.5908,943.6462],[37.7758,-1.594,950.8466],[37.783,-1.6047,936.759],[37.7844,-1.6115,944.6344],[37.7876,-1.6131,952.0509],[37.7921,-1.6207,937.9014],[37.7923,-1.6256,944.7782],[37.7963,-1.6272,946.2815],[37.8034,-1.6408,940.7686],[37.8102,-1.6339,983.5267],[37.8181,-1.6341,997.6812],[37.8238,-1.632,1026.4358],[37.8288,-1.6354,1080.6666],[37.8337,-1.6347,1096.8429],[37.8369,-1.6396,1110.7026],[37.8457,-1.6426,1109.1427],[37.8634,-1.6368,961.6359],[37.8691,-1.6389,942.8272],[37.8786,-1.6377,917.0383],[37.8796,-1.6353,914.0746],[37.8778,-1.6333,923.7123],[37.8793,-1.6287,923.1022],[37.8833,-1.6256,920.7485],[37.8799,-1.626,925.1945],[37.8793,-1.6227,919.712],[37.882,-1.6175,938.7143],[37.8859,-1.6184,923.6382],[37.8845,-1.6137,923.2744],[37.8854,-1.6115,923.7005],[37.8829,-1.6094,923.2662],[37.8849,-1.6051,924.6303],[37.8827,-1.5951,930.1395],[37.8808,-1.5932,929.0206],[37.8843,-1.5872,937.4364],[37.8821,-1.5865,931.3922],[37.882,-1.5832,930.0725],[37.8798,-1.5803,932.1342],[37.8817,-1.5774,936.9954],[37.8797,-1.5731,950.8877],[37.8812,-1.5554,937.4243],[37.8792,-1.553,945.2798],[37.8818,-1.5496,939.6357],[37.8792,-1.5476,953.8785],[37.8814,-1.546,947.5428],[37.8803,-1.5425,948.6595],[37.8847,-1.5407,944.1515],[37.8837,-1.5369,947.973],[37.8848,-1.5337,949.4285],[37.8833,-1.532,952.7576],[37.8866,-1.5265,957.3022],[37.8882,-1.5261,955.8873],[37.8893,-1.5278,954.3864],[37.8902,-1.5248,955.8873],[37.8928,-1.5248,953.9976],[37.8928,-1.5222,964.4755],[37.8966,-1.5228,962.8949],[37.8998,-1.5205,958.3804],[37.8978,-1.5171,963.3246],[37.9003,-1.5135,961.5739],[37.8984,-1.5122,972.4272],[37.8974,-1.5073,963.8539],[37.9002,-1.5049,962.2753],[37.8887,-1.5034,967.4025],[37.8863,-1.5016,966.5386],[37.8873,-1.4987,969.5029],[37.8855,-1.4985,975.6781],[37.8873,-1.4942,972.1407],[37.8837,-1.4873,979.6336],[37.8854,-1.485,973.4854],[37.8844,-1.4827,975.8657],[37.8874,-1.4798,984.8713],[37.883,-1.4785,976.5223],[37.8835,-1.4761,983.4622],[37.8812,-1.4756,985.6871],[37.8819,-1.4693,980.3962],[37.8794,-1.464,993.3949],[37.8798,-1.4609,991.9879],[37.8818,-1.4604,985.4091],[37.8789,-1.4521,1004.791],[37.8818,-1.4487,986.5463],[37.8788,-1.4456,996.4349],[37.8817,-1.4426,1002.8873],[37.8807,-1.4379,1003.3422],[37.882,-1.4353,1008.8372],[37.8813,-1.4259,1003.1882],[37.8789,-1.4264,997.2041],[37.8785,-1.425,999.0513],[37.8789,-1.407,1000.2767],[37.8781,-1.4008,1016.9645],[37.8757,-1.3965,1007.1513],[37.8769,-1.3951,1009.5978],[37.8762,-1.3859,1020.8074],[37.8721,-1.3803,1017.4271],[37.8739,-1.3778,1029.1555],[37.8713,-1.3738,1015.407],[37.8716,-1.3705,1021.9497],[37.8687,-1.3701,1022.8582],[37.8678,-1.3606,1041.2112]]]]}
,"properties": {"GID_3": "KEN.18.3.3_1","GID_0": "KEN","country": "Kenya","GID_1": "KEN.18_1","province": "Kitui","NL_NAME_1": "NA","GID_2": "KEN.18.3_1","county": "KituiRural","NL_NAME_2": "NA","city": "Kwavonza/Yatta","VARNAME_3": "NA","NL_NAME_3": "NA","TYPE_3": "Ward","ENGTYPE_3": "Ward","CC_3": "352","HASC_3": "NA","name": "Kwavonza_Yatta.city","area_km2": 783.4556,"hist_schema_id": "Elevation0-9000","hist_area_km2": {"900": 0.0636,"925": 4.9805,"950": 19.9436,"975": 34.0382,"1000": 47.1157,"1025": 49.8293,"1050": 48.7913,"1075": 46.9054,"1100": 52.7772,"1125": 60.4081,"1150": 51.6758,"1175": 73.2343,"1200": 110.1824,"1225": 104.1018,"1250": 48.3105,"1275": 17.1706,"1300": 7.9706,"1325": 2.9042,"1350": 0.8055,"1375": 0.4452,"1400": 0.3604,"1425": 0.4028,"1450": 0.4452,"1475": 0.3816,"1500": 0.1484,"1525": 0.0636}}}