{"type": "Feature","bbox": [34.7128,-0.7577,34.7816,-0.701],"geometry": {"type": "MultiPolygon","coordinates": [[[[34.7816,-0.7478,1837.2107],[34.7544,-0.722,1766.7162],[34.752,-0.7161,1721.6652],[34.7472,-0.7117,1669.6659],[34.7456,-0.701,1632.3375],[34.7392,-0.7057,1733.2196],[34.7271,-0.7071,1642.5596],[34.7128,-0.7146,1708.5894],[34.7164,-0.7296,1642.1425],[34.7169,-0.7421,1560.2744],[34.7191,-0.7433,1554.2974],[34.7246,-0.7528,1624.2838],[34.728,-0.7483,1619.1484],[34.7371,-0.7479,1642.8984],[34.7425,-0.7493,1623.3694],[34.7508,-0.7575,1678.1384],[34.7726,-0.7577,1832.5175],[34.7773,-0.7559,1861.7489],[34.7816,-0.7478,1837.2107]]]]}
,"properties": {"GID_3": "KEN.16.1.4_1","GID_0": "KEN","country": "Kenya","GID_1": "KEN.16_1","province": "Kisii","NL_NAME_1": "NA","GID_2": "KEN.16.1_1","county": "Bobasi","NL_NAME_2": "NA","city": "BobasiChache","VARNAME_3": "NA","NL_NAME_3": "NA","TYPE_3": "Ward","ENGTYPE_3": "Ward","CC_3": "1320","HASC_3": "NA","name": "Bobasi_Chache.city","area_km2": 27.0518,"hist_schema_id": "Elevation0-9000","hist_area_km2": {"1550": 0.0636,"1575": 0.61481,"1600": 1.42043,"1625": 2.48045,"1650": 3.11647,"1675": 4.07049,"1700": 3.54048,"1725": 2.90447,"1750": 2.65006,"1775": 1.88684,"1800": 1.75964,"1825": 1.42043,"1850": 0.33921,"1875": 0.53001,"1900": 0.2544}}}