{"type":"Feature","properties":{"GID_3":"KEN.10.1.4_1","GID_0":"KEN","country":"Kenya","GID_1":"KEN.10_1","province":"Kajiado","NL_NAME_1":"NA","GID_2":"KEN.10.1_1","county":"KajiadoCentral","NL_NAME_2":"NA","city":"MatapatoSouth","VARNAME_3":"NA","NL_NAME_3":"NA","TYPE_3":"Ward","ENGTYPE_3":"Ward","CC_3":"920","HASC_3":"NA","name":"Matapato_South.city"},
"geometry":{"type": "MultiPolygon","coordinates": [[[[36.4475,-2.2221,1233.3918],[36.4378,-2.2355,1239.0649],[36.4931,-2.306,1603.2723],[36.4435,-2.3542,1653.1803],[36.4409,-2.3595,1720.124],[36.4981,-2.3879,1812.3052],[36.7595,-2.5321,1491.2501],[36.9011,-2.612,1230.3494],[36.9162,-2.555,1226.7061],[36.9182,-2.5535,1224.4287],[36.9255,-2.553,1219.1626],[36.9368,-2.5461,1194.3854],[36.949,-2.5292,1202.8933],[36.9548,-2.5175,1233.2524],[36.9604,-2.5125,1232.2102],[36.9618,-2.5058,1250.3416],[36.967,-2.5008,1237.9155],[36.9724,-2.4872,1320.2478],[36.9787,-2.4836,1281.7539],[36.9849,-2.4741,1246.6331],[36.99,-2.4707,1270.3805],[36.9936,-2.4699,1285.9789],[36.9981,-2.4715,1323.5349],[37.0194,-2.5007,1244.11],[37.0407,-2.5201,1236.0358],[37.0437,-2.5197,1253.9857],[37.0444,-2.4811,1255.5809],[37.0486,-2.4331,1247.7849],[37.0608,-2.3652,1232.4697],[37.0537,-2.3557,1239.1531],[37.0481,-2.3563,1240.2053],[37.044,-2.3498,1244.0428],[37.0349,-2.3421,1249.4329],[37.0336,-2.3374,1253.4054],[37.0278,-2.3322,1255.9879],[37.027,-2.33,1256.7603],[37.0283,-2.3287,1257.0393],[37.0266,-2.3268,1257.7689],[37.0245,-2.3278,1258.562],[37.0216,-2.325,1262.0704],[37.0166,-2.3241,1263.5345],[37.0103,-2.3267,1265.7194],[37.0105,-2.3253,1266.1177],[37.0088,-2.3257,1267.2126],[37.009,-2.3236,1267.28],[37.0057,-2.323,1268.2039],[37.006,-2.321,1270.3159],[37.0016,-2.3186,1272.7317],[37.0027,-2.3162,1273.6499],[37.0016,-2.3173,1273.5505],[37.0005,-2.3154,1273.9607],[36.9958,-2.3149,1276.1482],[36.9887,-2.3109,1281.7075],[36.9826,-2.3116,1283.4932],[36.9831,-2.31,1283.3726],[36.9795,-2.3077,1285.0269],[36.9725,-2.3092,1288.6212],[36.9717,-2.3078,1288.5905],[36.9709,-2.3099,1290.1672],[36.9688,-2.309,1291.5211],[36.9639,-2.3154,1303.3329],[36.9572,-2.3144,1302.7167],[36.9542,-2.3119,1304.3167],[36.9431,-2.3151,1313.0328],[36.9412,-2.3131,1313.301],[36.9422,-2.3125,1314.6311],[36.9374,-2.3113,1317.8755],[36.9364,-2.3153,1316.1005],[36.9443,-2.3356,1342.236],[36.9486,-2.3409,1370.9913],[36.9586,-2.3437,1317.97],[36.9581,-2.3475,1317.7974],[36.9558,-2.3523,1330.0945],[36.9195,-2.3558,1513.8278],[36.9025,-2.3054,1345.679],[36.873,-2.2934,1469.7639],[36.8303,-2.3308,1442.7916],[36.8289,-2.3231,1437.1377],[36.8019,-2.3373,1389.4056],[36.7393,-2.3351,1670.4934],[36.7213,-2.2704,1474.2595],[36.7186,-2.2663,1485.5652],[36.7153,-2.2659,1485.5261],[36.7086,-2.2694,1491.1086],[36.7055,-2.2672,1495.6132],[36.6978,-2.2685,1501.1959],[36.6964,-2.2658,1514.2821],[36.692,-2.2651,1519.424],[36.6808,-2.2689,1532.8381],[36.6751,-2.2647,1530.1357],[36.6669,-2.2626,1544.0757],[36.6614,-2.2591,1548.5627],[36.654,-2.2586,1549.7866],[36.6531,-2.2598,1550.2622],[36.6423,-2.258,1569.0688],[36.6408,-2.2595,1572.7119],[36.6313,-2.2601,1575.8082],[36.6268,-2.2639,1578.6189],[36.6181,-2.263,1586.927],[36.6157,-2.2643,1588.6307],[36.6128,-2.2626,1598.2777],[36.6126,-2.2651,1587.9277],[36.6103,-2.2649,1605.2036],[36.607,-2.2708,1599.3799],[36.5534,-2.2724,1834.4869],[36.4475,-2.2221,1233.3918]]]]}}