{"type": "Feature","bbox": [33.9667,0.1299,34.115,0.2212],"geometry": {"type": "MultiPolygon","coordinates": [[[[34.0951,0.1367,1145.9968],[34.0994,0.1404,1154.6055],[34.1051,0.1401,1172.1664],[34.1027,0.1354,1206.9655],[34.1023,0.1299,1210.6744],[34.104,0.1309,1204.9797],[34.1113,0.1398,1150.0157],[34.115,0.154,1157.1072],[34.1128,0.1535,1151.1499],[34.1108,0.1669,1165.8397],[34.1119,0.1803,1175.6846],[34.1051,0.1906,1186.3958],[34.0865,0.193,1193.3662],[34.0821,0.1963,1195.3301],[34.0704,0.2,1212.8562],[34.0658,0.1986,1226.9423],[34.0605,0.2004,1232.6086],[34.0549,0.1985,1226.6609],[34.0482,0.1989,1208.3115],[34.0427,0.2067,1238.6802],[34.0384,0.206,1224.7885],[34.0393,0.2113,1263.5702],[34.0341,0.2113,1202.8372],[34.0287,0.2138,1159.4695],[34.0257,0.2212,1158.5652],[34.0152,0.2192,1136.594],[34.0051,0.2195,1133.0],[34.0023,0.217,1133.0],[33.9879,0.2138,1133.0],[33.9667,0.1844,1133.0],[33.9938,0.1694,1134.2417],[34.0115,0.1691,1173.8745],[34.023,0.1707,1199.2871],[34.0308,0.1671,1295.3966],[34.0638,0.1657,1245.2922],[34.085,0.1549,1250.1365],[34.0862,0.1492,1253.7856],[34.0951,0.1367,1145.9968]]]]}
,"properties": {"GID_3": "KEN.4.3.2_1","GID_0": "KEN","country": "Kenya","GID_1": "KEN.4_1","province": "Busia","NL_NAME_1": "NA","GID_2": "KEN.4.3_1","county": "Funyula","NL_NAME_2": "NA","city": "Bwiri","VARNAME_3": "NA","NL_NAME_3": "NA","TYPE_3": "Ward","ENGTYPE_3": "Ward","CC_3": "1151","HASC_3": "NA","name": "Bwiri.city","area_km2": 73.08363,"hist_schema_id": "Elevation0-9000","hist_area_km2": {"1125": 13.16649,"1150": 11.63995,"1175": 13.03929,"1200": 14.26901,"1225": 12.42443,"1250": 5.0249,"1275": 1.54775,"1300": 0.69967,"1325": 0.48765,"1350": 0.50885,"1375": 0.23322,"1400": 0.0424}}}