{"type": "Feature","bbox": [36.8945,-1.0218,36.9814,-0.9446],"geometry": {"type": "MultiPolygon","coordinates": [[[[36.9083,-0.9446,1773.6594],[36.9064,-0.9449,1786.6726],[36.9044,-0.9568,1760.5673],[36.8969,-0.9612,1782.2555],[36.8991,-0.9622,1763.0565],[36.9002,-0.9675,1724.0037],[36.8945,-0.9784,1709.1799],[36.8978,-0.983,1741.7585],[36.9048,-0.9873,1682.0968],[36.9064,-0.9917,1707.8372],[36.9231,-1.0021,1650.1511],[36.9233,-1.0064,1663.8708],[36.9279,-1.0095,1640.3179],[36.9353,-1.0192,1638.7091],[36.94,-1.0192,1630.9741],[36.9425,-1.0218,1605.5925],[36.9463,-1.0204,1621.7458],[36.9484,-1.0212,1612.2615],[36.9578,-1.0073,1618.5437],[36.9656,-1.0136,1609.6841],[36.9814,-0.9879,1586.3986],[36.9688,-0.9793,1620.0735],[36.9653,-0.9742,1567.9796],[36.9638,-0.9753,1626.9617],[36.9587,-0.974,1633.1986],[36.9565,-0.9751,1626.4092],[36.9571,-0.9775,1633.4944],[36.9535,-0.9767,1623.7904],[36.9505,-0.9784,1618.3507],[36.9433,-0.9763,1621.4717],[36.9364,-0.9647,1671.2623],[36.9273,-0.962,1697.0706],[36.9214,-0.9494,1718.0404],[36.9185,-0.9497,1687.7346],[36.9083,-0.9446,1773.6594]]]]}
,"properties": {"GID_3": "KEN.13.1.4_1","GID_0": "KEN","country": "Kenya","GID_1": "KEN.13_1","province": "Kiambu","NL_NAME_1": "NA","GID_2": "KEN.13.1_1","county": "GatunduNorth","NL_NAME_2": "NA","city": "Mang'U","VARNAME_3": "NA","NL_NAME_3": "NA","TYPE_3": "Ward","ENGTYPE_3": "Ward","CC_3": "558","HASC_3": "NA","name": "Mang'U.city","area_km2": 40.02384,"hist_schema_id": "Elevation0-9000","hist_area_km2": {"1575": 0.89036,"1600": 6.57169,"1625": 9.85754,"1650": 7.3348699999999996,"1675": 5.99935,"1700": 3.94304,"1725": 2.71349,"1750": 2.16232,"1775": 0.55118}}}