{"type":"Feature","properties":{"GID_3":"KEN.10.2.2_1","GID_0":"KEN","country":"Kenya","GID_1":"KEN.10_1","province":"Kajiado","NL_NAME_1":"NA","GID_2":"KEN.10.2_1","county":"KajiadoEast","NL_NAME_2":"NA","city":"KaputieiNorth","VARNAME_3":"NA","NL_NAME_3":"NA","TYPE_3":"Ward","ENGTYPE_3":"Ward","CC_3":"921","HASC_3":"NA","name":"Kaputiei_North.city"},
"geometry":{"type": "MultiPolygon","coordinates": [[[[36.8526,-1.8176,1730.7744],[36.8594,-1.8071,1712.8679],[36.8617,-1.8058,1709.1138],[36.8655,-1.8055,1706.8436],[36.8789,-1.8107,1699.4099],[36.8873,-1.8104,1700.083],[36.8917,-1.8135,1699.9214],[36.8963,-1.8099,1688.0022],[36.9345,-1.8077,1682.1545],[36.9877,-1.8,1670.028],[37.0092,-1.7955,1670.0496],[37.0165,-1.7888,1680.1586],[37.0384,-1.7848,1709.6661],[37.0549,-1.7857,1695.1437],[37.0627,-1.7796,1678.5566],[37.0714,-1.7783,1667.137],[37.1196,-1.7435,1646.9127],[37.1199,-1.7375,1641.7456],[37.1114,-1.733,1643.6235],[37.0854,-1.6983,1630.5703],[37.0843,-1.699,1630.5703],[37.0803,-1.6937,1628.9197],[37.0814,-1.6929,1629.7203],[37.0065,-1.5927,1610.0514],[37.0004,-1.5973,1610.0049],[36.9908,-1.5849,1606.3315],[36.996,-1.581,1605.6179],[36.9776,-1.5531,1576.4788],[36.9752,-1.552,1572.7148],[36.9737,-1.5549,1573.356],[36.9662,-1.5533,1581.1434],[36.9572,-1.5423,1583.8087],[36.9573,-1.5327,1598.2584],[36.9589,-1.5296,1597.2117],[36.9613,-1.53,1595.3458],[36.963,-1.5258,1601.1866],[36.9627,-1.5108,1598.6484],[36.9743,-1.4987,1573.246],[36.9708,-1.4893,1555.1982],[36.9776,-1.4748,1553.1348],[36.9601,-1.4659,1558.5542],[36.9574,-1.4753,1573.7623],[36.9543,-1.479,1578.1521],[36.9509,-1.4817,1578.3737],[36.9346,-1.4879,1591.9988],[36.9309,-1.4921,1607.6508],[36.929,-1.4978,1619.1217],[36.9292,-1.51,1611.6089],[36.9343,-1.5224,1623.0847],[36.9367,-1.548,1596.1714],[36.9278,-1.5712,1599.8042],[36.9233,-1.573,1596.1621],[36.9212,-1.5714,1598.1509],[36.9174,-1.5726,1599.7018],[36.911,-1.5717,1602.6495],[36.896,-1.5747,1614.5615],[36.8896,-1.5833,1610.1627],[36.885,-1.584,1613.5133],[36.8842,-1.5855,1612.1993],[36.8822,-1.5849,1614.6219],[36.8781,-1.5887,1615.1969],[36.8693,-1.589,1629.5439],[36.8677,-1.5922,1618.9125],[36.862,-1.5924,1624.1863],[36.8592,-1.5944,1627.6377],[36.8587,-1.5968,1625.3397],[36.8554,-1.5961,1636.8929],[36.8474,-1.6015,1629.9246],[36.8443,-1.5999,1639.1993],[36.8382,-1.6006,1637.7761],[36.8284,-1.5971,1641.7203],[36.8287,-1.5956,1641.2321],[36.8027,-1.5812,1698.8982],[36.799,-1.5733,1706.5688],[36.7955,-1.5739,1709.3578],[36.8051,-1.5897,1709.2424],[36.8198,-1.6623,1670.2021],[36.8389,-1.7433,1702.1854],[36.8341,-1.7504,1718.5232],[36.827,-1.7726,1705.4996],[36.8282,-1.7922,1727.3383],[36.8413,-1.8149,1748.3972],[36.8442,-1.8151,1750.358],[36.8489,-1.8188,1743.6893],[36.8526,-1.8176,1730.7744]]]]}}