{"type": "Feature","bbox": [36.2281,-0.7398,36.4898,-0.5596],"geometry": {"type": "MultiPolygon","coordinates": [[[[36.3264,-0.5731,2040.6202],[36.3372,-0.6128,2119.6279],[36.3012,-0.6241,2277.1726],[36.2922,-0.6427,2232.3069],[36.2816,-0.6594,2320.9126],[36.2583,-0.6698,2308.3662],[36.2309,-0.6768,2233.3347],[36.2281,-0.7064,1991.558],[36.274,-0.7398,1957.9985],[36.2746,-0.7352,2003.3472],[36.2819,-0.7288,1941.4736],[36.2819,-0.7203,1909.2152],[36.3513,-0.7195,1886.1416],[36.3517,-0.7091,1887.0082],[36.3741,-0.7063,1890.7935],[36.3805,-0.7017,1906.1965],[36.3823,-0.702,1892.0448],[36.3728,-0.6903,1893.1033],[36.3674,-0.6898,1900.0371],[36.3659,-0.6871,1897.8501],[36.3664,-0.6809,1906.0579],[36.3775,-0.6743,1897.2198],[36.3765,-0.6733,1897.2198],[36.3777,-0.669,1895.0448],[36.3794,-0.6661,1898.4941],[36.3806,-0.6657,1905.3687],[36.3808,-0.6672,1899.3853],[36.3825,-0.6646,1899.4961],[36.3846,-0.665,1899.9022],[36.3838,-0.6623,1903.0233],[36.3893,-0.6613,1906.3104],[36.3902,-0.6632,1910.0581],[36.3926,-0.6603,1907.7776],[36.3947,-0.6605,1908.0098],[36.3938,-0.6588,1909.8225],[36.3983,-0.6586,1910.9254],[36.4006,-0.6561,1914.8715],[36.4024,-0.6592,1919.9712],[36.4011,-0.6615,1910.7053],[36.408,-0.6555,1916.8198],[36.408,-0.6524,1921.5217],[36.4057,-0.6526,1919.9778],[36.4053,-0.6507,1918.0011],[36.4095,-0.6491,1924.6489],[36.4112,-0.65,1926.5756],[36.4102,-0.6482,1924.6489],[36.4117,-0.6471,1929.4828],[36.4134,-0.6481,1931.8164],[36.4123,-0.6459,1932.1049],[36.4133,-0.6434,1937.0137],[36.416,-0.6419,1941.1221],[36.4181,-0.6434,1921.5703],[36.4181,-0.6467,1921.532],[36.42,-0.6461,1933.2324],[36.4173,-0.6334,1938.8711],[36.4212,-0.6343,1918.683],[36.4197,-0.63,1973.936],[36.4248,-0.6346,1933.0394],[36.4301,-0.6301,1946.6431],[36.4296,-0.6352,1965.9355],[36.4348,-0.6463,1968.3721],[36.4344,-0.6661,1933.1938],[36.4448,-0.6713,1981.3374],[36.4476,-0.6789,2006.9055],[36.4515,-0.68,2025.616],[36.4593,-0.6776,2091.1177],[36.462,-0.679,2099.4116],[36.4774,-0.6775,2194.9309],[36.4779,-0.657,2206.6394],[36.4873,-0.6386,2426.2732],[36.4832,-0.6309,2452.8862],[36.4886,-0.6248,2458.9492],[36.4898,-0.6185,2454.9858],[36.4679,-0.6205,2449.2375],[36.456,-0.606,2399.311],[36.4514,-0.5596,2393.3806],[36.443,-0.5641,2288.9099],[36.4062,-0.569,1957.8909],[36.4054,-0.568,1957.8909],[36.3885,-0.5828,1933.8512],[36.3848,-0.5776,1947.7972],[36.369,-0.5878,1927.3202],[36.3518,-0.5727,1933.6031],[36.3472,-0.5633,1940.9465],[36.3264,-0.5731,2040.6202]]]]}
,"properties": {"GID_3": "KEN.31.2.3_1","GID_0": "KEN","country": "Kenya","GID_1": "KEN.31_1","province": "Nakuru","NL_NAME_1": "NA","GID_2": "KEN.31.2_1","county": "Gilgil","NL_NAME_2": "NA","city": "MalewaWest","VARNAME_3": "NA","NL_NAME_3": "NA","TYPE_3": "Ward","ENGTYPE_3": "Ward","CC_3": "847","HASC_3": "NA","name": "Malewa_West.city","area_km2": 271.816,"hist_schema_id": "Elevation0-9000","hist_area_km2": {"1875": 8.8831,"1900": 48.7406,"1925": 33.2219,"1950": 21.9642,"1975": 19.3564,"2000": 16.8335,"2025": 14.3953,"2050": 14.6922,"2075": 14.6286,"2100": 12.4237,"2125": 9.9432,"2150": 9.3496,"2175": 8.3107,"2200": 11.8089,"2225": 5.7454,"2250": 3.1801,"2275": 3.4769,"2300": 2.9045,"2325": 2.4169,"2350": 1.8021,"2375": 1.4417,"2400": 1.5265,"2425": 0.8268,"2450": 3.689,"2475": 0.2544}}}