{"type":"Feature","properties":{"GID_3":"KEN.30.8.3_1","GID_0":"KEN","country":"Kenya","GID_1":"KEN.30_1","province":"Nairobi","NL_NAME_1":"NA","GID_2":"KEN.30.8_1","county":"Kamukunji","NL_NAME_2":"NA","city":"EastleighNorth","VARNAME_3":"NA","NL_NAME_3":"NA","TYPE_3":"Ward","ENGTYPE_3":"Ward","CC_3":"1435","HASC_3":"NA","name":"Eastleigh_North.city"},
"geometry":{"type": "MultiPolygon","coordinates": [[[[36.8483,-1.2639,1626.7621],[36.8432,-1.2651,1650.9524],[36.8458,-1.2778,1651.2251],[36.8508,-1.2768,1649.4872],[36.8483,-1.2639,1626.7621]]]]}}