{"type":"Feature","properties":{"GID_3":"KEN.4.3.1_1","GID_0":"KEN","country":"Kenya","GID_1":"KEN.4_1","province":"Busia","NL_NAME_1":"NA","GID_2":"KEN.4.3_1","county":"Funyula","NL_NAME_2":"NA","city":"Ageng'ANanguba","VARNAME_3":"NA","NL_NAME_3":"NA","TYPE_3":"Ward","ENGTYPE_3":"Ward","CC_3":"1150","HASC_3":"NA","name":"Ageng'A_Nanguba.city"},
"geometry":{"type": "MultiPolygon","coordinates": [[[[34.1051,0.1906,1186.3958],[34.1106,0.2046,1183.9136],[34.1092,0.2099,1193.3954],[34.1134,0.2142,1217.9734],[34.1162,0.223,1235.2694],[34.1163,0.2415,1314.3284],[34.1139,0.2429,1281.1412],[34.1114,0.242,1272.0343],[34.1098,0.2489,1230.3909],[34.1065,0.2515,1226.2358],[34.1011,0.2502,1234.395],[34.0958,0.2464,1226.222],[34.0869,0.2492,1204.2388],[34.0814,0.2551,1205.9642],[34.0782,0.266,1195.8271],[34.0743,0.2689,1185.4218],[34.074,0.2714,1176.4846],[34.066,0.2748,1160.7561],[34.0653,0.2788,1153.0702],[34.0633,0.2793,1147.736],[34.0627,0.2844,1147.3756],[34.0601,0.2877,1153.0977],[34.0581,0.2846,1144.7688],[34.0535,0.2834,1143.3428],[34.0474,0.2833,1142.1123],[34.0401,0.2861,1143.1395],[34.0398,0.2812,1143.2478],[34.0421,0.2783,1141.1873],[34.041,0.2766,1141.0656],[34.0381,0.2756,1141.1294],[34.0377,0.2727,1140.7633],[34.0291,0.2692,1139.7366],[34.0277,0.2706,1139.4473],[34.0249,0.2684,1139.42],[34.0219,0.2613,1138.9586],[34.0229,0.2567,1138.637],[34.0074,0.2435,1136.3256],[33.9879,0.2138,1133.0],[34.0023,0.217,1133.0],[34.0051,0.2195,1133.0],[34.0152,0.2192,1136.594],[34.0249,0.2214,1158.5652],[34.0287,0.2138,1159.4695],[34.0341,0.2113,1202.8372],[34.0393,0.2113,1263.5702],[34.0384,0.206,1224.7885],[34.0427,0.2067,1238.6802],[34.0482,0.1989,1208.3115],[34.0549,0.1985,1226.6609],[34.0605,0.2004,1232.6086],[34.0658,0.1986,1226.9423],[34.0704,0.2,1212.8562],[34.0821,0.1963,1195.3301],[34.0865,0.193,1193.3662],[34.1051,0.1906,1186.3958]]]]}}