{"type":"Feature","properties":{"GID_3":"KEN.31.11.3_1","GID_0":"KEN","country":"Kenya","GID_1":"KEN.31_1","province":"Nakuru","NL_NAME_1":"NA","GID_2":"KEN.31.11_1","county":"Subukia","NL_NAME_2":"NA","city":"Waseges","VARNAME_3":"NA","NL_NAME_3":"NA","TYPE_3":"Ward","ENGTYPE_3":"Ward","CC_3":"858","HASC_3":"NA","name":"Waseges.city"},
"geometry":{"type": "MultiPolygon","coordinates": [[[[36.2026,0.24,1648.3319],[36.1796,0.2336,1495.8314],[36.1824,0.2295,1512.2286],[36.1847,0.2298,1577.1887],[36.1849,0.2275,1607.428],[36.1981,0.2234,1558.9198],[36.1972,0.2218,1553.9711],[36.1994,0.2118,1528.4133],[36.1984,0.2101,1561.9236],[36.1999,0.207,1528.1185],[36.1974,0.2033,1578.7144],[36.2,0.2014,1541.4286],[36.2004,0.1988,1552.5491],[36.2029,0.1999,1598.1207],[36.2028,0.196,1614.1285],[36.2043,0.1939,1679.8453],[36.206,0.1946,1716.1198],[36.2058,0.1928,1636.489],[36.208,0.1914,1687.2921],[36.2125,0.1916,1693.2527],[36.2143,0.1934,1698.0365],[36.2203,0.19,1695.103],[36.2256,0.1762,1684.4347],[36.2288,0.1747,1685.5365],[36.2323,0.1677,1685.9226],[36.233,0.163,1685.7522],[36.2411,0.1612,1694.9816],[36.2443,0.1463,1710.423],[36.23,0.1295,1744.1383],[36.2273,0.115,1743.417],[36.224,0.1073,1767.7498],[36.2253,0.0999,1770.3173],[36.2223,0.0971,1776.7661],[36.2202,0.0908,1788.7744],[36.2159,0.0851,1803.2131],[36.213,0.0774,1848.7246],[36.2119,0.0669,1853.796],[36.1789,0.0556,1787.3817],[36.1762,0.026,1755.1959],[36.2046,0.0356,2012.9596],[36.2039,0.0235,2066.1235],[36.2123,0.0263,2066.0144],[36.2124,0.0233,2116.707],[36.2174,0.0165,2152.4031],[36.2209,0.0165,2107.9126],[36.229,0.0207,1991.5135],[36.2339,0.0165,1988.8245],[36.2386,0.018,1993.4037],[36.2384,0.0335,1968.7292],[36.2628,0.0391,2405.9785],[36.2564,0.0623,2131.978],[36.2616,0.0696,2127.8042],[36.2711,0.0938,2029.902],[36.289,0.1175,1965.7007],[36.2857,0.1324,1968.0077],[36.2781,0.1522,2040.145],[36.2603,0.1813,1884.2372],[36.254,0.1876,1856.4751],[36.2361,0.215,1954.3856],[36.2026,0.24,1648.3319]]]]}}