{"type":"Feature","properties":{"GID_3":"KEN.14.5.2_1","GID_0":"KEN","country":"Kenya","GID_1":"KEN.14_1","province":"Kilifi","NL_NAME_1":"NA","GID_2":"KEN.14.5_1","county":"Magarini","NL_NAME_2":"NA","city":"Garashi","VARNAME_3":"NA","NL_NAME_3":"NA","TYPE_3":"Ward","ENGTYPE_3":"Ward","CC_3":"84","HASC_3":"NA","name":"Garashi.city"},
"geometry":{"type": "MultiPolygon","coordinates": [[[[39.7191,-3.1274,66.0027],[39.7247,-3.1233,60.0218],[39.7319,-3.1231,62.2833],[39.7376,-3.1198,70.24],[39.7645,-3.1275,56.621],[39.7712,-3.1201,79.1849],[39.7773,-3.1183,54.2609],[39.7825,-3.1146,62.3453],[39.7869,-3.1132,62.8246],[39.7979,-3.1152,54.5165],[39.8145,-3.1046,62.8008],[39.8254,-3.1045,54.0849],[39.8305,-3.1106,46.4714],[39.8277,-3.1129,47.2157],[39.8243,-3.1205,44.8178],[39.8249,-3.1237,44.935],[39.8433,-3.1245,43.8216],[39.8453,-3.1295,41.8429],[39.8433,-3.1394,42.0824],[39.8549,-3.1366,44.7021],[39.8585,-3.1375,41.8636],[39.8684,-3.1482,37.1655],[39.8681,-3.1593,36.5357],[39.8891,-3.1613,31.125],[39.8953,-3.166,31.1042],[39.8953,-3.1722,33.9245],[39.8973,-3.1758,32.5795],[39.9013,-3.175,34.6539],[39.9025,-3.1659,33.9375],[39.9049,-3.1636,32.8839],[39.9103,-3.164,31.4867],[39.9116,-3.1666,31.4045],[39.9089,-3.1724,32.9475],[39.9101,-3.1746,29.8916],[39.9181,-3.1776,31.6251],[39.9199,-3.1803,29.4209],[39.9189,-3.1843,28.3294],[39.9227,-3.1926,29.433],[39.9267,-3.1933,30.4332],[39.9303,-3.1894,31.1003],[39.9373,-3.186,26.7001],[39.9501,-3.1858,28.2367],[39.9537,-3.1904,22.8192],[39.9569,-3.1893,23.3395],[39.9687,-3.1781,20.5772],[39.9737,-3.1768,18.5141],[39.9761,-3.1745,18.5226],[39.9731,-3.1724,17.5],[39.9719,-3.1675,18.8785],[39.9833,-3.1557,24.0382],[39.9855,-3.1566,18.1772],[39.9861,-3.1594,16.9856],[39.9903,-3.1598,18.5825],[39.993899999999996,-3.1582,18.1037],[39.9931,-3.1519,16.1352],[39.9869,-3.1439,19.5442],[39.9869,-3.1412,19.483],[39.9985,-3.1375,16.2203],[40.0035,-3.143,12.5],[40.0073,-3.1536,11.8206],[40.0125,-3.1029,52.3648],[40.0123,-3.0806,54.504],[40.0113,-3.074,54.2455],[40.0079,-3.0688,54.8447],[40.0123,-3.0693,39.7481],[40.0123,-3.0505,66.1009],[40.0145,-3.0438,59.0978],[40.0271,-3.0401,85.4137],[40.0313,-3.0346,85.1571],[40.0315,-3.0323,73.421],[40.0287,-3.0292,86.3439],[40.0267,-3.023,96.0093],[40.0297,-3.0172,106.2347],[40.0297,-3.0133,104.5883],[40.0235,-3.0046,121.0967],[40.0177,-3.0026,118.5294],[39.9999,-3.0038,106.854],[39.9865,-3.0086,83.5356],[39.9631,-3.028,82.8936],[39.9573,-3.0439,40.0311],[39.9543,-3.0467,38.5985],[39.9468,-3.052,27.062],[39.9357,-3.0522,42.7502],[39.9307,-3.055,63.4074],[39.9229,-3.0555,68.1049],[39.9199,-3.0528,74.7556],[39.9099,-3.0496,89.4486],[39.8905,-3.0466,91.8265],[39.8789,-3.037,68.2119],[39.8667,-3.032,66.2783],[39.8567,-3.0299,71.9996],[39.8423,-3.023,107.9309],[39.8151,-3.0266,118.3707],[39.8016,-3.0353,135.1604],[39.7931,-3.0369,159.199],[39.7805,-3.037,140.5695],[39.7747,-3.0387,172.6152],[39.7639,-3.0359,205.858],[39.7433,-3.0395,183.0643],[39.7407,-3.0413,163.457],[39.7375,-3.0477,136.615],[39.7333,-3.0752,74.8409],[39.7199,-3.0857,108.9203],[39.7135,-3.1,116.478],[39.7053,-3.1051,87.8048],[39.7031,-3.1099,66.3026],[39.6991,-3.1108,64.0908],[39.7021,-3.1104,66.3026],[39.7027,-3.1176,63.7675],[39.7057,-3.1186,68.0114],[39.711,-3.1171,63.2016],[39.7147,-3.1193,61.7345],[39.7163,-3.1255,59.0],[39.7191,-3.1274,66.0027]]]]}}