{"type":"Feature","properties":{"GID_3":"KEN.30.2.4_1","GID_0":"KEN","country":"Kenya","GID_1":"KEN.30_1","province":"Nairobi","NL_NAME_1":"NA","GID_2":"KEN.30.2_1","county":"DagorettiSouth","NL_NAME_2":"NA","city":"Ngando","VARNAME_3":"NA","NL_NAME_3":"NA","TYPE_3":"Ward","ENGTYPE_3":"Ward","CC_3":"1377","HASC_3":"NA","name":"Ngando.city"},
"geometry":{"type": "MultiPolygon","coordinates": [[[[36.753,-1.291,1802.7645],[36.7497,-1.2912,1808.3134],[36.7427,-1.2954,1808.8903],[36.7371,-1.2966,1820.0508],[36.737,-1.298,1815.2406],[36.7303,-1.2996,1828.9092],[36.7312,-1.3061,1845.6091],[36.7606,-1.2961,1777.3312],[36.7564,-1.2953,1800.7284],[36.753,-1.291,1802.7645]]]]}}