{"type": "Feature","bbox": [33.9364,-0.8553,34.1934,-0.7505],"geometry": {"type": "MultiPolygon","coordinates": [[[[33.9364,-0.8009,1133.0],[33.9398,-0.8553,1133.0],[34.1576,-0.8545,1133.0],[34.1649,-0.8507,1133.0],[34.1727,-0.8378,1159.4042],[34.1815,-0.8294,1171.135],[34.1801,-0.8201,1196.3824],[34.1934,-0.8036,1268.384],[34.1837,-0.7967,1348.0901],[34.1735,-0.7848,1391.9098],[34.1748,-0.7743,1346.7318],[34.1717,-0.7688,1360.9069],[34.1717,-0.7655,1328.2357],[34.1796,-0.7559,1401.1191],[34.1782,-0.7505,1295.5818],[34.1693,-0.7587,1274.2897],[34.1528,-0.7625,1305.2747],[34.1463,-0.7707,1375.0088],[34.1419,-0.7729,1401.5909],[34.1198,-0.7735,1210.1348],[34.1117,-0.7777,1202.6755],[34.0975,-0.7786,1220.1844],[34.0865,-0.7811,1148.7052],[34.0839,-0.7843,1165.4008],[34.0796,-0.8012,1145.3296],[33.9364,-0.8009,1133.0]]]]}
,"properties": {"GID_3": "KEN.27.4.2_1","GID_0": "KEN","country": "Kenya","GID_1": "KEN.27_1","province": "Migori","NL_NAME_1": "NA","GID_2": "KEN.27.4_1","county": "Nyatike","NL_NAME_2": "NA","city": "Kachien'G","VARNAME_3": "NA","NL_NAME_3": "NA","TYPE_3": "Ward","ENGTYPE_3": "Ward","CC_3": "1282","HASC_3": "NA","name": "Kachien'G.city","area_km2": 194.3195,"hist_schema_id": "Elevation0-9000","hist_area_km2": {"1125": 130.6767,"1150": 9.54,"1175": 8.3104,"1200": 7.1232,"1225": 7.208,"1250": 6.9324,"1275": 5.9996,"1300": 4.876,"1325": 3.3708,"1350": 2.4804,"1375": 1.9292,"1400": 1.9292,"1425": 1.3992,"1450": 1.1236,"1475": 0.5512,"1500": 0.4452,"1525": 0.212,"1550": 0.1696,"1575": 0.0424}}}