{"type": "Feature","bbox": [35.8473,-0.1516,36.0936,0.101],"geometry": {"type": "MultiPolygon","coordinates": [[[[35.8773,-0.0297,1696.6687],[35.8473,-0.0765,1997.365],[35.8841,-0.1076,1816.5056],[35.8843,-0.1022,1839.4513],[35.9026,-0.1157,1770.0554],[35.9122,-0.1039,1730.9658],[35.9266,-0.1144,1740.2894],[35.9266,-0.1234,1757.7727],[35.9552,-0.1469,1814.9094],[35.956,-0.1451,1811.6979],[35.961,-0.1516,1843.3634],[35.9715,-0.1396,1791.7837],[35.9633,-0.1228,1775.5002],[35.9792,-0.1063,1715.0513],[36.0015,-0.1134,1749.4326],[35.999,-0.1058,1731.5959],[35.9886,-0.0914,1686.7336],[35.9961,-0.0841,1657.6813],[36.0178,-0.0837,1649.1912],[36.0186,-0.0814,1646.2382],[36.024,-0.0802,1640.0731],[36.0335,-0.0806,1641.0018],[36.036,-0.0796,1641.5724],[36.0359,-0.0755,1642.0681],[36.0378,-0.0747,1642.672],[36.0456,-0.0746,1648.3894],[36.048,-0.0828,1647.0945],[36.0478,-0.0732,1648.9026],[36.0516,-0.0684,1651.323],[36.0559,-0.0671,1653.3378],[36.0619,-0.0701,1659.4135],[36.0715,-0.069,1663.2701],[36.0739,-0.0748,1670.9244],[36.0758,-0.0747,1676.4092],[36.0863,-0.0819,1703.0944],[36.0861,-0.0347,1788.4824],[36.0886,-0.0341,1693.5079],[36.0899,-0.0317,1618.7404],[36.0936,-0.0059,1665.2434],[36.0539,0.009,1722.8966],[36.042,0.0257,1664.6451],[36.0366,0.0261,1650.4897],[36.0069,0.036,1598.1011],[36.0,0.0656,1582.931],[35.9657,0.0621,1535.3933],[35.9635,0.0706,1519.5698],[35.9666,0.0742,1516.1791],[35.9639,0.077,1518.0344],[35.9646,0.08,1513.9006],[35.9634,0.0809,1512.9292],[35.9664,0.0832,1522.9747],[35.9614,0.0879,1505.5181],[35.9607,0.0904,1507.7314],[35.9621,0.092,1503.2872],[35.9406,0.101,1581.1661],[35.9302,0.075,1618.0312],[35.9703,0.0301,1537.9667],[35.974,0.0291,1538.9348],[35.9765,0.0263,1540.5364],[35.976,0.0241,1540.8331],[35.9785,0.021,1542.2212],[35.978,0.014,1545.0447],[35.9761,0.0127,1546.3351],[35.9768,0.0116,1546.9084],[35.9736,0.0061,1550.2833],[35.9742,0.0031,1552.7122],[35.971,-0.008,1556.475],[35.9638,-0.0174,1574.3887],[35.9603,-0.0194,1579.6877],[35.9608,-0.0254,1578.8616],[35.9551,-0.0315,1596.8173],[35.9497,-0.0457,1613.2931],[35.9373,-0.0538,1639.1748],[35.938,-0.0568,1636.2769],[35.935,-0.0617,1649.0315],[35.9325,-0.0614,1653.5099],[35.9281,-0.0645,1659.9066],[35.9289,-0.071,1659.7412],[35.923,-0.0722,1676.6517],[35.9171,-0.0763,1689.6223],[35.9004,-0.0426,1709.8252],[35.8944,-0.0456,1711.5288],[35.8773,-0.0297,1696.6687]]]]}
,"properties": {"GID_3": "KEN.31.10.3_1","GID_0": "KEN","country": "Kenya","GID_1": "KEN.31_1","province": "Nakuru","NL_NAME_1": "NA","GID_2": "KEN.31.10_1","county": "Rongai","NL_NAME_2": "NA","city": "Soin","VARNAME_3": "NA","NL_NAME_3": "NA","TYPE_3": "Ward","ENGTYPE_3": "Ward","CC_3": "861","HASC_3": "NA","name": "Soin.city","area_km2": 281.7135,"hist_schema_id": "Elevation0-9000","hist_area_km2": {"1500": 1.2085,"1525": 15.8804,"1550": 34.9412,"1575": 19.4212,"1600": 18.0219,"1625": 27.6477,"1650": 40.263,"1675": 26.5027,"1700": 25.5486,"1725": 29.9163,"1750": 16.4529,"1775": 10.8767,"1800": 5.8518,"1825": 4.4313,"1850": 1.7174,"1875": 0.6149,"1900": 0.318,"1925": 0.4452,"1950": 0.1696,"1975": 0.2756,"2000": 0.424,"2025": 0.1908,"2050": 0.1696,"2075": 0.1272,"2100": 0.106,"2125": 0.0848,"2150": 0.106}}}