{"type":"Feature","properties":{"GID_2":"KEN.32.1_1","GID_0":"KEN","country":"Kenya","GID_1":"KEN.32_1","province":"Nandi","NL_NAME_1":"NA","county":"Aldai","VARNAME_2":"NA","NL_NAME_2":"NA","TYPE_2":"Constituency","ENGTYPE_2":"Constituency","CC_2":"152","HASC_2":"NA","name":"Aldai.county"},
"geometry":{"type": "MultiPolygon","coordinates": [[[[35.0879,0.0504,1800.5222],[35.0892,0.0541,1831.1749],[35.0963,0.0568,1867.1803],[35.1017,0.0635,1842.121],[35.1004,0.0672,1877.269],[35.1015,0.071,1882.481],[35.1063,0.0752,1880.5883],[35.1079,0.0795,1869.5914],[35.1076,0.0906,1923.338],[35.115,0.1019,1909.7249],[35.117,0.1098,1911.9066],[35.1172,0.1122,1935.3716],[35.1141,0.1168,1931.0144],[35.1153,0.1222,1962.8665],[35.1233,0.1323,1917.7374],[35.1279,0.1347,1903.012],[35.1308,0.1404,1924.6171],[35.1202,0.142,1989.8103],[35.1146,0.1387,1946.6279],[35.104,0.1493,1943.0061],[35.1033,0.1482,1936.6118],[35.0957,0.1504,1920.2319],[35.094,0.1488,1920.2319],[35.092,0.1505,1946.9806],[35.0901,0.148,1925.1772],[35.0884,0.1487,1933.0723],[35.0826,0.1461,1904.3],[35.0794,0.1392,1898.8367],[35.0726,0.1422,1954.172],[35.0719,0.1379,1911.0553],[35.0698,0.1384,1916.4803],[35.0704,0.1358,1906.0923],[35.067,0.1334,1946.5345],[35.0639,0.1258,1909.0156],[35.0546,0.1243,1906.8124],[35.0512,0.1281,1927.2505],[35.0444,0.1263,1909.6002],[35.0341,0.1296,1874.2585],[35.0228,0.1271,1844.8632],[35.0202,0.1315,1844.9186],[35.0182,0.1314,1828.9174],[35.0183,0.1261,1807.8005],[35.0153,0.1229,1843.8992],[35.0108,0.1223,1857.2526],[35.0019,0.1106,1927.046],[35.0019,0.1051,1937.7174],[35.0049,0.1018,1957.177],[35.0039,0.0922,1953.4927],[35.0019,0.0899,1967.0969],[34.9915,0.0862,2029.0793],[34.9713,0.0837,1986.4108],[34.9469,0.0886,1869.2826],[34.9421,0.0854,1843.1479],[34.9363,0.0875,1860.2478],[34.9331,0.0917,1822.4105],[34.9295,0.0928,1804.8784],[34.9282,0.098,1811.9818],[34.9315,0.1061,1854.8638],[34.929,0.1222,1836.77],[34.9364,0.1288,1779.1301],[34.9362,0.1313,1772.4069],[34.9053,0.1448,1716.2231],[34.9092,0.1589,1703.7886],[34.9019,0.158,1665.2361],[34.8829,0.1481,1701.7479],[34.882,0.1425,1700.8528],[34.8725,0.1376,1696.2975],[34.8645,0.1283,1719.7988],[34.8596,0.1256,1701.7942],[34.8568,0.1132,1676.9406],[34.8592,0.1091,1691.762],[34.8572,0.0995,1689.5823],[34.8599,0.0884,1709.3538],[34.8581,0.0854,1709.2854],[34.8551,0.0841,1720.9628],[34.8532,0.078,1749.9369],[34.8486,0.0745,1724.6744],[34.8468,0.0688,1724.3934],[34.8495,0.0651,1672.1678],[34.8396,0.0511,1724.9938],[34.838,0.0394,1694.3148],[34.836,0.0365,1620.4929],[34.8287,0.0349,1681.6356],[34.8206,0.0392,1562.8123],[34.8093,0.0334,1459.952],[34.8085,0.0317,1453.7831],[34.8102,0.0286,1534.2274],[34.8089,0.0276,1478.073],[34.8043,0.0264,1444.7808],[34.7985,0.03,1501.7831],[34.7984,0.028,1478.5657],[34.7897,0.0239,1495.2428],[34.7899,0.022,1486.4395],[34.7861,0.0176,1428.8425],[34.7839,0.0188,1416.5486],[34.7835,0.0171,1413.2867],[34.7811,0.0167,1403.9561],[34.7786,0.0111,1411.9121],[34.7747,0.0104,1413.0039],[34.77,0.0058,1398.3424],[34.7667,0.0062,1429.3799],[34.7628,0.0034,1412.8961],[34.7597,0.0084,1437.4319],[34.7598,0.0145,1452.5782],[34.7543,0.0151,1438.6525],[34.7513,0.0119,1480.8982],[34.7475,0.0112,1523.6163],[34.7474,0.0092,1527.1095],[34.7411,0.0093,1524.5854],[34.7395,0.0037,1525.7161],[34.7444,-0.0052,1514.6313],[34.7449,-0.0123,1522.8035],[34.7482,-0.0114,1510.5006],[34.7497,-0.0146,1497.9679],[34.7495,-0.016,1497.9679],[34.7466,-0.0169,1495.4797],[34.7522,-0.0287,1492.6423],[34.758,-0.0194,1431.601],[34.7615,-0.0169,1320.4141],[34.7643,-0.0105,1366.3932],[34.7708,-0.0117,1265.4781],[34.7755,-0.01,1335.9723],[34.7808,-0.0125,1299.8237],[34.7862,-0.0011,1435.8143],[34.804,0.0151,1506.9498],[34.8095,0.016,1522.13],[34.8165,0.0224,1639.8867],[34.819,0.0275,1656.2643],[34.8314,0.0301,1584.4266],[34.8101,0.0,1395.635],[34.808,-0.005,1239.007],[34.81,-0.0059,1233.3191],[34.8102,-0.0082,1260.6019],[34.8062,-0.011,1213.5887],[34.8081,-0.0156,1242.745],[34.8276,-0.0218,1494.788],[34.8912,-0.0188,1597.6218],[34.909,-0.0222,1741.3561],[34.922,-0.0196,1760.4192],[34.9195,-0.0269,1384.0001],[34.9233,-0.0302,1494.455],[34.934,-0.0297,1447.209],[34.9412,-0.027,1493.9045],[34.9414,-0.0238,1654.3849],[34.9381,-0.0201,1780.077],[34.9373,-0.0159,1838.6855],[34.9464,-0.0098,1837.7047],[34.9482,-0.0076,1842.417],[34.9479,-0.005,1846.5758],[34.9879,-0.005,1733.2032],[34.9959,-0.0033,1553.5641],[35.0,-0.0006,1671.764],[35.002,-0.0033,1549.9006],[35.0016,-0.006,1529.7002],[35.0043,-0.0078,1533.9127],[35.0039,-0.0163,1303.9949],[35.0177,-0.0219,1719.4608],[35.0234,-0.0203,1775.2615],[35.0255,-0.0246,1475.802],[35.0275,-0.0228,1717.0771],[35.0291,-0.0239,1677.0625],[35.0333,-0.023,1702.7408],[35.0387,-0.0189,1680.3823],[35.0431,-0.023,1431.7383],[35.0442,-0.0215,1438.5204],[35.0435,-0.0155,1437.1279],[35.0456,-0.0155,1418.0725],[35.0465,-0.0118,1414.3513],[35.043,-0.0094,1460.5046],[35.0464,-0.0072,1434.8059],[35.0469,-0.0021,1667.9042],[35.0456,-0.0002,1718.1304],[35.0496,-0.0027,1679.0779],[35.0517,-0.0083,1504.2076],[35.0542,-0.0088,1578.3086],[35.0567,-0.0074,1562.7964],[35.0572,-0.0011,1568.3647],[35.0636,-0.0063,1608.6171],[35.0687,-0.0038,1573.6666],[35.0707,-0.0009,1706.9481],[35.0806,-0.0032,1596.9303],[35.0851,-0.0026,1762.5957],[35.0894,0.0008,1527.4012],[35.0909,0.0038,1492.1821],[35.0898,0.0075,1507.5612],[35.0913,0.015,1784.1487],[35.098,0.0187,1504.2533],[35.0976,0.0229,1498.9896],[35.1004,0.0253,1571.1047],[35.0992,0.028,1648.53],[35.0962,0.0285,1581.8203],[35.0966,0.0333,1826.3733],[35.0948,0.0328,1786.3158],[35.0944,0.0347,1814.4795],[35.0914,0.0358,1728.5562],[35.0924,0.0376,1750.3291],[35.0892,0.0408,1741.7012],[35.0906,0.0439,1775.2242],[35.0879,0.0504,1800.5222]]]]}}