{"type":"Feature","properties":{"GID_3":"KEN.6.3.3_1","GID_0":"KEN","country":"Kenya","GID_1":"KEN.6_1","province":"Embu","NL_NAME_1":"NA","GID_2":"KEN.6.3_1","county":"MbeereSouth","NL_NAME_2":"NA","city":"Mavuria","VARNAME_3":"NA","NL_NAME_3":"NA","TYPE_3":"Ward","ENGTYPE_3":"Ward","CC_3":"326","HASC_3":"NA","name":"Mavuria.city"},
"geometry":{"type": "MultiPolygon","coordinates": [[[[37.6657,-0.6391,1066.6317],[37.6648,-0.6409,1061.0144],[37.6609,-0.6391,1064.9059],[37.6621,-0.6371,1058.9082],[37.6605,-0.6365,1058.5245],[37.6612,-0.6352,1057.4595],[37.6567,-0.6327,1072.8635],[37.6562,-0.6305,1091.8678],[37.6532,-0.6315,1075.8503],[37.6516,-0.6284,1079.8601],[37.649,-0.6297,1087.5117],[37.6466,-0.6289,1097.569],[37.64,-0.6238,1095.8855],[37.6354,-0.6245,1114.5502],[37.6308,-0.6227,1137.238],[37.6293,-0.6185,1163.1021],[37.6243,-0.6197,1173.7915],[37.62,-0.6176,1218.064],[37.6214,-0.621,1178.1331],[37.6196,-0.624,1256.6104],[37.6208,-0.6269,1207.7655],[37.6191,-0.6338,1220.113],[37.6224,-0.6444,1318.9326],[37.6179,-0.6504,1393.5452],[37.6118,-0.6806,1518.7678],[37.6156,-0.7135,1172.8984],[37.6152,-0.7153,1145.2095],[37.6114,-0.7162,1145.1387],[37.6097,-0.7184,1124.9457],[37.6125,-0.7259,1102.2015],[37.6074,-0.7452,1034.205],[37.6081,-0.7471,1028.5298],[37.6117,-0.7473,1042.071],[37.6136,-0.7529,1020.6829],[37.6169,-0.7554,1034.0078],[37.6308,-0.7544,1050.4314],[37.6315,-0.7597,1016.9802],[37.6378,-0.7663,1019.6865],[37.637,-0.7727,1030.1606],[37.6384,-0.7761,1011.061],[37.6358,-0.7777,1025.8838],[37.6337,-0.7933,1007.0051],[37.6315,-0.7959,1007.5547],[37.6327,-0.7979,1006.0344],[37.6314,-0.8018,1006.4324],[37.6341,-0.8032,1005.855],[37.636,-0.811,1006.6926],[37.6386,-0.8113,1004.6476],[37.6404,-0.8137,1004.0],[37.6443,-0.8141,1007.848],[37.6459,-0.8191,1004.0],[37.6513,-0.8208,1011.8724],[37.6594,-0.8267,1004.0],[37.6634,-0.8197,1007.4509],[37.6651,-0.8257,1004.0],[37.6702,-0.8262,1004.0],[37.6719,-0.8292,1004.0],[37.6748,-0.8252,1004.0],[37.6815,-0.8226,1004.0],[37.6798,-0.8175,1004.0],[37.6824,-0.8087,1004.0],[37.681,-0.7996,972.4592],[37.6819,-0.7953,973.7408],[37.6878,-0.794,980.9094],[37.6902,-0.7968,970.5649],[37.6928,-0.7947,956.9959],[37.6929,-0.7911,968.7289],[37.6988,-0.789,961.4685],[37.6987,-0.7842,967.3395],[37.7117,-0.7801,931.098],[37.7242,-0.7804,937.1897],[37.7332,-0.7745,940.7499],[37.743,-0.7785,925.0],[37.745,-0.7808,925.0],[37.7498,-0.8028,922.9648],[37.7548,-0.8127,901.4661],[37.7539,-0.8154,892.5886],[37.7561,-0.8182,885.9291],[37.7573,-0.8238,867.7808],[37.7649,-0.8243,850.37],[37.7711,-0.8207,829.156],[37.7795,-0.8249,799.1313],[37.7821,-0.8248,786.1959],[37.784,-0.8227,792.2843],[37.788,-0.8227,783.6351],[37.791,-0.819,779.4268],[37.7964,-0.8168,779.0],[37.7994,-0.8102,783.8454],[37.8018,-0.8087,779.0],[37.7927,-0.7977,872.4252],[37.7934,-0.7829,835.182],[37.7912,-0.7811,869.1148],[37.7937,-0.779,836.6356],[37.7932,-0.7745,858.2424],[37.7858,-0.7713,867.2293],[37.7845,-0.7681,892.3113],[37.7813,-0.769,883.4142],[37.7796,-0.7651,892.6718],[37.7705,-0.7677,909.7463],[37.7705,-0.7654,906.1436],[37.7667,-0.7603,928.2844],[37.7597,-0.7567,937.9692],[37.7566,-0.7515,949.5574],[37.7533,-0.7503,955.0735],[37.7507,-0.7465,959.3353],[37.7503,-0.7421,964.5533],[37.746,-0.7371,976.735],[37.7456,-0.7305,976.5432],[37.7409,-0.7246,987.422],[37.732,-0.7044,1022.5297],[37.726,-0.6968,1026.587],[37.7202,-0.6942,1035.8265],[37.7246,-0.6847,1015.948],[37.7284,-0.6707,983.1318],[37.7331,-0.6648,957.0272],[37.7275,-0.663,983.7098],[37.7261,-0.6641,983.7098],[37.7242,-0.6614,991.0804],[37.7221,-0.6613,956.6141],[37.7211,-0.6585,977.1667],[37.7198,-0.6595,977.1667],[37.7194,-0.6575,997.1271],[37.7168,-0.6586,964.5473],[37.7135,-0.6565,972.701],[37.7114,-0.6592,978.3301],[37.7105,-0.6575,984.8256],[37.7082,-0.6592,987.8329],[37.7047,-0.6561,994.9683],[37.7016,-0.6625,989.4382],[37.701,-0.661,992.9563],[37.6978,-0.6607,986.202],[37.6981,-0.6583,987.1774],[37.6958,-0.6579,997.6169],[37.6958,-0.6562,1004.4827],[37.6941,-0.656,1000.9825],[37.6936,-0.6576,1000.5705],[37.6902,-0.6562,1007.6404],[37.6906,-0.6544,1019.8655],[37.6815,-0.6534,1012.9598],[37.6806,-0.6513,1040.4421],[37.6778,-0.6506,1033.7812],[37.6755,-0.6523,1021.6904],[37.673,-0.6492,1034.2939],[37.6702,-0.649,1026.7119],[37.6683,-0.6444,1032.488],[37.6666,-0.644,1037.9895],[37.6676,-0.6409,1036.2195],[37.6657,-0.6391,1066.6317]]]]}}