{"type":"Feature","properties":{"GID_3":"KEN.25.2.2_1","GID_0":"KEN","country":"Kenya","GID_1":"KEN.25_1","province":"Marsabit","NL_NAME_1":"NA","GID_2":"KEN.25.2_1","county":"Moyale","NL_NAME_2":"NA","city":"Golbo","VARNAME_3":"NA","NL_NAME_3":"NA","TYPE_3":"Ward","ENGTYPE_3":"Ward","CC_3":"224","HASC_3":"NA","name":"Golbo.city"},
"geometry":{"type": "MultiPolygon","coordinates": [[[[39.1587,3.4988,817.0056],[39.1623,3.4957,818.6329],[39.1589,3.4875,800.2924],[39.1593,3.4817,849.5232],[39.1437,3.4683,770.8886],[39.1285,3.4581,757.4306],[39.1217,3.4709,765.709],[39.1051,3.4765,777.2395],[39.1007,3.4763,782.8909],[39.0921,3.4824,792.1964],[39.0959,3.4707,780.5415],[39.0955,3.4665,773.5775],[39.0899,3.4441,772.4156],[39.0833,3.4059,763.4018],[39.0785,3.3605,717.3387],[39.0793,3.3505,717.7303],[39.0713,3.3341,670.6414],[39.0659,3.3357,669.4539],[39.0601,3.3343,658.9298],[39.0517,3.3359,649.8177],[39.0447,3.3313,637.8969],[39.0473,3.3255,639.0244],[39.0599,3.3153,692.8795],[39.0603,3.3133,701.7254],[39.0547,3.3027,653.533],[39.0545,3.2989,649.5378],[39.0587,3.2899,642.3653],[39.0743,3.2773,649.9843],[39.0875,3.2695,637.7354],[39.1077,3.2455,627.9364],[39.1157,3.2321,621.6033],[39.1273,3.2189,616.7817],[39.1253,3.1957,616.6567],[39.1191,3.1869,622.5891],[39.1167,3.172,615.6775],[39.1203,3.1583,608.3677],[39.1277,3.1453,604.2064],[39.1277,3.1425,604.1985],[39.1188,3.1347,595.0723],[39.1143,3.1261,585.3618],[39.1201,3.0895,577.3831],[39.1143,3.0749,575.4016],[39.1125,3.0649,566.2087],[39.1239,3.0295,560.2815],[39.1217,3.0001,545.8518],[39.1257,2.9931,546.4998],[39.1255,2.9903,543.025],[39.1211,2.9841,539.1613],[39.1183,2.9579,537.7409],[39.1249,2.9369,540.2108],[39.1269,2.9347,538.6339],[39.1383,2.9385,545.4774],[39.1487,2.9531,554.5458],[39.1517,2.9545,552.9395],[39.1939,2.9565,530.413],[39.2003,2.9665,533.2482],[39.2174,2.978,542.6575],[39.2247,2.9793,546.0142],[39.2375,2.9847,558.7094],[39.2455,2.9855,565.5623],[39.2501,2.9891,569.9893],[39.2503,2.9953,574.1598],[39.2571,3.0037,565.4036],[39.2897,3.0375,578.8041],[39.3245,3.0549,590.7775],[39.3453,3.0707,603.6445],[39.3455,3.1155,626.7695],[39.342,3.2508,653.4286],[39.3395,3.2712,628.0391],[39.337,3.2809,633.1202],[39.328,3.2886,631.5157],[39.3126,3.4079,689.0561],[39.3005,3.4274,726.3284],[39.2987,3.4399,734.6737],[39.303,3.4556,753.0121],[39.3143,3.4688,775.0115],[39.3077,3.4696,766.2805],[39.3082,3.4773,790.8105],[39.2988,3.4769,795.495],[39.2799,3.4729,993.7758],[39.2005,3.4791,813.8015],[39.1587,3.4988,817.0056]]]]}}