{"type": "Feature","bbox": [35.536,0.7247,35.6435,0.8736],"geometry": {"type": "MultiPolygon","coordinates": [[[[35.6246,0.8653,1015.0154],[35.6026,0.8569,1119.1606],[35.5745,0.8662,2272.5103],[35.5425,0.8736,2530.6248],[35.5428,0.8646,2483.6177],[35.5445,0.8611,2484.3931],[35.5433,0.858,2477.7935],[35.5433,0.8174,2481.2324],[35.5413,0.8137,2425.5706],[35.5382,0.7904,2448.0947],[35.5409,0.7834,2234.4795],[35.5481,0.7738,2187.2368],[35.5401,0.7584,2368.8694],[35.5391,0.7481,2359.2747],[35.536,0.74,2332.4243],[35.5383,0.7332,2232.3899],[35.5443,0.7341,2132.5349],[35.5463,0.7328,2135.8191],[35.546,0.7263,2116.0508],[35.6306,0.7247,1040.7231],[35.6309,0.7269,1042.0088],[35.6284,0.727,1042.3591],[35.6281,0.7288,1040.3524],[35.6252,0.7298,1040.1987],[35.6289,0.7307,1043.3376],[35.6261,0.733,1039.0404],[35.6268,0.734,1037.9803],[35.6241,0.7331,1040.4561],[35.6228,0.7343,1039.5659],[35.6227,0.7382,1037.4742],[35.6245,0.7392,1038.9087],[35.6204,0.7399,1047.967],[35.62,0.7429,1047.006],[35.621,0.7456,1038.8364],[35.6224,0.7453,1038.4402],[35.6239,0.7488,1037.8925],[35.6246,0.748,1036.7543],[35.6261,0.7512,1037.3068],[35.6249,0.7521,1037.1366],[35.6268,0.7527,1036.1438],[35.6257,0.76,1035.9954],[35.6291,0.7663,1033.9602],[35.627,0.7672,1036.7661],[35.6293,0.7697,1034.3982],[35.6293,0.7738,1038.8511],[35.6319,0.7752,1035.2048],[35.6309,0.7787,1035.5817],[35.6322,0.7781,1035.5817],[35.6348,0.7824,1031.4219],[35.6341,0.792,1029.8591],[35.6379,0.7929,1029.996],[35.6364,0.7937,1029.9684],[35.637,0.797,1029.1156],[35.634,0.7975,1028.5112],[35.6369,0.8027,1028.7205],[35.6351,0.8027,1028.7205],[35.6357,0.8052,1027.14],[35.6342,0.8047,1027.6566],[35.6331,0.8106,1029.4963],[35.6339,0.8115,1029.4963],[35.6352,0.8099,1027.0205],[35.6344,0.8114,1029.4963],[35.6358,0.8128,1027.4065],[35.6339,0.8147,1032.6749],[35.6371,0.8157,1024.7722],[35.637,0.8175,1025.5762],[35.6425,0.8226,1023.7198],[35.6427,0.8275,1019.8564],[35.6363,0.8307,1024.1838],[35.6372,0.8323,1021.8948],[35.639,0.8315,1021.8292],[35.6397,0.8338,1021.6593],[35.6381,0.8375,1021.0778],[35.6396,0.8394,1020.1111],[35.6367,0.8394,1022.8322],[35.6363,0.8407,1021.85],[35.6392,0.8404,1020.1111],[35.6435,0.8452,1023.578],[35.6356,0.8492,1017.0805],[35.6361,0.8536,1016.0951],[35.6313,0.8547,1031.4615],[35.6255,0.8589,1012.0165],[35.6246,0.8653,1015.0154]]]]}
,"properties": {"GID_3": "KEN.5.1.1_1","GID_0": "KEN","country": "Kenya","GID_1": "KEN.5_1","province": "Elgeyo-Marakwet","NL_NAME_1": "NA","GID_2": "KEN.5.1_1","county": "KeiyoNorth","NL_NAME_2": "NA","city": "Emsoo","VARNAME_3": "NA","NL_NAME_3": "NA","TYPE_3": "Ward","ENGTYPE_3": "Ward","CC_3": "741","HASC_3": "NA","name": "Emsoo.city","area_km2": 155.6939,"hist_schema_id": "Elevation0-9000","hist_area_km2": {"1000": 0.0424,"1025": 8.8828,"1050": 19.059,"1075": 14.7341,"1100": 11.0877,"1125": 9.0525,"1150": 7.6533,"1175": 5.7029,"1200": 4.1764,"1225": 3.0528,"1250": 2.3532,"1275": 2.3956,"1300": 2.0776,"1325": 1.8232,"1350": 1.5264,"1375": 1.8444,"1400": 1.3568,"1425": 1.3568,"1450": 1.3144,"1475": 1.3568,"1500": 1.2932,"1525": 1.2296,"1550": 1.1872,"1575": 1.0388,"1600": 1.0176,"1625": 1.1236,"1650": 0.8904,"1675": 0.7844,"1700": 0.8904,"1725": 1.2084,"1750": 0.8056,"1775": 0.8268,"1800": 0.954,"1825": 0.742,"1850": 0.9328,"1875": 1.0388,"1900": 0.9964,"1925": 0.8904,"1950": 1.0176,"1975": 0.9964,"2000": 0.9328,"2025": 1.0176,"2050": 1.0388,"2075": 1.59,"2100": 1.6324,"2125": 1.59,"2150": 2.3532,"2175": 2.1836,"2200": 1.9504,"2225": 1.6324,"2250": 1.802,"2275": 1.1236,"2300": 0.8904,"2325": 1.3568,"2350": 1.1872,"2375": 0.7208,"2400": 0.6996,"2425": 0.8692,"2450": 1.696,"2475": 3.0952,"2500": 3.1164,"2525": 1.908,"2550": 0.53,"2575": 0.0636}}}