{"type":"Feature","properties":{"GID_3":"KEN.36.1.2_1","GID_0":"KEN","country":"Kenya","GID_1":"KEN.36_1","province":"Nyeri","NL_NAME_1":"NA","GID_2":"KEN.36.1_1","county":"Kieni","NL_NAME_2":"NA","city":"Gatarakwa","VARNAME_3":"NA","NL_NAME_3":"NA","TYPE_3":"Ward","ENGTYPE_3":"Ward","CC_3":"473","HASC_3":"NA","name":"Gatarakwa.city"},
"geometry":{"type": "MultiPolygon","coordinates": [[[[36.8394,-0.1917,2012.1437],[36.8354,-0.1924,2025.6787],[36.8324,-0.197,2020.7815],[36.8267,-0.1969,2045.9656],[36.8225,-0.2021,2040.436],[36.819,-0.2026,2080.4966],[36.8193,-0.2043,2080.2842],[36.8158,-0.2051,2096.2285],[36.8131,-0.2078,2101.6638],[36.8111,-0.2069,2111.749],[36.8073,-0.2091,2116.9553],[36.8035,-0.2167,2142.022],[36.801,-0.2161,2133.6479],[36.7974,-0.2187,2170.0181],[36.7894,-0.2142,2170.7891],[36.7864,-0.2194,2197.6245],[36.7806,-0.2215,2221.1948],[36.7789,-0.2204,2206.2349],[36.7757,-0.2254,2254.5498],[36.7716,-0.2271,2277.2085],[36.7678,-0.2259,2290.2183],[36.7652,-0.223,2286.0022],[36.7591,-0.2237,2317.325],[36.7561,-0.2212,2338.1633],[36.7514,-0.224,2366.6746],[36.7465,-0.222,2380.9231],[36.7421,-0.2221,2374.6953],[36.7408,-0.2241,2396.6726],[36.7348,-0.2235,2465.5527],[36.7276,-0.2269,2513.4646],[36.7239,-0.2327,2592.6533],[36.7165,-0.2321,2622.4087],[36.71,-0.2371,2662.3425],[36.7054,-0.2382,2708.4482],[36.7016,-0.2419,2745.8708],[36.6866,-0.2476,2937.6274],[36.6786,-0.2625,2934.7896],[36.6721,-0.27,3179.0586],[36.6464,-0.2879,3506.3606],[36.6394,-0.2963,3586.1855],[36.6224,-0.3115,3802.4053],[36.6267,-0.328,3649.4041],[36.6352,-0.3343,3525.1035],[36.6388,-0.3437,3410.8706],[36.647,-0.3531,3380.9966],[36.6566,-0.356,3407.28],[36.667,-0.3532,3382.1719],[36.6786,-0.3573,3253.3259],[36.69,-0.3558,3199.9509],[36.6971,-0.3598,3180.2117],[36.7005,-0.3592,3141.0764],[36.7054,-0.355,3078.1797],[36.7085,-0.3446,3026.4199],[36.7139,-0.3437,3023.9966],[36.7246,-0.338,2981.2268],[36.7414,-0.3372,2813.822],[36.7461,-0.3278,2785.1946],[36.7513,-0.3229,2683.6875],[36.7559,-0.3223,2651.582],[36.758,-0.3192,2636.1726],[36.7642,-0.3216,2617.5742],[36.7662,-0.3198,2609.1641],[36.7492,-0.299,2594.8171],[36.7582,-0.2973,2578.8674],[36.7631,-0.2939,2502.8284],[36.7697,-0.2933,2442.3589],[36.7817,-0.2889,2457.6497],[36.7914,-0.2808,2379.2214],[36.7963,-0.2787,2322.0645],[36.8134,-0.2601,2256.5186],[36.8231,-0.252,2148.5698],[36.8294,-0.2589,2146.1321],[36.831,-0.2556,2121.6963],[36.8362,-0.252,2102.0083],[36.845,-0.2485,2084.5051],[36.8371,-0.2301,2051.9109],[36.8306,-0.2359,2081.7551],[36.8231,-0.2253,2034.2223],[36.8435,-0.2142,1977.141],[36.8412,-0.2076,1996.4086],[36.8448,-0.206,1989.4688],[36.8394,-0.1917,2012.1437]]]]}}