{"type": "Feature","bbox": [34.9503,-0.8111,35.061,-0.7011],"geometry": {"type": "MultiPolygon","coordinates": [[[[35.0486,-0.704,1838.4681],[35.0429,-0.7084,1872.9816],[35.0387,-0.7089,1906.6075],[35.0131,-0.7011,2123.8276],[35.0115,-0.7033,2167.5542],[35.0064,-0.7037,2155.0022],[35.0002,-0.7145,2015.0491],[34.9938,-0.7189,2057.4822],[34.9752,-0.7569,2134.1155],[34.9805,-0.7592,2147.4917],[34.9503,-0.7787,2046.2888],[34.9697,-0.8111,1962.2535],[34.9892,-0.805,1915.2139],[34.9922,-0.8074,1928.3384],[34.9996,-0.8095,1909.4122],[34.9987,-0.8032,1935.9264],[35.0013,-0.8,1994.057],[35.0049,-0.8042,1952.8505],[35.0053,-0.7999,1953.2976],[35.012,-0.8011,1878.7174],[35.0111,-0.7982,1892.8986],[35.0273,-0.7974,1826.9531],[35.0276,-0.7768,1859.7095],[35.0326,-0.774,1885.8157],[35.027,-0.7658,1880.2834],[35.0252,-0.766,1875.1068],[35.021,-0.7621,1869.26],[35.0307,-0.7531,1928.2955],[35.0295,-0.7507,1914.9182],[35.061,-0.7308,1836.0264],[35.0486,-0.704,1838.4681]]]]}
,"properties": {"GID_3": "KEN.34.1.4_1","GID_0": "KEN","country": "Kenya","GID_1": "KEN.34_1","province": "Nyamira","NL_NAME_1": "NA","GID_2": "KEN.34.1_1","county": "Borabu","NL_NAME_2": "NA","city": "Nyansiongo","VARNAME_3": "NA","NL_NAME_3": "NA","TYPE_3": "Ward","ENGTYPE_3": "Ward","CC_3": "1364","HASC_3": "NA","name": "Nyansiongo.city","area_km2": 76.04568,"hist_schema_id": "Elevation0-9000","hist_area_km2": {"1825": 0.57241,"1850": 4.64288,"1875": 7.16572,"1900": 8.39533,"1925": 9.39174,"1950": 8.33173,"1975": 7.95013,"2000": 7.33532,"2025": 6.63572,"2050": 5.00329,"2075": 3.24366,"2100": 2.56525,"2125": 2.75606,"2150": 1.65363,"2175": 0.40281}}}