{"type": "Feature","bbox": [37.1844,-0.575,37.3066,-0.1487],"geometry": {"type": "MultiPolygon","coordinates": [[[[37.2356,-0.5103,1560.6465],[37.2352,-0.5066,1577.5441],[37.23,-0.5002,1593.6694],[37.2303,-0.4964,1604.6902],[37.2271,-0.4921,1649.7233],[37.2271,-0.4868,1674.7185],[37.2198,-0.4773,1700.9572],[37.2184,-0.4717,1732.1149],[37.2218,-0.4639,1756.7042],[37.2183,-0.4576,1794.641],[37.2172,-0.4428,1876.392],[37.2139,-0.4324,1893.781],[37.2171,-0.4261,1961.1283],[37.2158,-0.4165,2019.5735],[37.3066,-0.1487,4799.2642],[37.205,-0.4176,1977.307],[37.2027,-0.4232,1938.8391],[37.2008,-0.4231,1908.9277],[37.1989,-0.4259,1897.4911],[37.1996,-0.4346,1827.1632],[37.1875,-0.437,1860.2776],[37.1844,-0.4427,1870.1748],[37.1899,-0.4582,1781.957],[37.1936,-0.461,1739.2966],[37.1848,-0.4717,1710.9702],[37.1851,-0.479,1738.9215],[37.1907,-0.4891,1682.8082],[37.1914,-0.4941,1660.5836],[37.1899,-0.4959,1668.1759],[37.1935,-0.4979,1644.5891],[37.1936,-0.5023,1667.4681],[37.1966,-0.5065,1642.832],[37.1985,-0.5223,1661.5146],[37.196,-0.529,1569.1309],[37.1998,-0.5361,1518.4554],[37.201,-0.5419,1482.2622],[37.2056,-0.5487,1449.2917],[37.2096,-0.5478,1484.9124],[37.2108,-0.5492,1472.2451],[37.2069,-0.5516,1453.0153],[37.2113,-0.5531,1450.4188],[37.2104,-0.5599,1439.3589],[37.2137,-0.5638,1408.6367],[37.2164,-0.5621,1418.7811],[37.2183,-0.5647,1402.7953],[37.222,-0.5623,1418.4849],[37.2242,-0.5665,1357.8385],[37.2291,-0.5652,1370.9897],[37.2369,-0.5727,1330.3087],[37.2409,-0.573,1298.045],[37.2424,-0.575,1302.1036],[37.248,-0.575,1274.2126],[37.2461,-0.5639,1333.7773],[37.2474,-0.5607,1326.9116],[37.245,-0.5524,1372.4548],[37.2503,-0.5472,1369.9181],[37.2492,-0.5452,1385.5126],[37.2504,-0.5385,1406.4708],[37.2468,-0.5352,1422.3325],[37.247,-0.531,1449.4701],[37.2441,-0.5267,1457.8456],[37.2352,-0.5173,1530.0852],[37.2356,-0.5103,1560.6465]]]]}
,"properties": {"GID_3": "KEN.15.4.3_1","GID_0": "KEN","country": "Kenya","GID_1": "KEN.15_1","province": "Kirinyaga","NL_NAME_1": "NA","GID_2": "KEN.15.4_1","county": "Ndia","NL_NAME_2": "NA","city": "Mukure","VARNAME_3": "NA","NL_NAME_3": "NA","TYPE_3": "Ward","ENGTYPE_3": "Ward","CC_3": "509","HASC_3": "NA","name": "Mukure.city","area_km2": 81.60452,"hist_schema_id": "Elevation0-9000","hist_area_km2": {"1275": 0.10601,"1300": 0.44522,"1325": 0.78444,"1350": 1.20847,"1375": 2.07772,"1400": 2.71376,"1425": 2.94697,"1450": 3.51941,"1475": 3.4134,"1500": 4.32506,"1525": 4.47348,"1550": 4.34628,"1575": 2.86219,"1600": 2.79859,"1625": 2.9894,"1650": 3.13781,"1675": 3.34983,"1700": 2.45937,"1725": 2.01414,"1750": 2.01414,"1775": 2.48058,"1800": 1.95054,"1825": 1.61132,"1850": 2.07775,"1875": 1.3781,"1900": 0.89047,"1925": 0.57244,"1950": 0.48764,"1975": 0.78446,"2000": 0.33923,"2025": 0.46644,"2050": 0.40283,"2075": 0.36043,"2100": 0.33923,"2125": 0.53004,"2150": 0.69966,"2175": 0.89047,"2200": 0.61485,"2225": 0.25442,"2250": 0.36043,"2275": 0.40283,"2300": 0.23322,"2325": 0.27562,"2350": 0.23322,"2375": 0.40283,"2400": 0.29683,"2425": 0.29683,"2450": 0.38163,"2475": 0.25442,"2500": 0.44524,"2525": 0.44524,"2550": 0.40284,"2575": 0.31803,"2600": 0.14841,"2625": 0.14841,"2650": 0.10601,"2675": 0.19082,"2700": 0.27562,"2725": 0.36043,"2750": 0.42404,"2775": 0.06361,"2800": 0.16962,"2825": 0.19082,"2850": 0.14841,"2875": 0.21202,"2900": 0.16962,"2925": 0.10601,"2950": 0.21202,"2975": 0.06361,"3000": 0.31803,"3025": 0.21202,"3050": 0.08481,"3075": 0.06361,"3100": 0.16962,"3125": 0.08481,"3150": 0.10601,"3175": 0.12721,"3200": 0.08481,"3225": 0.0424,"3250": 0.14841,"3275": 0.14841,"3300": 0.06361,"3325": 0.06361,"3350": 0.06361,"3375": 0.10601,"3400": 0.06361,"3425": 0.10601,"3450": 0.14841,"3475": 0.19082,"3500": 0.12721,"3525": 0.16962,"3550": 0.12721,"3575": 0.06361,"3600": 0.0424,"3625": 0.0424,"3650": 0.0424,"3675": 0.0212,"3700": 0.0212,"3725": 0.0424,"3750": 0.0424,"3775": 0.06361,"3800": 0.16962,"3825": 0.12721,"3850": 0.10601,"3875": 0.08481,"3900": 0.0424,"3925": 0.06361,"3950": 0.0212,"3975": 0.08481,"4000": 0.0212,"4100": 0.0212,"4125": 0.06361,"4150": 0.08481,"4175": 0.08481,"4200": 0.08481,"4225": 0.0424,"4250": 0.10601,"4275": 0.0424,"4300": 0.06361,"4325": 0.14841,"4350": 0.0212,"4500": 0.0212,"4525": 0.0212,"4550": 0.0212}}}