{"type":"Feature","properties":{"GID_1":"KEN.10_1","GID_0":"KEN","country":"Kenya","province":"Kajiado","VARNAME_1":"NA","NL_NAME_1":"NA","TYPE_1":"County","ENGTYPE_1":"County","CC_1":"34","HASC_1":"KE.KJ","ISO_1":"KE-10","name":"Kajiado.province"},
"geometry":{"type": "MultiPolygon","coordinates": [[[[37.8725,-3.0622,841.0361],[37.8945,-2.8857,871.4315],[37.9179,-2.8684,1030.1255],[37.9375,-2.7708,1496.3254],[37.9298,-2.7629,1588.869],[37.9263,-2.7496,1846.6117],[37.9261,-2.7407,1836.5635],[37.9291,-2.738,1817.2739],[37.93,-2.721,1868.3444],[37.9208,-2.7042,1930.0907],[37.9072,-2.7037,1954.8033],[37.9011,-2.7015,2026.1724],[37.8926,-2.6747,2071.5525],[37.8789,-2.6609,2068.3162],[37.8691,-2.6432,1987.7568],[37.8605,-2.6223,1794.6064],[37.8497,-2.6039,1967.3331],[37.5962,-2.312,1020.0941],[37.5983,-2.3095,1019.8196],[37.5999,-2.3112,1019.937],[37.6015,-2.3092,1019.4216],[37.6042,-2.3114,1016.1079],[37.6075,-2.3079,1013.92],[37.6066,-2.3034,1014.6783],[37.6099,-2.3022,1014.0133],[37.6124,-2.2976,1012.3843],[37.6184,-2.2978,1010.8885],[37.6218,-2.3044,1007.8296],[37.6259,-2.3012,1007.552],[37.6309,-2.3014,1005.9974],[37.6323,-2.2988,1004.283],[37.6318,-2.294,1004.3495],[37.637,-2.2977,1006.8696],[37.6425,-2.2971,1020.5216],[37.6461,-2.2993,996.3548],[37.6483,-2.2915,993.9225],[37.6552,-2.2875,990.9653],[37.658,-2.2865,992.6777],[37.6602,-2.2889,991.7802],[37.6645,-2.29,989.0035],[37.6699,-2.288,988.3711],[37.6701,-2.2851,985.4449],[37.6679,-2.2839,988.0841],[37.667,-2.2809,991.7997],[37.6722,-2.2793,980.3585],[37.6733,-2.2675,981.7036],[37.6785,-2.2643,972.6035],[37.6761,-2.2595,979.5912],[37.6783,-2.2535,967.842],[37.6787,-2.2432,963.6059],[37.6756,-2.2392,961.7102],[37.6763,-2.2325,959.8391],[37.6749,-2.228,960.496],[37.6793,-2.2278,957.8442],[37.6802,-2.2256,957.8276],[37.6837,-2.2241,952.3147],[37.688,-2.2155,938.9019],[37.6947,-2.2099,930.6047],[37.7059,-2.1947,921.4207],[37.7155,-2.1903,917.5609],[37.7243,-2.1915,910.8604],[37.7239,-2.1885,915.5795],[37.7076,-2.1816,911.8579],[37.7058,-2.1725,919.5668],[37.6991,-2.1643,930.7721],[37.6924,-2.1647,949.0304],[37.665,-2.1554,970.2318],[37.6213,-2.161,996.5046],[37.5925,-2.1528,1015.636],[37.5731,-2.1376,1044.7644],[37.5646,-2.1268,1054.6804],[37.5505,-2.1271,1060.0198],[37.5452,-2.1252,1063.7983],[37.5431,-2.122,1078.8368],[37.5438,-2.1151,1082.7675],[37.5412,-2.1123,1082.4027],[37.5372,-2.1111,1100.2532],[37.5336,-2.1058,1107.4956],[37.4786,-2.0839,1154.4049],[37.4759,-2.0908,1153.2087],[37.4624,-2.0854,1157.5547],[37.4651,-2.0788,1157.9932],[37.4518,-2.0728,1167.6077],[37.3818,-2.0223,1222.6321],[37.3646,-2.0221,1242.5293],[37.3645,-2.0138,1227.7396],[37.3589,-2.0113,1232.2185],[37.3141,-2.007,1259.5237],[37.308,-2.0018,1266.9917],[37.303,-2.0016,1268.087],[37.2991,-2.0034,1273.5022],[37.2836,-1.9943,1289.1564],[37.2806,-1.994,1289.7649],[37.2758,-1.9753,1303.1077],[37.2678,-1.9642,1321.5704],[37.2657,-1.9581,1318.8195],[37.2593,-1.9585,1322.2097],[37.2556,-1.9568,1327.0815],[37.253,-1.952,1327.9055],[37.2473,-1.9493,1335.1555],[37.2442,-1.942,1340.0242],[37.2363,-1.9353,1356.6509],[37.2234,-1.9321,1371.7314],[37.2111,-1.9314,1385.9441],[37.2059,-1.9337,1390.7441],[37.2001,-1.9318,1397.4884],[37.1922,-1.9345,1405.5588],[37.1867,-1.9332,1415.0924],[37.1823,-1.9285,1428.604],[37.183,-1.9228,1420.9752],[37.1703,-1.9161,1468.6873],[37.17,-1.9119,1459.458],[37.1574,-1.8959,1497.9473],[37.159,-1.8918,1483.0085],[37.1531,-1.8862,1495.9559],[37.1543,-1.8835,1500.6068],[37.1587,-1.8846,1513.4684],[37.1604,-1.8827,1522.5229],[37.1603,-1.8745,1532.9062],[37.1637,-1.871,1550.7268],[37.1621,-1.8669,1547.0295],[37.1624,-1.8567,1552.7362],[37.1569,-1.8504,1574.1329],[37.1556,-1.8447,1564.0878],[37.1477,-1.8397,1581.0802],[37.1431,-1.8397,1576.2659],[37.1418,-1.8382,1573.1135],[37.1434,-1.8349,1560.4636],[37.1475,-1.8335,1564.2247],[37.1488,-1.8311,1573.1406],[37.1436,-1.8276,1577.0374],[37.143,-1.8222,1574.6537],[37.1457,-1.8186,1591.0692],[37.1413,-1.8116,1593.5939],[37.1525,-1.801,1611.6285],[37.1512,-1.7942,1602.6123],[37.1604,-1.7794,1604.4679],[37.1593,-1.7769,1617.2173],[37.1536,-1.7778,1621.0774],[37.152,-1.7763,1615.973],[37.1585,-1.764,1631.2159],[37.1488,-1.7592,1641.7476],[37.147,-1.751,1649.3324],[37.1489,-1.7429,1672.0031],[37.1479,-1.7382,1665.4808],[37.145,-1.7359,1660.2789],[37.141,-1.7357,1658.7811],[37.1328,-1.74,1652.2229],[37.1322,-1.7425,1655.2883],[37.1241,-1.741,1647.0514],[37.1241,-1.7383,1646.1711],[37.118,-1.7371,1641.2517],[37.1114,-1.733,1643.6235],[37.0854,-1.6983,1630.5703],[37.0843,-1.699,1630.5703],[37.0803,-1.6937,1628.9197],[37.0814,-1.6929,1629.7203],[37.0065,-1.5927,1610.0514],[37.0004,-1.5973,1610.0049],[36.9908,-1.5849,1606.3315],[36.996,-1.581,1605.6179],[36.9776,-1.5531,1576.4788],[36.9752,-1.552,1572.7148],[36.9737,-1.5549,1573.356],[36.9662,-1.5533,1581.1434],[36.9572,-1.5423,1583.8087],[36.9573,-1.5327,1598.2584],[36.9589,-1.5296,1597.2117],[36.9613,-1.53,1595.3458],[36.963,-1.5258,1601.1866],[36.9627,-1.5108,1598.6484],[36.9743,-1.4987,1573.246],[36.9708,-1.4893,1555.1982],[36.9776,-1.4748,1553.1348],[36.9474,-1.4592,1532.0112],[36.9496,-1.4554,1528.5706],[36.943,-1.4527,1537.5944],[36.9366,-1.4531,1540.6625],[36.9309,-1.4571,1544.2903],[36.9273,-1.4556,1546.3091],[36.9224,-1.4569,1549.1509],[36.9206,-1.4617,1548.5052],[36.9119,-1.4651,1557.2313],[36.9004,-1.4723,1579.3179],[36.8887,-1.4838,1579.0317],[36.8841,-1.4847,1577.0804],[36.8783,-1.4752,1598.6094],[36.8902,-1.4105,1538.251],[36.8944,-1.411,1546.9141],[36.8949,-1.4092,1559.7241],[36.8819,-1.4037,1579.662],[36.8785,-1.4048,1562.1732],[36.8755,-1.4035,1566.323],[36.8708,-1.4052,1548.2789],[36.8695,-1.4011,1601.0044],[36.8638,-1.4017,1603.9359],[36.8573,-1.3966,1614.7734],[36.8497,-1.3943,1605.9585],[36.8449,-1.3892,1621.0031],[36.8443,-1.3848,1624.4626],[36.8419,-1.3843,1632.3438],[36.8395,-1.386,1630.1575],[36.837,-1.3846,1629.5983],[36.8363,-1.3864,1626.2617],[36.8282,-1.3855,1620.933],[36.8221,-1.383,1619.1532],[36.8197,-1.379,1650.4918],[36.8148,-1.3797,1659.7058],[36.8116,-1.3843,1667.2456],[36.8094,-1.383,1669.6899],[36.8088,-1.3857,1657.3032],[36.8057,-1.387,1663.7358],[36.8051,-1.3844,1676.1184],[36.8026,-1.3864,1675.0571],[36.8002,-1.385,1683.152],[36.796,-1.3859,1684.3677],[36.7954,-1.3834,1686.698],[36.7937,-1.3829,1686.9253],[36.7896,-1.3858,1685.7479],[36.7868,-1.3848,1690.5618],[36.7829,-1.3868,1691.3035],[36.7801,-1.3839,1705.3407],[36.7681,-1.3865,1709.7682],[36.7602,-1.3822,1745.009],[36.7489,-1.3824,1743.4344],[36.7442,-1.3785,1761.3521],[36.7415,-1.3794,1763.8975],[36.728,-1.3725,1801.8282],[36.7022,-1.3495,1852.8745],[36.6928,-1.3506,1852.5566],[36.6894,-1.3471,1864.1313],[36.6849,-1.3348,1879.4216],[36.6826,-1.3349,1872.6783],[36.6789,-1.326,1886.8342],[36.6749,-1.3278,1883.8958],[36.6691,-1.3236,1888.7355],[36.6728,-1.3219,1896.0309],[36.6635,-1.3173,1894.7708],[36.6702,-1.3036,1913.1359],[36.6747,-1.3048,1874.1666],[36.6785,-1.2976,1924.9678],[36.6807,-1.2965,1891.275],[36.6863,-1.2824,1886.2297],[36.6894,-1.2789,1888.9059],[36.6884,-1.2763,1894.8679],[36.6863,-1.2783,1880.4956],[36.6807,-1.2925,1925.2043],[36.6785,-1.2936,1947.1544],[36.6747,-1.3008,1922.4249],[36.6702,-1.2996,1950.1144],[36.6658,-1.3078,1908.9231],[36.6597,-1.2965,1974.3386],[36.4908,-1.264,1414.0088],[36.5136,-1.236,1443.8049],[36.5349,-1.1612,1548.8884],[36.537,-1.1488,1741.6729],[36.4935,-1.1151,1547.3367],[36.3356,-1.0408,1609.3704],[36.3477,-1.1685,1866.6031],[36.2474,-1.2772,1525.9703],[36.0492,-1.4859,1511.3372],[36.0588,-1.4922,1421.627],[36.0613,-1.5061,1349.9562],[36.0743,-1.5408,1476.178],[36.0845,-1.5587,1338.2515],[36.0863,-1.5713,1283.8782],[36.084,-1.5785,1361.6196],[36.0803,-1.5807,1415.0428],[36.0791,-1.5923,1408.9026],[36.0742,-1.5895,1412.4585],[36.07,-1.596,1417.8334],[36.0667,-1.6062,1419.2437],[36.0651,-1.608,1415.3887],[36.063,-1.6071,1417.0908],[36.0652,-1.6126,1346.9657],[36.0635,-1.6145,1411.1786],[36.06,-1.6147,1411.7061],[36.0565,-1.6292,1423.3115],[36.0534,-1.634,1424.1692],[36.0511,-1.6346,1420.3604],[36.0529,-1.6376,1379.7913],[36.0524,-1.6452,1409.9541],[36.0487,-1.6455,1414.1135],[36.0465,-1.6477,1456.6006],[36.0488,-1.649,1372.0862],[36.0477,-1.6519,1439.8939],[36.0506,-1.6526,1317.071],[36.0537,-1.659,1317.804],[36.0524,-1.6641,1436.4595],[36.0541,-1.6636,1338.1143],[36.0583,-1.6694,1330.9353],[36.0574,-1.675,1459.8221],[36.0588,-1.6769,1458.9612],[36.0573,-1.6789,1450.0564],[36.0588,-1.6809,1397.7103],[36.0571,-1.6838,1442.6964],[36.062,-1.6863,1279.38],[36.0642,-1.6924,1371.0674],[36.0617,-1.6926,1430.9426],[36.0579,-1.6963,1513.3414],[36.0558,-1.7037,1432.126],[36.0522,-1.6998,1419.7996],[36.0477,-1.6983,1402.5806],[36.0457,-1.7031,1411.655],[36.043,-1.7045,1434.3345],[36.0429,-1.7097,1395.2848],[36.0445,-1.7148,1339.3582],[36.0476,-1.717,1299.8367],[36.0485,-1.7253,1465.7412],[36.046,-1.727,1465.8496],[36.0429,-1.7239,1470.9762],[36.0411,-1.7332,1418.0197],[36.0357,-1.7362,1474.3345],[36.0353,-1.7482,1419.5636],[36.0323,-1.7526,1421.7969],[36.0355,-1.7571,1353.3584],[36.0358,-1.7606,1422.6577],[36.0313,-1.7582,1397.8469],[36.031,-1.7659,1420.828],[36.0233,-1.7729,1419.6176],[36.0301,-1.7747,1082.9736],[36.0275,-1.7764,1163.0264],[36.0274,-1.7888,1377.9397],[36.0226,-1.7896,1428.0551],[36.0228,-1.7919,1420.6643],[36.0183,-1.7944,1451.8147],[36.016,-1.7978,1520.594],[36.0166,-1.802,1417.7917],[36.0224,-1.8006,1315.1763],[36.028,-1.8041,1079.3164],[36.0298,-1.8153,1393.6365],[36.0278,-1.8169,1389.1971],[36.0286,-1.8237,1311.2029],[36.0381,-1.8188,1089.2936],[36.0395,-1.823,1296.1937],[36.0431,-1.824,1053.3074],[36.0432,-1.8267,1120.9261],[36.0404,-1.8284,1234.4973],[36.0488,-1.836,1014.5469],[36.0471,-1.8429,1221.2311],[36.0499,-1.8522,1070.2656],[36.0481,-1.8593,1213.8503],[36.0514,-1.8652,902.1035],[36.0448,-1.8741,1156.7479],[36.0413,-1.8723,1082.5118],[36.0366,-1.8735,1147.8357],[36.0368,-1.8864,1129.288],[36.0347,-1.89,1136.8867],[36.031,-1.8857,1133.963],[36.0258,-1.8893,1021.7487],[36.0311,-1.896,1016.3391],[36.0319,-1.9014,1091.9332],[36.0354,-1.902,929.6606],[36.0402,-1.9053,859.3879],[36.0433,-1.9044,807.7805],[36.0425,-1.909,896.2426],[36.033,-1.9127,1034.1921],[36.037,-1.9129,1012.0144],[36.0366,-1.9235,1042.6208],[36.0396,-1.9249,983.4468],[36.0425,-1.9319,927.5263],[36.042,-1.9394,1036.1575],[36.0386,-1.9458,1017.5306],[36.0411,-1.9577,885.6744],[36.0384,-1.9654,977.0073],[36.0395,-1.9716,809.0621],[36.0364,-1.9791,914.9965],[36.0355,-1.9995,818.9371],[36.0338,-1.9982,823.0887],[36.0319,-1.999,803.9553],[36.0346,-2.0029,762.5122],[36.0313,-2.0085,779.9422],[36.0286,-2.007,788.8587],[36.0274,-2.0195,735.3365],[36.0245,-2.017,760.2695],[36.0213,-2.0251,729.6538],[36.0225,-2.0354,707.4838],[36.0267,-2.0372,681.9096],[36.0267,-2.0821,606.3483],[36.0001,-2.0819,626.6421],[36.0001,-2.1006,601.6305],[35.9962,-2.0983,602.082],[35.9962,-2.1027,601.7281],[36.1046,-2.1654,692.298],[36.2035,-2.2275,761.3281],[36.2513,-2.2659,817.329],[36.4981,-2.3879,1812.3052],[36.8304,-2.5717,1337.2256],[37.4095,-2.8973,1927.929],[37.4864,-2.9386,1935.2045],[37.4855,-2.9396,1957.9783],[37.5489,-2.9775,1635.0458],[37.6207,-3.0256,1450.0509],[37.6161,-3.0268,1479.2214],[37.6726,-3.0677,1204.387],[37.6904,-3.1751,1051.3989],[37.7917,-3.1711,943.2328],[37.7955,-3.1729,941.531],[37.8007,-3.1688,941.1642],[37.8105,-3.1682,921.0568],[37.8159,-3.1703,914.1965],[37.8197,-3.1746,906.9152],[37.8281,-3.1795,899.489],[37.8327,-3.1859,891.1385],[37.8381,-3.187,888.9269],[37.8475,-3.1838,880.5863],[37.8527,-3.1799,879.1522],[37.8539,-3.168,876.6569],[37.8543,-3.0801,867.5574],[37.8663,-3.0792,851.5763],[37.8707,-3.0775,846.52],[37.8725,-3.0622,841.0361]]]]}}