{"type":"Feature","properties":{"GID_3":"KEN.27.4.6_1","GID_0":"KEN","country":"Kenya","GID_1":"KEN.27_1","province":"Migori","NL_NAME_1":"NA","GID_2":"KEN.27.4_1","county":"Nyatike","NL_NAME_2":"NA","city":"Muhuru","VARNAME_3":"NA","NL_NAME_3":"NA","TYPE_3":"Ward","ENGTYPE_3":"Ward","CC_3":"1288","HASC_3":"NA","name":"Muhuru.city"},
"geometry":{"type": "MultiPolygon","coordinates": [[[[34.0786,-0.9135,1133.0],[33.9424,-0.9133,1133.0],[33.9457,-0.993,1133.0],[33.9309,-0.9932,1133.0],[33.9312,-1.0042,1133.0],[34.0165,-1.004,1133.0],[34.0265,-1.0153,1133.0],[34.0276,-1.0303,1133.0],[34.0332,-1.0451,1133.0],[34.041,-1.0492,1133.0],[34.0483,-1.0486,1133.0],[34.0539,-1.0454,1133.0],[34.0627,-1.0379,1133.0],[34.0631,-1.0315,1133.0],[34.0737,-1.0301,1133.0],[34.0775,-1.0262,1133.0],[34.1684,-1.076,1237.5443],[34.1708,-1.0751,1224.0421],[34.173,-1.0718,1212.9028],[34.1722,-1.0674,1260.9801],[34.169,-1.0628,1286.957],[34.1756,-1.0657,1272.3029],[34.1747,-1.0578,1245.4819],[34.1715,-1.0492,1213.4077],[34.1674,-1.043,1212.9683],[34.1608,-1.0372,1167.7075],[34.1612,-1.0331,1174.6915],[34.1567,-1.0296,1158.6324],[34.1561,-1.0265,1158.4431],[34.1539,-1.0248,1153.824],[34.152,-1.0202,1147.9288],[34.1539,-1.0173,1149.3169],[34.1534,-1.0135,1154.1133],[34.1439,-1.0012,1168.4009],[34.1384,-1.0006,1144.9193],[34.0786,-0.9135,1133.0]]]]}}