{"type": "Feature","bbox": [36.8549,-0.8785,36.9721,-0.7906],"geometry": {"type": "MultiPolygon","coordinates": [[[[36.9353,-0.8734,1771.5669],[36.9425,-0.8785,1775.869],[36.9478,-0.8752,1734.9075],[36.9454,-0.8701,1744.4824],[36.9462,-0.8666,1781.9149],[36.9585,-0.8655,1690.9329],[36.9596,-0.8648,1690.9329],[36.958,-0.86,1708.0123],[36.9664,-0.8565,1688.7998],[36.9713,-0.8572,1707.1522],[36.9685,-0.8523,1762.9637],[36.9721,-0.8476,1752.0251],[36.9604,-0.8321,1786.0247],[36.9618,-0.8295,1811.9135],[36.959,-0.8212,1771.4386],[36.9632,-0.8199,1794.2999],[36.9537,-0.8084,1837.1366],[36.9548,-0.8033,1786.1687],[36.9388,-0.7978,1838.3674],[36.9337,-0.7979,1873.9961],[36.9337,-0.7995,1861.2345],[36.926,-0.8019,1916.9015],[36.9213,-0.8011,1887.7899],[36.92,-0.7995,1897.8883],[36.9177,-0.8007,1930.9342],[36.9137,-0.7985,1914.3746],[36.9107,-0.7997,1904.9856],[36.8997,-0.795,1975.0972],[36.8968,-0.7906,1949.7684],[36.8893,-0.7938,2024.3201],[36.8769,-0.7959,2031.9088],[36.8742,-0.7926,2005.944],[36.8724,-0.7928,2018.7527],[36.8702,-0.7948,2005.1384],[36.8702,-0.8029,2012.0781],[36.8641,-0.8015,2013.5605],[36.862,-0.7967,2064.5068],[36.8577,-0.7958,2090.0613],[36.8549,-0.8024,2061.7595],[36.862,-0.8138,2042.7091],[36.8631,-0.8192,2001.2507],[36.8656,-0.8179,2015.0554],[36.8693,-0.8186,1987.874],[36.8715,-0.8214,2014.0525],[36.8775,-0.8165,1964.5281],[36.883,-0.8191,1972.584],[36.8875,-0.8285,1948.1099],[36.89,-0.8293,1962.1823],[36.8901,-0.8329,1949.64],[36.8991,-0.8335,1898.6331],[36.9031,-0.8296,1924.2032],[36.9071,-0.8329,1909.9918],[36.9061,-0.8344,1904.1924],[36.9072,-0.8363,1885.7605],[36.9103,-0.8346,1895.4902],[36.9132,-0.8354,1892.1361],[36.9186,-0.8484,1792.8269],[36.9247,-0.8542,1819.1395],[36.9241,-0.8563,1740.7882],[36.9256,-0.8562,1844.3635],[36.927,-0.8584,1749.5979],[36.926,-0.8593,1749.5979],[36.9297,-0.8612,1800.0472],[36.9286,-0.865,1704.241],[36.9292,-0.868,1712.4393],[36.9308,-0.8685,1682.7681],[36.9303,-0.8701,1686.8381],[36.9332,-0.8704,1745.4808],[36.9335,-0.8728,1782.4945],[36.9353,-0.8734,1771.5669]]]]}
,"properties": {"GID_3": "KEN.29.2.6_1","GID_0": "KEN","country": "Kenya","GID_1": "KEN.29_1","province": "Murang'a","NL_NAME_1": "NA","GID_2": "KEN.29.2_1","county": "Kandara","NL_NAME_2": "NA","city": "Ruchu","VARNAME_3": "NA","NL_NAME_3": "NA","TYPE_3": "Ward","ENGTYPE_3": "Ward","CC_3": "544","HASC_3": "NA","name": "Ruchu.city","area_km2": 58.4272,"hist_schema_id": "Elevation0-9000","hist_area_km2": {"1675": 0.0636,"1700": 1.22959,"1725": 2.45918,"1750": 3.87958,"1775": 4.17638,"1800": 5.89358,"1825": 5.70279,"1850": 5.3,"1875": 4.93961,"1900": 4.24001,"1925": 4.00681,"1950": 4.04921,"1975": 5.23642,"2000": 4.43082,"2025": 2.26841,"2050": 0.424,"2075": 0.106,"2100": 0.0212}}}