{"type": "Feature","bbox": [34.625,0.2452,34.728,0.3173],"geometry": {"type": "MultiPolygon","coordinates": [[[[34.7053,0.2666,1467.8054],[34.7098,0.2677,1462.3354],[34.7153,0.2717,1470.5353],[34.7193,0.2836,1496.9594],[34.7255,0.2881,1493.7358],[34.7238,0.292,1501.792],[34.728,0.2933,1474.7783],[34.7274,0.2963,1464.0194],[34.7145,0.3072,1441.8711],[34.7132,0.3114,1425.2039],[34.7063,0.3173,1438.9132],[34.7032,0.3101,1435.811],[34.693,0.3092,1466.9387],[34.6821,0.3044,1401.8185],[34.6781,0.3048,1416.3088],[34.677,0.3025,1397.8433],[34.6745,0.302,1383.4614],[34.6665,0.3062,1407.5574],[34.6648,0.3089,1394.0012],[34.6613,0.3087,1377.4387],[34.6601,0.3119,1384.583],[34.6537,0.3111,1376.4966],[34.6538,0.3087,1372.7939],[34.6528,0.3099,1380.6562],[34.6515,0.3072,1382.0399],[34.6489,0.308,1373.2531],[34.647,0.3055,1401.6016],[34.6428,0.3039,1383.9349],[34.6426,0.3022,1372.0789],[34.6415,0.3034,1372.0789],[34.6405,0.3023,1375.1033],[34.64,0.3039,1374.1022],[34.6359,0.3011,1385.74],[34.6346,0.3018,1376.2338],[34.632,0.2996,1366.3933],[34.6317,0.2964,1361.209],[34.6298,0.297,1373.0535],[34.6275,0.2941,1377.5592],[34.629,0.2918,1347.0161],[34.6284,0.2893,1354.5963],[34.625,0.2846,1353.1499],[34.6307,0.2801,1361.5853],[34.6296,0.2766,1341.011],[34.635,0.2721,1360.7115],[34.6372,0.2749,1366.9082],[34.639,0.273,1355.1091],[34.6442,0.2751,1388.0466],[34.6462,0.2709,1370.4041],[34.6499,0.271,1369.4163],[34.6477,0.2669,1373.645],[34.6493,0.2655,1373.645],[34.6445,0.2588,1375.9493],[34.6488,0.2494,1391.0229],[34.6509,0.2496,1403.1982],[34.6509,0.2463,1400.2083],[34.6564,0.2452,1400.969],[34.6615,0.2468,1420.0205],[34.6671,0.2491,1433.8462],[34.6692,0.2525,1408.0831],[34.6739,0.2526,1449.6495],[34.6744,0.2549,1464.8938],[34.6774,0.2552,1474.4888],[34.6778,0.2588,1449.6892],[34.6948,0.2641,1467.9241],[34.6997,0.2678,1464.9924],[34.7029,0.2659,1470.8145],[34.7053,0.2666,1467.8054]]]]}
,"properties": {"GID_3": "KEN.11.5.1_1","GID_0": "KEN","country": "Kenya","GID_1": "KEN.11_1","province": "Kakamega","NL_NAME_1": "NA","GID_2": "KEN.11.5_1","county": "Lurambi","NL_NAME_2": "NA","city": "ButsotsoCentral","VARNAME_3": "NA","NL_NAME_3": "NA","TYPE_3": "Ward","ENGTYPE_3": "Ward","CC_3": "1011","HASC_3": "NA","name": "Butsotso_Central.city","area_km2": 51.60554,"hist_schema_id": "Elevation0-9000","hist_area_km2": {"1325": 0.10601,"1350": 3.56193,"1375": 12.25472,"1400": 11.9791,"1425": 9.20165,"1450": 7.95073,"1475": 4.91885,"1500": 1.48414,"1525": 0.14841}}}