{"type":"Feature","properties":{"GID_3":"KEN.17.3.4_1","GID_0":"KEN","country":"Kenya","GID_1":"KEN.17_1","province":"Kisumu","NL_NAME_1":"NA","GID_2":"KEN.17.3_1","county":"KisumuWest","NL_NAME_2":"NA","city":"SouthWestKisumu","VARNAME_3":"NA","NL_NAME_3":"NA","TYPE_3":"Ward","ENGTYPE_3":"Ward","CC_3":"1191","HASC_3":"NA","name":"South_West_Kisumu.city"},
"geometry":{"type": "MultiPolygon","coordinates": [[[[34.6679,-0.0581,1292.9276],[34.6615,-0.059,1364.9955],[34.6549,-0.0537,1347.3047],[34.6435,-0.0534,1340.545],[34.6371,-0.063,1262.0244],[34.6311,-0.066,1275.4358],[34.6304,-0.0689,1256.9138],[34.6318,-0.0731,1222.9565],[34.6373,-0.0775,1243.3491],[34.6364,-0.082,1192.6846],[34.6425,-0.0873,1208.5247],[34.6506,-0.0901,1179.02],[34.6511,-0.0916,1174.4253],[34.6399,-0.0952,1197.799],[34.6321,-0.0927,1226.8112],[34.6272,-0.0945,1247.5005],[34.6113,-0.0957,1258.2644],[34.6009,-0.1014,1289.6222],[34.5979,-0.1003,1281.9386],[34.5972,-0.102,1289.8126],[34.5892,-0.0994,1249.5457],[34.5819,-0.1063,1241.9529],[34.5734,-0.1372,1150.9875],[34.5813,-0.1861,1133.0],[34.6676,-0.1853,1133.0],[34.6836,-0.0894,1141.1206],[34.6819,-0.0829,1146.4247],[34.6778,-0.0756,1158.9261],[34.6758,-0.0756,1157.615],[34.6739,-0.073,1159.5117],[34.6728,-0.0681,1190.2573],[34.6655,-0.0631,1296.4401],[34.6679,-0.0581,1292.9276]]]]}}