{"type":"Feature","properties":{"GID_3":"KEN.17.6.5_1","GID_0":"KEN","country":"Kenya","GID_1":"KEN.17_1","province":"Kisumu","NL_NAME_1":"NA","GID_2":"KEN.17.6_1","county":"Nyando","NL_NAME_2":"NA","city":"Kobura","VARNAME_3":"NA","NL_NAME_3":"NA","TYPE_3":"Ward","ENGTYPE_3":"Ward","CC_3":"1210","HASC_3":"NA","name":"Kobura.city"},
"geometry":{"type": "MultiPolygon","coordinates": [[[[34.6676,-0.1853,1133.0],[34.5304,-0.2666,1133.0],[34.8102,-0.1927,1135.6176],[34.8126,-0.1906,1135.9095],[34.8153,-0.1907,1135.9714],[34.8144,-0.1823,1136.6316],[34.8176,-0.179,1136.9614],[34.8171,-0.1752,1137.6125],[34.8205,-0.1736,1137.6865],[34.8367,-0.1731,1139.616],[34.8409,-0.1744,1139.8696],[34.844,-0.1776,1140.5845],[34.848,-0.176,1142.4506],[34.8511,-0.1768,1142.8309],[34.8532,-0.178,1142.436],[34.8538,-0.1805,1142.1685],[34.8642,-0.1864,1142.5135],[34.8634,-0.1912,1143.0493],[34.8655,-0.1928,1143.6156],[34.8646,-0.1954,1142.6464],[34.8665,-0.1986,1143.0284],[34.8694,-0.1979,1144.4503],[34.8703,-0.2005,1142.3372],[34.8747,-0.2007,1142.4697],[34.8761,-0.1992,1144.0128],[34.88,-0.2009,1142.8605],[34.8864,-0.2009,1141.6731],[34.8882,-0.2039,1141.7417],[34.8928,-0.204,1142.4368],[34.9044,-0.1781,1147.1023],[34.8948,-0.1747,1148.0613],[34.905,-0.1762,1149.8313],[34.9083,-0.1673,1149.76],[34.9104,-0.1658,1150.056],[34.9105,-0.1646,1150.056],[34.9074,-0.164,1150.4875],[34.909,-0.1579,1152.9741],[34.9043,-0.1544,1152.1189],[34.905,-0.158,1151.5461],[34.9027,-0.157,1151.6101],[34.9034,-0.1586,1151.2163],[34.9004,-0.1582,1151.0243],[34.9009,-0.1598,1149.9866],[34.8991,-0.1596,1150.8013],[34.8999,-0.1607,1150.8013],[34.8982,-0.16,1150.4419],[34.8987,-0.1622,1150.116],[34.8963,-0.1606,1150.4419],[34.8968,-0.159,1151.0264],[34.8949,-0.1601,1150.2134],[34.9015,-0.146,1151.4822],[34.9034,-0.1393,1152.1216],[34.9021,-0.1373,1152.1166],[34.905,-0.1364,1152.5554],[34.9013,-0.1298,1152.1495],[34.9032,-0.1284,1152.4047],[34.9011,-0.1257,1152.7312],[34.9041,-0.125,1152.9377],[34.9042,-0.1206,1153.2848],[34.8999,-0.1194,1152.3419],[34.8942,-0.1205,1151.8164],[34.8867,-0.1159,1150.0181],[34.8737,-0.113,1149.3008],[34.8648,-0.1214,1147.6235],[34.8569,-0.1177,1146.7483],[34.8526,-0.1234,1146.8822],[34.8321,-0.1388,1143.7231],[34.8267,-0.1395,1143.8823],[34.8249,-0.1412,1142.9435],[34.8207,-0.1404,1143.2819],[34.8176,-0.137,1142.7238],[34.8121,-0.1378,1141.7781],[34.8107,-0.1361,1142.1184],[34.8101,-0.1394,1141.7841],[34.806,-0.1424,1147.6932],[34.8016,-0.1418,1141.9866],[34.8017,-0.1405,1141.4041],[34.7995,-0.1434,1140.1616],[34.7951,-0.1436,1139.1021],[34.8026,-0.1591,1138.9969],[34.7938,-0.1635,1137.8715],[34.783,-0.1856,1135.2971],[34.6676,-0.1853,1133.0]]]]}}