{"type":"Feature","properties":{"GID_2":"KEN.3.8_1","GID_0":"KEN","country":"Kenya","GID_1":"KEN.3_1","province":"Bungoma","NL_NAME_1":"NA","county":"Sirisia","VARNAME_2":"NA","NL_NAME_2":"NA","TYPE_2":"Constituency","ENGTYPE_2":"Constituency","CC_2":"217","HASC_2":"NA","name":"Sirisia.county"},
"geometry":{"type": "MultiPolygon","coordinates": [[[[34.4247,0.6775,1328.1924],[34.4249,0.6792,1327.4685],[34.4283,0.6799,1312.6709],[34.4282,0.6819,1312.8097],[34.4318,0.6842,1322.7535],[34.4371,0.6866,1335.2222],[34.4402,0.6858,1341.5078],[34.4443,0.6897,1345.8878],[34.4504,0.6907,1356.5149],[34.4592,0.6847,1366.3267],[34.4696,0.6808,1380.8694],[34.4732,0.6845,1374.0686],[34.4749,0.6912,1382.7241],[34.4779,0.6952,1380.3311],[34.4803,0.6957,1381.6909],[34.4914,0.6943,1408.5793],[34.4991,0.6891,1423.7344],[34.5076,0.6882,1434.8593],[34.5222,0.6978,1441.9717],[34.5235,0.7016,1462.912],[34.5282,0.7039,1450.2314],[34.529,0.7058,1451.4541],[34.5411,0.7057,1477.4766],[34.5495,0.7119,1499.9697],[34.5511,0.7151,1506.9198],[34.5499,0.7169,1520.3506],[34.5545,0.7239,1528.6265],[34.5535,0.7316,1540.9548],[34.5547,0.734,1567.851],[34.5533,0.7371,1594.8942],[34.5558,0.7446,1640.1866],[34.5629,0.757,1611.5342],[34.5634,0.7625,1635.3171],[34.5664,0.7631,1634.2056],[34.572,0.7749,1726.6426],[34.5774,0.782,1935.8562],[34.574,0.7854,1829.2762],[34.5748,0.7948,1933.5901],[34.5717,0.8022,1954.9088],[34.5692,0.8032,1914.3201],[34.565,0.7982,1974.6327],[34.56,0.7987,2013.269],[34.5533,0.8033,2048.855],[34.5522,0.7979,1908.7068],[34.5484,0.7965,2075.4307],[34.535,0.8018,1760.6666],[34.5263,0.8013,1645.8937],[34.524,0.7992,1631.6151],[34.5213,0.7924,1611.0479],[34.5218,0.7806,1572.9618],[34.515,0.7748,1595.4873],[34.5072,0.7718,1546.4182],[34.5073,0.7792,1610.6722],[34.5004,0.7795,1593.7327],[34.4932,0.7823,1583.9969],[34.4906,0.7908,1582.3643],[34.4862,0.7944,1628.7487],[34.4731,0.7944,1536.5406],[34.4697,0.7909,1513.7324],[34.4634,0.7918,1550.0479],[34.4627,0.8008,1600.0951],[34.4511,0.8079,1546.8807],[34.4465,0.8182,1538.6718],[34.4366,0.814,1451.5851],[34.4229,0.8176,1436.7633],[34.4136,0.8159,1385.6875],[34.4121,0.8179,1392.8508],[34.4104,0.8159,1399.2295],[34.414,0.8116,1364.1768],[34.4112,0.8091,1372.901],[34.3949,0.8025,1351.5812],[34.3945,0.8049,1362.7513],[34.3913,0.8036,1341.1443],[34.3911,0.8059,1370.4592],[34.385,0.8037,1350.2615],[34.3827,0.7928,1334.6687],[34.3807,0.7926,1323.0304],[34.3787,0.798,1340.6359],[34.3762,0.7963,1329.4984],[34.374,0.7913,1318.9666],[34.3718,0.7907,1334.7545],[34.3724,0.7861,1300.4778],[34.3671,0.7813,1297.8016],[34.3655,0.7824,1308.2244],[34.3635,0.7802,1287.989],[34.3707,0.7763,1312.4111],[34.3732,0.7765,1320.3752],[34.3735,0.778,1308.9385],[34.3826,0.7779,1347.4216],[34.3922,0.7644,1356.7051],[34.3984,0.7598,1369.5118],[34.4045,0.7603,1386.0258],[34.4118,0.7667,1378.3643],[34.4222,0.7629,1394.8229],[34.43,0.7561,1439.3],[34.4335,0.749,1408.7375],[34.4346,0.7408,1370.3513],[34.4316,0.7306,1356.4059],[34.4272,0.7332,1368.7915],[34.423,0.7296,1387.3955],[34.4199,0.7302,1409.8997],[34.418,0.7281,1437.483],[34.4152,0.73,1444.3137],[34.4126,0.7282,1466.1002],[34.4074,0.7315,1443.3684],[34.4043,0.7307,1418.1079],[34.4154,0.6941,1356.0027],[34.409,0.6857,1432.8237],[34.4171,0.6639,1330.8855],[34.4197,0.665,1314.6432],[34.4225,0.6703,1321.277],[34.4241,0.6694,1307.8904],[34.4224,0.6743,1333.7471],[34.4247,0.6775,1328.1924]]]]}}