{"type":"Feature","properties":{"GID_3":"KEN.25.3.4_1","GID_0":"KEN","country":"Kenya","GID_1":"KEN.25_1","province":"Marsabit","NL_NAME_1":"NA","GID_2":"KEN.25.3_1","county":"NorthHorr","NL_NAME_2":"NA","city":"NorthHorr","VARNAME_3":"NA","NL_NAME_3":"NA","TYPE_3":"Ward","ENGTYPE_3":"Ward","CC_3":"231","HASC_3":"NA","name":"North_Horr.city"},
"geometry":{"type": "MultiPolygon","coordinates": [[[[36.9734,3.0203,494.408],[36.9725,3.0245,484.3516],[36.9789,3.0403,467.0738],[36.9813,3.0429,463.6091],[36.9859,3.0433,460.8624],[36.9903,3.0457,457.5143],[37.0021,3.0589,444.0037],[37.0029,3.0648,439.9899],[37.1175,3.1541,402.1429],[37.2331,3.2547,371.9557],[37.2261,3.2725,372.7448],[37.2265,3.2824,373.3797],[37.2279,3.2851,373.5562],[37.2247,3.2989,374.798],[37.2273,3.3055,375.8682],[37.2279,3.3147,377.5097],[37.2333,3.3273,382.0628],[37.2307,3.3367,383.2962],[37.2317,3.3455,385.9686],[37.2387,3.3585,390.8838],[37.2539,3.3457,386.5583],[37.2551,3.3517,387.1624],[37.2541,3.3577,388.7371],[37.2571,3.3663,390.6865],[37.2563,3.3791,392.4827],[37.2433,3.4101,402.0178],[37.2415,3.4197,404.3406],[37.2385,3.4473,413.4434],[37.2397,3.4581,416.4275],[37.2433,3.4649,418.0822],[37.2433,3.4703,419.2617],[37.2411,3.4869,421.919],[37.2355,3.4945,423.521],[37.2373,3.4997,425.2878],[37.2377,3.5197,430.0002],[37.2419,3.5297,433.0825],[37.2421,3.5345,433.4687],[37.2463,3.5414,436.2017],[37.2447,3.553,439.3948],[37.2491,3.5633,441.129],[37.2425,3.5597,442.4366],[37.2357,3.5509,443.0891],[37.2125,3.5359,435.2789],[37.1835,3.5081,428.2579],[37.1819,3.5125,431.4249],[37.1821,3.5309,437.7962],[37.1909,3.5545,447.2412],[37.1995,3.5651,447.3853],[37.2007,3.5733,452.9109],[37.2003,3.5781,452.2659],[37.1975,3.5821,452.9249],[37.1907,3.5897,454.5942],[37.1845,3.5925,456.5554],[37.1793,3.5971,458.7439],[37.1761,3.6039,460.9519],[37.1787,3.6101,466.2292],[37.1761,3.6173,464.1115],[37.1785,3.6225,473.3123],[37.1731,3.6439,471.9257],[37.1731,3.6519,474.5923],[37.1767,3.6547,476.7343],[37.1789,3.6593,478.7773],[37.1793,3.6759,486.9796],[37.1843,3.6829,498.5765],[37.1827,3.6887,495.0494],[37.1839,3.6913,499.3473],[37.1897,3.6937,512.7386],[37.1859,3.7015,517.6486],[37.1897,3.7085,518.2592],[37.1899,3.7121,510.6738],[37.1849,3.7193,527.3149],[37.1765,3.7211,531.1306],[37.1551,3.7391,541.1067],[37.1361,3.7487,550.4644],[37.1311,3.7597,545.9259],[37.1099,3.7827,557.5752],[37.1091,3.7879,559.9009],[37.1017,3.8033,564.5795],[37.0887,3.8155,571.1083],[37.0823,3.8171,573.446],[37.0765,3.8219,576.1678],[37.0737,3.8329,580.1103],[37.0693,3.8399,583.2556],[37.0675,3.8487,586.4457],[37.0595,3.8637,593.1304],[37.0581,3.8833,600.6016],[37.0553,3.8879,603.2782],[37.0521,3.8999,608.3376],[37.0537,3.9203,616.3698],[37.0615,3.9371,631.4788],[37.0607,3.9403,624.7633],[37.0543,3.9487,634.2974],[37.0373,3.9619,639.4068],[37.0131,3.9733,652.8463],[37.0005,3.9817,667.4155],[36.9735,3.9955,699.8625],[36.9571,3.9993,749.1921],[36.9103,3.9977,635.4502],[36.8467,4.0003,640.6959],[36.7855,4.0127,621.8704],[36.6877,4.0159,712.4712],[36.6557,4.0247,654.1866],[36.6393,4.0269,705.6609],[36.6209,4.0253,761.6096],[36.6049,4.0215,731.868],[36.5715,4.0023,602.1457],[36.5663,4.0013,586.6467],[36.5597,4.0069,576.2306],[36.5521,4.0169,555.7863],[36.5431,4.0243,536.7154],[36.5339,4.0411,517.8536],[36.5169,4.0397,502.6545],[36.5055,4.0507,492.3671],[36.4955,4.0469,496.9474],[36.4898,4.0491,479.3552],[36.4835,4.0481,475.9904],[36.4805,4.0505,479.1195],[36.4731,4.0519,487.4837],[36.4649,4.0375,483.3817],[36.4607,4.0233,479.3089],[36.4625,4.0187,467.3264],[36.4682,4.0124,469.9665],[36.4731,3.998,491.7001],[36.4764,3.973,501.6245],[36.4775,3.9497,512.0288],[36.4764,3.9384,539.6895],[36.4731,3.9304,552.0502],[36.4683,3.9257,567.2499],[36.4673,3.9217,518.1769],[36.4739,3.9131,530.0425],[36.4933,3.8972,635.272],[36.5006,3.8878,605.6158],[36.5021,3.8711,585.3601],[36.5067,3.8557,594.5592],[36.5218,3.8492,604.1304],[36.5207,3.8311,626.4474],[36.5187,3.8291,637.1636],[36.4913,3.8179,599.3652],[36.4775,3.8023,568.3517],[36.4585,3.8015,541.3971],[36.4351,3.7935,487.0631],[36.4269,3.7865,480.9233],[36.4178,3.7682,463.9752],[36.4053,3.7601,442.2393],[36.3739,3.7451,439.0189],[36.3679,3.7395,430.9104],[36.3664,3.7324,417.8705],[36.3525,3.7215,408.0252],[36.3479,3.7155,401.6784],[36.3395,3.7139,396.318],[36.3307,3.7073,399.9321],[36.3269,3.6985,394.5212],[36.3209,3.6937,390.2518],[36.3185,3.6889,389.2384],[36.3147,3.6733,399.0756],[36.3136,3.6546,408.368],[36.3147,3.6489,406.0439],[36.3209,3.6431,418.7141],[36.3291,3.6395,424.6309],[36.3357,3.6277,469.9713],[36.3141,3.6271,415.7667],[36.2937,3.6337,409.4933],[36.2883,3.6373,400.4949],[36.2742,3.6536,385.0178],[36.2663,3.6548,379.7847],[36.2595,3.6579,378.499],[36.257,3.6611,375.2119],[36.2556,3.6669,371.1133],[36.2447,3.6771,363.6492],[36.0505,3.6771,362.0],[36.0513,3.3439,362.0],[36.2579,3.3449,500.9357],[36.9739,3.0185,495.1121],[36.9734,3.0203,494.408]]]]}}