{"type": "Feature","bbox": [39.6718,-3.9574,39.7788,-3.901],"geometry": {"type": "MultiPolygon","coordinates": [[[[39.6933,-3.901,46.3548],[39.6911,-3.9012,17.7458],[39.6718,-3.9196,42.0036],[39.6772,-3.9221,26.0991],[39.6897,-3.9236,13.4306],[39.6923,-3.9226,2.0251],[39.6923,-3.9207,2.4051],[39.6999,-3.9209,2.5659],[39.6977,-3.9361,1.3164],[39.7013,-3.9426,2.5221],[39.7145,-3.9505,9.5881],[39.7302,-3.9524,4.967],[39.7358,-3.9484,19.4899],[39.7349,-3.9513,2.931],[39.7359,-3.9494,19.4899],[39.7449,-3.9557,15.5139],[39.7515,-3.9574,18.0822],[39.7588,-3.9568,0.0],[39.7601,-3.9549,0.0],[39.7635,-3.9554,0.0],[39.7665,-3.9537,2.4304],[39.7749,-3.944,5.024],[39.7785,-3.9371,0.0],[39.7788,-3.9354,2.8565],[39.7635,-3.929,18.676],[39.7635,-3.9258,18.8477],[39.7611,-3.925,19.9136],[39.7615,-3.9198,21.6634],[39.7563,-3.9173,14.3406],[39.7503,-3.9242,18.8519],[39.7225,-3.9157,42.9769],[39.7217,-3.912,51.9068],[39.7107,-3.9083,2.4885],[39.7089,-3.9095,10.1238],[39.6977,-3.909,14.1551],[39.6951,-3.9078,28.6459],[39.6933,-3.901,46.3548]]]]}
,"properties": {"GID_3": "KEN.14.4.5_1","GID_0": "KEN","country": "Kenya","GID_1": "KEN.14_1","province": "Kilifi","NL_NAME_1": "NA","GID_2": "KEN.14.4_1","county": "KilifiSouth","NL_NAME_2": "NA","city": "ShimoLaTewa","VARNAME_3": "NA","NL_NAME_3": "NA","TYPE_3": "Ward","ENGTYPE_3": "Ward","CC_3": "60","HASC_3": "NA","name": "Shimo_La_Tewa.city","area_km2": 35.28203,"hist_schema_id": "Elevation0-9000","hist_area_km2": {"0": 8.77824,"25": 23.94433,"50": 2.55947}}}