{"type":"Feature","properties":{"GID_3":"KEN.8.8.3_1","GID_0":"KEN","country":"Kenya","GID_1":"KEN.8_1","province":"HomaBay","NL_NAME_1":"NA","GID_2":"KEN.8.8_1","county":"Suba","NL_NAME_2":"NA","city":"KaksingriWest","VARNAME_3":"NA","NL_NAME_3":"NA","TYPE_3":"Ward","ENGTYPE_3":"Ward","CC_3":"1259","HASC_3":"NA","name":"Kaksingri_West.city"},
"geometry":{"type": "MultiPolygon","coordinates": [[[[34.1501,-0.4659,1133.0],[34.0757,-0.5027,1133.0],[34.0145,-0.5188,1133.0],[33.9293,-0.5324,1133.0],[33.9286,-0.6198,1133.0],[34.0743,-0.6201,1133.0],[34.0843,-0.6287,1255.8407],[34.1053,-0.6317,1656.201],[34.1169,-0.6264,1764.8916],[34.1199,-0.6267,1892.4393],[34.1269,-0.6157,1905.8882],[34.1373,-0.6076,1823.5161],[34.1509,-0.6079,1714.6123],[34.1565,-0.6113,1818.8606],[34.1614,-0.6084,1692.8446],[34.1655,-0.6094,1680.5176],[34.178,-0.6068,1693.333],[34.186,-0.6079,1591.0397],[34.1916,-0.6121,1747.3682],[34.201,-0.6042,1590.03],[34.2057,-0.6032,1754.947],[34.2044,-0.5936,1429.502],[34.2115,-0.5852,1517.0248],[34.2149,-0.5837,1573.3059],[34.2194,-0.5676,1483.4774],[34.2176,-0.5649,1383.5833],[34.2043,-0.5571,1203.9861],[34.1988,-0.5486,1196.6716],[34.1921,-0.5451,1187.8445],[34.1878,-0.5455,1176.4705],[34.1789,-0.5423,1154.9105],[34.1865,-0.5299,1214.2653],[34.1923,-0.526,1285.6519],[34.1959,-0.5257,1311.9296],[34.199,-0.5137,1399.165],[34.2084,-0.508,1836.678],[34.2099,-0.5028,1686.5403],[34.2043,-0.5028,1471.9231],[34.2021,-0.4994,1432.4392],[34.1501,-0.4659,1133.0]]]]}}