{"type": "Feature","bbox": [35.004,-0.4947,35.2532,-0.1488],"geometry": {"type": "MultiPolygon","coordinates": [[[[35.117,-0.3836,1818.1844],[35.1196,-0.3817,1820.8899],[35.1277,-0.3807,1846.9011],[35.1351,-0.3827,1843.9675],[35.1377,-0.3766,1865.3015],[35.1407,-0.376,1859.3661],[35.1399,-0.3687,1838.5879],[35.1462,-0.3653,1804.9861],[35.1443,-0.361,1728.7346],[35.1448,-0.3553,1754.4075],[35.1425,-0.3511,1723.7068],[35.1375,-0.347,1695.897],[35.1349,-0.3478,1678.2686],[35.1261,-0.3459,1586.7725],[35.1247,-0.3443,1580.408],[35.1268,-0.3322,1654.2079],[35.1324,-0.3324,1662.8306],[35.1389,-0.3265,1680.8682],[35.1482,-0.329,1743.7845],[35.1501,-0.326,1769.0259],[35.1539,-0.3262,1801.5704],[35.1563,-0.3242,1830.5518],[35.1637,-0.3255,1792.5391],[35.1643,-0.3238,1804.2905],[35.1675,-0.3239,1825.7626],[35.1705,-0.322,1858.6978],[35.1742,-0.313,1880.9598],[35.1775,-0.3104,1886.5153],[35.1774,-0.3091,1891.6956],[35.1733,-0.3083,1877.339],[35.1636,-0.3026,1719.5664],[35.171,-0.2997,1754.4294],[35.1712,-0.2964,1756.5133],[35.1797,-0.2886,1803.7876],[35.1803,-0.2821,1782.2972],[35.1828,-0.2771,1814.7615],[35.1811,-0.2744,1707.6455],[35.1824,-0.2687,1712.1052],[35.1809,-0.2654,1639.1771],[35.1827,-0.2644,1676.7258],[35.1856,-0.2659,1711.9674],[35.1866,-0.2646,1696.8958],[35.1875,-0.2669,1726.3888],[35.189,-0.2631,1638.2441],[35.1864,-0.2544,1617.4182],[35.1877,-0.2463,1618.3362],[35.1943,-0.2474,1650.3611],[35.2001,-0.2542,1738.4993],[35.2043,-0.2548,1709.1381],[35.2055,-0.2512,1702.8185],[35.2028,-0.2476,1633.9637],[35.2022,-0.2431,1612.6882],[35.2098,-0.2384,1585.1597],[35.2101,-0.244,1605.0494],[35.2114,-0.2404,1557.0002],[35.2162,-0.2437,1575.9493],[35.2188,-0.2431,1591.6096],[35.2195,-0.2453,1639.5837],[35.2229,-0.2444,1667.7555],[35.2261,-0.2505,1679.1982],[35.2267,-0.2471,1667.7521],[35.2282,-0.2465,1671.6222],[35.2291,-0.2493,1665.8119],[35.24,-0.2529,1580.0612],[35.2421,-0.26,1657.7213],[35.2458,-0.2608,1615.3851],[35.2481,-0.2482,1517.3422],[35.2526,-0.2443,1441.1526],[35.2509,-0.2383,1421.9572],[35.2519,-0.2281,1385.8699],[35.2493,-0.2223,1378.8505],[35.2512,-0.2183,1361.6267],[35.2496,-0.2169,1360.6802],[35.2532,-0.2127,1353.7477],[35.2532,-0.2102,1352.7415],[35.2506,-0.2086,1344.5337],[35.2506,-0.2065,1348.1921],[35.2486,-0.2077,1338.6078],[35.2493,-0.2056,1346.7684],[35.2473,-0.2047,1336.5215],[35.2491,-0.2025,1341.9182],[35.2456,-0.1978,1353.3687],[35.2462,-0.1967,1357.9919],[35.2443,-0.1987,1350.9968],[35.2408,-0.1941,1338.5392],[35.2368,-0.1955,1329.262],[35.236,-0.1911,1357.9395],[35.2314,-0.1888,1367.2661],[35.2266,-0.191,1334.8521],[35.2218,-0.188,1325.0214],[35.2211,-0.1892,1310.4279],[35.218,-0.1884,1304.5728],[35.2202,-0.1869,1310.2993],[35.2176,-0.1815,1301.1093],[35.219,-0.1804,1307.4832],[35.218,-0.1754,1306.4468],[35.2156,-0.1745,1292.7897],[35.2154,-0.169,1302.704],[35.2123,-0.1668,1302.1459],[35.2101,-0.1676,1295.3634],[35.2111,-0.166,1303.3416],[35.2055,-0.1643,1283.9791],[35.2034,-0.1624,1280.5342],[35.2044,-0.1602,1285.8376],[35.2014,-0.1607,1295.222],[35.1979,-0.1566,1291.5035],[35.1919,-0.1572,1285.5592],[35.186,-0.1535,1300.053],[35.1846,-0.1549,1290.1493],[35.1865,-0.1568,1274.3193],[35.184,-0.1597,1276.3519],[35.1734,-0.1568,1274.5671],[35.1703,-0.1569,1266.3263],[35.1671,-0.1597,1262.7417],[35.1662,-0.1585,1261.6647],[35.1675,-0.156,1267.1633],[35.1657,-0.1574,1263.9385],[35.164,-0.1562,1265.9852],[35.1618,-0.1588,1257.665],[35.156,-0.1603,1251.4294],[35.1537,-0.1582,1250.7937],[35.1466,-0.1562,1257.6582],[35.1397,-0.1554,1246.1641],[35.1401,-0.1567,1242.804],[35.1382,-0.1572,1241.5328],[35.134,-0.1497,1243.6484],[35.1305,-0.1488,1235.3053],[35.1315,-0.151,1237.042],[35.1302,-0.1515,1228.9143],[35.1285,-0.1493,1221.1837],[35.1033,-0.1957,1290.7024],[35.0719,-0.2032,1280.4451],[35.0634,-0.2115,1303.2893],[35.0573,-0.2313,1315.6887],[35.0552,-0.2629,1280.3342],[35.0522,-0.2709,1279.1982],[35.0503,-0.2914,1269.1411],[35.0469,-0.2966,1262.2354],[35.0245,-0.3175,1282.0319],[35.0073,-0.3265,1274.6318],[35.0067,-0.33,1283.861],[35.0083,-0.3306,1275.2588],[35.0048,-0.3322,1310.6652],[35.0064,-0.3379,1290.7056],[35.0059,-0.3432,1304.0864],[35.004,-0.3447,1326.9846],[35.0059,-0.3485,1317.9727],[35.0046,-0.353,1333.605],[35.0059,-0.3547,1339.6919],[35.0068,-0.3701,1405.4943],[35.0084,-0.3727,1410.1467],[35.0102,-0.3851,1521.734],[35.0178,-0.3913,1529.3865],[35.0176,-0.3964,1500.0621],[35.0215,-0.3995,1516.927],[35.0198,-0.4076,1506.7507],[35.0269,-0.4088,1581.9255],[35.0301,-0.4142,1542.8506],[35.0328,-0.4148,1555.6553],[35.0388,-0.425,1559.6221],[35.0384,-0.4321,1525.5131],[35.0451,-0.44,1581.866],[35.0443,-0.4449,1536.4177],[35.0461,-0.449,1540.7135],[35.0421,-0.4511,1563.7131],[35.041,-0.4737,1571.4927],[35.0394,-0.4787,1665.8623],[35.0336,-0.4788,1699.2593],[35.0332,-0.4929,1578.5533],[35.0371,-0.4921,1604.2883],[35.0466,-0.4944,1704.9017],[35.0491,-0.4923,1697.3265],[35.052,-0.4947,1678.0902],[35.0526,-0.4913,1680.0985],[35.0547,-0.4921,1658.3762],[35.0589,-0.4855,1724.3202],[35.0609,-0.4869,1701.0195],[35.0747,-0.4846,1669.4452],[35.0736,-0.4822,1674.145],[35.0801,-0.4762,1672.55],[35.0801,-0.4718,1702.8472],[35.0829,-0.4709,1668.2094],[35.0843,-0.4677,1676.6611],[35.0842,-0.4586,1711.245],[35.0869,-0.4529,1685.0884],[35.0846,-0.4469,1709.1436],[35.0889,-0.4413,1684.3267],[35.0872,-0.4353,1696.5195],[35.0897,-0.4259,1736.3384],[35.0892,-0.4228,1759.3269],[35.0927,-0.4189,1760.1295],[35.0924,-0.4157,1771.4805],[35.0973,-0.408,1783.6229],[35.1059,-0.3981,1792.2653],[35.1067,-0.3934,1814.9128],[35.1153,-0.3874,1823.6505],[35.117,-0.3836,1818.1844]]]]}
,"properties": {"GID_2": "KEN.12.6_1","GID_0": "KEN","country": "Kenya","GID_1": "KEN.12_1","province": "Kericho","NL_NAME_1": "NA","county": "Sigowet/Soin","VARNAME_2": "NA","NL_NAME_2": "NA","TYPE_2": "Constituency","ENGTYPE_2": "Constituency","CC_2": "193","HASC_2": "NA","name": "Sigowet_Soin.county","area_km2": 466.2299,"hist_schema_id": "Elevation0-9000","hist_area_km2": {"1225": 1.569,"1250": 7.866,"1275": 22.5802,"1300": 32.5239,"1325": 36.0222,"1350": 32.3331,"1375": 29.5556,"1400": 26.2905,"1425": 22.6225,"1450": 19.9086,"1475": 19.5058,"1500": 18.5305,"1525": 13.6752,"1550": 12.4243,"1575": 13.0179,"1600": 11.8094,"1625": 12.4455,"1650": 12.8907,"1675": 15.0533,"1700": 15.2653,"1725": 24.5728,"1750": 25.6753,"1775": 15.5196,"1800": 11.7881,"1825": 6.4665,"1850": 3.8799,"1875": 2.0778,"1900": 0.3604}}}