{"type": "Feature","bbox": [34.0424,-0.4753,34.256,-0.3341],"geometry": {"type": "MultiPolygon","coordinates": [[[[34.256,-0.3747,1133.0],[34.24,-0.3341,1133.0],[34.0424,-0.3341,1133.0],[34.1311,-0.4753,1133.0],[34.151,-0.4654,1133.0],[34.204,-0.4121,1157.6301],[34.256,-0.3747,1133.0]]]]}
,"properties": {"GID_3": "KEN.8.5.5_1","GID_0": "KEN","country": "Kenya","GID_1": "KEN.8_1","province": "HomaBay","NL_NAME_1": "NA","GID_2": "KEN.8.5_1","county": "Mbita","NL_NAME_2": "NA","city": "RusingaIsland","VARNAME_3": "NA","NL_NAME_3": "NA","TYPE_3": "Ward","ENGTYPE_3": "Ward","CC_3": "1253","HASC_3": "NA","name": "Rusinga_Island.city","area_km2": 214.4767,"hist_schema_id": "Elevation0-9000","hist_area_km2": {"1125": 174.2995,"1150": 18.3819,"1175": 9.3499,"1200": 5.4276,"1225": 3.8799,"1250": 1.1449,"1275": 0.5724,"1300": 0.3604,"1325": 0.4028,"1350": 0.1908,"1375": 0.2544,"1400": 0.1484,"1425": 0.0424,"1450": 0.0212}}}