{"type": "Feature","bbox": [37.3137,-1.2658,37.3803,-1.1551],"geometry": {"type": "MultiPolygon","coordinates": [[[[37.3738,-1.2658,1729.4836],[37.3749,-1.2485,1586.0038],[37.369,-1.2424,1713.3672],[37.364,-1.2252,1673.3502],[37.3443,-1.193,1600.2031],[37.3426,-1.184,1345.3038],[37.3453,-1.1773,1279.4556],[37.344,-1.1711,1258.4595],[37.3469,-1.167,1236.3635],[37.35,-1.1725,1272.953],[37.3571,-1.1726,1259.1848],[37.3627,-1.1755,1257.3528],[37.3662,-1.1756,1259.0813],[37.3731,-1.1652,1223.8395],[37.3803,-1.1579,1212.3109],[37.3768,-1.157,1210.464],[37.3699,-1.1603,1218.3704],[37.3685,-1.1591,1213.0599],[37.3633,-1.1644,1221.1542],[37.3587,-1.1602,1223.4705],[37.3599,-1.1581,1238.3871],[37.357,-1.1584,1223.9283],[37.3564,-1.1553,1228.8528],[37.3541,-1.1551,1237.0645],[37.3514,-1.1566,1240.733],[37.3523,-1.1581,1230.7571],[37.3548,-1.1572,1231.4606],[37.3535,-1.1623,1228.1477],[37.3458,-1.1616,1256.2329],[37.3441,-1.1642,1241.8311],[37.3423,-1.1616,1236.7842],[37.34,-1.1614,1240.0919],[37.3419,-1.1586,1263.0073],[37.3369,-1.1568,1283.1223],[37.3364,-1.1587,1266.4783],[37.3334,-1.159,1259.4253],[37.3341,-1.1614,1245.3153],[37.3221,-1.1743,1295.7827],[37.3237,-1.1767,1279.5753],[37.3212,-1.1791,1292.626],[37.3188,-1.1785,1319.9714],[37.3165,-1.18,1340.3184],[37.3194,-1.185,1331.9006],[37.3176,-1.1856,1332.6561],[37.3163,-1.194,1367.24],[37.3137,-1.1949,1392.161],[37.3171,-1.2049,1391.3204],[37.3162,-1.207,1390.184],[37.3184,-1.207,1417.3756],[37.3212,-1.2107,1447.0618],[37.3215,-1.2204,1431.5968],[37.3203,-1.2227,1438.4067],[37.3249,-1.2291,1460.9941],[37.3266,-1.2378,1467.9629],[37.3284,-1.2383,1461.7749],[37.3288,-1.2411,1466.7228],[37.3332,-1.2441,1492.4209],[37.3339,-1.2464,1482.8],[37.3401,-1.2491,1523.4589],[37.3424,-1.2579,1527.875],[37.3463,-1.2628,1531.1536],[37.3484,-1.2645,1549.0027],[37.3553,-1.2581,1601.2231],[37.3582,-1.2574,1625.6006],[37.3601,-1.2588,1588.0155],[37.3648,-1.2585,1640.8148],[37.3678,-1.2628,1793.6099],[37.3738,-1.2658,1729.4836]]]]}
,"properties": {"GID_3": "KEN.22.5.2_1","GID_0": "KEN","country": "Kenya","GID_1": "KEN.22_1","province": "Machakos","NL_NAME_1": "NA","GID_2": "KEN.22.5_1","county": "Matungulu","NL_NAME_2": "NA","city": "MatunguluEast","VARNAME_3": "NA","NL_NAME_3": "NA","TYPE_3": "Ward","ENGTYPE_3": "Ward","CC_3": "387","HASC_3": "NA","name": "Matungulu_East.city","area_km2": 43.73037,"hist_schema_id": "Elevation0-9000","hist_area_km2": {"1200": 0.40276,"1225": 2.28937,"1250": 3.24326,"1275": 1.84421,"1300": 1.35665,"1325": 0.9115,"1350": 0.82671,"1375": 0.72072,"1400": 1.29305,"1425": 1.35664,"1450": 1.80179,"1475": 2.60729,"1500": 3.62476,"1525": 3.39157,"1550": 3.37037,"1575": 2.20452,"1600": 1.69579,"1625": 1.611,"1650": 1.39902,"1675": 1.35663,"1700": 1.63219,"1725": 2.11973,"1750": 1.58979,"1775": 0.80549,"1800": 0.27556}}}