{"type": "Feature","bbox": [36.6231,-0.5106,36.9197,-0.3785],"geometry": {"type": "MultiPolygon","coordinates": [[[[36.658,-0.5051,3181.5146],[36.6706,-0.5106,3119.8481],[36.6886,-0.5059,3036.6018],[36.6927,-0.5018,3042.0193],[36.695,-0.493,3040.7332],[36.6995,-0.4893,3007.2988],[36.7085,-0.4756,2974.7192],[36.7161,-0.4709,2957.6047],[36.7243,-0.4708,2968.9424],[36.7271,-0.4649,3014.8267],[36.7295,-0.4641,3035.2668],[36.7318,-0.465,3056.6667],[36.7359,-0.472,2985.2212],[36.7405,-0.4703,2981.198],[36.7422,-0.4744,2940.7314],[36.7493,-0.474,2904.9426],[36.7532,-0.4783,2823.8369],[36.7696,-0.4797,2727.7241],[36.7733,-0.4758,2705.3337],[36.7763,-0.4749,2733.6147],[36.7872,-0.4804,2610.0811],[36.8014,-0.4731,2444.7012],[36.8074,-0.4732,2418.7505],[36.8091,-0.471,2390.6821],[36.8221,-0.468,2430.3823],[36.8245,-0.4688,2411.688],[36.8308,-0.4661,2361.7275],[36.8478,-0.4647,2287.7249],[36.8532,-0.4687,2206.0715],[36.8628,-0.4692,2159.8264],[36.8649,-0.4675,2168.9417],[36.8679,-0.4703,2134.4302],[36.8773,-0.4707,2126.8076],[36.8828,-0.4695,2116.1533],[36.883,-0.4674,2100.6267],[36.8879,-0.4685,2096.7393],[36.8907,-0.4647,2063.896],[36.8974,-0.4674,2017.0437],[36.9022,-0.4648,2003.2211],[36.9078,-0.4657,1965.436],[36.9158,-0.4613,1883.0638],[36.9197,-0.4616,1863.9386],[36.9168,-0.4585,1860.4578],[36.9106,-0.4558,1940.6307],[36.909,-0.4499,1948.9468],[36.9023,-0.4494,1956.8777],[36.89,-0.4357,1993.6553],[36.8854,-0.4365,2006.1477],[36.8827,-0.4396,2034.9392],[36.8798,-0.44,2018.9495],[36.8751,-0.4214,2017.5057],[36.8847,-0.4226,2015.1827],[36.8871,-0.4214,2012.6118],[36.8872,-0.4189,1968.9995],[36.8914,-0.4168,1976.0048],[36.8936,-0.4163,1969.8494],[36.8948,-0.4177,1988.1711],[36.8975,-0.4155,1974.5267],[36.8994,-0.4167,1940.6382],[36.9011,-0.4139,2108.6509],[36.8978,-0.404,1992.5515],[36.8982,-0.4001,1979.1116],[36.9059,-0.3993,1954.3116],[36.8982,-0.3946,1901.6594],[36.8937,-0.3897,1980.0247],[36.887,-0.3934,1998.9004],[36.8824,-0.3913,2009.4368],[36.8767,-0.3914,1987.8591],[36.8741,-0.3893,2047.3723],[36.8677,-0.3894,2054.9922],[36.8611,-0.3821,2078.2581],[36.8554,-0.3785,2088.4333],[36.8472,-0.3801,2138.5767],[36.8459,-0.3791,2130.8394],[36.842,-0.381,2152.0933],[36.8413,-0.3794,2165.6699],[36.8351,-0.3796,2214.8879],[36.8279,-0.3829,2255.0015],[36.818,-0.3824,2349.9541],[36.8115,-0.3787,2359.4966],[36.8039,-0.3795,2379.9185],[36.8014,-0.3804,2440.5483],[36.8012,-0.3859,2402.2966],[36.7342,-0.4118,3024.2366],[36.7418,-0.45,2890.502],[36.7397,-0.4515,2910.2773],[36.7288,-0.4496,3013.833],[36.7228,-0.4527,3037.5005],[36.7187,-0.451,3038.1985],[36.7181,-0.4479,3063.1045],[36.7142,-0.4468,3031.9458],[36.714,-0.4432,3017.4897],[36.7103,-0.4401,3023.418],[36.7115,-0.4384,3053.1348],[36.7107,-0.4368,3050.9453],[36.7067,-0.435,3074.9185],[36.7034,-0.4314,3062.1394],[36.7036,-0.4291,3103.1558],[36.6988,-0.4272,3115.2363],[36.6966,-0.4231,3125.7898],[36.6945,-0.4225,3113.1902],[36.6917,-0.418,3138.4639],[36.6932,-0.4139,3155.981],[36.6904,-0.4087,3173.2759],[36.692,-0.4047,3181.3804],[36.6853,-0.4012,3194.6572],[36.6837,-0.398,3205.1785],[36.6649,-0.3995,3403.0234],[36.6594,-0.404,3486.1401],[36.6583,-0.4072,3417.7441],[36.6557,-0.4072,3464.7993],[36.6498,-0.4106,3481.6772],[36.6435,-0.4057,3589.9556],[36.6384,-0.3963,3731.1377],[36.6231,-0.395,3783.5684],[36.6341,-0.4061,3693.095],[36.6504,-0.428,3397.0159],[36.6515,-0.4533,3178.1465],[36.6618,-0.4566,3128.6709],[36.6671,-0.4675,3108.9099],[36.6668,-0.475,3076.0393],[36.6608,-0.4863,3166.1379],[36.662,-0.4962,3182.3853],[36.6581,-0.5008,3186.2654],[36.658,-0.5051,3181.5146]]]]}
,"properties": {"GID_3": "KEN.36.6.2_1","GID_0": "KEN","country": "Kenya","GID_1": "KEN.36_1","province": "Nyeri","NL_NAME_1": "NA","GID_2": "KEN.36.6_1","county": "Tetu","NL_NAME_2": "NA","city": "DedanKimanthi","VARNAME_3": "NA","NL_NAME_3": "NA","TYPE_3": "Ward","ENGTYPE_3": "Ward","CC_3": "466","HASC_3": "NA","name": "Dedan_Kimanthi.city","area_km2": 230.228,"hist_schema_id": "Elevation0-9000","hist_area_km2": {"1850": 0.1272,"1875": 0.1272,"1900": 0.2544,"1925": 0.7421,"1950": 1.9293,"1975": 5.2156,"2000": 5.7244,"2025": 4.7916,"2050": 4.9824,"2075": 4.3039,"2100": 4.94,"2125": 5.1096,"2150": 5.0884,"2175": 4.8764,"2200": 5.1944,"2225": 4.9824,"2250": 4.834,"2275": 5.2368,"2300": 5.576,"2325": 5.5124,"2350": 5.4064,"2375": 5.0672,"2400": 4.2191,"2425": 4.3463,"2450": 3.0954,"2475": 3.6255,"2500": 3.9647,"2525": 3.9647,"2550": 4.1555,"2575": 4.1555,"2600": 3.5831,"2625": 2.9682,"2650": 3.3499,"2675": 2.9894,"2700": 2.7138,"2725": 2.4806,"2750": 2.947,"2775": 2.3322,"2800": 1.7385,"2825": 1.7597,"2850": 1.7385,"2875": 1.5477,"2900": 1.2721,"2925": 1.5477,"2950": 2.5654,"2975": 3.5195,"3000": 4.4735,"3025": 7.3357,"3050": 12.5089,"3075": 8.4594,"3100": 6.5513,"3125": 4.9188,"3150": 2.9894,"3175": 3.5195,"3200": 3.8587,"3225": 2.1626,"3250": 1.4205,"3275": 0.7633,"3300": 0.7421,"3325": 0.7633,"3350": 1.0389,"3375": 1.5053,"3400": 1.3357,"3425": 1.5053,"3450": 0.6148,"3475": 0.3604,"3500": 0.3816,"3525": 0.2332,"3550": 0.212,"3575": 0.1696,"3600": 0.1484,"3625": 0.2544,"3650": 0.106,"3675": 0.2332,"3700": 0.2544,"3725": 0.2968,"3750": 0.2756,"3775": 0.106,"3800": 0.0848,"3825": 0.0424}}}