{"type": "Feature","bbox": [36.8762,-1.2028,37.1869,-0.9986],"geometry": {"type": "MultiPolygon","coordinates": [[[[36.945,-1.1175,1551.1703],[36.9496,-1.1236,1547.9897],[36.951,-1.1294,1533.2695],[36.9544,-1.1317,1549.5029],[36.9567,-1.1324,1545.6199],[36.9564,-1.1306,1540.9998],[36.9599,-1.1254,1539.4816],[36.9692,-1.132,1532.6965],[36.9677,-1.1342,1534.2949],[36.9695,-1.1355,1531.6223],[36.9629,-1.1437,1515.0295],[36.9639,-1.143,1515.0295],[36.9646,-1.1454,1518.1893],[36.9729,-1.1485,1517.8821],[36.9781,-1.1477,1518.9954],[36.9798,-1.1504,1507.075],[36.9852,-1.1509,1515.6056],[36.9869,-1.1536,1497.4263],[36.9925,-1.156,1506.0137],[36.9943,-1.1632,1493.3512],[36.9981,-1.1659,1497.2133],[36.9986,-1.1646,1497.2133],[37.0007,-1.1658,1499.7086],[37.0082,-1.1716,1492.197],[37.0108,-1.1708,1496.7112],[37.0147,-1.1733,1490.0925],[37.0207,-1.1733,1491.3374],[37.0231,-1.1752,1485.8606],[37.036,-1.1722,1484.567],[37.042,-1.1732,1478.2966],[37.0443,-1.1719,1481.4048],[37.047,-1.1735,1474.2175],[37.0554,-1.1688,1479.4297],[37.0613,-1.1686,1478.6274],[37.0633,-1.1713,1460.1354],[37.0662,-1.1685,1477.7467],[37.0696,-1.1691,1456.7072],[37.0705,-1.1656,1477.5659],[37.0729,-1.168,1454.45],[37.0835,-1.1674,1476.2354],[37.0933,-1.174,1450.9636],[37.0956,-1.179,1448.1082],[37.1001,-1.1828,1455.5229],[37.111,-1.1836,1469.8438],[37.1115,-1.1873,1448.0494],[37.1148,-1.1899,1455.0801],[37.1183,-1.1965,1445.2582],[37.1232,-1.194,1466.2244],[37.127,-1.1964,1447.7239],[37.131,-1.2028,1458.1406],[37.134,-1.2018,1450.3247],[37.138,-1.196,1471.3142],[37.1431,-1.1992,1466.9832],[37.1499,-1.1973,1471.3406],[37.154,-1.1985,1448.7809],[37.1563,-1.1969,1440.236],[37.1561,-1.1925,1470.2631],[37.1615,-1.1911,1469.0657],[37.166,-1.1863,1439.2034],[37.1741,-1.1714,1465.4387],[37.1823,-1.1637,1434.8121],[37.1825,-1.157,1453.7192],[37.1807,-1.1506,1462.3055],[37.185,-1.1438,1425.0767],[37.1841,-1.1404,1459.1013],[37.1869,-1.136,1437.3883],[37.1866,-1.1307,1473.5308],[37.1849,-1.1284,1451.9685],[37.182,-1.1278,1431.6177],[37.1817,-1.124,1452.2081],[37.1792,-1.1225,1424.8925],[37.1755,-1.1136,1420.2253],[37.17,-1.1122,1471.4493],[37.1672,-1.115,1469.1606],[37.1673,-1.1182,1427.2885],[37.1577,-1.1246,1469.9965],[37.1481,-1.1282,1445.7627],[37.1427,-1.1255,1467.6328],[37.1359,-1.1298,1440.5293],[37.1332,-1.1273,1462.724],[37.1321,-1.1292,1449.892],[37.1251,-1.1277,1469.7692],[37.1189,-1.1221,1473.0808],[37.1126,-1.1229,1471.4065],[37.1066,-1.1198,1474.5106],[37.1053,-1.1216,1465.4598],[37.1035,-1.1188,1475.8667],[37.1016,-1.1202,1468.0658],[37.0974,-1.1183,1469.7565],[37.0946,-1.1156,1479.3793],[37.1063,-1.0886,1476.7463],[37.1035,-1.0891,1476.6129],[37.0962,-1.0851,1452.3794],[37.095,-1.0819,1469.7932],[37.0799,-1.0655,1496.3098],[37.0778,-1.0697,1473.6334],[37.0574,-1.0582,1506.6727],[37.0579,-1.0573,1507.7732],[37.0528,-1.0543,1503.0083],[37.0497,-1.0463,1511.0996],[37.0465,-1.0426,1519.2499],[37.0388,-1.0399,1524.2424],[37.0285,-1.04,1528.943],[37.0083,-1.0267,1553.2041],[36.9936,-1.0197,1573.2227],[36.9894,-1.0143,1567.5098],[36.9865,-1.0045,1575.7534],[36.9798,-1.0023,1562.3994],[36.9755,-0.9986,1587.5312],[36.9656,-1.0136,1609.6841],[36.9634,-1.0107,1607.7418],[36.9574,-1.0076,1618.5437],[36.9392,-1.0357,1608.5519],[36.9496,-1.0347,1611.8274],[36.9556,-1.0402,1598.672],[36.9434,-1.0585,1571.3291],[36.9427,-1.0549,1599.8009],[36.9402,-1.0556,1595.6006],[36.9344,-1.0532,1593.1604],[36.928,-1.0551,1595.7141],[36.9284,-1.0584,1598.3171],[36.9259,-1.0592,1614.6832],[36.9181,-1.0563,1626.8779],[36.9171,-1.0532,1637.4321],[36.9136,-1.0504,1633.6127],[36.911,-1.0512,1643.5337],[36.9067,-1.0493,1628.5546],[36.8969,-1.0562,1660.7677],[36.8881,-1.0702,1661.2772],[36.887,-1.0685,1641.9329],[36.8762,-1.0835,1665.2009],[36.8842,-1.0868,1642.5089],[36.8898,-1.0938,1634.5468],[36.8922,-1.0912,1632.3944],[36.8946,-1.093,1616.2058],[36.8961,-1.0918,1620.6965],[36.8994,-1.0926,1618.5195],[36.9016,-1.0954,1611.1477],[36.9059,-1.0942,1605.7749],[36.9097,-1.096,1583.0643],[36.9124,-1.0933,1584.2278],[36.9164,-1.0938,1598.2921],[36.9232,-1.0986,1586.6483],[36.9262,-1.1035,1580.1158],[36.931,-1.1035,1569.6116],[36.9339,-1.106,1558.7931],[36.937,-1.1052,1573.561],[36.9432,-1.1112,1558.4343],[36.946,-1.1167,1558.6792],[36.945,-1.1175,1551.1703]]]]}
,"properties": {"GID_2": "KEN.13.4_1","GID_0": "KEN","country": "Kenya","GID_1": "KEN.13_1","province": "Kiambu","NL_NAME_1": "NA","county": "Juja","VARNAME_2": "NA","NL_NAME_2": "NA","TYPE_2": "Constituency","ENGTYPE_2": "Constituency","CC_2": "113","HASC_2": "NA","name": "Juja.county","area_km2": 336.628,"hist_schema_id": "Elevation0-9000","hist_area_km2": {"1425": 6.8682,"1450": 18.0608,"1475": 89.4765,"1500": 66.4986,"1525": 56.0696,"1550": 39.2808,"1575": 29.5084,"1600": 17.7856,"1625": 8.0766,"1650": 4.6001,"1675": 0.4028}}}