{"type":"Feature","properties":{"GID_3":"KEN.28.1.2_1","GID_0":"KEN","country":"Kenya","GID_1":"KEN.28_1","province":"Mombasa","NL_NAME_1":"NA","GID_2":"KEN.28.1_1","county":"Changamwe","NL_NAME_2":"NA","city":"Chaani","VARNAME_3":"NA","NL_NAME_3":"NA","TYPE_3":"Ward","ENGTYPE_3":"Ward","CC_3":"5","HASC_3":"NA","name":"Chaani.city"},
"geometry":{"type": "MultiPolygon","coordinates": [[[[39.6413,-4.0391,0.0],[39.6379,-4.0385,1.5232],[39.6387,-4.0346,0.0],[39.6443,-4.0335,3.1035],[39.6463,-4.0371,5.1387],[39.6479,-4.0371,0.0],[39.6518,-4.0318,0.0],[39.6515,-4.0301,3.7439],[39.6318,-4.0276,51.7847],[39.6266,-4.0241,51.4923],[39.622,-4.0278,51.1032],[39.622,-4.0321,51.5448],[39.6208,-4.0301,51.5517],[39.6178,-4.0424,4.5815],[39.6213,-4.0438,10.317],[39.6207,-4.0463,0.0],[39.6263,-4.0465,0.0],[39.6274,-4.0479,0.0],[39.6312,-4.046,0.0],[39.631,-4.0435,2.3667],[39.634,-4.0449,0.0],[39.6407,-4.0426,0.0],[39.6413,-4.0408,0.8777],[39.6413,-4.0391,0.0]]]]}}