{"type": "Feature","bbox": [34.6824,0.3336,34.7741,0.395],"geometry": {"type": "MultiPolygon","coordinates": [[[[34.7741,0.3666,1535.8239],[34.7699,0.3771,1539.0345],[34.7613,0.3792,1513.558],[34.7612,0.3854,1539.1025],[34.7568,0.3884,1559.8881],[34.755,0.3936,1564.5891],[34.7509,0.395,1516.9694],[34.7413,0.3918,1500.6626],[34.7369,0.393,1490.7439],[34.7371,0.3879,1478.505],[34.7294,0.3798,1499.4308],[34.72,0.3745,1484.484],[34.7064,0.3737,1443.9407],[34.7053,0.3698,1464.1528],[34.6999,0.3684,1474.457],[34.6966,0.375,1446.363],[34.6938,0.3745,1437.8191],[34.6908,0.377,1433.3898],[34.6861,0.3735,1465.8501],[34.6849,0.3773,1447.1583],[34.6824,0.3754,1455.3989],[34.6843,0.3727,1465.8501],[34.6855,0.3657,1449.991],[34.6881,0.3659,1463.4652],[34.6904,0.3592,1426.4263],[34.6962,0.3566,1468.5801],[34.7016,0.3483,1459.4008],[34.7014,0.3447,1444.0027],[34.7092,0.3423,1462.4935],[34.712,0.3356,1427.5853],[34.7151,0.3336,1455.2573],[34.7181,0.338,1462.4203],[34.7214,0.3396,1459.7563],[34.723,0.3427,1468.4957],[34.7214,0.3445,1477.4889],[34.723,0.3441,1477.4889],[34.7239,0.3462,1475.0203],[34.7259,0.3457,1465.6165],[34.7261,0.3438,1453.1106],[34.7283,0.3444,1457.3101],[34.7328,0.3421,1481.1327],[34.7376,0.3423,1484.2643],[34.7389,0.3458,1490.0745],[34.7405,0.3437,1484.3129],[34.7443,0.3438,1479.7041],[34.7462,0.3462,1486.2031],[34.7488,0.3458,1482.3757],[34.7514,0.3485,1498.505],[34.7526,0.3478,1500.9764],[34.7554,0.3538,1514.3805],[34.7568,0.3533,1514.7188],[34.7589,0.3564,1510.1229],[34.7619,0.3557,1509.4829],[34.7636,0.3581,1521.2367],[34.7691,0.3591,1513.4712],[34.7701,0.3647,1534.0355],[34.7741,0.3666,1535.8239]]]]}
,"properties": {"GID_3": "KEN.11.10.4_1","GID_0": "KEN","country": "Kenya","GID_1": "KEN.11_1","province": "Kakamega","NL_NAME_1": "NA","GID_2": "KEN.11.10_1","county": "Navakholo","NL_NAME_2": "NA","city": "Ingostse-Mathia","VARNAME_3": "NA","NL_NAME_3": "NA","TYPE_3": "Ward","ENGTYPE_3": "Ward","CC_3": "1015","HASC_3": "NA","name": "Ingostse-Mathia.city","area_km2": 34.17727,"hist_schema_id": "Elevation0-9000","hist_area_km2": {"1425": 0.19082,"1450": 3.5831,"1475": 10.30407,"1500": 11.61857,"1525": 7.54783,"1550": 0.78446,"1575": 0.14841}}}