{"type": "Feature","bbox": [34.4656,-1.0369,34.5562,-0.9026],"geometry": {"type": "MultiPolygon","coordinates": [[[[34.5123,-0.9091,1444.1665],[34.502,-0.9026,1429.6309],[34.4997,-0.9097,1427.8394],[34.4955,-0.9106,1422.8701],[34.4962,-0.9183,1434.0431],[34.5017,-0.923,1425.5715],[34.5085,-0.9261,1449.8005],[34.5176,-0.9342,1468.8702],[34.5128,-0.9385,1465.4633],[34.516,-0.9421,1454.1624],[34.516,-0.9477,1467.0995],[34.5052,-0.949,1532.2489],[34.5035,-0.9506,1527.1028],[34.5001,-0.962,1496.4139],[34.5028,-0.9673,1472.7411],[34.5007,-0.9792,1390.1191],[34.4993,-0.978,1390.1191],[34.4998,-0.9748,1405.3514],[34.4968,-0.9744,1469.2449],[34.4947,-0.9714,1478.2275],[34.4878,-0.9715,1411.6831],[34.4862,-0.9685,1410.5618],[34.4827,-0.9685,1400.9626],[34.4777,-0.9651,1379.2258],[34.4719,-0.9639,1402.0604],[34.4664,-0.9822,1526.1464],[34.4656,-0.998,1496.7953],[34.5015,-1.0141,1459.9351],[34.5295,-1.0344,1566.7795],[34.5331,-1.0359,1564.2247],[34.5367,-1.0349,1596.6548],[34.5465,-1.0369,1481.4854],[34.5429,-1.019,1430.9943],[34.5443,-1.0119,1419.7072],[34.541,-1.0105,1437.9487],[34.5449,-0.9997,1409.5071],[34.5423,-0.9879,1475.8469],[34.547,-0.9865,1456.3679],[34.5509,-0.9799,1464.3325],[34.5562,-0.9786,1447.6047],[34.5411,-0.9496,1501.3242],[34.5255,-0.9257,1465.8907],[34.5123,-0.9091,1444.1665]]]]}
,"properties": {"GID_3": "KEN.27.8.4_1","GID_0": "KEN","country": "Kenya","GID_1": "KEN.27_1","province": "Migori","NL_NAME_1": "NA","GID_2": "KEN.27.8_1","county": "Uriri","NL_NAME_2": "NA","city": "SouthKanyamkago","VARNAME_3": "NA","NL_NAME_3": "NA","TYPE_3": "Ward","ENGTYPE_3": "Ward","CC_3": "1280","HASC_3": "NA","name": "South_Kanyamkago.city","area_km2": 69.29988,"hist_schema_id": "Elevation0-9000","hist_area_km2": {"1350": 0.63597,"1375": 2.16231,"1400": 4.79099,"1425": 7.80128,"1450": 14.37307,"1475": 12.54988,"1500": 11.89269,"1525": 8.60681,"1550": 3.56143,"1575": 1.80191,"1600": 0.93275,"1625": 0.19079}}}