{"type": "Feature","bbox": [34.4841,-1.091,34.5714,-1.0161],"geometry": {"type": "MultiPolygon","coordinates": [[[[34.4888,-1.0398,1547.4132],[34.4841,-1.0489,1488.64],[34.4865,-1.0506,1528.756],[34.4942,-1.0496,1518.9351],[34.4978,-1.0532,1534.2625],[34.4968,-1.0581,1549.7715],[34.493899999999996,-1.0591,1552.6194],[34.4933,-1.0646,1564.5308],[34.5055,-1.0734,1549.4845],[34.5024,-1.081,1481.65],[34.508,-1.0794,1542.0636],[34.5072,-1.0842,1475.3367],[34.5226,-1.0869,1444.7218],[34.5244,-1.0896,1474.0242],[34.5285,-1.091,1494.8416],[34.5309,-1.091,1494.9581],[34.5316,-1.0878,1494.2454],[34.5365,-1.0872,1484.3281],[34.5393,-1.0851,1507.7721],[34.5469,-1.0877,1486.2902],[34.5494,-1.087,1464.1654],[34.5506,-1.0803,1470.1522],[34.5605,-1.0746,1554.1079],[34.5631,-1.0635,1529.5601],[34.5714,-1.0551,1505.4177],[34.5618,-1.0467,1516.1785],[34.5569,-1.0444,1512.1024],[34.5461,-1.0456,1501.3942],[34.5465,-1.0369,1481.4854],[34.5367,-1.0349,1596.6548],[34.5331,-1.0359,1564.2247],[34.5295,-1.0344,1566.7795],[34.5041,-1.0161,1477.6108],[34.5068,-1.0325,1495.3411],[34.4923,-1.0356,1535.0928],[34.4888,-1.0398,1547.4132]]]]}
,"properties": {"GID_3": "KEN.27.6.1_1","GID_0": "KEN","country": "Kenya","GID_1": "KEN.27_1","province": "Migori","NL_NAME_1": "NA","GID_2": "KEN.27.6_1","county": "SunaEast","NL_NAME_2": "NA","city": "GodJope","VARNAME_3": "NA","NL_NAME_3": "NA","TYPE_3": "Ward","ENGTYPE_3": "Ward","CC_3": "1269","HASC_3": "NA","name": "God_Jope.city","area_km2": 42.46078,"hist_schema_id": "Elevation0-9000","hist_area_km2": {"1450": 0.59356,"1475": 2.62861,"1500": 6.59275,"1525": 11.19285,"1550": 10.6841,"1575": 5.91442,"1600": 2.62863,"1625": 2.01388,"1650": 0.21199}}}