{"type": "Feature","bbox": [34.5297,0.5933,34.6745,0.8074],"geometry": {"type": "MultiPolygon","coordinates": [[[[34.6173,0.6035,1511.9185],[34.6389,0.6124,1471.2772],[34.64,0.6153,1475.7539],[34.6459,0.6204,1475.5624],[34.6488,0.6314,1476.1127],[34.658,0.6352,1504.697],[34.6582,0.6383,1505.9554],[34.6634,0.6384,1499.0237],[34.6691,0.6454,1471.2397],[34.6745,0.6471,1461.4506],[34.6728,0.6524,1462.9998],[34.6737,0.659,1478.2983],[34.6681,0.6668,1475.5245],[34.6673,0.6722,1494.3701],[34.657,0.6776,1531.0026],[34.6553,0.6805,1533.4243],[34.6463,0.679,1511.6202],[34.6444,0.6885,1518.604],[34.6368,0.6955,1530.4027],[34.6327,0.7031,1543.1399],[34.6277,0.7085,1546.0911],[34.6257,0.7139,1562.3969],[34.627,0.7176,1571.1831],[34.6327,0.7205,1556.2578],[34.6463,0.7425,1518.2637],[34.6477,0.7404,1518.0989],[34.652,0.7395,1520.8574],[34.6564,0.7329,1517.7866],[34.6596,0.734,1504.8979],[34.6612,0.7374,1515.1912],[34.6595,0.7386,1518.1042],[34.6612,0.7441,1528.1814],[34.6605,0.7473,1525.389],[34.6628,0.7495,1532.8551],[34.6611,0.7504,1526.5186],[34.6606,0.7558,1539.1837],[34.6574,0.7564,1534.3645],[34.6591,0.7591,1557.9485],[34.6585,0.7623,1572.9202],[34.6544,0.7668,1576.0942],[34.656,0.7761,1593.1245],[34.6533,0.7801,1606.0221],[34.6556,0.7876,1618.5391],[34.6525,0.7912,1612.6758],[34.6521,0.7957,1644.1404],[34.6452,0.798,1618.2838],[34.6371,0.8074,1675.7416],[34.6031,0.8015,1631.6266],[34.5913,0.7946,1697.6228],[34.5882,0.7885,1686.4531],[34.5783,0.7883,1951.3478],[34.5804,0.7824,1858.8846],[34.5774,0.782,1935.8562],[34.5747,0.7793,1831.8264],[34.5664,0.7631,1634.2056],[34.5634,0.7625,1635.3171],[34.5629,0.757,1611.5342],[34.5558,0.7446,1640.1866],[34.5533,0.7371,1594.8942],[34.5547,0.734,1567.851],[34.5535,0.7316,1540.9548],[34.5545,0.7239,1528.6265],[34.5499,0.7169,1520.3506],[34.5507,0.7131,1492.9355],[34.5439,0.7083,1491.0934],[34.549,0.6936,1531.0817],[34.5594,0.6879,1537.9771],[34.5578,0.6817,1539.1011],[34.5505,0.6734,1536.2976],[34.5396,0.6717,1527.3279],[34.5358,0.6689,1528.1901],[34.53,0.6631,1494.0703],[34.5297,0.6608,1487.5873],[34.5303,0.6572,1477.2153],[34.5373,0.6487,1480.6125],[34.5418,0.6323,1457.7515],[34.5475,0.6219,1451.7056],[34.5603,0.6096,1451.421],[34.5631,0.6031,1430.0332],[34.5706,0.5933,1424.2708],[34.5913,0.6101,1447.4451],[34.6015,0.6098,1469.5564],[34.6035,0.6057,1456.1046],[34.6099,0.6005,1475.5668],[34.6173,0.6035,1511.9185]]]]}
,"properties": {"GID_2": "KEN.3.2_1","GID_0": "KEN","country": "Kenya","GID_1": "KEN.3_1","province": "Bungoma","NL_NAME_1": "NA","county": "Kabuchai","VARNAME_2": "NA","NL_NAME_2": "NA","TYPE_2": "Constituency","ENGTYPE_2": "Constituency","CC_2": "218","HASC_2": "NA","name": "Kabuchai.county","area_km2": 235.3058,"hist_schema_id": "Elevation0-9000","hist_area_km2": {"1425": 1.0389,"1450": 5.1518,"1475": 16.5791,"1500": 33.0309,"1525": 38.6702,"1550": 39.1788,"1575": 37.6734,"1600": 23.8929,"1625": 18.4655,"1650": 11.2997,"1675": 4.0705,"1700": 2.014,"1725": 1.1448,"1750": 0.6784,"1775": 0.5724,"1800": 0.4028,"1825": 0.212,"1850": 0.2332,"1875": 0.2332,"1900": 0.1908,"1925": 0.1696,"1950": 0.2332,"1975": 0.1484,"2000": 0.0212}}}