{"type": "Feature","bbox": [36.9708,-0.0403,37.0742,0.098],"geometry": {"type": "MultiPolygon","coordinates": [[[[37.0521,0.0678,1859.7682],[37.0519,0.0704,1857.8021],[37.0543,0.0707,1852.832],[37.0565,0.0776,1849.0402],[37.0526,0.0796,1838.4014],[37.053,0.0813,1845.536],[37.0508,0.0825,1843.3711],[37.0511,0.0853,1839.6223],[37.047,0.0873,1835.3115],[37.0471,0.0894,1834.2974],[37.044,0.092,1830.7465],[37.0442,0.0945,1830.0347],[37.0407,0.0967,1827.8254],[37.0411,0.098,1826.0912],[36.9708,0.0703,1809.5527],[36.9836,0.0307,1825.454],[37.0003,0.0256,1839.7943],[36.9834,-0.0064,1838.97],[36.9798,-0.0097,1831.443],[36.9899,-0.0107,1845.5062],[36.9925,-0.0182,1837.9858],[36.9959,-0.0219,1841.5287],[37.0076,-0.0293,1862.2549],[37.0108,-0.029,1862.8721],[37.0182,-0.0379,1882.6018],[37.0191,-0.037,1882.6018],[37.0253,-0.0403,1891.6801],[37.0518,-0.008,1928.4667],[37.0522,-0.0027,1921.7097],[37.0613,0.0058,1929.9009],[37.0689,0.0032,1956.5237],[37.0742,0.014,1936.5229],[37.0703,0.0188,1923.9022],[37.0657,0.0173,1920.87],[37.0694,0.0287,1913.6631],[37.0648,0.0344,1900.0273],[37.0672,0.039,1890.1759],[37.0618,0.0434,1892.7899],[37.0605,0.048,1874.6923],[37.0569,0.0503,1881.7228],[37.0536,0.0553,1870.8715],[37.0521,0.0678,1859.7682]]]]}
,"properties": {"GID_3": "KEN.20.1.3_1","GID_0": "KEN","country": "Kenya","GID_1": "KEN.20_1","province": "Laikipia","NL_NAME_1": "NA","GID_2": "KEN.20.1_1","county": "LaikipiaEast","NL_NAME_2": "NA","city": "Thingithu","VARNAME_3": "NA","NL_NAME_3": "NA","TYPE_3": "Ward","ENGTYPE_3": "Ward","CC_3": "819","HASC_3": "NA","name": "Thingithu.city","area_km2": 104.63286,"hist_schema_id": "Elevation0-9000","hist_area_km2": {"1800": 0.40284,"1825": 24.84897,"1850": 34.30516,"1875": 25.90909,"1900": 14.84154,"1925": 3.79519,"1950": 0.53006}}}