{"type": "Feature","bbox": [34.6279,-0.8473,34.6988,-0.7854],"geometry": {"type": "MultiPolygon","coordinates": [[[[34.6897,-0.7898,1633.4653],[34.685,-0.7885,1642.7759],[34.6823,-0.792,1680.1267],[34.677,-0.7938,1767.3457],[34.6733,-0.7854,1749.5115],[34.6698,-0.7854,1685.6868],[34.6673,-0.7906,1751.2644],[34.6626,-0.791,1715.1307],[34.6553,-0.7961,1603.2457],[34.6501,-0.8033,1573.1683],[34.6458,-0.8146,1587.3772],[34.6332,-0.8195,1513.8199],[34.6304,-0.8221,1514.9546],[34.6279,-0.8361,1432.6482],[34.6331,-0.8365,1448.5513],[34.6365,-0.8428,1414.5408],[34.6461,-0.8473,1444.8768],[34.6498,-0.847,1520.3796],[34.6519,-0.8451,1539.8643],[34.6589,-0.8468,1518.7611],[34.6633,-0.8441,1497.5103],[34.6643,-0.8397,1492.55],[34.6629,-0.8384,1563.2974],[34.6644,-0.8363,1536.1454],[34.6684,-0.8355,1578.7197],[34.6775,-0.8282,1577.849],[34.6794,-0.8255,1602.7983],[34.6791,-0.8231,1624.5206],[34.6846,-0.8205,1565.085],[34.6861,-0.8155,1587.176],[34.6902,-0.8133,1574.845],[34.69,-0.8119,1584.3822],[34.6918,-0.813,1568.9332],[34.692,-0.8107,1573.3848],[34.6961,-0.81,1547.7667],[34.6955,-0.8068,1575.5975],[34.6988,-0.8016,1562.5442],[34.6982,-0.7993,1597.613],[34.6897,-0.7898,1633.4653]]]]}
,"properties": {"GID_3": "KEN.16.9.2_1","GID_0": "KEN","country": "Kenya","GID_1": "KEN.16_1","province": "Kisii","NL_NAME_1": "NA","GID_2": "KEN.16.9_1","county": "SouthMugirango","NL_NAME_2": "NA","city": "Boikang'A","VARNAME_3": "NA","NL_NAME_3": "NA","TYPE_3": "Ward","ENGTYPE_3": "Ward","CC_3": "1306","HASC_3": "NA","name": "Boikang'A.city","area_km2": 29.00167,"hist_schema_id": "Elevation0-9000","hist_area_km2": {"1425": 0.1908,"1450": 0.8904,"1475": 1.5264,"1500": 1.59,"1525": 1.696,"1550": 1.3992,"1575": 2.1624,"1600": 2.62881,"1625": 2.98921,"1650": 2.35321,"1675": 2.09881,"1700": 1.86561,"1725": 1.29321,"1750": 1.33561,"1775": 1.20841,"1800": 0.7632,"1825": 1.1872,"1850": 1.48401,"1875": 0.3392}}}