{"type":"Feature","properties":{"GID_1":"KEN.46_1","GID_0":"KEN","country":"Kenya","province":"Wajir","VARNAME_1":"NA","NL_NAME_1":"NA","TYPE_1":"County","ENGTYPE_1":"County","CC_1":"8","HASC_1":"KE.WJ","ISO_1":"KE-46","name":"Wajir.province"},
"geometry":{"type": "MultiPolygon","coordinates": [[[[40.9803,0.4556,76.7878],[40.9887,0.4621,75.7305],[40.9888,0.5145,78.4583],[40.9943,0.6712,82.3493],[40.9905,0.8233,91.4297],[40.991,0.978,97.259],[40.9947,1.231,116.922],[40.9907,1.2308,117.0005],[40.9911,1.7666,195.5572],[40.9938,1.8239,205.3688],[40.9913,1.8317,206.3796],[40.9905,1.9547,227.0235],[40.9786,2.1784,285.2245],[40.9651,2.1761,278.71],[40.9437,2.1773,275.6816],[40.9203,2.1881,279.7213],[40.9003,2.2029,280.2935],[40.8843,2.2165,283.9925],[40.8673,2.2357,288.4095],[40.8645,2.2409,290.1148],[40.8627,2.2531,291.4996],[40.8573,2.2627,294.6177],[40.8329,2.2881,299.2281],[40.8233,2.2923,301.6747],[40.8011,2.2917,304.0665],[40.7745,2.3141,311.7426],[40.7561,2.3163,310.7867],[40.7409,2.3133,312.2569],[40.7293,2.3199,313.5508],[40.7181,2.3297,318.8011],[40.7105,2.3491,319.9211],[40.6905,2.3685,323.9361],[40.6763,2.3761,333.3521],[40.6749,2.3837,332.757],[40.6655,2.3911,335.3081],[40.6659,2.4065,336.7869],[40.6645,2.4099,334.2667],[40.6639,2.4249,336.2881],[40.6617,2.4283,336.378],[40.6557,2.4337,336.5409],[40.6411,2.4371,340.246],[40.6385,2.4421,340.399],[40.6363,2.4417,340.6628],[40.6319,2.4449,342.1561],[40.6291,2.4499,342.7625],[40.6215,2.4551,344.7731],[40.6135,2.4643,346.7852],[40.6033,2.4819,351.207],[40.6037,2.4927,352.4756],[40.5939,2.4997,356.3302],[40.5915,2.5031,361.7283],[40.5973,2.5099,360.7535],[40.5969,2.5131,357.0309],[40.5793,2.5303,363.3731],[40.5793,2.5497,368.4136],[40.5689,2.5651,369.5634],[40.5653,2.5667,374.9434],[40.5629,2.5727,375.1657],[40.5581,2.5787,381.0684],[40.5599,2.5891,375.9645],[40.5539,2.5935,384.6046],[40.5491,2.6023,385.8184],[40.5499,2.6111,385.857],[40.5357,2.6529,393.3422],[40.5269,2.6661,401.696],[40.5267,2.6739,396.4969],[40.5195,2.6963,404.2879],[40.4999,2.7201,410.13],[40.4997,2.7229,413.5784],[40.5065,2.7257,416.8083],[40.5121,2.7351,416.6738],[40.5199,2.7403,418.043],[40.5193,2.7527,423.3089],[40.5179,2.7555,423.5816],[40.5193,2.7659,423.5216],[40.5179,2.7701,425.9036],[40.5185,2.7739,421.5734],[40.5207,2.7761,422.5301],[40.5187,2.7779,424.0934],[40.5129,2.7787,425.6342],[40.5083,2.7845,428.7575],[40.5035,2.7843,430.9407],[40.5011,2.7873,432.5211],[40.5021,2.7955,429.6078],[40.4957,2.7979,429.7271],[40.4943,2.7999,430.6628],[40.4963,2.8049,430.9643],[40.5031,2.8103,436.8608],[40.4955,2.8191,433.9287],[40.4985,2.8213,434.2852],[40.4965,2.8269,436.1763],[40.4991,2.8343,439.1941],[40.4947,2.8391,440.0384],[40.4945,2.8455,441.9767],[40.4973,2.8515,441.6497],[40.4939,2.8563,442.2444],[40.4953,2.8583,442.7868],[40.4931,2.8687,449.0211],[40.2701,2.9717,513.8856],[40.2681,2.9805,488.8261],[40.2639,2.9803,489.6411],[40.1699,3.0907,534.627],[40.0437,3.2283,598.1824],[40.0337,3.2337,610.0048],[40.0335,3.2373,610.3807],[39.7871,3.3365,777.3726],[39.7857,3.3453,931.9196],[39.7853,3.6603,903.973],[39.7826,3.6579,910.9205],[39.7792,3.6865,879.4476],[39.771,3.6684,1173.2533],[39.7064,3.6047,882.382],[39.6165,3.5125,965.2042],[39.609,3.5026,1004.6971],[39.5819,3.4781,953.3156],[39.5786,3.4726,958.2864],[39.5647,3.4261,889.2709],[39.5589,3.4124,940.0661],[39.5439,3.4015,1065.2358],[39.5274,3.3988,779.5085],[39.5161,3.4044,783.6873],[39.5116,3.4104,1004.4329],[39.4984,3.4538,971.8607],[39.4937,3.4575,973.0873],[39.486,3.4595,1248.587],[39.4675,3.4566,1148.0432],[39.4237,3.4571,880.3988],[39.4156,3.4623,858.1072],[39.4056,3.4646,912.3875],[39.3326,3.4662,948.6226],[39.3291,3.4725,916.5613],[39.3284,3.4782,835.7527],[39.3082,3.4773,790.8105],[39.3077,3.4696,766.2805],[39.3143,3.4688,775.0115],[39.303,3.4556,753.0121],[39.2987,3.4435,738.1293],[39.3001,3.4294,727.2767],[39.3126,3.4079,689.0561],[39.328,3.2886,631.5157],[39.3382,3.2784,633.36],[39.342,3.2508,653.4286],[39.3455,3.1155,626.7695],[39.3453,3.0707,603.6445],[39.3245,3.0549,590.7775],[39.2897,3.0375,578.8041],[39.2571,3.0037,565.4036],[39.2503,2.9953,574.1598],[39.2501,2.9891,569.9893],[39.2455,2.9855,565.5623],[39.2375,2.9847,558.7094],[39.2247,2.9793,546.0142],[39.2174,2.978,542.6575],[39.2003,2.9665,533.2482],[39.1939,2.9565,530.413],[39.1517,2.9545,552.9395],[39.1487,2.9531,554.5458],[39.1383,2.9385,545.4774],[39.1269,2.9347,538.6339],[39.1249,2.9369,540.2108],[39.1259,2.9339,538.6339],[39.1173,2.9123,516.7732],[39.1121,2.8841,508.2987],[39.0673,2.8831,509.9785],[39.0701,2.8039,508.1524],[39.0625,2.7383,493.9391],[39.0615,2.7353,494.6012],[39.0553,2.7299,494.5594],[39.0511,2.7213,491.2688],[39.0485,2.7035,489.236],[39.0371,2.6921,488.1716],[39.0037,2.6103,467.2743],[38.9789,2.5691,440.4391],[38.8881,2.5437,426.4863],[38.8915,2.5359,424.3201],[38.8931,2.5219,421.2403],[38.8923,2.5171,420.2697],[38.8905,2.5199,421.3591],[38.8985,2.4985,415.9351],[38.9023,2.4781,412.6111],[38.9131,2.4507,406.5691],[38.9147,2.4395,404.1168],[38.9275,2.4127,399.7503],[38.9305,2.3813,395.8654],[38.9339,2.3739,394.545],[38.9339,2.3615,392.3574],[38.9317,2.3543,391.6154],[38.9313,2.3429,389.5436],[38.9357,2.3147,384.7049],[38.9299,2.2991,380.8773],[38.9257,2.2819,379.9125],[38.9281,2.2747,378.7448],[38.9285,2.2606,376.3842],[38.934,2.2427,372.9927],[38.9376,2.2143,368.4568],[38.936,2.1666,360.0818],[38.937,2.1596,359.2497],[38.9555,2.1057,349.6177],[38.9847,2.0706,344.1497],[38.9847,2.0507,342.346],[38.9897,2.0463,341.2514],[38.9927,2.0397,340.5348],[38.9897,2.0297,339.4507],[38.9945,2.0067,336.4465],[39.0041,2.0029,335.3511],[39.0131,1.9917,333.1749],[39.0248,1.9837,331.469],[39.0305,1.9776,330.6347],[39.0336,1.9696,329.3301],[39.0437,1.9569,327.2316],[39.0469,1.9485,326.4786],[39.0577,1.9407,325.1601],[39.0599,1.9273,323.7227],[39.0732,1.9148,321.824],[39.0821,1.9105,320.8712],[39.0879,1.9039,320.626],[39.0955,1.9018,318.9198],[39.1029,1.8931,317.4124],[39.1181,1.886,315.0993],[39.1293,1.8737,313.9984],[39.1391,1.8555,309.8682],[39.1433,1.8533,309.7596],[39.1417,1.8376,307.1476],[39.1479,1.8313,306.7864],[39.1515,1.8223,305.8716],[39.1603,1.8133,304.4513],[39.1618,1.8067,303.5083],[39.1649,1.8005,302.5677],[39.1679,1.7981,302.2221],[39.1719,1.7887,301.0207],[39.1801,1.7577,298.1255],[39.1895,1.7449,296.0508],[39.2037,1.7161,291.9543],[39.2137,1.7093,290.4506],[39.2225,1.7084,289.4144],[39.2265,1.7071,288.9583],[39.2305,1.7033,288.3308],[39.2471,1.6992,286.2265],[39.2607,1.6885,284.6733],[39.2713,1.6895,284.0323],[39.2835,1.6803,280.9778],[39.2843,1.6767,280.8875],[39.2981,1.6687,279.7437],[39.3073,1.6681,279.8203],[39.3085,1.6611,277.6413],[39.3107,1.6577,277.8365],[39.3157,1.6603,278.5557],[39.3215,1.6499,276.7745],[39.3313,1.6479,276.5865],[39.3373,1.6393,274.7786],[39.3411,1.6403,274.4613],[39.3459,1.6283,273.5032],[39.3515,1.6253,272.6123],[39.3583,1.6133,271.6616],[39.3669,1.6039,270.2316],[39.3769,1.5875,268.6249],[39.3827,1.5847,267.853],[39.3851,1.5817,267.6772],[39.3873,1.5737,267.09],[39.3939,1.5741,266.5009],[39.3971,1.5643,265.5372],[39.4037,1.5591,265.0871],[39.4125,1.5601,264.1133],[39.4391,1.5379,262.0088],[39.4483,1.5357,260.905],[39.3705,1.5093,286.9207],[39.2769,1.4733,305.6353],[39.4349,1.0647,209.1953],[39.4435,1.0472,206.4427],[39.4625,0.9933,200.4441],[39.4657,0.9887,200.083],[39.4799,0.9803,199.1738],[39.4931,0.9605,198.1126],[39.4991,0.9305,197.4726],[39.5151,0.8979,196.0804],[39.5331,0.8535,190.4138],[39.5437,0.8215,188.4536],[39.5545,0.7809,185.6769],[39.5607,0.7689,184.7791],[39.5613,0.7623,184.4782],[39.5641,0.7557,184.3851],[39.5755,0.7409,182.859],[39.5867,0.7207,181.1178],[39.5965,0.7129,180.2151],[39.5997,0.7035,179.6643],[39.6101,0.6917,178.488],[39.6139,0.6845,177.9395],[39.6239,0.6771,177.1689],[39.6269,0.6703,176.6349],[39.6349,0.6671,176.0051],[39.6455,0.6571,174.9966],[39.6539,0.6325,173.7268],[39.6623,0.6203,172.5977],[39.6639,0.6153,172.3839],[39.6729,0.6053,170.9986],[39.6759,0.5979,170.8869],[39.6846,0.588,170.0269],[39.6883,0.5801,169.6823],[39.698,0.5726,168.3768],[39.7019,0.5651,168.1658],[39.7115,0.5569,167.1507],[39.7163,0.5505,166.8318],[39.7169,0.5465,166.7476],[39.7204,0.5466,166.5077],[39.7235,0.5431,166.3255],[39.7309,0.531,165.3561],[39.7317,0.5267,165.1511],[39.7359,0.5233,164.6167],[39.7405,0.5233,164.3477],[39.7463,0.5177,163.7163],[39.7624,0.5117,163.033],[39.7637,0.5071,162.7761],[39.7699,0.5037,162.4725],[39.7747,0.4965,162.0393],[39.7831,0.4915,161.6313],[39.7957,0.4883,160.8179],[39.8009,0.4845,160.4041],[39.8103,0.4851,159.8723],[39.8209,0.4835,159.195],[39.8275,0.4797,158.9003],[39.8357,0.4815,158.2758],[39.8401,0.4791,158.1949],[39.8496,0.4785,157.4973],[39.8571,0.4703,156.7127],[39.8649,0.467,156.0013],[39.8693,0.4621,155.6177],[39.8743,0.4597,155.1178],[39.8779,0.4597,154.9721],[39.8892,0.4641,154.1744],[39.8943,0.4625,153.817],[39.9035,0.4635,155.1313],[39.9116,0.4584,154.1966],[39.944,0.4304,150.074],[39.9791,0.4103,147.5615],[40.0135,0.3993,146.5366],[40.0493,0.3964,144.0888],[40.059,0.3931,148.7813],[40.1301,0.3421,141.6115],[40.1567,0.3293,145.0335],[40.1753,0.3133,140.8767],[40.1766,0.3159,144.7666],[40.2144,0.2734,131.9995],[40.2442,0.2497,128.0273],[40.2596,0.2413,126.7861],[40.2998,0.2236,124.4075],[40.3289,0.2042,126.1684],[40.3432,0.2027,122.7847],[40.3394,0.1987,122.4285],[40.3425,0.1987,122.0435],[40.3446,0.2013,122.8521],[40.3578,0.2013,121.6395],[40.3595,0.1984,120.924],[40.3812,0.1946,119.6684],[40.3993,0.1841,117.6371],[40.4055,0.1835,116.8164],[40.4186,0.1887,116.0271],[40.4257,0.1899,116.1524],[40.4527,0.1855,114.5701],[40.4787,0.1867,112.7151],[40.4839,0.1887,112.1293],[40.4955,0.1971,114.4657],[40.5055,0.1927,114.2922],[40.5089,0.1961,114.3623],[40.5129,0.2077,111.9927],[40.5205,0.2137,110.5113],[40.5241,0.2218,110.4664],[40.5349,0.227,109.2676],[40.5407,0.2269,108.2801],[40.5629,0.2163,109.006],[40.5713,0.2153,107.4212],[40.5779,0.2177,110.4245],[40.5855,0.2153,109.9436],[40.5953,0.2253,108.1385],[40.6065,0.2265,108.6856],[40.6115,0.2321,106.8817],[40.6191,0.2313,106.5314],[40.6293,0.2327,106.3139],[40.6465,0.2313,105.7683],[40.6813,0.2571,103.2995],[40.6833,0.2597,102.0889],[40.6845,0.2715,99.8049],[40.6955,0.2785,100.2497],[40.7037,0.2931,97.5285],[40.7114,0.3141,95.4968],[40.7171,0.3206,95.0849],[40.7367,0.3262,93.2791],[40.7501,0.3417,92.609],[40.7713,0.3532,92.5266],[40.8172,0.3654,90.3994],[40.8421,0.3703,87.8647],[40.8581,0.3759,85.9044],[40.886,0.3933,84.961],[40.9201,0.4261,80.7332],[40.9343,0.434,79.5552],[40.9465,0.4384,78.755],[40.9618,0.449,77.9381],[40.9803,0.4556,76.7878]]]]}}