{"type":"Feature","properties":{"GID_3":"KEN.16.5.2_1","GID_0":"KEN","country":"Kenya","GID_1":"KEN.16_1","province":"Kisii","NL_NAME_1":"NA","GID_2":"KEN.16.5_1","county":"KitutuChacheNorth","NL_NAME_2":"NA","city":"Marani","VARNAME_3":"NA","NL_NAME_3":"NA","TYPE_3":"Ward","ENGTYPE_3":"Ward","CC_3":"1339","HASC_3":"NA","name":"Marani.city"},
"geometry":{"type": "MultiPolygon","coordinates": [[[[34.7517,-0.5521,1546.1968],[34.7462,-0.5673,1541.4723],[34.7446,-0.5795,1472.3118],[34.7467,-0.5861,1516.8945],[34.7527,-0.5875,1537.4697],[34.758,-0.5918,1525.5538],[34.7619,-0.591,1555.9075],[34.7682,-0.5866,1622.7096],[34.7709,-0.5923,1691.5931],[34.7777,-0.5892,1688.2527],[34.7807,-0.596,1689.49],[34.7894,-0.6026,1603.5839],[34.7929,-0.5992,1594.9187],[34.8012,-0.6015,1590.5093],[34.8131,-0.5903,1625.3461],[34.8106,-0.5875,1632.7301],[34.8144,-0.5854,1658.6632],[34.8131,-0.583,1651.3815],[34.8085,-0.5777,1617.0382],[34.8012,-0.5741,1646.067],[34.7973,-0.5678,1668.0525],[34.7951,-0.5628,1674.1068],[34.7961,-0.5554,1648.3162],[34.7914,-0.5575,1630.4181],[34.789,-0.5564,1630.9716],[34.7845,-0.5406,1587.2919],[34.7817,-0.5401,1594.8019],[34.7821,-0.5382,1608.3269],[34.7747,-0.5295,1559.8668],[34.768,-0.5284,1530.2902],[34.7653,-0.5344,1605.8821],[34.7611,-0.5388,1555.8936],[34.7611,-0.5426,1569.1807],[34.7517,-0.5521,1546.1968]]]]}}