{"type":"Feature","properties":{"GID_2":"KEN.32.6_1","GID_0":"KEN","country":"Kenya","GID_1":"KEN.32_1","province":"Nandi","NL_NAME_1":"NA","county":"Tinderet","VARNAME_2":"NA","NL_NAME_2":"NA","TYPE_2":"Constituency","ENGTYPE_2":"Constituency","CC_2":"151","HASC_2":"NA","name":"Tinderet.county"},
"geometry":{"type": "MultiPolygon","coordinates": [[[[35.4369,0.0268,2511.0154],[35.4349,0.0312,2548.1387],[35.4041,0.033,2387.686],[35.3902,0.0407,2190.8875],[35.369,0.0473,2225.6343],[35.3679,0.0215,1799.0712],[35.3658,0.0226,1821.5533],[35.365,0.0207,1775.3302],[35.3568,0.0227,1791.0161],[35.3542,0.0206,1796.4678],[35.3492,0.0237,1845.9666],[35.3385,0.023,1766.9209],[35.3366,0.0247,1763.3569],[35.3332,0.0231,1845.6147],[35.3344,0.0213,1804.8129],[35.3295,0.0183,1701.127],[35.314,0.0154,1701.135],[35.3055,0.0338,2032.4203],[35.3013,0.0576,2298.7188],[35.2942,0.0727,2198.5315],[35.2734,0.0778,2182.8989],[35.2643,0.063,2162.6399],[35.2604,0.0634,2178.9028],[35.2481,0.0691,2108.4487],[35.2367,0.079,2061.4167],[35.2321,0.0761,2102.4436],[35.2278,0.0765,2084.6384],[35.2184,0.0815,2132.1719],[35.2177,0.0834,2159.3132],[35.2143,0.084,2057.2837],[35.2106,0.0772,1992.3218],[35.2105,0.069,1933.5211],[35.2046,0.063,1785.0984],[35.2007,0.0682,1829.3569],[35.2009,0.0712,1906.2925],[35.1987,0.0695,1850.8912],[35.194,0.0712,1864.4056],[35.1852,0.0709,1870.2845],[35.1803,0.068,1832.5211],[35.1775,0.0733,1871.3506],[35.1662,0.0741,2025.6362],[35.1639,0.0791,2042.6443],[35.1596,0.0808,2069.8232],[35.1552,0.0864,2087.532],[35.1508,0.0863,2085.679],[35.1467,0.0889,2051.3276],[35.1427,0.0959,2043.9064],[35.1358,0.0851,2082.2444],[35.1076,0.0906,1923.338],[35.1079,0.0795,1869.5914],[35.1063,0.0752,1880.5883],[35.1015,0.071,1882.481],[35.1004,0.0672,1877.269],[35.1017,0.0635,1842.121],[35.0963,0.0568,1867.1803],[35.0892,0.0541,1831.1749],[35.0879,0.0506,1818.7537],[35.0906,0.0439,1775.2242],[35.0892,0.0408,1741.7012],[35.0924,0.0376,1750.3291],[35.0914,0.0358,1728.5562],[35.0944,0.0347,1814.4795],[35.0948,0.0328,1786.3158],[35.0966,0.0333,1826.3733],[35.0962,0.0285,1581.8203],[35.0992,0.028,1648.53],[35.1004,0.0253,1571.1047],[35.0976,0.0229,1498.9896],[35.098,0.0187,1504.2533],[35.0915,0.0152,1784.1487],[35.0898,0.0075,1507.5612],[35.0908,0.0034,1492.431],[35.0851,-0.0026,1762.5957],[35.0748,-0.0027,1717.5625],[35.0707,-0.0009,1706.9481],[35.0687,-0.0038,1573.6666],[35.0636,-0.0063,1608.6171],[35.0572,-0.0011,1568.3647],[35.0567,-0.0074,1562.7964],[35.0542,-0.0088,1578.3086],[35.0517,-0.0083,1504.2076],[35.0496,-0.0027,1679.0779],[35.0456,-0.0002,1718.1304],[35.0469,-0.0021,1667.9042],[35.0464,-0.0072,1434.8059],[35.043,-0.0094,1460.5046],[35.0465,-0.0118,1414.3513],[35.0456,-0.0155,1418.0725],[35.0435,-0.0155,1437.1279],[35.0436,-0.0226,1438.5204],[35.0387,-0.0189,1680.3823],[35.0333,-0.023,1702.7408],[35.0291,-0.0239,1677.0625],[35.0275,-0.0228,1717.0771],[35.026,-0.0246,1561.9827],[35.0234,-0.0203,1775.2615],[35.0177,-0.0219,1719.4608],[35.0039,-0.0163,1303.9949],[35.0043,-0.0078,1533.9127],[35.0016,-0.006,1529.7002],[35.002,-0.0033,1549.9006],[35.0,-0.0006,1671.764],[34.9959,-0.0033,1553.5641],[34.9879,-0.005,1733.2032],[34.9479,-0.005,1846.5758],[34.9482,-0.0076,1842.417],[34.9464,-0.0098,1837.7047],[34.9372,-0.0161,1838.6855],[34.9382,-0.0203,1780.077],[34.9414,-0.0238,1654.3849],[34.9407,-0.0276,1493.9045],[34.9544,-0.0243,1449.5389],[34.9524,-0.0204,1674.795],[34.9568,-0.0199,1591.2772],[34.9641,-0.0263,1378.9625],[34.9783,-0.0181,1469.3583],[34.9884,-0.0176,1371.8208],[34.9885,-0.0131,1443.4762],[35.0076,-0.0228,1516.2773],[35.0071,-0.0477,1220.3665],[35.0595,-0.0478,1245.1191],[35.0604,-0.0498,1232.9114],[35.0594,-0.0528,1227.9127],[35.0618,-0.0525,1229.0107],[35.0662,-0.0626,1209.166],[35.0656,-0.0598,1206.8789],[35.0743,-0.0488,1221.843],[35.0826,-0.0456,1220.9972],[35.0836,-0.043,1224.4891],[35.0867,-0.0434,1224.7357],[35.0897,-0.0389,1232.1136],[35.0926,-0.0385,1232.7302],[35.0958,-0.0239,1259.2981],[35.0989,-0.023,1251.6331],[35.0993,-0.0212,1260.0796],[35.1011,-0.0215,1257.8386],[35.1036,-0.0169,1262.4581],[35.1013,-0.0093,1285.5726],[35.1029,-0.006,1294.2955],[35.1013,-0.0055,1293.9812],[35.1005,-0.0013,1313.8645],[35.1029,0.0018,1318.194],[35.146,-0.0278,1300.3608],[35.1474,-0.0272,1301.6023],[35.1511,-0.0307,1275.8654],[35.1502,-0.0326,1267.5333],[35.1551,-0.0302,1282.4047],[35.1587,-0.0309,1290.8293],[35.1615,-0.0241,1339.0614],[35.1666,-0.026,1333.6407],[35.1667,-0.0248,1333.6407],[35.1774,-0.0212,1347.6064],[35.1794,-0.0239,1321.1553],[35.1812,-0.023,1328.0887],[35.1811,-0.021,1328.4323],[35.1828,-0.0231,1333.9644],[35.188,-0.0227,1339.8883],[35.1917,-0.022,1343.8613],[35.192,-0.0198,1342.6816],[35.194,-0.0194,1349.1266],[35.1952,-0.0209,1355.9847],[35.1997,-0.0201,1364.4255],[35.2026,-0.0229,1361.4355],[35.2065,-0.0218,1363.0691],[35.2102,-0.0258,1365.1704],[35.2124,-0.025,1368.9346],[35.2128,-0.0265,1360.0714],[35.2149,-0.0265,1367.8079],[35.2165,-0.0306,1367.8241],[35.2211,-0.0299,1386.7579],[35.2268,-0.0609,1491.4071],[35.2265,-0.0997,1464.3448],[35.2788,-0.0927,1759.5433],[35.3077,-0.0795,1958.5861],[35.3266,-0.0948,2267.9336],[35.3395,-0.1017,2360.9058],[35.3719,-0.1033,2263.7354],[35.3898,-0.0912,2182.5437],[35.401,-0.081,2293.3911],[35.4241,-0.072,2103.6501],[35.4044,-0.0172,2185.4004],[35.4136,0.0093,1979.1914],[35.4382,0.024,2475.0195],[35.4369,0.0268,2511.0154]]]]}}