{"type":"Feature","properties":{"GID_3":"KEN.26.3.5_1","GID_0":"KEN","country":"Kenya","GID_1":"KEN.26_1","province":"Meru","NL_NAME_1":"NA","GID_2":"KEN.26.3_1","county":"IgembeCentral","NL_NAME_2":"NA","city":"Njia","VARNAME_3":"NA","NL_NAME_3":"NA","TYPE_3":"Ward","ENGTYPE_3":"Ward","CC_3":"259","HASC_3":"NA","name":"Njia.city"},
"geometry":{"type": "MultiPolygon","coordinates": [[[[37.7697,0.5429,945.6205],[37.7745,0.5191,966.6968],[37.7755,0.5053,977.7506],[37.7745,0.4939,1003.2833],[37.7621,0.4655,1027.9672],[37.7605,0.4481,1036.7998],[37.7635,0.4351,1043.5812],[37.7801,0.3943,1154.6544],[37.7829,0.3903,1161.0571],[37.7891,0.3865,1167.7878],[37.7933,0.3731,1244.5837],[37.8049,0.3511,1238.0239],[37.8131,0.3439,1247.9866],[37.8161,0.3367,1264.2615],[37.8243,0.3261,1296.1707],[37.8297,0.3249,1310.3958],[37.8361,0.3199,1335.5826],[37.8407,0.3187,1352.5671],[37.8507,0.3099,1394.4082],[37.8644,0.3057,1506.4314],[37.8687,0.2995,1555.2129],[37.8769,0.2975,1631.3143],[37.8827,0.2983,1749.0383],[37.8833,0.2953,1706.7681],[37.8907,0.2869,1771.9355],[37.9001,0.2701,1938.73],[37.9011,0.2611,2013.7908],[37.9069,0.2539,2128.0173],[37.9145,0.2591,1976.7205],[37.9212,0.2526,1782.3486],[37.9235,0.2527,1761.498],[37.9279,0.2567,1833.6678],[37.9343,0.2551,1748.1008],[37.9367,0.2581,1641.4525],[37.9365,0.2611,1636.3596],[37.9439,0.2703,1558.7964],[37.9431,0.2739,1617.3835],[37.9447,0.2771,1611.2788],[37.9411,0.2795,1698.0142],[37.9365,0.2785,1702.9867],[37.8765,0.3327,1488.2874],[37.8721,0.3347,1403.5338],[37.8607,0.3171,1426.1898],[37.8363,0.3289,1317.5575],[37.8295,0.3415,1279.4821],[37.8237,0.3441,1256.1747],[37.8175,0.3517,1233.8625],[37.8133,0.3617,1214.5032],[37.8147,0.3651,1209.8026],[37.8101,0.3871,1179.3804],[37.8119,0.4027,1150.9912],[37.8105,0.4121,1139.5509],[37.8057,0.4169,1131.084],[37.8011,0.4177,1113.0977],[37.7891,0.4285,1086.8134],[37.7727,0.4345,1051.7849],[37.774,0.4377,1048.3507],[37.7827,0.4385,1083.7666],[37.7867,0.4407,1080.5195],[37.8001,0.4397,1088.4829],[37.8125,0.4517,1066.0049],[37.8225,0.4552,1082.0997],[37.8295,0.4603,1068.5853],[37.8385,0.4621,1162.802],[37.8379,0.4711,1065.7413],[37.8203,0.5611,1475.16],[37.7697,0.5429,945.6205]]]]}}