{"type": "Feature","bbox": [40.8129,-2.3374,40.9174,-2.2454],"geometry": {"type": "MultiPolygon","coordinates": [[[[40.8776,-2.2454,2.9485],[40.8682,-2.2463,2.7646],[40.8601,-2.251,1.453],[40.8474,-2.2549,3.8364],[40.8413,-2.261,1.2247],[40.8371,-2.2685,6.6554],[40.8296,-2.2718,2.2763],[40.8299,-2.2735,1.9071],[40.8265,-2.2726,0.6897],[40.8179,-2.2812,0.0],[40.8168,-2.2915,3.9548],[40.814,-2.2943,0.0],[40.8146,-2.2993,3.243],[40.8129,-2.304,2.1181],[40.8132,-2.3076,0.0],[40.8151,-2.3076,3.5241],[40.814,-2.3137,0.0],[40.8154,-2.316,0.8848],[40.8151,-2.321,0.0],[40.8165,-2.3218,6.5432],[40.8154,-2.3346,0.0],[40.8171,-2.3374,1.0557],[40.8307,-2.3304,1.1044],[40.8399,-2.3193,5.0743],[40.8662,-2.3029,8.1706],[40.884,-2.2979,10.7604],[40.8996,-2.2971,6.0664],[40.9101,-2.2999,3.9778],[40.9138,-2.2993,12.2018],[40.9165,-2.2965,6.7857],[40.9143,-2.289,1.1082],[40.9049,-2.2751,5.5338],[40.8979,-2.2554,0.949],[40.8849,-2.2463,1.3944],[40.8776,-2.2454,2.9485]]],
[[[40.9129,-2.2749,0.6776],[40.9143,-2.2779,0.4518],[40.9129,-2.2801,0.0],[40.9162,-2.2854,0.0],[40.9174,-2.2829,0.0],[40.9165,-2.2785,3.415],[40.9129,-2.2749,0.6776]]]]}
,"properties": {"GID_3": "KEN.21.2.4_1","GID_0": "KEN","country": "Kenya","GID_1": "KEN.21_1","province": "Lamu","NL_NAME_1": "NA","GID_2": "KEN.21.2_1","county": "LamuWest","NL_NAME_2": "NA","city": "Mkomani","VARNAME_3": "NA","NL_NAME_3": "NA","TYPE_3": "Ward","ENGTYPE_3": "Ward","CC_3": "105","HASC_3": "NA","name": "Mkomani.city","area_km2": 61.26801,"hist_schema_id": "Elevation0-9000","hist_area_km2": {"0": 49.74334,"25": 9.76632,"50": 1.69479,"75": 0.06355}}}