{"type":"Feature","properties":{"GID_2":"KEN.26.4_1","GID_0":"KEN","country":"Kenya","GID_1":"KEN.26_1","province":"Meru","NL_NAME_1":"NA","county":"IgembeNorth","VARNAME_2":"NA","NL_NAME_2":"NA","TYPE_2":"Constituency","ENGTYPE_2":"Constituency","CC_2":"53","HASC_2":"NA","name":"Igembe_North.county"},
"geometry":{"type": "MultiPolygon","coordinates": [[[[37.9505,0.3104,1702.2003],[37.9501,0.3031,1651.1145],[37.9563,0.3224,1685.1335],[37.9651,0.3145,1576.9985],[37.9811,0.3153,1469.3135],[37.9999,0.3063,1327.5415],[38.0053,0.3127,1318.7231],[38.0133,0.3178,1255.663],[38.0271,0.3117,1148.7681],[38.0497,0.3199,1034.387],[38.1691,0.3235,740.8748],[38.1757,0.3307,754.9407],[38.1621,0.3685,787.4919],[38.1583,0.3695,793.1785],[38.1623,0.3687,787.4919],[38.0945,0.5641,1151.7196],[38.0625,0.6711,766.2913],[37.9017,0.5967,870.434],[37.9025,0.5921,872.4823],[37.9017,0.5965,870.434],[37.8893,0.5919,862.7881],[37.8203,0.5611,1475.16],[37.8379,0.4711,1065.7413],[37.8385,0.4621,1162.802],[37.8295,0.4603,1068.5853],[37.8225,0.4552,1082.0997],[37.8125,0.4517,1066.0049],[37.8001,0.4397,1088.4829],[37.7867,0.4407,1080.5195],[37.7827,0.4385,1083.7666],[37.774,0.4377,1048.3507],[37.7727,0.4345,1051.7849],[37.7856,0.4306,1082.9163],[37.7935,0.4259,1099.1646],[37.8011,0.4177,1113.0977],[37.8057,0.4169,1131.084],[37.8113,0.4097,1141.8162],[37.8723,0.3583,1363.8042],[37.8741,0.3553,1385.0167],[37.8777,0.3539,1389.8809],[37.8825,0.3559,1419.229],[37.8891,0.3547,1447.3634],[37.8983,0.3497,1583.3081],[37.9005,0.3463,1535.2786],[37.9059,0.3459,1553.7521],[37.9096,0.3409,1575.4309],[37.9111,0.3357,1719.8682],[37.9195,0.3319,1858.9292],[37.9205,0.3301,1897.2726],[37.9269,0.3289,1848.2755],[37.9375,0.3233,1759.2347],[37.9409,0.3159,1732.795],[37.9505,0.3104,1702.2003]]]]}}