{"type": "Feature","bbox": [35.9713,-1.4641,36.2288,-0.961],"geometry": {"type": "MultiPolygon","coordinates": [[[[36.2288,-1.2969,1417.0693],[36.2252,-1.2926,1423.4285],[36.2251,-1.2747,1450.3204],[36.2232,-1.2693,1466.0216],[36.217,-1.2654,1491.9886],[36.21,-1.2662,1527.9094],[36.1984,-1.2637,1869.3225],[36.2052,-1.189,1602.6521],[36.1975,-1.1889,1641.5096],[36.192,-1.1789,1628.4933],[36.1903,-1.1717,1660.8785],[36.1911,-1.1564,1676.223],[36.1918,-1.1513,1705.9321],[36.1942,-1.1486,1690.2554],[36.16,-1.1491,1900.8813],[36.1534,-1.152,2035.0374],[36.1496,-1.1487,2017.2552],[36.1448,-1.1523,2079.8118],[36.1331,-1.1529,2023.6318],[36.1313,-1.1409,2035.3651],[36.1297,-1.0905,2132.0378],[36.1328,-1.076,2172.478],[36.1368,-1.0604,2198.5605],[36.1415,-1.0537,2156.9446],[36.1445,-1.0418,2178.7092],[36.1504,-1.0365,2229.6458],[36.155,-1.0234,2204.1216],[36.1641,-1.0085,2236.9727],[36.158,-1.0062,2252.4226],[36.1544,-1.0023,2219.3496],[36.1538,-0.9984,2263.7393],[36.1503,-0.9956,2259.8608],[36.1475,-0.9885,2254.0029],[36.1489,-0.9772,2441.4551],[36.1416,-0.9625,2509.7798],[36.1241,-0.961,2673.0593],[36.1162,-0.9618,2667.5273],[36.1091,-0.9678,2583.9885],[36.1021,-0.9774,2579.6506],[36.0812,-0.9899,2423.3262],[36.0783,-0.9903,2379.2026],[36.069,-0.9999,2264.5349],[36.0618,-1.0018,2313.8645],[36.0594,-1.0116,2212.1345],[36.0603,-1.0147,2173.6733],[36.056,-1.0195,2243.4985],[36.0538,-1.0194,2242.2156],[36.048,-1.027,2157.9124],[36.042,-1.0388,2094.6377],[36.0424,-1.0414,2079.9172],[36.0398,-1.0433,2082.75],[36.0351,-1.0425,2078.0298],[36.0303,-1.0481,2046.2761],[36.0302,-1.0528,2018.9329],[36.027,-1.0565,2019.4117],[36.027,-1.0602,1992.3427],[36.0246,-1.0626,1991.0591],[36.0228,-1.0693,1987.9241],[36.0218,-1.0885,1942.2983],[36.0236,-1.0964,1909.2646],[36.0217,-1.1005,1913.6809],[36.0196,-1.1011,1926.1305],[36.0171,-1.1059,1902.2402],[36.0113,-1.109,1903.3186],[36.0076,-1.1151,1872.6252],[36.0071,-1.121,1853.9734],[36.0029,-1.1274,1854.5092],[36.0022,-1.1322,1831.2401],[36.0004,-1.1333,1833.6899],[36.0015,-1.1356,1818.5343],[35.9987,-1.1386,1821.6393],[35.9993,-1.1418,1800.272],[35.9979,-1.145,1789.0487],[35.9996,-1.1519,1773.0652],[35.9969,-1.1533,1800.629],[35.9952,-1.1576,1794.3512],[35.9914,-1.1581,1792.9282],[35.991,-1.1602,1787.1],[35.9874,-1.1606,1784.4661],[35.986,-1.164,1769.8513],[35.9821,-1.1658,1755.5239],[35.9839,-1.1712,1715.7162],[35.9862,-1.1727,1716.5027],[35.9848,-1.1758,1703.5374],[35.9866,-1.1795,1682.9653],[35.9817,-1.1852,1734.8698],[35.9836,-1.1866,1710.5537],[35.9805,-1.1912,1680.8489],[35.9813,-1.1935,1658.0361],[35.9776,-1.1948,1702.9163],[35.9802,-1.1977,1658.564],[35.9793,-1.2009,1649.2842],[35.9732,-1.2035,1736.6045],[35.976,-1.2096,1645.4768],[35.9733,-1.2155,1660.3933],[35.975,-1.2218,1645.3307],[35.9713,-1.2269,1657.1401],[35.9736,-1.231,1626.625],[35.9759,-1.2318,1666.0286],[35.975,-1.2355,1642.3762],[35.9777,-1.2382,1626.3854],[35.9769,-1.2409,1624.6494],[35.9821,-1.2428,1738.1597],[35.9823,-1.2451,1666.2196],[35.988,-1.2469,1716.7543],[35.9897,-1.2513,1628.1235],[35.9933,-1.2538,1681.5946],[35.9934,-1.2574,1641.0488],[35.9966,-1.2597,1629.2526],[35.9964,-1.2623,1617.926],[35.9987,-1.2629,1721.6543],[35.9982,-1.2669,1623.7018],[35.9999,-1.2712,1638.968],[36.0013,-1.2708,1707.6146],[36.0054,-1.2774,1596.9115],[36.0055,-1.2821,1607.0692],[36.0079,-1.283,1661.3353],[36.0079,-1.2855,1605.7285],[36.0123,-1.2907,1605.9182],[36.012,-1.2951,1565.3568],[36.0105,-1.2953,1575.1683],[36.0071,-1.3022,1594.24],[36.0014,-1.3058,1579.5475],[36.0015,-1.3111,1552.9467],[35.9993,-1.3123,1556.5498],[35.9986,-1.3172,1557.2422],[35.9966,-1.3189,1562.2075],[35.9976,-1.3291,1532.5217],[35.9941,-1.3318,1539.5503],[35.9965,-1.3358,1527.5913],[35.9926,-1.3376,1552.142],[35.9968,-1.3382,1521.0963],[35.9979,-1.3412,1544.7231],[36.0002,-1.3423,1540.1357],[35.9976,-1.3469,1515.5729],[36.0038,-1.3467,1545.3479],[36.0008,-1.3501,1512.8297],[36.0029,-1.3573,1515.4033],[36.0008,-1.3608,1542.1962],[36.0028,-1.3617,1533.6007],[36.0049,-1.3664,1516.1243],[36.0046,-1.373,1505.8352],[36.0075,-1.3736,1513.9061],[36.0093,-1.3687,1545.2886],[36.0152,-1.3702,1560.6686],[36.0168,-1.3796,1523.5757],[36.0147,-1.3819,1530.4454],[36.0141,-1.3897,1480.1288],[36.0219,-1.3919,1552.4022],[36.0229,-1.3964,1471.2955],[36.0215,-1.4015,1533.4612],[36.0229,-1.4054,1484.4998],[36.0215,-1.4067,1488.1332],[36.0173,-1.4063,1537.7336],[36.018,-1.4085,1497.7992],[36.0246,-1.4102,1474.0055],[36.0271,-1.4126,1534.967],[36.03,-1.4223,1438.1433],[36.0331,-1.4258,1490.9115],[36.036,-1.4261,1448.314],[36.0357,-1.4312,1372.8458],[36.0411,-1.4327,1382.9839],[36.0475,-1.4311,1304.5499],[36.0559,-1.4354,1293.7534],[36.0597,-1.4419,1289.9457],[36.0587,-1.4441,1284.2437],[36.0605,-1.448,1281.4342],[36.063,-1.4485,1284.9178],[36.0612,-1.4455,1285.5914],[36.0634,-1.4451,1289.0164],[36.0674,-1.4523,1284.1106],[36.0666,-1.4551,1280.7286],[36.0644,-1.4552,1281.4695],[36.0623,-1.4575,1282.4583],[36.0651,-1.458,1280.4614],[36.0656,-1.4604,1280.3408],[36.0669,-1.4599,1280.3408],[36.0655,-1.4626,1277.9221],[36.0664,-1.4641,1276.5908],[36.0685,-1.462,1277.9287],[36.0709,-1.4631,1277.2458],[36.2288,-1.2969,1417.0693]]]]}
,"properties": {"GID_3": "KEN.33.3.2_1","GID_0": "KEN","country": "Kenya","GID_1": "KEN.33_1","province": "Narok","NL_NAME_1": "NA","GID_2": "KEN.33.3_1","county": "NarokEast","NL_NAME_2": "NA","city": "Mosiro","VARNAME_3": "NA","NL_NAME_3": "NA","TYPE_3": "Ward","ENGTYPE_3": "Ward","CC_3": "897","HASC_3": "NA","name": "Mosiro.city","area_km2": 893.9978,"hist_schema_id": "Elevation0-9000","hist_area_km2": {"1275": 2.5646,"1300": 19.9239,"1325": 19.479,"1350": 17.6563,"1375": 15.6003,"1400": 12.8025,"1425": 12.4422,"1450": 17.1267,"1475": 22.235,"1500": 20.0943,"1525": 21.0481,"1550": 23.8037,"1575": 23.3374,"1600": 25.0333,"1625": 28.3401,"1650": 31.435,"1675": 26.7506,"1700": 27.959,"1725": 34.9965,"1750": 43.7935,"1775": 42.2251,"1800": 33.0256,"1825": 28.8923,"1850": 24.3985,"1875": 24.8861,"1900": 23.3388,"1925": 20.0955,"1950": 21.3887,"1975": 21.9187,"2000": 17.976,"2025": 19.0147,"2050": 19.3116,"2075": 15.5808,"2100": 13.4398,"2125": 12.0195,"2150": 10.578,"2175": 11.2988,"2200": 14.3091,"2225": 8.8187,"2250": 7.3136,"2275": 5.5753,"2300": 4.8545,"2325": 4.6426,"2350": 4.261,"2375": 4.685,"2400": 4.261,"2425": 3.731,"2450": 3.8582,"2475": 3.5614,"2500": 2.9891,"2525": 2.7771,"2550": 2.8195,"2575": 2.2471,"2600": 2.1835,"2625": 2.1623,"2650": 1.5899,"2675": 0.954,"2700": 0.4876,"2725": 0.106}}}