{"type": "Feature","bbox": [39.7541,-3.7842,39.8707,-3.5886],"geometry": {"type": "MultiPolygon","coordinates": [[[[39.7749,-3.6709,59.5407],[39.7781,-3.6845,57.9511],[39.7747,-3.6931,62.0045],[39.7815,-3.7126,24.0115],[39.7843,-3.7117,23.8744],[39.7879,-3.7132,16.6156],[39.7979,-3.7099,12.7541],[39.8047,-3.7038,11.1064],[39.8147,-3.7086,14.1365],[39.8141,-3.7148,38.1441],[39.8057,-3.7327,47.1991],[39.8055,-3.7413,39.6516],[39.7997,-3.7473,87.9897],[39.7967,-3.7554,47.9963],[39.8165,-3.7632,37.4874],[39.8147,-3.7696,36.6277],[39.8075,-3.781,89.2606],[39.8195,-3.7842,29.7749],[39.8219,-3.7815,22.6111],[39.8227,-3.7736,26.5148],[39.8267,-3.7736,22.6504],[39.8273,-3.7685,19.7487],[39.8438,-3.7739,1.6886],[39.8446,-3.7651,10.304],[39.8474,-3.7615,0.0],[39.8501,-3.7501,1.7001],[39.856,-3.7407,0.0],[39.8582,-3.7268,0.0],[39.8624,-3.7224,0.0],[39.8632,-3.7185,6.565],[39.8613,-3.7149,4.3257],[39.8662,-3.7093,0.0],[39.8707,-3.6979,5.9926],[39.8682,-3.681,0.0],[39.8651,-3.6787,0.0],[39.8624,-3.6799,3.8524],[39.8632,-3.6785,10.395],[39.8668,-3.6779,0.0],[39.8671,-3.676,3.6952],[39.8693,-3.6749,0.0],[39.8699,-3.6665,0.0],[39.8679,-3.6524,0.0],[39.864,-3.6463,0.0],[39.8638,-3.6432,0.0],[39.8604,-3.6407,0.0],[39.856,-3.6407,0.0],[39.8521,-3.6376,0.0],[39.8446,-3.6385,14.5327],[39.8371,-3.6335,8.2773],[39.8321,-3.6379,0.6648],[39.8274,-3.6371,1.9865],[39.826,-3.6413,15.851],[39.8224,-3.6429,0.0],[39.8204,-3.6471,1.6475],[39.8101,-3.6471,3.3637],[39.8085,-3.6438,0.0],[39.8049,-3.6426,0.0],[39.8026,-3.636,0.0],[39.8035,-3.6324,0.6875],[39.8057,-3.6304,1.5186],[39.8085,-3.6299,0.0],[39.8115,-3.6335,0.0],[39.8115,-3.6237,4.1832],[39.8063,-3.6186,2.2026],[39.8035,-3.6123,3.1401],[39.7901,-3.6132,2.4085],[39.7805,-3.611,3.3113],[39.7745,-3.5991,5.3708],[39.7737,-3.5924,5.9624],[39.7721,-3.5904,7.4625],[39.7697,-3.5886,11.3483],[39.7609,-3.5902,10.0209],[39.7567,-3.5923,8.3024],[39.7541,-3.5975,6.9755],[39.7541,-3.603,46.5583],[39.7649,-3.6029,82.4552],[39.7665,-3.6178,46.6344],[39.7767,-3.6644,47.5096],[39.7749,-3.6709,59.5407]]]]}
,"properties": {"GID_3": "KEN.14.3.4_1","GID_0": "KEN","country": "Kenya","GID_1": "KEN.14_1","province": "Kilifi","NL_NAME_1": "NA","GID_2": "KEN.14.3_1","county": "KilifiNorth","NL_NAME_2": "NA","city": "Mnarani","VARNAME_3": "NA","NL_NAME_3": "NA","TYPE_3": "Ward","ENGTYPE_3": "Ward","CC_3": "57","HASC_3": "NA","name": "Mnarani.city","area_km2": 133.8054,"hist_schema_id": "Elevation0-9000","hist_area_km2": {"0": 23.8666,"25": 62.7131,"50": 35.7367,"75": 9.0346,"100": 2.285,"125": 0.1693}}}