{"type": "Feature","bbox": [34.7732,-0.735,34.8414,-0.6706],"geometry": {"type": "MultiPolygon","coordinates": [[[[34.8146,-0.7277,1778.5452],[34.8182,-0.7211,1796.4209],[34.8267,-0.729,1789.4288],[34.8335,-0.7189,1789.3452],[34.8412,-0.7222,1853.9949],[34.8414,-0.7098,1794.1594],[34.8348,-0.7019,1783.6758],[34.8277,-0.6984,1789.3716],[34.8271,-0.6999,1781.0961],[34.8252,-0.6972,1795.8525],[34.8232,-0.699,1776.8387],[34.8227,-0.6913,1800.0197],[34.8197,-0.6874,1807.6521],[34.8083,-0.6817,1867.4453],[34.8008,-0.6843,1881.608],[34.7959,-0.684,1844.5413],[34.7924,-0.6818,1743.5701],[34.7931,-0.678,1725.3062],[34.789,-0.6718,1707.3756],[34.7865,-0.6706,1697.1017],[34.7844,-0.6739,1677.5996],[34.7792,-0.6711,1675.1731],[34.7756,-0.6736,1643.3875],[34.7772,-0.6771,1681.6816],[34.7823,-0.6793,1714.8973],[34.7804,-0.6826,1706.9081],[34.7774,-0.6811,1687.7997],[34.7775,-0.685,1684.0293],[34.7732,-0.6927,1738.1643],[34.7751,-0.7006,1725.9105],[34.7742,-0.7032,1752.0796],[34.7775,-0.7059,1798.9604],[34.7782,-0.7117,1855.843],[34.7833,-0.7162,1935.0143],[34.7884,-0.7174,1924.8881],[34.7943,-0.7243,1870.9031],[34.7983,-0.7251,1865.5444],[34.8099,-0.735,1760.9531],[34.8138,-0.7318,1763.2351],[34.8146,-0.7277,1778.5452]]]]}
,"properties": {"GID_3": "KEN.16.7.2_1","GID_0": "KEN","country": "Kenya","GID_1": "KEN.16_1","province": "Kisii","NL_NAME_1": "NA","GID_2": "KEN.16.7_1","county": "NyaribariChache","NL_NAME_2": "NA","city": "Bobaracho","VARNAME_3": "NA","NL_NAME_3": "NA","TYPE_3": "Ward","ENGTYPE_3": "Ward","CC_3": "1331","HASC_3": "NA","name": "Bobaracho.city","area_km2": 29.63845,"hist_schema_id": "Elevation0-9000","hist_area_km2": {"1650": 0.106,"1675": 0.61482,"1700": 1.37805,"1725": 1.65365,"1750": 1.56885,"1775": 5.19414,"1800": 4.70653,"1825": 3.85851,"1850": 2.88328,"1875": 2.24726,"1900": 1.73845,"1925": 1.54764,"1950": 1.18723,"1975": 0.78442,"2000": 0.1696}}}