{"type": "Feature","bbox": [34.8689,0.8764,34.9526,0.9784],"geometry": {"type": "MultiPolygon","coordinates": [[[[34.952,0.9712,1834.3352],[34.952,0.9784,1800.3793],[34.916,0.9613,1781.5503],[34.9085,0.9553,1753.3892],[34.8968,0.9509,1770.6533],[34.8935,0.9463,1760.9897],[34.8837,0.9418,1786.916],[34.8704,0.9203,1793.1311],[34.8783,0.9178,1796.2345],[34.8837,0.9116,1773.4073],[34.889,0.9119,1757.7227],[34.8924,0.91,1782.7072],[34.8689,0.9027,1786.9011],[34.8745,0.8877,1776.9338],[34.8833,0.8764,1747.7129],[34.91,0.8899,1733.4143],[34.9148,0.8959,1776.7638],[34.9366,0.9056,1734.6531],[34.9376,0.9198,1785.1741],[34.9457,0.9366,1831.3407],[34.9474,0.9465,1822.7623],[34.9526,0.9547,1850.1804],[34.952,0.9712,1834.3352]]]]}
,"properties": {"GID_3": "KEN.42.3.3_1","GID_0": "KEN","country": "Kenya","GID_1": "KEN.42_1","province": "TransNzoia","NL_NAME_1": "NA","GID_2": "KEN.42.3_1","county": "Kiminini","NL_NAME_2": "NA","city": "Nabiswa","VARNAME_3": "NA","NL_NAME_3": "NA","TYPE_3": "Ward","ENGTYPE_3": "Ward","CC_3": "693","HASC_3": "NA","name": "Nabiswa.city","area_km2": 55.69091,"hist_schema_id": "Elevation0-9000","hist_area_km2": {"1725": 2.22595,"1750": 12.52888,"1775": 16.64158,"1800": 17.19274,"1825": 6.80498,"1850": 0.29679}}}