{"type":"Feature","properties":{"GID_3":"KEN.28.5.4_1","GID_0":"KEN","country":"Kenya","GID_1":"KEN.28_1","province":"Mombasa","NL_NAME_1":"NA","GID_2":"KEN.28.5_1","county":"Mvita","NL_NAME_2":"NA","city":"Tononoka","VARNAME_3":"NA","NL_NAME_3":"NA","TYPE_3":"Ward","ENGTYPE_3":"Ward","CC_3":"28","HASC_3":"NA","name":"Tononoka.city"},
"geometry":{"type": "MultiPolygon","coordinates": [[[[39.6721,-4.056,20.4358],[39.6719,-4.053,19.0209],[39.6747,-4.0465,9.8885],[39.6724,-4.046,0.0],[39.671,-4.0418,8.4627],[39.6757,-4.0374,6.6237],[39.6743,-4.0354,3.3063],[39.6709,-4.0381,8.3519],[39.6669,-4.0357,26.0215],[39.6661,-4.039,24.4068],[39.6603,-4.0433,24.9897],[39.6681,-4.054,22.38],[39.6721,-4.056,20.4358]]]]}}