{"type":"Feature","properties":{"GID_3":"KEN.1.5.1_1","GID_0":"KEN","country":"Kenya","GID_1":"KEN.1_1","province":"Baringo","NL_NAME_1":"NA","GID_2":"KEN.1.5_1","county":"EldamaRavine","NL_NAME_2":"NA","city":"Koibatek","VARNAME_3":"NA","NL_NAME_3":"NA","TYPE_3":"Ward","ENGTYPE_3":"Ward","CC_3":"810","HASC_3":"NA","name":"Koibatek.city"},
"geometry":{"type": "MultiPolygon","coordinates": [[[[35.8229,0.0247,1766.5411],[35.8207,0.0316,1771.1333],[35.8185,0.0336,1816.6423],[35.8061,0.0257,1881.337],[35.8028,0.0285,1869.2485],[35.7991,0.0293,1884.0079],[35.7956,0.0282,1893.1647],[35.7755,0.0315,1964.2583],[35.7715,0.0305,1947.2493],[35.7633,0.0348,2006.1816],[35.7607,0.0242,2026.9539],[35.7543,0.0159,2085.3147],[35.7533,0.0098,2085.9478],[35.7495,0.0073,2124.0842],[35.7476,0.0006,2113.4844],[35.7485,-0.0088,2124.3682],[35.7464,-0.0088,2107.8767],[35.7464,-0.0071,2097.5657],[35.7409,-0.0084,2176.2686],[35.7347,-0.0075,2190.5151],[35.7193,-0.0195,2316.9248],[35.7212,-0.0233,2279.179],[35.7199,-0.031,2273.3103],[35.7164,-0.0369,2330.1609],[35.7163,-0.0423,2368.001],[35.7243,-0.0526,2448.3501],[35.7416,-0.0888,2717.1611],[35.772,-0.1882,2249.3992],[35.7904,-0.157,2234.0625],[35.7905,-0.1061,2104.5977],[35.7958,-0.105,2034.9075],[35.7989,-0.0979,2014.2982],[35.8029,-0.0938,2020.299],[35.8071,-0.0932,1995.9213],[35.8186,-0.1083,1960.8217],[35.8193,-0.1116,1945.0251],[35.8221,-0.1124,1942.5667],[35.8464,-0.078,2010.5803],[35.8773,-0.0297,1696.6687],[35.8721,-0.0236,1699.4337],[35.8681,-0.0141,1700.9697],[35.8579,0.0016,1711.7678],[35.8491,0.0079,1765.3247],[35.8452,0.0177,1744.0609],[35.8421,0.0212,1729.1718],[35.834,0.0255,1717.9783],[35.8259,0.0237,1736.349],[35.8229,0.0247,1766.5411]]]]}}