{"type":"Feature","properties":{"GID_3":"KEN.3.5.4_1","GID_0":"KEN","country":"Kenya","GID_1":"KEN.3_1","province":"Bungoma","NL_NAME_1":"NA","GID_2":"KEN.3.5_1","county":"Likuyani","NL_NAME_2":"NA","city":"Sango","VARNAME_3":"NA","NL_NAME_3":"NA","TYPE_3":"Ward","ENGTYPE_3":"Ward","CC_3":"998","HASC_3":"NA","name":"Sango.city"},
"geometry":{"type": "MultiPolygon","coordinates": [[[[35.1081,0.8078,1808.2358],[35.1025,0.8003,1783.4209],[35.0987,0.7986,1801.9294],[35.0927,0.7989,1806.3462],[35.0858,0.7972,1785.7762],[35.0789,0.7919,1782.4844],[35.0754,0.7905,1784.4583],[35.0729,0.7914,1776.3361],[35.0682,0.7873,1764.3198],[35.0655,0.7871,1744.6791],[35.0673,0.7849,1756.9878],[35.0649,0.7822,1758.5012],[35.0665,0.7771,1747.4678],[35.0646,0.7732,1750.9055],[35.0663,0.7713,1742.3644],[35.0617,0.7643,1752.9218],[35.0578,0.7619,1728.9773],[35.0544,0.7531,1767.8181],[35.0586,0.7431,1802.6658],[35.056,0.74,1828.4884],[35.0575,0.736,1845.2159],[35.0538,0.7329,1862.1609],[35.0547,0.7218,1881.4353],[35.0531,0.712,1880.2452],[35.0641,0.7166,1899.3018],[35.0657,0.7052,1885.3318],[35.092,0.7093,1901.1567],[35.0921,0.7284,1840.337],[35.1008,0.7306,1872.4333],[35.0999,0.7734,1815.4498],[35.1072,0.7734,1874.5729],[35.1107,0.7781,1809.3402],[35.1115,0.7823,1795.4821],[35.1107,0.7895,1811.8472],[35.1078,0.794,1791.9099],[35.1081,0.8078,1808.2358]]]]}}