{"type":"Feature","properties":{"GID_3":"KEN.13.7.1_1","GID_0":"KEN","country":"Kenya","GID_1":"KEN.13_1","province":"Kiambu","NL_NAME_1":"NA","GID_2":"KEN.13.7_1","county":"Kiambu","NL_NAME_2":"NA","city":"Ndumberi","VARNAME_3":"NA","NL_NAME_3":"NA","TYPE_3":"Ward","ENGTYPE_3":"Ward","CC_3":"583","HASC_3":"NA","name":"Ndumberi.city"},
"geometry":{"type": "MultiPolygon","coordinates": [[[[36.7717,-1.1565,1892.8967],[36.7763,-1.1575,1867.203],[36.7734,-1.1604,1888.9009],[36.7792,-1.1634,1886.495],[36.7867,-1.1712,1833.7363],[36.7937,-1.164,1805.6526],[36.797,-1.1666,1762.1315],[36.797,-1.1728,1786.2156],[36.8033,-1.1746,1726.577],[36.8113,-1.1735,1728.6866],[36.8188,-1.1762,1715.7679],[36.8222,-1.18,1702.5386],[36.8261,-1.1725,1698.9808],[36.8197,-1.1708,1725.7708],[36.8234,-1.1626,1739.1511],[36.8187,-1.1559,1791.6332],[36.8148,-1.1536,1794.0803],[36.8179,-1.1437,1792.5272],[36.8125,-1.142,1797.2522],[36.8087,-1.143,1784.8596],[36.7978,-1.1321,1810.8407],[36.7991,-1.1372,1807.0916],[36.7797,-1.1495,1848.7052],[36.7717,-1.1565,1892.8967]]]]}}