{"type": "Feature","bbox": [34.9372,-0.0626,35.1982,0.0453],"geometry": {"type": "MultiPolygon","coordinates": [[[[35.1784,-0.0231,1321.1553],[35.18,-0.0201,1322.3695],[35.194,-0.0105,1369.2323],[35.1982,-0.004,1378.5251],[35.1936,0.0181,1419.4835],[35.1976,0.0321,1620.4894],[35.159,0.0453,2071.312],[35.1556,0.0313,1633.045],[35.1127,0.0248,1653.584],[35.1168,0.0316,1551.915],[35.0964,0.0314,1770.0803],[35.0962,0.0285,1581.8203],[35.0992,0.028,1648.53],[35.1003,0.0248,1571.1047],[35.0976,0.0229,1498.9896],[35.098,0.0187,1504.2533],[35.0913,0.015,1784.1487],[35.0898,0.0075,1507.5612],[35.0909,0.0038,1492.1821],[35.0894,0.0008,1527.4012],[35.0851,-0.0026,1762.5957],[35.0806,-0.0032,1596.9303],[35.0707,-0.0009,1706.9481],[35.0687,-0.0038,1573.6666],[35.0636,-0.0063,1608.6171],[35.0572,-0.0011,1568.3647],[35.0567,-0.0074,1562.7964],[35.0542,-0.0088,1578.3086],[35.0517,-0.0083,1504.2076],[35.0496,-0.0027,1679.0779],[35.0456,-0.0002,1718.1304],[35.0469,-0.0021,1667.9042],[35.0464,-0.0072,1434.8059],[35.043,-0.0094,1460.5046],[35.0465,-0.0118,1414.3513],[35.0456,-0.0155,1418.0725],[35.0435,-0.0155,1437.1279],[35.0442,-0.0215,1438.5204],[35.0431,-0.023,1431.7383],[35.0387,-0.0189,1680.3823],[35.0333,-0.023,1702.7408],[35.0291,-0.0239,1677.0625],[35.0275,-0.0228,1717.0771],[35.0255,-0.0246,1475.802],[35.0234,-0.0203,1775.2615],[35.0177,-0.0219,1719.4608],[35.0039,-0.0163,1303.9949],[35.0043,-0.0078,1533.9127],[35.0016,-0.006,1529.7002],[35.002,-0.0033,1549.9006],[35.0,-0.0006,1671.764],[34.9959,-0.0033,1553.5641],[34.9879,-0.005,1733.2032],[34.9479,-0.005,1846.5758],[34.9482,-0.0076,1842.417],[34.9464,-0.0098,1837.7047],[34.9372,-0.0161,1838.6855],[34.9382,-0.0203,1780.077],[34.9414,-0.0238,1654.3849],[34.9407,-0.0276,1493.9045],[34.9544,-0.0243,1449.5389],[34.9524,-0.0204,1674.795],[34.9568,-0.0199,1591.2772],[34.9641,-0.0263,1378.9625],[34.9783,-0.0181,1469.3583],[34.9884,-0.0176,1371.8208],[34.9885,-0.0131,1443.4762],[35.0076,-0.0228,1516.2773],[35.0071,-0.0477,1220.3665],[35.0595,-0.0478,1245.1191],[35.0604,-0.0498,1232.9114],[35.0594,-0.0528,1227.9127],[35.0618,-0.0525,1229.0107],[35.0662,-0.0626,1209.166],[35.0656,-0.0598,1206.8789],[35.0743,-0.0488,1221.843],[35.0826,-0.0456,1220.9972],[35.0836,-0.043,1224.4891],[35.0867,-0.0434,1224.7357],[35.0897,-0.0389,1232.1136],[35.0926,-0.0385,1232.7302],[35.0958,-0.0239,1259.2981],[35.0989,-0.023,1251.6331],[35.0993,-0.0212,1260.0796],[35.1011,-0.0215,1257.8386],[35.1036,-0.0169,1262.4581],[35.1013,-0.0093,1285.5726],[35.1029,-0.006,1294.2955],[35.1013,-0.0055,1293.9812],[35.1005,-0.0013,1313.8645],[35.1019,0.0018,1315.9126],[35.146,-0.0278,1300.3608],[35.1474,-0.0272,1301.6023],[35.1511,-0.0307,1275.8654],[35.1502,-0.0326,1267.5333],[35.1551,-0.0302,1282.4047],[35.1587,-0.0309,1290.8293],[35.1618,-0.0259,1325.5096],[35.1611,-0.0242,1339.0614],[35.1662,-0.0261,1333.6407],[35.1774,-0.0212,1347.6064],[35.1784,-0.0231,1321.1553]]]]}
,"properties": {"GID_3": "KEN.32.6.1_1","GID_0": "KEN","country": "Kenya","GID_1": "KEN.32_1","province": "Nandi","NL_NAME_1": "NA","GID_2": "KEN.32.6_1","county": "Tinderet","NL_NAME_2": "NA","city": "Chemelil/Chemase","VARNAME_3": "NA","NL_NAME_3": "NA","TYPE_3": "Ward","ENGTYPE_3": "Ward","CC_3": "753","HASC_3": "NA","name": "Chemelil_Chemase.city","area_km2": 117.52382,"hist_schema_id": "Elevation0-9000","hist_area_km2": {"1200": 0.06361,"1225": 3.26514,"1250": 6.97552,"1275": 7.63279,"1300": 7.35716,"1325": 7.78121,"1350": 7.92963,"1375": 8.77771,"1400": 9.39258,"1425": 8.6505,"1450": 8.45968,"1475": 7.99323,"1500": 6.08503,"1525": 4.24044,"1550": 3.24394,"1575": 2.39585,"1600": 2.12022,"1625": 1.82339,"1650": 1.78099,"1675": 1.56896,"1700": 1.54776,"1725": 1.33574,"1750": 1.14492,"1775": 0.91169,"1800": 1.12372,"1825": 1.56896,"1850": 1.22973,"1875": 0.31803,"1900": 0.14842,"1925": 0.0424,"1950": 0.12721,"1975": 0.08481,"2000": 0.0212,"2050": 0.12721,"2075": 0.14842,"2100": 0.10601}}}