{"type":"Feature","properties":{"GID_3":"KEN.1.2.3_1","GID_0":"KEN","country":"Kenya","GID_1":"KEN.1_1","province":"Baringo","NL_NAME_1":"NA","GID_2":"KEN.1.2_1","county":"BaringoCentral","NL_NAME_2":"NA","city":"Kapropita","VARNAME_3":"NA","NL_NAME_3":"NA","TYPE_3":"Ward","ENGTYPE_3":"Ward","CC_3":"797","HASC_3":"NA","name":"Kapropita.city"},
"geometry":{"type": "MultiPolygon","coordinates": [[[[35.7615,0.5417,2209.147],[35.7615,0.5377,2176.334],[35.7564,0.5394,2150.1826],[35.7538,0.5328,2051.8608],[35.7546,0.5277,2141.447],[35.757,0.5261,2187.7275],[35.7534,0.5183,2158.5059],[35.7543,0.5009,1956.1025],[35.7497,0.4994,2090.9663],[35.7499,0.5015,2082.7395],[35.7471,0.5058,2155.5806],[35.7383,0.5085,2106.6973],[35.7354,0.5054,2007.0944],[35.7291,0.4894,1909.0022],[35.7217,0.4869,1701.2609],[35.7144,0.4885,1660.0248],[35.712,0.4951,1597.4148],[35.7086,0.4971,1420.9564],[35.7129,0.4876,1644.3799],[35.7128,0.4795,1671.4263],[35.7097,0.4724,1518.4711],[35.7104,0.468,1439.7581],[35.6999,0.4703,1596.2722],[35.6893,0.4595,1456.1907],[35.6718,0.4466,1220.7549],[35.6544,0.442,1145.2144],[35.6537,0.4334,1152.7572],[35.6552,0.4287,1154.0177],[35.658,0.4268,1164.0209],[35.6578,0.4241,1162.543],[35.66,0.422,1171.8949],[35.6589,0.4203,1159.0906],[35.6628,0.4129,1171.4272],[35.6752,0.4096,1231.2351],[35.6769,0.4063,1211.1409],[35.6895,0.3995,1282.2272],[35.6931,0.4002,1243.0973],[35.6938,0.4022,1244.3386],[35.698,0.4027,1250.8395],[35.7024,0.4072,1285.7087],[35.7092,0.4079,1371.9474],[35.7129,0.4122,1412.3365],[35.7246,0.4119,1322.9938],[35.7273,0.4149,1345.3486],[35.7297,0.4133,1354.5137],[35.7386,0.4133,1438.4047],[35.74,0.4149,1540.0168],[35.7419,0.4139,1540.0168],[35.7554,0.4151,1588.708],[35.7608,0.4175,1742.1978],[35.7678,0.4257,1898.342],[35.7779,0.4277,2072.0554],[35.7778,0.435,2099.5908],[35.7751,0.4435,2053.7131],[35.7891,0.4457,2029.5614],[35.7897,0.4597,2058.4121],[35.7883,0.4679,2036.809],[35.7866,0.4732,1976.5802],[35.7821,0.4787,1964.2137],[35.7787,0.4954,1814.4116],[35.7791,0.5021,1789.3225],[35.7816,0.5036,1763.5331],[35.7797,0.5095,1845.2123],[35.785,0.5179,1766.37],[35.7837,0.5196,1772.7648],[35.7858,0.5259,1813.6271],[35.7804,0.5258,1892.1558],[35.7778,0.528,1966.6704],[35.7739,0.5324,1901.354],[35.7734,0.5373,1888.2036],[35.7709,0.54,1897.8035],[35.767,0.542,2065.4111],[35.7615,0.5417,2209.147]]]]}}