{"type": "Feature","bbox": [38.3015,-0.0733,38.7737,1.0467],"geometry": {"type": "MultiPolygon","coordinates": [[[[38.7122,0.3657,476.6095],[38.7073,0.3789,477.1125],[38.6903,0.4475,488.2749],[38.6799,0.4739,454.9406],[38.6769,0.4955,436.1609],[38.6737,0.4993,427.2079],[38.6699,0.5015,431.2599],[38.6661,0.5015,431.9475],[38.6487,0.5153,438.3874],[38.6407,0.5157,444.9994],[38.6467,0.5245,443.0414],[38.6475,0.5725,496.2608],[38.6491,0.5753,491.3782],[38.6531,0.5761,482.3829],[38.6589,0.5839,466.3459],[38.6639,0.6067,459.7425],[38.6717,0.6291,455.2275],[38.6699,0.6437,445.1519],[38.6711,0.6467,448.0815],[38.6939,0.6609,425.1786],[38.7003,0.6681,418.3894],[38.7079,0.6705,410.8709],[38.7121,0.6745,405.7552],[38.7173,0.6765,402.4169],[38.7295,0.6909,388.7446],[38.7513,0.6987,370.9701],[38.7583,0.7051,368.8696],[38.7655,0.7073,361.4136],[38.7737,0.7233,354.818],[38.7647,0.7419,356.0049],[38.7559,0.7493,358.7388],[38.7461,0.7533,360.3311],[38.7123,0.7601,370.569],[38.7085,0.7617,371.774],[38.7059,0.7663,370.447],[38.7107,0.7757,360.5888],[38.7109,0.7819,358.6725],[38.7171,0.8007,346.4345],[38.7169,0.8089,344.0884],[38.7219,0.8305,334.6585],[38.7317,0.8495,325.6343],[38.7311,0.8729,316.0844],[38.7203,0.8921,311.0794],[38.7187,0.9001,308.6846],[38.7169,0.9119,303.0485],[38.7183,0.9249,298.1251],[38.7157,0.9557,294.4437],[38.7133,0.9573,295.0421],[38.7115,0.9645,295.5794],[38.6979,0.9923,293.8398],[38.6793,1.0361,292.3113],[38.6697,1.0467,291.3789],[38.6641,1.0451,294.473],[38.6605,1.0383,295.0387],[38.6571,1.0369,299.623],[38.6573,1.0341,297.0941],[38.6605,1.0305,294.2104],[38.6597,1.0275,300.3389],[38.6559,1.0303,298.8267],[38.6537,1.0241,299.5905],[38.651,1.0255,299.0024],[38.6453,1.0207,300.2155],[38.6409,1.0219,301.7025],[38.6351,1.0205,303.4712],[38.6349,1.0173,303.8758],[38.6311,1.0165,303.5068],[38.6297,1.0193,304.2302],[38.6255,1.0151,304.2551],[38.6201,1.0175,304.3208],[38.6165,1.0155,305.3741],[38.6133,1.0165,306.8878],[38.6097,1.0217,306.7041],[38.6079,1.0201,307.9608],[38.6043,1.0235,306.718],[38.5943,1.0239,310.515],[38.5867,1.0279,311.7777],[38.5835,1.0245,310.9324],[38.5779,1.0245,314.1539],[38.5681,1.0081,313.3913],[38.5683,0.9975,315.0931],[38.5641,0.9925,316.0182],[38.5657,0.9889,316.7367],[38.5651,0.9859,319.1768],[38.5617,0.9835,320.7974],[38.5653,0.9759,318.647],[38.5621,0.9739,320.7612],[38.5613,0.9709,321.9052],[38.5661,0.9633,324.3663],[38.5621,0.9583,326.4472],[38.5639,0.9557,324.2281],[38.5633,0.9533,324.4672],[38.5587,0.9507,328.519],[38.5587,0.9393,325.7638],[38.5449,0.9195,333.0006],[38.5337,0.9169,336.502],[38.5305,0.9145,337.0178],[38.5279,0.9053,336.7237],[38.5245,0.9005,338.8899],[38.5241,0.8905,340.5314],[38.5195,0.8841,337.4321],[38.5143,0.8815,344.9645],[38.5147,0.8741,341.4156],[38.5111,0.8649,350.2611],[38.5073,0.8655,347.9275],[38.4997,0.8711,371.1586],[38.4973,0.8693,352.0704],[38.4911,0.8759,352.2047],[38.4845,0.8779,354.386],[38.4747,0.8712,360.7602],[38.4761,0.8685,354.6404],[38.4751,0.8657,360.4307],[38.4719,0.8653,359.8996],[38.4659,0.8677,359.3265],[38.4613,0.8671,358.7796],[38.4531,0.8699,362.3829],[38.4509,0.8655,363.9045],[38.4477,0.8645,363.1683],[38.4437,0.8677,365.6949],[38.4365,0.8685,365.6501],[38.4317,0.8661,372.2116],[38.4235,0.8681,366.0],[38.4129,0.8655,371.3953],[38.4113,0.8679,375.7604],[38.4085,0.8685,377.0559],[38.4007,0.8621,378.9125],[38.3953,0.8655,373.0],[38.3931,0.8643,376.5408],[38.3945,0.8583,376.9523],[38.3929,0.8515,379.2681],[38.3871,0.8469,386.4192],[38.3827,0.8459,385.749],[38.3761,0.8555,389.044],[38.3703,0.8549,386.0582],[38.3643,0.8427,391.3142],[38.3639,0.8365,390.4466],[38.3605,0.8303,397.5032],[38.3641,0.8237,395.9778],[38.3693,0.8209,405.221],[38.3765,0.8131,420.6131],[38.3773,0.8075,426.1743],[38.3753,0.7895,468.982],[38.3825,0.7807,466.6925],[38.3821,0.7779,466.7529],[38.3874,0.7736,476.7867],[38.3839,0.7685,485.1462],[38.3821,0.7607,488.5909],[38.3795,0.7593,494.5385],[38.3769,0.7495,500.1561],[38.3813,0.7341,511.6493],[38.3861,0.7239,522.0515],[38.3877,0.7027,545.0958],[38.3867,0.6991,542.3863],[38.3705,0.6915,548.8251],[38.3687,0.6893,549.9421],[38.3661,0.6829,551.9365],[38.3665,0.6803,554.1086],[38.3627,0.6797,563.194],[38.3595,0.6651,563.8657],[38.3471,0.6513,575.4581],[38.3345,0.6303,600.349],[38.3309,0.6133,599.2629],[38.3199,0.5915,620.4095],[38.3015,0.5721,638.0206],[38.3089,0.5703,635.0194],[38.3363,0.5713,622.0161],[38.3389,0.5589,625.2981],[38.3391,0.5473,630.2816],[38.3503,0.5227,625.0963],[38.3369,0.5059,631.073],[38.3291,0.4931,636.0787],[38.3279,0.4653,637.9169],[38.3251,0.4573,639.2195],[38.3255,0.4531,639.6809],[38.3295,0.4401,631.6432],[38.3373,0.4265,615.704],[38.3459,0.4055,604.4968],[38.3493,0.3901,590.7137],[38.3637,0.3807,576.6807],[38.3679,0.3753,572.4149],[38.3703,0.3745,571.2759],[38.3751,0.3763,570.1479],[38.3809,0.3739,564.2621],[38.3837,0.3655,561.0978],[38.3895,0.3587,555.0503],[38.3919,0.3501,551.7337],[38.4023,0.3445,546.0056],[38.4063,0.3443,545.0891],[38.4077,0.3415,542.5635],[38.4057,0.3307,538.0133],[38.4137,0.3239,533.2202],[38.4161,0.3117,530.6919],[38.4129,0.3051,521.3319],[38.4131,0.3009,517.537],[38.4211,0.2805,509.558],[38.4231,0.2785,507.4141],[38.4229,0.2671,505.5197],[38.4276,0.2553,494.8525],[38.4279,0.2485,491.8022],[38.4255,0.2455,492.5914],[38.4253,0.2379,490.6364],[38.4211,0.2285,480.9155],[38.4201,0.2175,473.7576],[38.4221,0.2053,467.5546],[38.4185,0.1969,459.5309],[38.4189,0.1925,455.8382],[38.4233,0.1853,450.6254],[38.4237,0.1819,448.6747],[38.4283,0.1801,436.117],[38.4299,0.1769,428.3701],[38.4329,0.1611,410.6145],[38.4431,0.1491,382.5575],[38.4457,0.1493,377.7766],[38.4459,0.1517,378.6328],[38.4507,0.1493,373.839],[38.4545,0.1517,370.0344],[38.4573,0.1507,369.4621],[38.4623,0.1527,366.08],[38.4651,0.1521,365.1717],[38.4689,0.1421,363.3161],[38.4719,0.1419,370.6015],[38.4741,0.1385,360.8935],[38.4819,0.1357,360.6652],[38.4859,0.1323,360.4543],[38.4891,0.1219,351.7932],[38.4959,0.1129,345.8293],[38.4975,0.1055,344.9565],[38.5041,0.1015,341.5335],[38.5137,0.0913,337.6356],[38.5191,0.0771,331.9669],[38.5255,0.0703,328.7113],[38.5268,0.0646,328.1792],[38.5355,0.0591,326.8509],[38.5415,0.0517,321.8384],[38.5429,0.0443,317.7828],[38.5475,0.0357,315.4339],[38.5471,0.0315,315.1692],[38.5487,0.0291,315.0443],[38.5557,0.0259,314.9842],[38.5569,0.0225,311.2558],[38.5567,0.0191,309.8524],[38.5543,0.0155,312.789],[38.5549,0.0099,314.6421],[38.562,0.002,300.9499],[38.5655,-0.0078,300.1826],[38.5683,-0.0105,299.9863],[38.5705,-0.0198,293.0],[38.5803,-0.025,296.9048],[38.5887,-0.0265,299.6721],[38.5922,-0.0305,302.8604],[38.5977,-0.0334,295.8663],[38.6009,-0.0342,306.4731],[38.6085,-0.0296,290.8169],[38.6117,-0.0303,299.877],[38.6259,-0.0418,287.0731],[38.6361,-0.0534,285.2562],[38.6391,-0.0547,286.6234],[38.6477,-0.0538,290.9931],[38.6551,-0.0466,286.2987],[38.6753,-0.0547,279.9308],[38.6811,-0.0554,283.7968],[38.6847,-0.0521,274.125],[38.6843,-0.0474,283.3304],[38.6877,-0.0411,280.9601],[38.6905,-0.042,275.757],[38.6975,-0.0513,277.121],[38.7136,-0.0624,276.7505],[38.7277,-0.0647,261.3297],[38.7379,-0.0707,260.5172],[38.7579,-0.0733,257.0734],[38.7659,-0.0691,257.0828],[38.7607,-0.0647,261.1656],[38.7597,-0.0621,262.5216],[38.7647,-0.0554,267.8352],[38.7609,-0.0506,275.9983],[38.7513,-0.0467,278.8251],[38.7527,-0.0385,289.8421],[38.7489,-0.0305,293.8348],[38.7485,-0.0203,299.5032],[38.7423,-0.0129,308.9535],[38.7429,-0.0022,324.231],[38.7379,0.0039,332.2375],[38.7401,0.0139,357.2498],[38.7305,0.0493,392.4741],[38.7287,0.0855,418.6893],[38.7319,0.0979,432.3105],[38.7301,0.1185,449.252],[38.7321,0.1249,458.589],[38.7341,0.1469,453.6774],[38.7351,0.1495,461.2346],[38.7557,0.17,440.0434],[38.7573,0.1743,445.4322],[38.7573,0.1841,453.5194],[38.7131,0.3559,477.9789],[38.7122,0.3657,476.6095]]]]}
,"properties": {"GID_3": "KEN.9.2.1_1","GID_0": "KEN","country": "Kenya","GID_1": "KEN.9_1","province": "Isiolo","NL_NAME_1": "NA","GID_2": "KEN.9.2_1","county": "IsioloSouth","NL_NAME_2": "NA","city": "Garbatulla","VARNAME_3": "NA","NL_NAME_3": "NA","TYPE_3": "Ward","ENGTYPE_3": "Ward","CC_3": "248","HASC_3": "NA","name": "Garbatulla.city","area_km2": 3806.44,"hist_schema_id": "Elevation0-9000","hist_area_km2": {"250": 0.975,"275": 11.258,"300": 174.219,"325": 211.768,"350": 224.6,"375": 277.562,"400": 268.046,"425": 267.179,"450": 306.382,"475": 421.571,"500": 494.547,"525": 421.825,"550": 269.49,"575": 205.928,"600": 168.275,"625": 80.311,"650": 1.76,"675": 0.382,"700": 0.148,"725": 0.191}}}