{"type": "Feature","bbox": [35.6147,-0.5525,35.7496,-0.3816],"geometry": {"type": "MultiPolygon","coordinates": [[[[35.6388,-0.4194,2584.7886],[35.6555,-0.4578,2582.9021],[35.6607,-0.461,2598.9419],[35.6573,-0.4652,2601.4443],[35.6523,-0.4674,2583.6787],[35.6514,-0.4721,2550.9893],[35.6462,-0.4729,2540.0015],[35.641,-0.4784,2524.5947],[35.6345,-0.4763,2546.7173],[35.6257,-0.4835,2499.4207],[35.6147,-0.4862,2498.1497],[35.6156,-0.4912,2458.3989],[35.6177,-0.4946,2468.8411],[35.6394,-0.4962,2513.6167],[35.6416,-0.4943,2523.6067],[35.6722,-0.4902,2605.7729],[35.6803,-0.4813,2608.291],[35.6826,-0.4809,2613.313],[35.6939,-0.504,2603.0151],[35.6887,-0.5134,2600.1541],[35.7012,-0.5264,2566.9841],[35.7018,-0.5292,2575.6882],[35.6993,-0.5345,2617.6672],[35.703,-0.545,2580.2751],[35.7093,-0.5525,2548.4617],[35.7111,-0.5471,2571.2598],[35.717,-0.5464,2585.1799],[35.7237,-0.542,2616.584],[35.734,-0.5273,2624.4971],[35.7416,-0.5234,2635.1819],[35.7461,-0.5139,2669.5947],[35.7448,-0.499,2671.1533],[35.7485,-0.4889,2685.3918],[35.7496,-0.4794,2707.6992],[35.7406,-0.4749,2724.8684],[35.7247,-0.4705,2720.0449],[35.7212,-0.467,2681.427],[35.7256,-0.4428,2733.6301],[35.7231,-0.4354,2747.0989],[35.723,-0.4281,2778.5342],[35.7277,-0.423,2792.6257],[35.735,-0.4254,2830.301],[35.7379,-0.4232,2821.8506],[35.7397,-0.4174,2868.2759],[35.7322,-0.398,2837.1345],[35.7353,-0.3969,2850.0471],[35.7385,-0.3927,2862.5664],[35.7334,-0.3938,2842.4814],[35.7309,-0.3816,2838.9734],[35.7215,-0.3871,2838.0312],[35.7156,-0.3929,2821.187],[35.7067,-0.3975,2770.9399],[35.7044,-0.4032,2736.9373],[35.6997,-0.4064,2726.051],[35.6919,-0.4086,2707.9629],[35.6825,-0.4018,2737.563],[35.6727,-0.403,2715.8323],[35.6519,-0.4115,2638.6436],[35.6457,-0.4183,2564.8813],[35.6422,-0.4172,2585.3853],[35.6388,-0.4194,2584.7886]]]]}
,"properties": {"GID_3": "KEN.31.4.2_1","GID_0": "KEN","country": "Kenya","GID_1": "KEN.31_1","province": "Nakuru","NL_NAME_1": "NA","GID_2": "KEN.31.4_1","county": "KuresoiSouth","NL_NAME_2": "NA","city": "Keringet","VARNAME_3": "NA","NL_NAME_3": "NA","TYPE_3": "Ward","ENGTYPE_3": "Ward","CC_3": "850","HASC_3": "NA","name": "Keringet.city","area_km2": 127.73909,"hist_schema_id": "Elevation0-9000","hist_area_km2": {"2450": 0.53004,"2475": 1.03887,"2500": 1.01767,"2525": 1.95053,"2550": 4.57952,"2575": 10.79153,"2600": 18.25444,"2625": 19.18732,"2650": 19.18735,"2675": 14.88347,"2700": 13.08136,"2725": 8.0142,"2750": 4.15552,"2775": 2.629,"2800": 2.92583,"2825": 2.81982,"2850": 2.24738,"2875": 0.44523}}}