{"type": "Feature","bbox": [37.5848,0.0439,37.6591,0.1323],"geometry": {"type": "MultiPolygon","coordinates": [[[[37.6103,0.071,1852.6245],[37.6227,0.0567,1800.4375],[37.6355,0.0449,1694.2205],[37.6379,0.0469,1692.1404],[37.6439,0.0447,1638.4915],[37.6521,0.0463,1595.4697],[37.6557,0.0439,1563.7241],[37.6555,0.0551,1573.701],[37.6517,0.0553,1589.4227],[37.6509,0.0575,1620.9597],[37.6591,0.0603,1562.3569],[37.6525,0.0635,1609.0483],[37.6485,0.0613,1644.9399],[37.6457,0.0665,1658.948],[37.6465,0.0711,1640.2214],[37.6421,0.0773,1642.9867],[37.6393,0.0863,1651.0339],[37.6169,0.1317,1693.84],[37.5848,0.1323,1891.3827],[37.5881,0.1149,1916.9635],[37.5935,0.1147,1895.1476],[37.5961,0.1161,1831.464],[37.5953,0.1189,1890.7018],[37.5969,0.122,1859.6073],[37.595,0.1262,1864.6449],[37.6012,0.1265,1851.3622],[37.6085,0.1127,1789.4142],[37.6057,0.1019,1815.1792],[37.6103,0.0935,1817.2507],[37.6027,0.0905,1841.8068],[37.6029,0.0843,1849.6708],[37.6043,0.0775,1857.4952],[37.6095,0.0783,1840.9751],[37.6103,0.071,1852.6245]]]]}
,"properties": {"GID_3": "KEN.26.6.1_1","GID_0": "KEN","country": "Kenya","GID_1": "KEN.26_1","province": "Meru","NL_NAME_1": "NA","GID_2": "KEN.26.6_1","county": "NorthImenti","NL_NAME_2": "NA","city": "Municipality","VARNAME_3": "NA","NL_NAME_3": "NA","TYPE_3": "Ward","ENGTYPE_3": "Ward","CC_3": "276","HASC_3": "NA","name": "Municipality.city","area_km2": 31.40043,"hist_schema_id": "Elevation0-9000","hist_area_km2": {"1550": 0.0424,"1575": 0.25443,"1600": 0.69967,"1625": 0.59366,"1650": 1.82339,"1675": 3.18033,"1700": 4.41005,"1725": 3.9012,"1750": 4.26164,"1775": 3.68918,"1800": 3.39235,"1825": 1.75978,"1850": 1.54776,"1875": 0.40284,"1900": 0.57246,"1925": 0.76328,"1950": 0.10601}}}