{"type": "Feature","bbox": [36.7403,-1.2724,36.7616,-1.2616],"geometry": {"type": "MultiPolygon","coordinates": [[[[36.7601,-1.2684,1784.7345],[36.7616,-1.2678,1800.225],[36.7597,-1.2653,1811.3787],[36.7528,-1.2616,1820.6636],[36.7403,-1.2616,1847.3674],[36.7412,-1.2656,1849.8207],[36.7508,-1.2653,1814.2136],[36.75,-1.2724,1814.9172],[36.7569,-1.2712,1778.8949],[36.7575,-1.2686,1798.01],[36.7601,-1.2684,1784.7345]]]]}
,"properties": {"GID_3": "KEN.30.17.1_1","GID_0": "KEN","country": "Kenya","GID_1": "KEN.30_1","province": "Nairobi","NL_NAME_1": "NA","GID_2": "KEN.30.17_1","county": "Westlands","NL_NAME_2": "NA","city": "Kangemi","VARNAME_3": "NA","NL_NAME_3": "NA","TYPE_3": "Ward","ENGTYPE_3": "Ward","CC_3": "1369","HASC_3": "NA","name": "Kangemi.city","area_km2": 1.462595,"hist_schema_id": "Elevation0-9000","hist_area_km2": {"1775": 0.021197,"1800": 0.445137,"1825": 0.720699,"1850": 0.275562}}}