{"type":"Feature","properties":{"GID_3":"KEN.33.4.5_1","GID_0":"KEN","country":"Kenya","GID_1":"KEN.33_1","province":"Narok","NL_NAME_1":"NA","GID_2":"KEN.33.4_1","county":"NarokNorth","NL_NAME_2":"NA","city":"Olorropil","VARNAME_3":"NA","NL_NAME_3":"NA","TYPE_3":"Ward","ENGTYPE_3":"Ward","CC_3":"895","HASC_3":"NA","name":"Olorropil.city"},
"geometry":{"type": "MultiPolygon","coordinates": [[[[36.0974,-0.6333,2375.2058],[36.0554,-0.6548,2891.4839],[36.0281,-0.6728,2904.0527],[36.0117,-0.6571,2912.3594],[35.9458,-0.7074,2720.6006],[35.9303,-0.6992,2736.1753],[35.9313,-0.6943,2714.7102],[35.9301,-0.6893,2737.1128],[35.8931,-0.6432,2751.1453],[35.8895,-0.6435,2730.6248],[35.8887,-0.6491,2713.0947],[35.8948,-0.6617,2733.354],[35.8932,-0.6656,2671.6389],[35.8958,-0.6727,2671.7273],[35.8948,-0.6934,2634.8262],[35.8978,-0.699,2640.2026],[35.8934,-0.71,2637.4072],[35.8944,-0.7141,2590.5234],[35.8918,-0.7223,2628.3765],[35.8775,-0.7348,2599.6738],[35.8718,-0.7451,2573.2327],[35.874,-0.7595,2471.3235],[35.8711,-0.7648,2491.1138],[35.8752,-0.7737,2484.6309],[35.8736,-0.7862,2454.5747],[35.8681,-0.7937,2465.8372],[35.8693,-0.7993,2397.4556],[35.866,-0.8089,2380.053],[35.8679,-0.8109,2359.5942],[35.8688,-0.8187,2338.3174],[35.867,-0.8223,2348.209],[35.8676,-0.8274,2332.7551],[35.865,-0.836,2367.0972],[35.8669,-0.8367,2311.502],[35.8667,-0.8386,2302.1968],[35.8704,-0.8425,2361.0134],[35.8736,-0.8559,2278.3391],[35.8698,-0.863,2294.9956],[35.8676,-0.8753,2235.6755],[35.8656,-0.877,2261.3271],[35.8656,-0.8817,2224.1304],[35.8636,-0.8821,2253.6016],[35.8646,-0.884,2236.7361],[35.8632,-0.8858,2240.9521],[35.8685,-0.8926,2246.1326],[35.8682,-0.8961,2211.3896],[35.8723,-0.9044,2176.2319],[35.8709,-0.9054,2160.6899],[35.8708,-0.9099,2169.8679],[35.8722,-0.91,2153.6543],[35.8716,-0.912,2165.5007],[35.8736,-0.9122,2144.6619],[35.8726,-0.9128,2144.6619],[35.8744,-0.9141,2183.6306],[35.8773,-0.9216,2143.5444],[35.8766,-0.9235,2129.8699],[35.8787,-0.9261,2135.0225],[35.8773,-0.9301,2121.7688],[35.8791,-0.9338,2115.6162],[35.8779,-0.9349,2105.2754],[35.8815,-0.9462,2092.2539],[35.8788,-0.9615,2083.447],[35.9159,-0.9615,2092.6833],[35.9174,-0.9596,2067.2825],[35.9179,-0.9542,2114.0745],[35.9162,-0.9539,2087.7295],[35.9153,-0.9513,2092.8242],[35.9133,-0.9513,2093.3247],[35.9135,-0.9475,2085.9995],[35.9095,-0.9472,2103.4141],[35.913,-0.9434,2120.7314],[35.9117,-0.9394,2151.5923],[35.9101,-0.9392,2115.8179],[35.9108,-0.9377,2164.3242],[35.9087,-0.9369,2141.8762],[35.9084,-0.9317,2105.6008],[35.9043,-0.9306,2144.2148],[35.9071,-0.9282,2116.2461],[35.9041,-0.9268,2178.751],[35.9048,-0.9255,2150.4741],[35.9062,-0.9263,2149.5151],[35.9064,-0.9228,2124.5112],[35.9095,-0.9225,2163.6072],[35.9112,-0.9199,2168.7007],[35.9113,-0.9157,2263.2078],[35.9153,-0.9163,2202.7722],[35.9159,-0.914,2230.5879],[35.9193,-0.9123,2180.7395],[35.9182,-0.9091,2238.0696],[35.9188,-0.9068,2237.4143],[35.9208,-0.9068,2194.1365],[35.9194,-0.9044,2232.5242],[35.9217,-0.8961,2265.0381],[35.9182,-0.8911,2313.3726],[35.9199,-0.8901,2248.3418],[35.9188,-0.8881,2311.3735],[35.9212,-0.8872,2259.3157],[35.9192,-0.8865,2249.7925],[35.9193,-0.8848,2257.0144],[35.9214,-0.8841,2266.6475],[35.919,-0.8814,2267.5813],[35.9207,-0.8806,2275.3018],[35.9174,-0.8709,2363.5061],[35.9199,-0.8694,2294.6951],[35.9201,-0.8635,2316.2498],[35.9184,-0.8596,2405.2671],[35.9279,-0.8464,2423.4507],[35.9279,-0.8437,2447.5381],[35.9316,-0.8425,2467.4863],[35.9316,-0.8404,2479.6465],[35.9344,-0.8382,2460.5754],[35.9394,-0.8387,2414.7031],[35.9404,-0.8361,2412.0823],[35.9424,-0.8353,2419.4199],[35.9412,-0.8331,2435.9924],[35.9489,-0.8277,2458.4246],[35.955,-0.8259,2512.9407],[35.9635,-0.8146,2552.9854],[35.9756,-0.8119,2620.9246],[35.9785,-0.8072,2634.7915],[35.9822,-0.8063,2640.3076],[35.9866,-0.8022,2654.2017],[35.989,-0.8027,2645.6619],[35.9995,-0.7846,2752.8899],[36.0023,-0.7829,2741.8423],[36.0058,-0.7831,2698.4612],[36.0098,-0.7764,2755.1672],[36.0283,-0.7679,2839.8054],[36.0439,-0.7519,2946.0679],[36.0499,-0.7527,2909.353],[36.0529,-0.7485,2877.1104],[36.0537,-0.7421,2929.125],[36.0595,-0.7336,3014.6013],[36.074,-0.7215,3040.041],[36.0828,-0.7163,3037.3604],[36.0874,-0.7114,2970.7678],[36.0985,-0.7105,2634.3257],[36.1043,-0.7051,2622.8455],[36.108,-0.6778,2556.6528],[36.0996,-0.67,2615.502],[36.0974,-0.6333,2375.2058]]]]}}