{"type":"Feature","properties":{"GID_3":"KEN.38.5.4_1","GID_0":"KEN","country":"Kenya","GID_1":"KEN.38_1","province":"Siaya","NL_NAME_1":"NA","GID_2":"KEN.38.5_1","county":"Ugenya","NL_NAME_2":"NA","city":"WestUgenya","VARNAME_3":"NA","NL_NAME_3":"NA","TYPE_3":"Ward","ENGTYPE_3":"Ward","CC_3":"1156","HASC_3":"NA","name":"West_Ugenya.city"},
"geometry":{"type": "MultiPolygon","coordinates": [[[[34.1051,0.1906,1186.3958],[34.1119,0.1803,1175.6846],[34.1108,0.1669,1165.8397],[34.1128,0.1535,1151.1499],[34.115,0.154,1157.1072],[34.1113,0.1398,1150.0157],[34.102,0.1287,1205.3361],[34.1123,0.1248,1147.5814],[34.1098,0.128,1145.3168],[34.1101,0.1305,1155.4838],[34.1152,0.1277,1149.9578],[34.116,0.1303,1148.4033],[34.1208,0.1337,1148.7968],[34.1204,0.1354,1148.8947],[34.1169,0.1363,1148.8809],[34.1208,0.1418,1150.0352],[34.1177,0.1455,1148.3142],[34.1231,0.1461,1161.25],[34.129,0.1498,1169.7032],[34.1327,0.1504,1166.6555],[34.134,0.1488,1163.1926],[34.1427,0.1523,1163.1577],[34.1445,0.1515,1159.1311],[34.1429,0.1484,1155.681],[34.1448,0.1465,1148.3748],[34.1513,0.1535,1159.7271],[34.1562,0.1557,1163.3066],[34.162,0.161,1170.0281],[34.1614,0.1646,1190.7148],[34.1672,0.1715,1168.7098],[34.1665,0.1792,1188.5828],[34.1713,0.1888,1187.5111],[34.1716,0.1965,1190.8798],[34.179,0.2253,1198.2661],[34.1773,0.2429,1215.8982],[34.1838,0.246,1248.2931],[34.1709,0.2864,1296.1421],[34.1721,0.2916,1303.9238],[34.1594,0.3051,1363.2471],[34.1586,0.2949,1434.856],[34.1475,0.2745,1314.5183],[34.1384,0.2614,1246.2172],[34.1329,0.2558,1235.199],[34.1165,0.2464,1269.2103],[34.1162,0.223,1235.2694],[34.1134,0.2142,1217.9734],[34.1092,0.2099,1193.3954],[34.1106,0.2046,1183.9136],[34.1051,0.1906,1186.3958]]]]}}