{"type": "Feature","bbox": [38.8881,2.2839,40.2622,3.6865],"geometry": {"type": "MultiPolygon","coordinates": [[[[38.8931,2.5219,421.2403],[38.8923,2.5171,420.2697],[38.8905,2.5199,421.3591],[38.8985,2.4985,415.9351],[38.9023,2.4781,412.6111],[38.9131,2.4507,406.5691],[38.9147,2.4395,404.1168],[38.9275,2.4127,399.7503],[38.9305,2.3813,395.8654],[38.9343,2.3703,393.7963],[38.9313,2.3454,389.9798],[38.9423,2.3373,388.6888],[38.9531,2.3339,387.7933],[38.9831,2.3169,382.7291],[38.9951,2.3075,381.1418],[39.0135,2.2869,375.4643],[39.0189,2.2847,375.6958],[39.0307,2.2839,375.9406],[39.0533,2.2923,376.7841],[39.0663,2.2953,376.6768],[39.0967,2.3361,391.8235],[39.1276,2.4213,397.5781],[39.133,2.4319,398.6194],[39.1455,2.4495,400.2257],[39.1498,2.4594,401.6668],[39.1561,2.4987,411.502],[39.1532,2.5206,415.9167],[39.1535,2.5299,418.8787],[39.1631,2.5531,423.3126],[39.1653,2.5739,427.9589],[39.1781,2.5935,432.7561],[39.184,2.5987,435.3004],[39.2582,2.5485,444.6879],[39.262,2.5424,442.826],[39.4636,2.5493,434.676],[39.465,2.5496,434.3714],[39.4832,2.6018,439.4199],[39.5592,2.5963,437.3593],[39.5843,2.6103,442.202],[39.5855,2.6041,439.5964],[39.5947,2.585,434.7222],[39.5923,2.5747,431.179],[39.6489,2.5973,463.0689],[39.6691,2.6107,477.8078],[39.6787,2.6139,488.7357],[39.6771,2.6421,538.9002],[39.6726,2.6579,564.2083],[39.7626,2.6299,484.388],[39.8297,2.5767,452.7946],[40.1253,2.5867,455.4702],[40.1321,2.6029,461.5473],[40.1053,2.6349,447.1803],[40.1083,2.6531,451.8183],[40.1155,2.6645,453.8467],[40.1241,2.6733,454.8847],[40.1351,2.6945,457.457],[40.1471,2.7077,459.8549],[40.1599,2.7325,463.4803],[40.1853,2.7743,478.8474],[40.1943,2.7939,487.3233],[40.1972,2.8345,508.8546],[40.1924,2.851,507.9374],[40.1937,2.863,506.2301],[40.1853,2.8713,502.2216],[40.182,2.9033,501.8595],[40.1894,2.9145,503.5894],[40.1963,2.9304,501.6452],[40.2186,2.9587,499.239],[40.2365,2.9693,496.1226],[40.255,2.9756,491.7458],[40.2622,2.9829,490.7942],[40.1699,3.0907,534.627],[40.0437,3.2283,598.1824],[40.0337,3.2337,610.0048],[40.0335,3.2373,610.3807],[39.7871,3.3365,777.3726],[39.7857,3.3453,931.9196],[39.7853,3.6603,903.973],[39.7826,3.6579,910.9205],[39.7792,3.6865,879.4476],[39.771,3.6684,1173.2533],[39.7064,3.6047,882.382],[39.6165,3.5125,965.2042],[39.609,3.5026,1004.6971],[39.5819,3.4781,953.3156],[39.5786,3.4726,958.2864],[39.5647,3.4261,889.2709],[39.5589,3.4124,940.0661],[39.5439,3.4015,1065.2358],[39.5274,3.3988,779.5085],[39.5161,3.4044,783.6873],[39.5116,3.4104,1004.4329],[39.4984,3.4538,971.8607],[39.4937,3.4575,973.0873],[39.486,3.4595,1248.587],[39.4675,3.4566,1148.0432],[39.4237,3.4571,880.3988],[39.4156,3.4623,858.1072],[39.4056,3.4646,912.3875],[39.3326,3.4662,948.6226],[39.3291,3.4725,916.5613],[39.3284,3.4782,835.7527],[39.3082,3.4773,790.8105],[39.3077,3.4696,766.2805],[39.3143,3.4688,775.0115],[39.303,3.4556,753.0121],[39.2987,3.4435,738.1293],[39.3001,3.4294,727.2767],[39.3126,3.4079,689.0561],[39.328,3.2886,631.5157],[39.3382,3.2784,633.36],[39.342,3.2508,653.4286],[39.3455,3.1155,626.7695],[39.3453,3.0707,603.6445],[39.3245,3.0549,590.7775],[39.2897,3.0375,578.8041],[39.2571,3.0037,565.4036],[39.2503,2.9953,574.1598],[39.2501,2.9891,569.9893],[39.2455,2.9855,565.5623],[39.2375,2.9847,558.7094],[39.2247,2.9793,546.0142],[39.2174,2.978,542.6575],[39.2003,2.9665,533.2482],[39.1939,2.9565,530.413],[39.1517,2.9545,552.9395],[39.1487,2.9531,554.5458],[39.1383,2.9385,545.4774],[39.1269,2.9347,538.6339],[39.1249,2.9369,540.2108],[39.1259,2.9339,538.6339],[39.1173,2.9123,516.7732],[39.1121,2.8841,508.2987],[39.0673,2.8831,509.9785],[39.0701,2.8039,508.1524],[39.0625,2.7383,493.9391],[39.0615,2.7353,494.6012],[39.0553,2.7299,494.5594],[39.0511,2.7213,491.2688],[39.0485,2.7035,489.236],[39.0371,2.6921,488.1716],[39.0037,2.6103,467.2743],[38.9789,2.5691,440.4391],[38.8881,2.5437,426.4863],[38.8915,2.5359,424.3201],[38.8931,2.5219,421.2403]]]]}
,"properties": {"GID_2": "KEN.46.4_1","GID_0": "KEN","country": "Kenya","GID_1": "KEN.46_1","province": "Wajir","NL_NAME_1": "NA","county": "WajirNorth","VARNAME_2": "NA","NL_NAME_2": "NA","TYPE_2": "Constituency","ENGTYPE_2": "Constituency","CC_2": "33","HASC_2": "NA","name": "Wajir_North.county","area_km2": 10436.886,"hist_schema_id": "Elevation0-9000","hist_area_km2": {"375": 70.227,"400": 305.994,"425": 335.242,"450": 827.293,"475": 953.19,"500": 1286.559,"525": 1137.841,"550": 934.349,"575": 749.335,"600": 721.5,"625": 671.93,"650": 470.686,"675": 359.103,"700": 314.677,"725": 216.933,"750": 135.645,"775": 99.426,"800": 146.022,"825": 172.679,"850": 158.473,"875": 113.184,"900": 82.625,"925": 56.889,"950": 31.535,"975": 17.715,"1000": 14.371,"1025": 10.202,"1050": 8.678,"1075": 7.662,"1100": 7.111,"1125": 4.741,"1150": 4.296,"1175": 3.661,"1200": 2.709,"1225": 1.736,"1250": 1.418,"1275": 0.804,"1300": 0.233,"1325": 0.127}}}