{"type":"Feature","properties":{"GID_3":"KEN.31.1.5_1","GID_0":"KEN","country":"Kenya","GID_1":"KEN.31_1","province":"Nakuru","NL_NAME_1":"NA","GID_2":"KEN.31.1_1","county":"Bahati","NL_NAME_2":"NA","city":"Lanet/Umoja","VARNAME_3":"NA","NL_NAME_3":"NA","TYPE_3":"Ward","ENGTYPE_3":"Ward","CC_3":"868","HASC_3":"NA","name":"Lanet_Umoja.city"},
"geometry":{"type": "MultiPolygon","coordinates": [[[[36.1568,-0.2313,1979.616],[36.1495,-0.2373,1949.8973],[36.1486,-0.2411,1941.1493],[36.1431,-0.2456,1926.2416],[36.1407,-0.2519,1915.5294],[36.1328,-0.2583,1897.165],[36.1302,-0.2659,1890.6476],[36.1238,-0.2717,1876.9949],[36.1273,-0.2704,1879.5759],[36.1286,-0.2712,1879.5759],[36.1271,-0.2754,1873.9871],[36.1493,-0.2866,1897.8101],[36.1484,-0.2818,1902.504],[36.1652,-0.2832,1926.1525],[36.165,-0.298,1918.5115],[36.1544,-0.3003,1897.647],[36.1583,-0.315,1902.4189],[36.1765,-0.3251,1901.9662],[36.1943,-0.3376,1884.8469],[36.2226,-0.329,2152.9402],[36.2138,-0.288,2127.0132],[36.2135,-0.28,2178.7947],[36.2047,-0.2808,2039.6617],[36.1967,-0.2793,2002.2502],[36.1964,-0.2826,1990.1008],[36.1899,-0.2811,1977.6149],[36.1619,-0.2511,1954.3452],[36.1658,-0.2481,1960.2662],[36.1568,-0.2313,1979.616]]]]}}