{"type":"Feature","properties":{"GID_3":"KEN.29.1.4_1","GID_0":"KEN","country":"Kenya","GID_1":"KEN.29_1","province":"Murang'a","NL_NAME_1":"NA","GID_2":"KEN.29.1_1","county":"Gatanga","NL_NAME_2":"NA","city":"Kariara","VARNAME_3":"NA","NL_NAME_3":"NA","TYPE_3":"Ward","ENGTYPE_3":"Ward","CC_3":"550","HASC_3":"NA","name":"Kariara.city"},
"geometry":{"type": "MultiPolygon","coordinates": [[[[36.8848,-0.8904,1836.6025],[36.8818,-0.8838,1877.7319],[36.8757,-0.8803,1867.1827],[36.8856,-0.8766,1859.2217],[36.8838,-0.8686,1865.5078],[36.8855,-0.8621,1900.7988],[36.8895,-0.8621,1855.6216],[36.8986,-0.8677,1877.7383],[36.9002,-0.8712,1890.7034],[36.9059,-0.8718,1874.8373],[36.9094,-0.876,1870.2295],[36.9158,-0.878,1842.8787],[36.9201,-0.8834,1847.3811],[36.9207,-0.8873,1827.0935],[36.9352,-0.8737,1771.5669],[36.9332,-0.8704,1745.4808],[36.9303,-0.8701,1686.8381],[36.9308,-0.8685,1682.7681],[36.9292,-0.868,1712.4393],[36.9286,-0.865,1704.241],[36.9297,-0.8612,1800.0472],[36.926,-0.8593,1749.5979],[36.927,-0.8584,1749.5979],[36.9256,-0.8562,1844.3635],[36.9241,-0.8563,1740.7882],[36.9247,-0.8542,1819.1395],[36.9186,-0.8484,1792.8269],[36.9132,-0.8354,1892.1361],[36.9103,-0.8346,1895.4902],[36.9072,-0.8363,1885.7605],[36.9061,-0.8344,1904.1924],[36.9071,-0.8329,1909.9918],[36.9031,-0.8296,1924.2032],[36.8991,-0.8335,1898.6331],[36.8901,-0.8329,1949.64],[36.89,-0.8293,1962.1823],[36.8875,-0.8285,1948.1099],[36.883,-0.8191,1972.584],[36.8775,-0.8165,1964.5281],[36.8714,-0.8214,2014.0525],[36.8693,-0.8186,1987.874],[36.8656,-0.8179,2015.0554],[36.8631,-0.8192,2001.2507],[36.8617,-0.8155,2030.176],[36.8608,-0.8167,2007.5098],[36.8588,-0.8146,2011.2616],[36.8557,-0.8157,2034.0709],[36.8511,-0.8134,2059.9448],[36.8489,-0.8148,2045.2482],[36.847,-0.8136,2047.9951],[36.8457,-0.815,2062.3267],[36.8467,-0.8166,2042.5],[36.8442,-0.8182,2042.5],[36.8408,-0.8172,2042.5],[36.8405,-0.8148,2042.5],[36.8379,-0.8147,2042.5],[36.8394,-0.8126,2067.3943],[36.838,-0.8126,2042.5],[36.8387,-0.811,2042.5],[36.8364,-0.8122,2050.1013],[36.8345,-0.81,2091.5967],[36.832,-0.8106,2066.4666],[36.8301,-0.8078,2070.7598],[36.8282,-0.809,2068.5],[36.8214,-0.8078,2085.8123],[36.8168,-0.8055,2098.1201],[36.8168,-0.8029,2158.5276],[36.8103,-0.8013,2108.0273],[36.8057,-0.7902,2215.5518],[36.804,-0.7888,2238.7571],[36.8022,-0.7896,2202.7925],[36.8009,-0.7859,2246.4138],[36.7965,-0.7843,2278.1194],[36.792,-0.7746,2313.822],[36.79,-0.7745,2298.0991],[36.7895,-0.7724,2284.73],[36.786,-0.7727,2321.6758],[36.7754,-0.7674,2356.6292],[36.7667,-0.7587,2418.5762],[36.7671,-0.7563,2437.1641],[36.7622,-0.7544,2433.8682],[36.7555,-0.7458,2511.0811],[36.7504,-0.7422,2540.3801],[36.7506,-0.7398,2551.6289],[36.7455,-0.7351,2523.917],[36.745,-0.7242,2643.4614],[36.7415,-0.7178,2642.915],[36.7425,-0.7163,2654.6187],[36.7412,-0.7091,2817.1396],[36.7385,-0.7056,2812.4211],[36.7353,-0.7052,2760.5208],[36.7359,-0.7038,2836.447],[36.7297,-0.6961,2814.4631],[36.7305,-0.6874,2882.8997],[36.7243,-0.6828,3085.9524],[36.7242,-0.681,3068.0776],[36.7113,-0.6772,3410.3821],[36.7066,-0.6912,3011.8198],[36.7134,-0.7091,2928.9617],[36.7133,-0.7202,2927.134],[36.7163,-0.7286,2877.0078],[36.7181,-0.7477,2706.019],[36.7232,-0.7603,2543.1616],[36.7367,-0.7738,2407.6609],[36.7278,-0.7741,2476.0051],[36.7237,-0.7777,2415.5547],[36.7194,-0.7731,2428.6245],[36.7205,-0.7805,2458.4084],[36.7241,-0.7853,2453.5359],[36.7223,-0.8006,2325.4111],[36.727,-0.8054,2318.6199],[36.7324,-0.806,2319.2273],[36.7356,-0.8076,2314.3535],[36.7362,-0.8102,2317.6873],[36.742,-0.8126,2330.4746],[36.7507,-0.8273,2240.5828],[36.7711,-0.8267,2172.3931],[36.779,-0.831,2174.4226],[36.7819,-0.8355,2132.5408],[36.7843,-0.8345,2146.2898],[36.7888,-0.8394,2114.771],[36.792,-0.8392,2124.0303],[36.8025,-0.8463,2084.8599],[36.806,-0.8512,2088.5652],[36.8104,-0.8502,2081.7678],[36.8092,-0.8531,2023.5979],[36.8142,-0.8538,2030.7755],[36.8158,-0.857,2043.3571],[36.8186,-0.8565,2068.5576],[36.8229,-0.8594,2054.239],[36.8251,-0.8592,2044.4847],[36.827,-0.8642,1995.6688],[36.8316,-0.866,1997.2375],[36.8317,-0.8682,2003.5022],[36.8361,-0.8681,1982.5155],[36.8405,-0.8723,1946.7217],[36.8427,-0.8708,1987.4288],[36.8494,-0.8767,1947.75],[36.8592,-0.8772,1908.4642],[36.8616,-0.8798,1926.4025],[36.8603,-0.8814,1886.296],[36.8641,-0.8846,1862.7521],[36.8676,-0.886,1882.5813],[36.8694,-0.8836,1896.0035],[36.8728,-0.8871,1868.597],[36.8751,-0.886,1849.8434],[36.8779,-0.887,1833.9683],[36.8802,-0.8886,1797.8689],[36.8805,-0.8924,1826.912],[36.8848,-0.8904,1836.6025]]]]}}