{"type": "Feature","bbox": [40.7357,-2.0849,41.2867,-1.6815],"geometry": {"type": "MultiPolygon","coordinates": [[[[41.1974,-2.0174,2.4069],[41.1957,-2.0162,0.0],[41.1963,-2.0193,0.0],[41.1971,-2.019,3.6674],[41.1974,-2.0174,2.4069]]],
[[[41.2035,-2.001,0.0],[41.1974,-2.0013,2.6742],[41.2004,-2.0132,3.2987],[41.1985,-2.0149,1.9105],[41.1988,-2.0179,2.4069],[41.1963,-2.0204,0.0],[41.1965,-2.0232,0.0],[41.1988,-2.0265,0.0],[41.2018,-2.0276,0.0],[41.2115,-2.0274,0.0],[41.2149,-2.0237,1.4411],[41.216,-2.016,0.0],[41.214,-2.0126,0.0],[41.2118,-2.0124,0.0],[41.2113,-2.009,1.2764],[41.2051,-2.0049,2.2014],[41.2054,-2.0021,0.0],[41.2035,-2.001,0.0]]],
[[[41.221,-1.989,1.423],[41.2137,-1.9901,0.8499],[41.2132,-1.9957,0.0],[41.2215,-1.996,4.0448],[41.2229,-1.9921,3.72],[41.221,-1.989,1.423]]],
[[[41.1974,-1.9824,0.0],[41.1963,-1.9818,0.0],[41.1954,-1.9907,0.9898],[41.1979,-1.9926,0.0],[41.2021,-1.9893,0.0],[41.2021,-1.9876,0.0],[41.2018,-1.9854,0.0],[41.1974,-1.9824,0.0]]],
[[[41.2165,-1.9812,0.0],[41.2135,-1.9807,0.0],[41.2154,-1.9835,0.0],[41.2188,-1.9835,0.0],[41.2165,-1.9818,1.4728],[41.2165,-1.9812,0.0]]],
[[[41.2096,-1.959,0.0],[41.2065,-1.9585,2.3589],[41.2049,-1.9657,0.0],[41.2079,-1.9712,0.4276],[41.2093,-1.971,0.4276],[41.2101,-1.9671,0.0],[41.2099,-1.9643,0.0],[41.2085,-1.964,1.2755],[41.2104,-1.961,0.0],[41.2096,-1.959,0.0]]],
[[[41.1862,-1.9857,1.4638],[41.1849,-1.9851,1.4638],[41.184,-1.9868,0.0],[41.1862,-1.9871,1.4365],[41.1862,-1.9857,1.4638]]],
[[[41.1832,-1.9337,0.7018],[41.181,-1.9332,3.8856],[41.1796,-1.9349,0.6582],[41.1838,-1.9365,0.0],[41.1832,-1.9337,0.7018]]],
[[[40.9776,-2.0724,0.1466],[40.9765,-2.0712,0.0],[40.9746,-2.0737,0.0],[40.9757,-2.074,0.5128],[40.9776,-2.0724,0.1466]]],
[[[41.1349,-1.9965,5.9463],[41.1332,-1.9962,0.0],[41.131,-1.9996,0.0],[41.134,-2.0024,0.0],[41.1357,-2.0013,0.0],[41.1349,-1.9965,5.9463]]],
[[[41.1174,-1.9968,0.7483],[41.114,-1.9979,0.0],[41.1143,-2.0013,0.0],[41.1165,-2.0004,1.82],[41.1174,-1.9968,0.7483]]],
[[[40.8771,-1.9904,0.0],[40.8693,-1.9937,0.0],[40.8685,-1.9968,0.0],[40.8754,-1.994,0.0],[40.8771,-1.9904,0.0]]],
[[[41.194,-2.0032,2.9889],[41.1901,-2.0024,0.0],[41.1793,-2.0068,0.0],[41.179,-2.0082,1.0727],[41.1821,-2.0093,0.0],[41.1768,-2.0076,0.0],[41.174,-2.0096,0.8606],[41.1732,-2.0143,2.8788],[41.1715,-2.0085,0.0],[41.1604,-2.0124,0.6596],[41.146,-2.0104,0.0],[41.1479,-2.0135,6.0921],[41.1407,-2.0162,0.0],[41.1404,-2.021,0.0],[41.1437,-2.024,0.2217],[41.1587,-2.0254,0.7312],[41.1688,-2.0293,1.2065],[41.1763,-2.029,0.0],[41.1776,-2.0271,0.31],[41.181,-2.029,0.0],[41.1854,-2.0288,2.2587],[41.1871,-2.0313,0.0],[41.1885,-2.0296,0.0],[41.1893,-2.0199,0.0],[41.1949,-2.0132,1.5346],[41.194,-2.0032,2.9889]]],
[[[41.1599,-2.006,2.6834],[41.1593,-2.0049,2.6834],[41.1543,-2.0057,0.0],[41.154,-2.0074,1.8084],[41.1582,-2.0085,0.0],[41.1599,-2.006,2.6834]]],
[[[41.1501,-2.0046,0.0],[41.1499,-2.0021,0.0],[41.1479,-2.006,0.0],[41.149,-2.0062,0.0],[41.1501,-2.0046,0.0]]],
[[[41.1671,-2.0032,1.8736],[41.164,-2.0024,0.0],[41.1632,-2.004,3.0234],[41.164,-2.0057,0.0],[41.1665,-2.0057,0.0],[41.1671,-2.0032,1.8736]]],
[[[40.9826,-1.9437,0.556],[40.9801,-1.9437,0.7244],[40.9793,-1.9451,0.2933],[40.981,-1.9457,0.0],[40.9826,-1.9437,0.556]]],
[[[41.2867,-1.6815,25.895],[40.8925,-1.7165,41.1485],[40.8519,-1.7351,33.2862],[40.8373,-1.7437,37.6287],[40.7463,-1.7877,40.5449],[40.7357,-1.7946,40.3958],[40.7401,-1.8011,38.7868],[40.7429,-1.8136,33.2948],[40.7465,-1.8167,32.8621],[40.7511,-1.8259,34.8642],[40.7569,-1.8289,26.5302],[40.7589,-1.8319,23.3935],[40.7587,-1.8355,22.3034],[40.7567,-1.8379,21.199],[40.7522,-1.8365,28.0738],[40.7505,-1.8401,22.7863],[40.7513,-1.8488,28.2238],[40.7539,-1.8526,26.1618],[40.7539,-1.8631,22.6522],[40.7491,-1.876,21.4389],[40.7511,-1.8842,24.4807],[40.7559,-1.8933,22.5328],[40.7527,-1.8998,20.8756],[40.7431,-1.9068,19.4736],[40.7431,-1.9102,19.0736],[40.7477,-1.9158,10.7741],[40.7431,-1.9234,17.7463],[40.7485,-1.9281,17.9765],[40.7523,-1.935,18.4198],[40.7593,-1.9353,3.4543],[40.7609,-1.9417,3.6987],[40.7641,-1.942,3.6943],[40.7663,-1.9394,3.6796],[40.7733,-1.943,3.7234],[40.7795,-1.9402,4.4249],[40.7799,-1.9435,3.1013],[40.7839,-1.945,4.2471],[40.7957,-1.945,2.7744],[40.7995,-1.9518,4.1134],[40.8101,-1.9571,3.9615],[40.809,-1.9601,1.2417],[40.8101,-1.9629,0.0],[40.8135,-1.9615,3.2483],[40.829,-1.9701,0.0],[40.8415,-1.9732,0.0],[40.8449,-1.9721,1.9458],[40.8482,-1.9732,0.0],[40.8496,-1.9715,1.1093],[40.8501,-1.9732,0.0],[40.8635,-1.9774,0.0],[40.8604,-1.9754,2.5784],[40.8607,-1.9732,1.3962],[40.8629,-1.9735,0.7869],[40.8685,-1.9774,1.096],[40.8757,-1.9874,1.3233],[40.8801,-1.9907,0.0],[40.8788,-1.9921,0.0],[40.8818,-1.9915,0.0],[40.8874,-1.9946,0.0],[40.8926,-1.9954,1.0569],[40.9063,-1.9926,7.5466],[40.914,-1.9943,4.65],[40.921,-1.9988,1.4743],[40.9215,-2.0029,1.3818],[40.9196,-2.0043,0.0],[40.9171,-2.0149,0.0],[40.9188,-2.0335,0.46],[40.9238,-2.0418,0.0],[40.9307,-2.0476,2.6104],[40.939,-2.0593,1.7614],[40.936,-2.0704,2.9813],[40.9332,-2.074,0.0],[40.9335,-2.0779,0.0],[40.9368,-2.0813,0.0],[40.9471,-2.0849,0.0],[40.9654,-2.0787,0.0],[40.9707,-2.0751,0.0],[40.9701,-2.0732,0.3624],[40.9718,-2.0718,0.0],[40.979,-2.0687,0.0],[40.9807,-2.0662,1.4843],[40.9807,-2.0521,0.0],[40.9721,-2.0432,1.7689],[40.964,-2.0276,0.0],[40.9613,-2.0268,0.4838],[40.9599,-2.0171,3.4684],[40.969,-2.0057,0.0],[40.9696,-2.0018,0.0],[40.9676,-1.9993,2.4572],[40.9685,-1.9951,2.8456],[40.9732,-1.9926,0.0],[40.9751,-1.9893,1.4066],[40.9751,-1.9871,0.0],[40.9699,-1.9793,0.0],[40.9715,-1.9721,0.5443],[40.9754,-1.9687,0.5338],[40.9751,-1.9637,0.7426],[40.9712,-1.9554,0.0],[40.9712,-1.9465,0.5337],[40.9735,-1.939,0.9991],[40.9813,-1.9329,1.9929],[40.9904,-1.9301,0.0],[40.9957,-1.9215,0.0],[40.9979,-1.9143,0.0],[41.0032,-1.9082,2.1593],[41.0054,-1.9118,0.6438],[41.0071,-1.9112,6.2299],[41.0079,-1.9126,2.8851],[41.0099,-1.9082,1.6025],[41.0104,-1.9101,0.0],[41.0129,-1.9082,0.7421],[41.0174,-1.909,0.9328],[41.0137,-1.909,0.7421],[41.0129,-1.9129,0.0],[41.0062,-1.9196,2.8035],[41.0007,-1.9349,11.6614],[40.9912,-1.9451,2.9042],[40.9865,-1.9465,0.0],[40.9857,-1.9482,0.4074],[40.9863,-1.9571,0.0],[40.9907,-1.9624,1.3813],[40.9915,-1.9799,2.003],[40.9821,-1.9996,0.0],[40.9813,-2.0126,1.7718],[40.979,-2.0129,0.0],[40.979,-2.0199,1.9239],[40.9821,-2.0263,0.0],[40.9874,-2.0313,2.5259],[40.9899,-2.0415,0.0],[40.9974,-2.0451,0.3461],[40.9971,-2.0482,0.0],[40.9996,-2.0504,0.0],[41.0051,-2.0512,2.2931],[41.0151,-2.0563,0.0],[41.0213,-2.0551,0.0],[41.0226,-2.0535,0.0],[41.0254,-2.054,0.0],[41.0293,-2.0507,2.3291],[41.0321,-2.051,2.0246],[41.0343,-2.0538,0.0],[41.0357,-2.049,2.8667],[41.039,-2.0454,0.0],[41.0388,-2.0401,0.0],[41.0449,-2.0329,4.5533],[41.0526,-2.0321,0.0],[41.0549,-2.0288,8.4386],[41.0582,-2.0279,0.0],[41.0576,-2.026,4.0806],[41.061,-2.0265,0.0],[41.064,-2.0246,0.0],[41.0638,-2.0224,1.0347],[41.066,-2.0237,0.0],[41.0704,-2.019,1.0046],[41.0788,-2.0176,0.0],[41.0782,-2.0126,0.0],[41.0754,-2.0085,2.8506],[41.076,-1.9974,3.4332],[41.0774,-1.9982,0.0],[41.0768,-2.0079,1.4577],[41.0801,-2.0129,2.0553],[41.0835,-2.0137,0.0],[41.0874,-2.0065,1.141],[41.0885,-2.0065,1.4686],[41.0879,-2.009,0.0],[41.0901,-2.0085,0.0],[41.0957,-2.004,0.3898],[41.0962,-2.0013,4.6257],[41.0982,-2.0021,0.0],[41.0996,-2.0057,0.0],[41.1004,-2.0024,0.0],[41.099,-1.9949,1.8461],[41.0954,-1.9915,1.7611],[41.0962,-1.9904,0.0],[41.099,-1.9904,1.435],[41.1004,-1.9924,6.6575],[41.101,-1.9988,5.5552],[41.1037,-2.0021,0.0],[41.106,-1.9993,2.5911],[41.1051,-1.9932,0.0],[41.1096,-1.9935,0.0],[41.1121,-1.9918,0.0],[41.114,-1.9896,0.0],[41.1132,-1.986,1.0433],[41.1162,-1.9876,0.9839],[41.1176,-1.991,0.379],[41.1251,-1.9801,0.0],[41.1276,-1.9799,0.0],[41.1246,-1.9851,0.0],[41.1257,-1.9924,0.0],[41.1271,-1.9915,6.8118],[41.1276,-1.9882,1.3091],[41.1293,-1.9882,6.1756],[41.129,-1.9924,6.8118],[41.1237,-1.9954,0.0],[41.1257,-1.9979,2.9562],[41.1285,-1.9976,0.6635],[41.1301,-1.9929,2.9931],[41.1321,-1.9926,2.8841],[41.1335,-1.9951,0.0],[41.1376,-1.9949,2.9582],[41.141,-1.9982,0.0],[41.1435,-1.9982,0.0],[41.1449,-1.9971,3.0336],[41.1435,-1.996,8.6937],[41.1446,-1.9904,3.2425],[41.1451,-1.9943,0.0],[41.1493,-1.9921,1.0376],[41.1524,-1.9946,0.4366],[41.1529,-1.9982,0.0],[41.1579,-1.9951,0.6972],[41.1596,-2.0021,0.0],[41.1626,-1.9993,5.6356],[41.1632,-2.0015,0.0],[41.1682,-2.0024,2.1584],[41.1701,-2.0043,0.0],[41.1774,-2.0032,0.0],[41.1851,-1.9974,0.7557],[41.1879,-1.9976,1.4835],[41.1921,-1.9951,0.0],[41.189,-1.9896,0.0],[41.1824,-1.9865,2.0669],[41.1846,-1.9829,1.6847],[41.1832,-1.981,0.0],[41.1735,-1.9821,1.5385],[41.1718,-1.9799,0.0],[41.1751,-1.9812,3.7589],[41.1804,-1.9785,2.9232],[41.1832,-1.979,1.8274],[41.1868,-1.9846,0.0],[41.1926,-1.9879,1.365],[41.1968,-1.9712,1.2023],[41.1901,-1.9687,1.2488],[41.189,-1.9668,1.2151],[41.1957,-1.9687,0.5074],[41.199,-1.9624,2.1504],[41.1976,-1.9571,0.0],[41.2026,-1.9565,0.0],[41.2032,-1.954,1.0852],[41.199,-1.9551,1.5771],[41.1924,-1.9524,0.0],[41.191,-1.9526,0.0],[41.1899,-1.9571,0.5],[41.1882,-1.9568,2.9676],[41.191,-1.9501,0.9945],[41.201,-1.9507,0.0],[41.2007,-1.9485,1.336],[41.1932,-1.9415,0.0],[41.1851,-1.939,0.2837],[41.1796,-1.9354,0.6582],[41.1776,-1.9365,0.4836],[41.1729,-1.9474,1.9269],[41.1674,-1.9488,0.6097],[41.1718,-1.9457,0.4736],[41.176,-1.9351,2.1982],[41.1796,-1.9326,3.4687],[41.1829,-1.9324,2.7981],[41.1882,-1.9379,1.1638],[41.1946,-1.9393,0.6567],[41.1943,-1.9349,0.8645],[41.1913,-1.9374,1.2841],[41.1951,-1.9329,0.0],[41.1946,-1.9296,5.8523],[41.1924,-1.9276,1.7977],[41.1943,-1.9271,0.0],[41.196,-1.9296,0.0],[41.196,-1.9337,0.0],[41.1971,-1.9318,1.963],[41.199,-1.9326,1.963],[41.1976,-1.936,1.7503],[41.1957,-1.9357,0.0],[41.1965,-1.9396,0.0],[41.2026,-1.9415,0.0],[41.2026,-1.9349,2.6204],[41.204,-1.9346,0.5403],[41.2054,-1.9454,0.9613],[41.2118,-1.9501,2.1352],[41.2132,-1.9535,0.0],[41.216,-1.9524,0.0],[41.2199,-1.9426,0.0],[41.2185,-1.9351,2.6844],[41.2201,-1.9183,0.7989],[41.2179,-1.9179,3.3291],[41.2197,-1.9103,1.9134],[41.2171,-1.9117,1.8899],[41.2155,-1.902,2.0398],[41.2287,-1.8835,11.607],[41.2483,-1.8621,15.7053],[41.2573,-1.8468,34.9449],[41.2641,-1.8295,119.9024],[41.2059,-1.8752,13.0512],[41.2435,-1.6857,27.453],[41.2867,-1.6815,25.895]]]]}
,"properties": {"GID_3": "KEN.21.1.1_1","GID_0": "KEN","country": "Kenya","GID_1": "KEN.21_1","province": "Lamu","NL_NAME_1": "NA","GID_2": "KEN.21.1_1","county": "LamuEast","NL_NAME_2": "NA","city": "Basuba","VARNAME_3": "NA","NL_NAME_3": "NA","TYPE_3": "Ward","ENGTYPE_3": "Ward","CC_3": "103","HASC_3": "NA","name": "Basuba.city","area_km2": 1671.759,"hist_schema_id": "Elevation0-9000","hist_area_km2": {"0": 416.275,"25": 1142.468,"50": 111.512,"75": 1.314,"100": 0.191}}}