{"type":"Feature","properties":{"GID_3":"KEN.13.9.3_1","GID_0":"KEN","country":"Kenya","GID_1":"KEN.13_1","province":"Kiambu","NL_NAME_1":"NA","GID_2":"KEN.13.9_1","county":"Lari","NL_NAME_2":"NA","city":"Kinale","VARNAME_3":"NA","NL_NAME_3":"NA","TYPE_3":"Ward","ENGTYPE_3":"Ward","CC_3":"606","HASC_3":"NA","name":"Kinale.city"},
"geometry":{"type": "MultiPolygon","coordinates": [[[[36.724,-0.8348,2383.9573],[36.7232,-0.8307,2381.2605],[36.7252,-0.8302,2371.9814],[36.7175,-0.8247,2321.5781],[36.7208,-0.8237,2304.7854],[36.7188,-0.8213,2330.7441],[36.7216,-0.8221,2343.9106],[36.7196,-0.8188,2407.2808],[36.7323,-0.8197,2381.4463],[36.7384,-0.8235,2240.4246],[36.7462,-0.8215,2203.9526],[36.742,-0.8126,2330.4746],[36.7362,-0.8102,2317.6873],[36.7356,-0.8076,2314.3535],[36.7324,-0.806,2319.2273],[36.727,-0.8054,2318.6199],[36.7205,-0.7994,2328.6184],[36.7185,-0.797,2320.2368],[36.7193,-0.7953,2360.9963],[36.7147,-0.7908,2324.5132],[36.7153,-0.7892,2400.2468],[36.7114,-0.7867,2358.3579],[36.7119,-0.7843,2408.251],[36.7103,-0.7839,2347.6858],[36.7071,-0.7778,2424.7266],[36.7048,-0.7782,2372.3135],[36.701,-0.7754,2401.0569],[36.6872,-0.758,2504.4692],[36.6718,-0.7526,2500.3152],[36.6622,-0.762,2512.4385],[36.6576,-0.7619,2503.1428],[36.6537,-0.7586,2525.8633],[36.6446,-0.767,2533.1199],[36.6505,-0.7688,2524.0381],[36.6597,-0.7667,2519.6177],[36.6742,-0.7728,2476.1003],[36.622,-0.8215,2618.6667],[36.6226,-0.8253,2614.3679],[36.5887,-0.8218,2661.9595],[36.5913,-0.8428,2691.771],[36.6014,-0.8573,2669.1367],[36.5896,-0.883,2677.2104],[36.58,-0.8864,2680.5442],[36.5655,-0.8971,2679.9517],[36.563,-0.9007,2618.3738],[36.5705,-0.9028,2452.2439],[36.5719,-0.9045,2427.2595],[36.5543,-0.9146,2393.6433],[36.5542,-0.9202,2264.6404],[36.5676,-0.922,2139.8979],[36.5726,-0.9257,2108.0703],[36.5615,-0.9329,1981.9722],[36.5687,-0.9392,2043.7181],[36.5749,-0.938,2041.7085],[36.5801,-0.9428,2046.4562],[36.5964,-0.9329,2415.9348],[36.6012,-0.941,2328.0483],[36.6099,-0.9474,2436.0664],[36.6112,-0.9453,2478.0242],[36.6089,-0.9401,2538.739],[36.6101,-0.938,2546.259],[36.602,-0.9213,2586.9031],[36.6057,-0.9201,2599.0728],[36.6055,-0.9163,2607.7249],[36.6106,-0.9169,2615.8333],[36.6264,-0.9415,2556.9795],[36.629,-0.9507,2503.3118],[36.6346,-0.9404,2549.2791],[36.6347,-0.9372,2574.9551],[36.6398,-0.9356,2606.9033],[36.6406,-0.9321,2613.021],[36.6389,-0.9238,2576.624],[36.6333,-0.9178,2594.3093],[36.6353,-0.9169,2600.7065],[36.6342,-0.9148,2598.6201],[36.6376,-0.9151,2577.7119],[36.6338,-0.91,2605.9246],[36.6428,-0.9115,2602.9731],[36.6645,-0.9208,2458.5317],[36.6699,-0.9278,2426.2188],[36.6732,-0.9295,2408.3086],[36.6816,-0.9297,2382.2021],[36.6944,-0.9507,2309.4309],[36.712,-0.9608,2217.2554],[36.7131,-0.9599,2217.2554],[36.7098,-0.9576,2253.0769],[36.7102,-0.956,2248.9204],[36.7122,-0.9556,2225.7759],[36.7152,-0.9581,2216.3845],[36.7323,-0.9458,2212.2192],[36.7421,-0.9315,2157.1101],[36.7314,-0.9165,2227.8228],[36.7378,-0.9112,2233.7891],[36.7177,-0.8898,2317.9507],[36.7061,-0.8843,2363.7817],[36.7037,-0.881,2383.2932],[36.7019,-0.8827,2352.6023],[36.6938,-0.8778,2374.8247],[36.6903,-0.8713,2437.8877],[36.6831,-0.865,2424.8848],[36.6775,-0.8643,2466.9949],[36.6727,-0.8692,2520.4023],[36.6651,-0.871,2541.5649],[36.6607,-0.8684,2567.6892],[36.6562,-0.8696,2561.3508],[36.6571,-0.8044,2525.2241],[36.6619,-0.8045,2530.0283],[36.6644,-0.8028,2517.6658],[36.6719,-0.8093,2524.7817],[36.678,-0.8122,2481.2068],[36.6888,-0.8161,2487.729],[36.6983,-0.8169,2451.4121],[36.703,-0.8206,2445.4619],[36.7094,-0.8221,2406.2581],[36.7115,-0.8256,2400.3364],[36.7145,-0.827,2409.4658],[36.7184,-0.8338,2384.8296],[36.724,-0.8348,2383.9573]]]]}}