{"type": "Feature","bbox": [40.0037,1.7087,40.0457,1.7999],"geometry": {"type": "MultiPolygon","coordinates": [[[[40.0101,1.7829,267.712],[40.0039,1.7719,265.3619],[40.0037,1.7607,262.9684],[40.0095,1.7373,259.5454],[40.0193,1.7087,252.3644],[40.0399,1.7323,257.7213],[40.0349,1.7405,258.5878],[40.0341,1.7551,262.3528],[40.0457,1.7536,262.3631],[40.0416,1.764,264.4826],[40.0343,1.771,265.5752],[40.0269,1.7862,268.513],[40.0249,1.7925,269.2692],[40.0269,1.7929,268.4311],[40.0241,1.7933,270.4671],[40.0218,1.7999,268.6581],[40.0226,1.796,271.5446],[40.0244,1.7923,269.2692],[40.0171,1.7903,268.4325],[40.0101,1.7829,267.712]]]]}
,"properties": {"GID_3": "KEN.46.3.1_1","GID_0": "KEN","country": "Kenya","GID_1": "KEN.46_1","province": "Wajir","NL_NAME_1": "NA","GID_2": "KEN.46.3_1","county": "WajirEast","NL_NAME_2": "NA","city": "Barwago","VARNAME_3": "NA","NL_NAME_3": "NA","TYPE_3": "Ward","ENGTYPE_3": "Ward","CC_3": "170","HASC_3": "NA","name": "Barwago.city","area_km2": 24.39231,"hist_schema_id": "Elevation0-9000","hist_area_km2": {"250": 12.39759,"275": 11.99472}}}