{"type":"Feature","properties":{"GID_2":"KEN.27.6_1","GID_0":"KEN","country":"Kenya","GID_1":"KEN.27_1","province":"Migori","NL_NAME_1":"NA","county":"SunaEast","VARNAME_2":"NA","NL_NAME_2":"NA","TYPE_2":"Constituency","ENGTYPE_2":"Constituency","CC_2":"255","HASC_2":"NA","name":"Suna_East.county"},
"geometry":{"type": "MultiPolygon","coordinates": [[[[34.6079,-1.1423,1403.2073],[34.6117,-1.1422,1424.781],[34.6177,-1.1492,1419.7134],[34.6178,-1.1512,1413.8191],[34.6213,-1.1516,1413.9644],[34.6256,-1.1488,1427.3176],[34.633,-1.1322,1440.387],[34.6293,-1.1207,1466.8073],[34.6297,-1.1175,1474.7601],[34.622,-1.1074,1499.7026],[34.6226,-1.102,1483.2539],[34.6197,-1.091,1496.3761],[34.6142,-1.0835,1501.2635],[34.6179,-1.07,1513.1862],[34.6006,-1.0522,1506.2448],[34.5967,-1.0449,1497.6027],[34.5962,-1.0553,1515.9121],[34.5987,-1.0597,1518.634],[34.5972,-1.0614,1516.202],[34.598,-1.069,1513.2902],[34.5962,-1.0676,1514.7734],[34.5913,-1.0678,1522.6105],[34.5832,-1.0628,1518.923],[34.5763,-1.0615,1522.5613],[34.5711,-1.0547,1509.8497],[34.5583,-1.045,1512.7648],[34.5543,-1.044,1518.9534],[34.5466,-1.0459,1493.6604],[34.5465,-1.0369,1481.4854],[34.5367,-1.0349,1596.6548],[34.5331,-1.0359,1564.2247],[34.5295,-1.0344,1566.7795],[34.5015,-1.0141,1459.9351],[34.4636,-0.997,1503.5481],[34.452,-0.9904,1546.3867],[34.4504,-0.9871,1578.552],[34.4439,-0.988,1481.2374],[34.4333,-0.9935,1435.8313],[34.428,-0.9915,1474.4133],[34.4245,-0.9931,1456.5544],[34.4233,-0.9904,1488.2231],[34.4199,-0.9932,1480.9634],[34.4065,-0.991,1457.7164],[34.4027,-1.0001,1469.3937],[34.3902,-0.9929,1392.3356],[34.3853,-0.9858,1430.5048],[34.377,-0.9861,1413.2039],[34.3713,-0.9816,1422.5901],[34.3658,-0.9808,1401.127],[34.3572,-0.9734,1351.1975],[34.3514,-0.9802,1282.953],[34.3468,-0.9794,1251.7024],[34.3445,-0.9829,1259.3997],[34.3349,-0.9871,1261.1753],[34.3354,-0.99,1233.3455],[34.3332,-0.9924,1212.5378],[34.3335,-0.9942,1216.3755],[34.3361,-0.993,1217.6276],[34.3399,-0.994,1265.1571],[34.3407,-0.9969,1260.9265],[34.3468,-0.999,1280.6191],[34.3485,-1.0034,1240.4579],[34.3545,-1.0015,1291.0457],[34.3588,-1.006,1274.318],[34.3607,-1.0015,1259.0726],[34.3655,-1.0048,1290.866],[34.3697,-1.0025,1321.0591],[34.3713,-1.0079,1286.0295],[34.3733,-1.0038,1314.1539],[34.3779,-1.0065,1283.5698],[34.3784,-1.0027,1327.5907],[34.3837,-1.0054,1302.7745],[34.3839,-1.0114,1258.0905],[34.3803,-1.0192,1302.0289],[34.3824,-1.0223,1293.4036],[34.3786,-1.029,1331.4011],[34.3775,-1.0343,1414.6367],[34.3758,-1.0343,1414.6367],[34.3727,-1.039,1341.7661],[34.374,-1.0452,1319.0382],[34.3778,-1.0438,1331.3198],[34.3853,-1.0462,1329.6056],[34.3881,-1.051,1319.4089],[34.4009,-1.06,1335.7947],[34.4126,-1.0721,1350.0195],[34.4317,-1.0757,1379.1434],[34.4346,-1.0783,1366.4614],[34.4422,-1.0724,1430.494],[34.4405,-1.0691,1422.4377],[34.4398,-1.0546,1376.4],[34.4425,-1.0425,1360.2823],[34.4463,-1.0438,1383.6587],[34.4476,-1.0471,1368.3284],[34.4502,-1.0465,1391.6965],[34.4572,-1.0514,1369.623],[34.4601,-1.0494,1384.4634],[34.4604,-1.0457,1406.6204],[34.4643,-1.0498,1394.0015],[34.4633,-1.0521,1365.767],[34.4644,-1.0559,1357.8167],[34.4669,-1.057,1378.7593],[34.468,-1.0599,1355.9032],[34.4717,-1.0611,1370.6062],[34.4695,-1.0712,1364.9656],[34.4731,-1.074,1373.6284],[34.4732,-1.0773,1378.5515],[34.4757,-1.077,1383.6733],[34.4764,-1.0787,1385.5255],[34.4752,-1.0816,1372.1476],[34.4734,-1.0803,1362.6289],[34.4695,-1.0833,1388.7139],[34.4716,-1.0859,1375.1499],[34.4733,-1.0855,1368.0228],[34.4717,-1.0906,1364.9606],[34.4786,-1.088,1378.6212],[34.4782,-1.09,1377.9364],[34.4824,-1.0912,1385.1504],[34.4875,-1.0975,1375.5281],[34.4962,-1.0986,1397.511],[34.4969,-1.1007,1392.2299],[34.5065,-1.101,1398.2664],[34.51,-1.1036,1390.3196],[34.512,-1.0983,1390.1145],[34.514,-1.0983,1394.0248],[34.5196,-1.1008,1407.9847],[34.5272,-1.0992,1421.8164],[34.5382,-1.102,1403.0684],[34.5515,-1.0938,1439.4392],[34.5637,-1.0915,1578.1174],[34.5784,-1.0974,1464.571],[34.6021,-1.0948,1455.3547],[34.6039,-1.0991,1449.9723],[34.6059,-1.1348,1413.7079],[34.6079,-1.1423,1403.2073]]]]}}