{"type": "Feature","bbox": [35.058,1.3617,35.2389,1.6578],"geometry": {"type": "MultiPolygon","coordinates": [[[[35.0686,1.531,1244.7643],[35.0675,1.5285,1238.0428],[35.0687,1.5254,1238.2137],[35.0634,1.5242,1245.5381],[35.0618,1.519,1244.1786],[35.0621,1.5175,1245.9506],[35.065,1.5169,1242.9645],[35.0628,1.5136,1244.2391],[35.063,1.5097,1245.3993],[35.058,1.5093,1250.1411],[35.0581,1.5057,1252.8684],[35.0625,1.5051,1246.835],[35.0893,1.4847,1476.0619],[35.0893,1.4813,1618.2632],[35.0863,1.4775,1585.1221],[35.0878,1.4721,1710.4033],[35.0863,1.4674,1610.3124],[35.0819,1.4626,1562.594],[35.0781,1.4612,1614.4116],[35.0775,1.4577,1727.7611],[35.079,1.4371,1970.0974],[35.081,1.4316,2024.2993],[35.0856,1.4258,1811.1947],[35.0853,1.4194,1689.5988],[35.08,1.4114,1847.287],[35.0859,1.4066,1856.86],[35.0886,1.401,1815.7151],[35.0874,1.3969,1640.7056],[35.081,1.3906,1603.3269],[35.0832,1.3768,1935.9309],[35.0815,1.3717,1789.7227],[35.086,1.3687,1641.915],[35.0862,1.364,1696.72],[35.0888,1.3617,1839.7788],[35.0908,1.3644,1655.0288],[35.0862,1.368,1641.915],[35.086,1.3727,1896.0764],[35.0965,1.3724,1665.8739],[35.0995,1.3738,1583.0535],[35.0996,1.3805,1589.4277],[35.102,1.3875,1612.5005],[35.1051,1.3901,1488.9745],[35.1054,1.3958,1542.9021],[35.1085,1.399,1472.8013],[35.1083,1.4006,1458.0161],[35.1129,1.4028,1435.0161],[35.1122,1.4055,1458.3025],[35.1172,1.4093,1425.2653],[35.1172,1.415,1415.7219],[35.1243,1.4205,1389.6122],[35.1247,1.4356,1373.5387],[35.1223,1.4446,1374.5737],[35.1243,1.4477,1364.6553],[35.1241,1.4534,1373.5264],[35.1271,1.4618,1342.1106],[35.1249,1.4673,1361.9351],[35.1263,1.4707,1396.9559],[35.1298,1.4712,1329.0953],[35.1307,1.4729,1337.2836],[35.1278,1.4839,1319.9714],[35.1303,1.4869,1316.6735],[35.1334,1.4878,1326.2709],[35.134,1.4862,1330.7188],[35.1357,1.4863,1331.153],[35.1369,1.4829,1342.3109],[35.1391,1.4828,1419.0364],[35.1438,1.4854,1439.7937],[35.1432,1.4878,1430.5266],[35.1527,1.4932,1435.6841],[35.1599,1.494,1539.8118],[35.16,1.4929,1541.2003],[35.1681,1.4907,1701.8073],[35.2031,1.5043,1651.4686],[35.1983,1.5053,1676.7705],[35.1927,1.5112,2016.7756],[35.1939,1.5178,1743.6508],[35.2005,1.5222,1920.3542],[35.2013,1.5248,1806.636],[35.2058,1.5251999999999999,1544.8054],[35.2114,1.5307,1438.778],[35.2176,1.5297,1705.5713],[35.2212,1.5354,1896.906],[35.2232,1.5455,1665.4265],[35.2316,1.5476,1939.3154],[35.2321,1.5546,1982.8362],[35.2268,1.5663,1903.3745],[35.2259,1.5791,1987.965],[35.2274,1.5875,1979.2393],[35.2235,1.593,1622.5123],[35.2315,1.599,1661.5864],[35.2378,1.6069,1870.2123],[35.2389,1.6119,2155.2261],[35.2367,1.6177,2068.9392],[35.2298,1.623,2157.2263],[35.2297,1.6297,2059.894],[35.2276,1.6355,1929.8154],[35.2242,1.6387,2020.1123],[35.2229,1.6578,1736.5162],[35.2224,1.6557,1819.3282],[35.2098,1.649,1421.0707],[35.1996,1.6533,1336.5483],[35.1915,1.6485,1307.8781],[35.1878,1.6496,1293.3551],[35.1822,1.6469,1272.2815],[35.1725,1.6474,1257.4934],[35.1683,1.6497,1246.5414],[35.1642,1.6499,1243.7926],[35.1574,1.6494,1236.8118],[35.1542,1.6466,1230.2118],[35.1476,1.6448,1220.427],[35.1397,1.6485,1205.5781],[35.1372,1.6448,1200.7285],[35.1354,1.647,1195.2673],[35.1322,1.6473,1190.4924],[35.132,1.6503,1189.4368],[35.1273,1.6426,1205.2791],[35.1304,1.643,1194.0629],[35.1317,1.6408,1192.6863],[35.1315,1.6301,1196.1854],[35.1276,1.628,1202.2419],[35.1251,1.6228,1202.2037],[35.1149,1.619,1214.3763],[35.1152,1.6141,1210.6848],[35.1114,1.6121,1212.031],[35.1121,1.608,1212.9469],[35.1076,1.6087,1217.99],[35.106,1.6064,1217.2878],[35.1066,1.6032,1213.9442],[35.1019,1.5996,1229.1538],[35.1036,1.5943,1212.3943],[35.0994,1.5929,1218.2085],[35.0995,1.589,1221.5576],[35.0949,1.5876999999999999,1223.6412],[35.0928,1.5842,1224.1729],[35.0906,1.5839,1228.3779],[35.0902,1.5815,1220.3763],[35.0868,1.5794,1224.6095],[35.087,1.5615,1226.687],[35.0846,1.5597,1231.969],[35.0838,1.555,1233.1798],[35.0786,1.5517,1241.8022],[35.0812,1.5484,1232.2516],[35.0787,1.5429,1234.0674],[35.0761,1.5418,1239.5835],[35.0718,1.544,1242.0555],[35.0723,1.5376,1235.0062],[35.0679,1.535,1242.0518],[35.0686,1.531,1244.7643]]]]}
,"properties": {"GID_3": "KEN.47.5.1_1","GID_0": "KEN","country": "Kenya","GID_1": "KEN.47_1","province": "WestPokot","NL_NAME_1": "NA","GID_2": "KEN.47.5_1","county": "unknown3","NL_NAME_2": "NA","city": "unknown3","VARNAME_3": "NA","NL_NAME_3": "NA","TYPE_3": "Ward","ENGTYPE_3": "Ward","CC_3": "0","HASC_3": "NA","name": "unknown3.city","area_km2": 303.1872,"hist_schema_id": "Elevation0-9000","hist_area_km2": {"1200": 8.8166,"1225": 27.9548,"1250": 40.5021,"1275": 42.9185,"1300": 37.387,"1325": 26.7687,"1350": 19.0751,"1375": 13.9885,"1400": 10.3007,"1425": 8.3932,"1450": 5.1928,"1475": 4.5993,"1500": 4.1542,"1525": 3.8363,"1550": 3.582,"1575": 3.7515,"1600": 3.582,"1625": 3.5608,"1650": 3.7515,"1675": 3.37,"1700": 3.8151,"1725": 3.0097,"1750": 2.3739,"1775": 2.4798,"1800": 2.0347,"1825": 1.9075,"1850": 2.0347,"1875": 1.632,"1900": 2.0983,"1925": 1.42,"1950": 1.0385,"1975": 0.9538,"2000": 0.5511,"2025": 0.3603,"2050": 0.3391,"2075": 0.4027,"2100": 0.5298,"2125": 0.4451,"2150": 0.1907,"2175": 0.0848}}}