{"type": "Feature","bbox": [39.5987,-3.1674,40.1735,-2.7978],"geometry": {"type": "MultiPolygon","coordinates": [[[[39.6991,-3.1108,64.0908],[39.7031,-3.1099,66.3026],[39.7053,-3.1051,87.8048],[39.7135,-3.1,116.478],[39.7199,-3.0857,108.9203],[39.7333,-3.0752,74.8409],[39.7375,-3.0477,136.615],[39.7407,-3.0413,163.457],[39.7433,-3.0395,183.0643],[39.7639,-3.0359,205.858],[39.7747,-3.0387,172.6152],[39.7805,-3.037,140.5695],[39.7931,-3.0369,159.199],[39.8016,-3.0353,135.1604],[39.8151,-3.0266,118.3707],[39.8423,-3.023,107.9309],[39.8567,-3.0299,71.9996],[39.8667,-3.032,66.2783],[39.8789,-3.037,68.2119],[39.8905,-3.0466,91.8265],[39.9099,-3.0496,89.4486],[39.9199,-3.0528,74.7556],[39.9229,-3.0555,68.1049],[39.9307,-3.055,63.4074],[39.9357,-3.0522,42.7502],[39.9468,-3.052,27.062],[39.9543,-3.0467,38.5985],[39.9573,-3.0439,40.0311],[39.9631,-3.028,82.8936],[39.9865,-3.0086,83.5356],[39.9999,-3.0038,106.854],[40.0207,-3.003,121.1292],[40.0235,-3.0046,121.0967],[40.0297,-3.0133,104.5883],[40.0297,-3.0172,106.2347],[40.0267,-3.023,96.0093],[40.0287,-3.0292,86.3439],[40.0315,-3.0323,73.421],[40.0313,-3.0346,85.1571],[40.0271,-3.0401,85.4137],[40.0145,-3.0438,59.0978],[40.0123,-3.0505,66.1009],[40.0123,-3.0693,39.7481],[40.0079,-3.0688,54.8447],[40.0113,-3.074,54.2455],[40.0125,-3.083,36.1357],[40.0125,-3.1029,52.3648],[40.0081,-3.1554,11.5],[40.0137,-3.1565,15.2486],[40.0195,-3.1556,13.0315],[40.0199,-3.149,20.0337],[40.0304,-3.1482,22.9364],[40.0407,-3.1596,10.2872],[40.0431,-3.1598,8.6122],[40.0493,-3.1558,11.6407],[40.0615,-3.1558,8.222],[40.0638,-3.1574,7.0435],[40.0633,-3.1598,5.5908],[40.0715,-3.1565,8.4518],[40.0709,-3.1394,6.5696],[40.0649,-3.1186,6.5356],[40.0702,-3.1187,6.3731],[40.0697,-3.1104,10.5361],[40.076,-3.0853,25.1406],[40.0852,-3.0806,41.7638],[40.0935,-3.0817,41.3592],[40.1057,-3.0745,31.2698],[40.1094,-3.0767,28.8832],[40.1105,-3.0878,32.8725],[40.1141,-3.0907,31.8049],[40.1175,-3.1195,30.5902],[40.1239,-3.1312,34.6593],[40.1223,-3.1385,23.2682],[40.1231,-3.1405,23.6787],[40.1262,-3.1418,32.8471],[40.1243,-3.1462,12.9239],[40.1363,-3.1611,1.9789],[40.1435,-3.1674,0.0],[40.1482,-3.1654,0.0],[40.1512,-3.1526,1.9869],[40.1637,-3.1318,1.1295],[40.1637,-3.129,1.5132],[40.1618,-3.1268,17.5265],[40.1593,-3.0968,5.8819],[40.156,-3.0904,2.2548],[40.1571,-3.0857,4.93],[40.156,-3.0832,3.6056],[40.1596,-3.0813,3.4751],[40.1613,-3.0751,8.2278],[40.1637,-3.0751,4.9907],[40.1732,-3.0693,1.6527],[40.1735,-3.0646,2.9377],[40.1673,-3.0573,7.0229],[40.1583,-3.0587,8.322],[40.1521,-3.0574,1.3311],[40.1475,-3.0592,1.9545],[40.1423,-3.0549,2.1754],[40.1413,-3.0563,2.5128],[40.1351,-3.0566,11.976],[40.1287,-3.054,28.1012],[40.1267,-3.0506,22.9295],[40.1187,-3.0518,35.5461],[40.1157,-3.0425,38.2681],[40.0861,-3.0062,45.4158],[40.0785,-3.0028,53.1689],[40.0698,-3.0031,58.1788],[40.0649,-2.9999,67.6909],[40.0562,-3.0022,68.6376],[40.0497,-2.9967,71.6262],[40.0477,-2.9911,83.4286],[40.0321,-2.9861,104.2394],[40.0229,-2.9789,120.2307],[40.0251,-2.9745,124.4677],[40.0251,-2.9701,120.8822],[40.0077,-2.9542,136.4575],[40.0099,-2.9498,137.8966],[40.0107,-2.9411,137.8869],[40.0155,-2.9405,134.6851],[40.0109,-2.9409,137.8869],[40.0071,-2.9392,136.8079],[39.9951,-2.9253,140.9476],[39.9871,-2.922,135.0893],[39.9823,-2.9122,126.4448],[39.9663,-2.8979,117.0356],[39.9625,-2.8899,118.764],[39.9617,-2.8835,141.0086],[39.9557,-2.8739,149.9571],[39.9461,-2.8495,163.1802],[39.9277,-2.8407,162.1984],[39.9225,-2.836,163.5771],[39.9079,-2.8364,163.9164],[39.9029,-2.8319,162.6916],[39.8967,-2.8297,164.0016],[39.8981,-2.8217,164.7554],[39.8931,-2.8153,172.7883],[39.8911,-2.7978,192.1172],[39.6429,-3.003,100.5905],[39.5987,-3.0415,124.8006],[39.6091,-3.0454,139.206],[39.6177,-3.0589,127.0956],[39.6217,-3.0689,127.55029999999999],[39.6263,-3.0743,118.0766],[39.6331,-3.0887,100.9503],[39.6341,-3.0931,96.616],[39.6301,-3.0923,79.0604],[39.6287,-3.0954,80.4656],[39.6295,-3.0977,76.001],[39.6391,-3.1116,71.1149],[39.6437,-3.1142,76.5925],[39.6571,-3.108,75.8865],[39.6617,-3.1092,73.1281],[39.6665,-3.1163,70.3727],[39.6721,-3.1162,69.7223],[39.6778,-3.1122,67.1543],[39.6801,-3.1146,69.8106],[39.6898,-3.114,71.0264],[39.6947,-3.1208,66.0384],[39.6991,-3.1108,64.0908]]]]}
,"properties": {"GID_3": "KEN.14.5.5_1","GID_0": "KEN","country": "Kenya","GID_1": "KEN.14_1","province": "Kilifi","NL_NAME_1": "NA","GID_2": "KEN.14.5_1","county": "Magarini","NL_NAME_2": "NA","city": "Marafa","VARNAME_3": "NA","NL_NAME_3": "NA","TYPE_3": "Ward","ENGTYPE_3": "Ward","CC_3": "80","HASC_3": "NA","name": "Marafa.city","area_km2": 959.6791,"hist_schema_id": "Elevation0-9000","hist_area_km2": {"0": 38.9757,"25": 72.1938,"50": 67.3705,"75": 116.1123,"100": 201.0401,"125": 202.8458,"150": 132.869,"175": 76.9042,"200": 36.5672,"225": 13.1702,"250": 1.6304}}}