{"type":"Feature","properties":{"GID_3":"KEN.23.3.1_1","GID_0":"KEN","country":"Kenya","GID_1":"KEN.23_1","province":"Makueni","NL_NAME_1":"NA","GID_2":"KEN.23.3_1","county":"KibweziWest","NL_NAME_2":"NA","city":"Emali/Mulala","VARNAME_3":"NA","NL_NAME_3":"NA","TYPE_3":"Ward","ENGTYPE_3":"Ward","CC_3":"436","HASC_3":"NA","name":"Emali_Mulala.city"},
"geometry":{"type": "MultiPolygon","coordinates": [[[[37.5064,-2.0949,1136.6606],[37.5085,-2.068,1098.769],[37.505,-2.063,1109.1683],[37.511,-2.0614,1092.62],[37.5128,-2.0589,1118.2898],[37.5157,-2.0623,1090.4187],[37.5196,-2.0606,1095.6803],[37.5205,-2.0636,1083.5344],[37.5254,-2.0643,1080.8549],[37.5251,-2.0604,1093.4565],[37.5306,-2.0597,1081.0334],[37.533,-2.0604,1089.959],[37.5336,-2.0625,1079.01],[37.5456,-2.0578,1076.5125],[37.5502,-2.066,1062.417],[37.5541,-2.0653,1061.2742],[37.5547,-2.0632,1062.2262],[37.5559,-2.068,1058.1321],[37.5542,-2.0703,1063.4014],[37.5574,-2.0719,1059.9327],[37.5602,-2.0708,1062.1531],[37.5608,-2.0658,1077.1932],[37.5561,-2.0595,1090.4141],[37.56,-2.0539,1092.9116],[37.562,-2.0462,1115.5612],[37.5662,-2.0195,1110.9316],[37.5414,-2.006,1140.005],[37.5391,-2.0029,1115.2419],[37.536,-2.0031,1109.1196],[37.5339,-2.0012,1102.7069],[37.5333,-1.9911,1107.1108],[37.5301,-1.9791,1104.0906],[37.5271,-1.9774,1093.0037],[37.5258,-1.9658,1105.0983],[37.5232,-1.9649,1104.9521],[37.5179,-1.9564,1136.7771],[37.5102,-1.9554,1191.0704],[37.5083,-1.9577,1228.6841],[37.5019,-1.9531,1334.6757],[37.504,-1.96,1235.2942],[37.5069,-1.962,1245.4907],[37.5087,-1.967,1131.7167],[37.5129,-1.9693,1124.4385],[37.5154,-1.9741,1103.2036],[37.5119,-1.9856,1113.3673],[37.5025,-1.987,1145.7314],[37.4924,-2.0028,1271.3568],[37.4897,-2.0006,1336.2151],[37.4734,-1.9959,1379.4838],[37.4639,-1.9971,1383.1866],[37.4579,-2.0016,1364.4508],[37.445,-2.0168,1219.957],[37.444,-2.0291,1160.6526],[37.4445,-2.0316,1152.6073],[37.4473,-2.0334,1152.6478],[37.4512,-2.0314,1170.085],[37.4505,-2.0382,1145.5093],[37.4541,-2.0374,1156.2346],[37.4565,-2.0403,1141.3353],[37.4578,-2.0367,1148.8389],[37.4609,-2.0368,1149.49],[37.4699,-2.0446,1129.8447],[37.4582,-2.0759,1170.5668],[37.4651,-2.0788,1157.9932],[37.4624,-2.0854,1157.5547],[37.4759,-2.0908,1153.2087],[37.4786,-2.0839,1154.4049],[37.5064,-2.0949,1136.6606]]]]}}