{"type": "Feature","bbox": [40.1052,-2.0397,40.4511,-1.3516],"geometry": {"type": "MultiPolygon","coordinates": [[[[40.1052,-1.5046,79.6618],[40.1105,-1.5343,78.9098],[40.1169,-1.5522,78.324],[40.1251,-1.5649,75.6577],[40.1395,-1.5783,75.4029],[40.1469,-1.5878,75.0868],[40.1523,-1.5991,74.304],[40.1567,-1.6155,74.4735],[40.1599,-1.6421,74.331],[40.1577,-1.6856,72.0392],[40.1587,-1.6956,69.8531],[40.1693,-1.7158,69.473],[40.1707,-1.7212,70.0252],[40.1695,-1.7308,68.2966],[40.1579,-1.7582,61.5698],[40.1631,-1.8183,46.1663],[40.1683,-1.8316,46.5387],[40.1791,-1.8436,44.7867],[40.1879,-1.8608,44.7015],[40.1887,-1.8715,42.8288],[40.1871,-1.9029,40.4062],[40.1897,-1.9296,33.5764],[40.1863,-1.9505,34.555],[40.1867,-1.9608,34.2096],[40.1975,-1.9827,34.2987],[40.1961,-1.9996,33.4895],[40.2063,-2.0166,32.0476],[40.2129,-2.0397,30.8056],[40.2127,-2.0375,30.6117],[40.2151,-2.0355,31.5682],[40.2987,-1.9956,46.6075],[40.3507,-1.9717,59.4907],[40.3595,-1.9684,53.5526],[40.3613,-1.9709,54.5186],[40.3595,-1.968,53.5526],[40.3623,-1.9663,56.8954],[40.4333,-1.9351,72.7668],[40.4005,-1.8901,80.0857],[40.4024,-1.8887,80.0618],[40.4005,-1.8861,78.5725],[40.4511,-1.8496,65.438],[40.3719,-1.7531,72.5789],[40.4093,-1.735,69.3926],[40.4077,-1.7318,69.6882],[40.4093,-1.731,69.6238],[40.3687,-1.65,75.9012],[40.3353,-1.5739,79.8019],[40.2431,-1.3812,86.4197],[40.2021,-1.3516,89.0175],[40.1559,-1.4204,91.1621],[40.1545,-1.4253,91.0086],[40.1775,-1.4774,87.7691],[40.1321,-1.5024,83.1123],[40.1213,-1.5039,85.1103],[40.1157,-1.5025,85.2589],[40.1052,-1.5046,79.6618]]]]}
,"properties": {"GID_3": "KEN.7.5.3_1","GID_0": "KEN","country": "Kenya","GID_1": "KEN.7_1","province": "Garissa","NL_NAME_1": "NA","GID_2": "KEN.7.5_1","county": "Ijara","NL_NAME_2": "NA","city": "Masalani","VARNAME_3": "NA","NL_NAME_3": "NA","TYPE_3": "Ward","ENGTYPE_3": "Ward","CC_3": "160","HASC_3": "NA","name": "Masalani.city","area_km2": 1525.78,"hist_schema_id": "Elevation0-9000","hist_area_km2": {"25": 49.922,"50": 270.202,"75": 1103.56,"100": 102.095}}}