{"type":"Feature","properties":{"GID_2":"KEN.38.6_1","GID_0":"KEN","country":"Kenya","GID_1":"KEN.38_1","province":"Siaya","NL_NAME_1":"NA","county":"Ugunja","VARNAME_2":"NA","NL_NAME_2":"NA","TYPE_2":"Constituency","ENGTYPE_2":"Constituency","CC_2":"233","HASC_2":"NA","name":"Ugunja.county"},
"geometry":{"type": "MultiPolygon","coordinates": [[[[34.4508,0.2109,1329.5173],[34.4462,0.2202,1346.3571],[34.4435,0.222,1340.9729],[34.436,0.22,1330.0706],[34.428,0.2166,1319.238],[34.4208,0.2081,1305.1567],[34.4111,0.2031,1293.8313],[34.4079,0.1956,1277.4006],[34.404,0.1912,1286.7449],[34.4013,0.1912,1290.623],[34.3975,0.1878,1291.0726],[34.3853,0.1832,1265.6672],[34.3847,0.1852,1265.8374],[34.3904,0.1974,1311.8063],[34.3899,0.2042,1298.4425],[34.3921,0.2115,1276.0063],[34.3905,0.2209,1255.2723],[34.3836,0.2328,1262.3621],[34.3976,0.2378,1277.4335],[34.3998,0.2441,1273.0747],[34.3976,0.248,1261.8704],[34.3975,0.254,1258.3723],[34.4009,0.2661,1241.2435],[34.3903,0.2748,1224.0956],[34.385,0.2816,1247.4072],[34.3836,0.2819,1241.5182],[34.382,0.2756,1231.0266],[34.3796,0.275,1225.448],[34.3748,0.2755,1225.5125],[34.3727,0.2791,1232.6432],[34.3698,0.2798,1234.2556],[34.3657,0.2768,1232.6188],[34.3664,0.2708,1218.6454],[34.3652,0.2684,1221.6292],[34.3545,0.2664,1227.9685],[34.3487,0.2618,1219.6393],[34.3463,0.2567,1221.2279],[34.3337,0.2569,1242.7644],[34.3264,0.2532,1223.8999],[34.3019,0.2466,1213.6477],[34.3007,0.2446,1212.4255],[34.3013,0.235,1210.0649],[34.2972,0.2272,1211.905],[34.2936,0.2237,1214.5044],[34.293,0.2188,1209.0804],[34.2867,0.2087,1215.425],[34.2781,0.2072,1230.4148],[34.2694,0.2201,1253.0253],[34.2679,0.2193,1266.165],[34.2665,0.2221,1257.2874],[34.262,0.2227,1249.9471],[34.2573,0.2278,1255.6438],[34.2513,0.2238,1249.3005],[34.2427,0.2263,1234.2596],[34.236,0.2263,1220.1343],[34.2343,0.2164,1202.5974],[34.24,0.2072,1212.3245],[34.2396,0.2049,1192.8735],[34.2419,0.2036,1197.7067],[34.2415,0.2009,1189.4592],[34.2257,0.1918,1198.3662],[34.227,0.1886,1180.0249],[34.225,0.1836,1186.2681],[34.2257,0.1747,1172.6616],[34.2217,0.1712,1177.1919],[34.219,0.171,1188.9803],[34.219,0.169,1182.8484],[34.2149,0.1664,1177.1732],[34.2173,0.1637,1163.4888],[34.2197,0.1646,1164.2952],[34.2198,0.1633,1165.7211],[34.2227,0.1632,1172.5544],[34.2226,0.1616,1175.4514],[34.2257,0.1616,1183.8245],[34.2275,0.1575,1180.6946],[34.2358,0.1534,1197.9426],[34.2413,0.1556,1206.7266],[34.2463,0.1547,1204.2789],[34.2488,0.156,1212.5602],[34.2512,0.1543,1207.0502],[34.2651,0.1528,1213.8289],[34.2756,0.1542,1206.4971],[34.2829,0.1587,1202.8658],[34.2844,0.1616,1209.4912],[34.2896,0.1587,1207.8284],[34.296,0.16,1207.8162],[34.3013,0.1587,1221.5098],[34.3025,0.1601,1228.624],[34.3053,0.1574,1216.9949],[34.3147,0.1556,1217.9187],[34.3233,0.1495,1218.3488],[34.3287,0.1497,1248.6371],[34.3348,0.1477,1247.303],[34.3401,0.149,1255.6217],[34.3475,0.1432,1229.306],[34.3619,0.1459,1279.9058],[34.3669,0.1494,1261.8936],[34.3821,0.1523,1321.4019],[34.3866,0.1577,1299.4125],[34.3893,0.1581,1308.8003],[34.4065,0.1471,1313.4465],[34.4141,0.14,1328.5222],[34.4166,0.1422,1320.306],[34.4169,0.1486,1308.0282],[34.4204,0.1578,1300.5735],[34.4254,0.1564,1311.0981],[34.4314,0.1581,1327.77],[34.4413,0.1698,1343.2416],[34.4376,0.1768,1332.2742],[34.4295,0.182,1300.2905],[34.4292,0.1869,1301.5508],[34.4258,0.1896,1309.9591],[34.4267,0.1924,1314.3035],[34.4292,0.1933,1307.8549],[34.4322,0.2014,1320.8256],[34.4357,0.2059,1325.8082],[34.4458,0.2071,1327.1177],[34.4508,0.2109,1329.5173]]]]}}