{"type": "Feature","bbox": [38.0631,-0.0858,39.4615,1.2107],"geometry": {"type": "MultiPolygon","coordinates": [[[[38.0813,0.7843,640.6748],[38.0803,0.7847,640.6748],[38.0785,0.7805,638.5741],[38.0822,0.7751,654.5137],[38.0805,0.7625,667.0544],[38.0847,0.7457,677.1113],[38.0815,0.7401,683.6761],[38.0779,0.7251,693.6335],[38.0707,0.7163,701.4684],[38.0655,0.7034,714.4667],[38.0643,0.6888,761.5594],[38.0657,0.6783,773.4156],[38.0631,0.6723,766.1016],[38.0945,0.5641,1151.7196],[38.1623,0.3687,787.4919],[38.1583,0.3695,793.1785],[38.1621,0.3685,787.4919],[38.1765,0.3309,766.0425],[38.1957,0.3221,707.2935],[38.1921,0.2345,658.7382],[38.1991,0.2257,645.9843],[38.2011,0.2269,644.143],[38.2127,0.2227,631.9658],[38.2203,0.2177,622.2155],[38.2297,0.2163,611.9393],[38.2355,0.2121,606.5999],[38.2389,0.2071,600.3678],[38.2447,0.2067,593.698],[38.2589,0.1935,575.3792],[38.2619,0.1923,574.8823],[38.2637,0.1851,569.6163],[38.2665,0.1819,566.6837],[38.2813,0.1731,549.127],[38.2875,0.1649,538.9232],[38.2963,0.1597,528.6635],[38.3043,0.1371,511.8186],[38.3057,0.1293,503.9803],[38.3047,0.1199,496.2657],[38.3085,0.1101,488.6781],[38.3181,0.1069,484.1439],[38.3205,0.0985,480.3519],[38.3275,0.0957,475.3999],[38.3281,0.0917,470.3965],[38.3231,0.0789,465.0814],[38.3249,0.0745,459.3342],[38.3393,0.0681,454.3789],[38.3405,0.0653,449.7806],[38.3381,0.0625,453.2012],[38.3469,0.0613,447.2601],[38.3491,0.0594,446.2049],[38.3457,0.0539,444.2746],[38.3465,0.0505,440.5957],[38.3441,0.0465,442.1236],[38.3451,0.0433,434.9527],[38.3487,0.0431,435.8916],[38.3575,0.0369,430.6248],[38.3535,0.0305,426.7793],[38.3565,0.0203,420.6059],[38.3659,0.0137,404.1644],[38.3697,0.0067,392.9441],[38.3763,0.0049,384.9949],[38.3801,-0.0032,374.1136],[38.3873,-0.0053,366.5062],[38.3939,-0.0099,358.5984],[38.3939,-0.0134,358.6311],[38.4011,-0.017,353.0609],[38.4001,-0.0236,357.1967],[38.4055,-0.0292,351.032],[38.4065,-0.0436,343.6541],[38.4109,-0.0478,344.7954],[38.4103,-0.0509,341.2094],[38.4131,-0.0514,341.3253],[38.4105,-0.0575,343.1794],[38.4119,-0.0599,340.6875],[38.4107,-0.0637,335.4671],[38.4135,-0.0664,333.8456],[38.4197,-0.0686,338.7437],[38.4263,-0.075,333.9718],[38.4329,-0.0769,337.7289],[38.4361,-0.0729,337.5638],[38.4383,-0.0724,328.886],[38.4527,-0.0849,319.8935],[38.4605,-0.0858,318.702],[38.4719,-0.0792,327.196],[38.4829,-0.076,316.792],[38.4877,-0.0701,311.5],[38.4893,-0.0609,311.7332],[38.4929,-0.0595,316.292],[38.5021,-0.0634,313.0493],[38.5119,-0.0597,309.8106],[38.5189,-0.063,309.2863],[38.5219,-0.062,307.6555],[38.5263,-0.057,310.4695],[38.5303,-0.0556,311.9484],[38.5299,-0.0451,330.7079],[38.5405,-0.0434,330.0762],[38.5421,-0.0328,324.7051],[38.5485,-0.0197,321.9008],[38.5549,-0.0174,309.3225],[38.5611,-0.0196,299.9216],[38.5693,-0.0184,295.7402],[38.5696,-0.0151,297.3884],[38.5705,-0.0198,293.0],[38.5803,-0.025,296.9048],[38.5887,-0.0265,299.6721],[38.5922,-0.0305,302.8604],[38.5977,-0.0334,295.8663],[38.6009,-0.0342,306.4731],[38.6085,-0.0296,290.8169],[38.6117,-0.0303,299.877],[38.6259,-0.0418,287.0731],[38.6361,-0.0534,285.2562],[38.6391,-0.0547,286.6234],[38.6477,-0.0538,290.9931],[38.6551,-0.0466,286.2987],[38.6753,-0.0547,279.9308],[38.6811,-0.0554,283.7968],[38.6847,-0.0521,274.125],[38.6843,-0.0474,283.3304],[38.6877,-0.0411,280.9601],[38.6905,-0.042,275.757],[38.6975,-0.0513,277.121],[38.7136,-0.0624,276.7505],[38.7277,-0.0647,261.3297],[38.7379,-0.0707,260.5172],[38.7579,-0.0733,257.0734],[38.7659,-0.0691,257.0828],[38.7607,-0.0647,261.1656],[38.7597,-0.0621,262.5216],[38.7647,-0.0554,267.8352],[38.7609,-0.0506,275.9983],[38.7513,-0.0467,278.8251],[38.7527,-0.0385,289.8421],[38.7489,-0.0305,293.8348],[38.7485,-0.0203,299.5032],[38.7423,-0.0129,308.9535],[38.7429,-0.0022,324.231],[38.7379,0.0039,332.2375],[38.7401,0.0139,357.2498],[38.7305,0.0493,392.4741],[38.7287,0.0855,418.6893],[38.7319,0.0979,432.3105],[38.7301,0.1185,449.252],[38.7321,0.1249,458.589],[38.7341,0.1469,453.6774],[38.7351,0.1495,461.2346],[38.7557,0.17,440.0434],[38.7573,0.1743,445.4322],[38.7573,0.1841,453.5194],[38.7131,0.3559,477.9789],[38.7122,0.3657,476.6095],[38.7073,0.3789,477.1125],[38.6903,0.4475,488.2749],[38.6799,0.4739,454.9406],[38.6769,0.4955,436.1609],[38.6699,0.5015,431.2599],[38.6661,0.5015,431.9475],[38.6577,0.5091,430.4924],[38.6639,0.5107,436.3985],[38.6779,0.5097,428.1989],[38.6921,0.5117,417.5066],[38.7035,0.5079,414.291],[38.7081,0.5133,412.8884],[38.7211,0.5134,410.799],[38.7205,0.5241,405.5042],[38.7231,0.5261,414.0244],[38.7351,0.5203,402.6691],[38.7433,0.5249,401.0293],[38.7491,0.5253,398.9505],[38.7543,0.5219,397.4487],[38.7557,0.5167,396.549],[38.7651,0.5133,392.9948],[38.7677,0.5175,390.6144],[38.7755,0.5199,386.7503],[38.7837,0.5271,382.8434],[38.7917,0.5413,377.2418],[38.7991,0.5445,375.2417],[38.8017,0.5505,373.4733],[38.8077,0.5553,371.0986],[38.8161,0.5717,365.9625],[38.8247,0.5811,365.1253],[38.8319,0.5859,360.6061],[38.8387,0.5871,357.8043],[38.8567,0.5989,350.7908],[38.8607,0.6005,350.3074],[38.8719,0.6007,347.5701],[38.8759,0.5957,347.5841],[38.8861,0.5973,344.006],[38.8917,0.5961,341.5636],[38.8943,0.5981,340.9479],[38.9013,0.5973,338.9706],[38.9081,0.6003,337.4583],[38.9107,0.5997,336.7538],[38.9255,0.6069,331.9902],[38.9357,0.6251,326.4215],[38.9403,0.6285,324.4035],[38.9487,0.6267,324.0518],[38.9517,0.6285,322.5304],[38.9615,0.6247,321.783],[38.9757,0.6227,319.9932],[38.9803,0.6229,316.0901],[38.9861,0.6263,315.2009],[39.0103,0.6253,322.5645],[39.0123,0.6281,319.2375],[39.0127,0.6389,306.9644],[39.0145,0.6415,307.2634],[39.0209,0.6415,307.3306],[39.0239,0.6467,307.6625],[39.0227,0.6559,301.924],[39.0257,0.6631,300.9971],[39.0275,0.6653,300.6875],[39.0319,0.6653,301.3995],[39.0351,0.6671,299.6536],[39.0377,0.6729,298.063],[39.0461,0.6775,297.9746],[39.0489,0.6837,294.4881],[39.0519,0.6855,292.9003],[39.0581,0.6857,291.2682],[39.0619,0.6831,292.2087],[39.0669,0.6829,290.2513],[39.0723,0.6787,288.4739],[39.0783,0.6791,288.9533],[39.0839,0.6769,288.7395],[39.0895,0.6809,285.3832],[39.0981,0.6811,283.051],[39.0985,0.6867,283.0216],[39.1025,0.6895,281.8701],[39.1143,0.6913,279.7678],[39.1311,0.6883,275.9388],[39.1353,0.6909,274.4815],[39.1423,0.6913,287.4435],[39.1435,0.6979,275.2958],[39.1475,0.7055,270.3701],[39.1643,0.7143,273.6708],[39.1673,0.7187,269.6644],[39.1741,0.7201,271.7933],[39.1779,0.7257,267.6167],[39.1809,0.7231,266.8227],[39.1757,0.7279,263.4065],[39.1777,0.7437,259.4162],[39.1805,0.7519,259.4886],[39.2005,0.7895,251.1594],[39.2153,0.8051,245.381],[39.2247,0.8177,241.3561],[39.2371,0.8443,234.218],[39.2497,0.8597,228.7708],[39.2679,0.8759,223.438],[39.3137,0.9249,207.6092],[39.3359,0.9375,206.2875],[39.3553,0.9511,205.0535],[39.3957,0.9685,204.2806],[39.4545,0.9891,201.1147],[39.4615,0.9955,200.976],[39.4535,1.0035,201.4908],[39.4473,1.0129,202.3559],[39.4373,1.0205,203.4341],[39.4217,1.0293,204.7013],[39.4087,1.0421,207.8248],[39.3961,1.0501,207.7388],[39.3939,1.0531,207.3082],[39.3829,1.0577,207.7616],[39.3759,1.0575,210.4171],[39.3719,1.0621,209.9861],[39.3667,1.0645,209.4572],[39.3559,1.0627,211.0842],[39.3497,1.0637,211.3564],[39.3381,1.0723,214.607],[39.3329,1.0797,213.9942],[39.3271,1.0767,214.1625],[39.3205,1.0837,213.3292],[39.3005,1.0951,214.8509],[39.2973,1.0937,215.3026],[39.2839,1.0967,216.0806],[39.2781,1.0959,216.0911],[39.2709,1.1011,216.8463],[39.2641,1.1035,217.4781],[39.2481,1.1005,219.1506],[39.2387,1.1057,220.1762],[39.2293,1.1049,220.2487],[39.2187,1.1063,222.0787],[39.2109,1.1029,222.055],[39.2075,1.1047,222.0576],[39.1947,1.1051,223.097],[39.1895,1.1095,223.5401],[39.1869,1.1093,224.0549],[39.1799,1.1197,224.8431],[39.1771,1.1243,225.7262],[39.1795,1.1301,225.783],[39.1759,1.1353,226.689],[39.1661,1.1383,227.4448],[39.1601,1.1425,227.267],[39.1449,1.1625,229.9606],[39.1379,1.1667,230.6742],[39.1365,1.1703,230.5126],[39.1237,1.1701,232.3058],[39.1207,1.1713,233.2048],[39.1167,1.1779,231.9074],[39.0935,1.1795,234.5271],[39.0841,1.1863,237.5067],[39.0655,1.1855,237.7735],[39.0481,1.1965,238.5859],[39.0421,1.1977,239.3535],[39.0407,1.2005,239.6083],[39.0366,1.2024,239.8923],[39.0269,1.2035,243.7919],[39.0203,1.2013,244.4277],[39.0121,1.2069,245.0737],[39.0021,1.2091,244.6915],[38.9855,1.2069,244.7424],[38.9771,1.2107,245.602],[38.9693,1.2055,246.5078],[38.9673,1.2065,246.4847],[38.9667,1.2037,247.656],[38.9591,1.1967,246.5323],[38.9403,1.1921,249.0296],[38.9351,1.1959,249.2753],[38.9329,1.1953,252.1151],[38.9251,1.2037,251.5615],[38.9143,1.1927,251.8234],[38.9069,1.1901,252.0312],[38.9013,1.1899,254.6078],[38.9001,1.1921,253.2619],[38.8931,1.1939,253.355],[38.8835,1.1991,257.2347],[38.8742,1.1965,256.8983],[38.8614,1.1957,260.881],[38.8589,1.1991,258.3223],[38.8577,1.1929,259.8454],[38.8511,1.1945,260.9655],[38.8513,1.1921,260.6523],[38.8494,1.19,263.554],[38.8413,1.1887,263.0333],[38.8299,1.1797,264.9651],[38.8291,1.1841,263.0402],[38.8217,1.1815,263.0296],[38.8219,1.1779,264.3194],[38.8195,1.1783,263.2102],[38.8151,1.1705,263.7516],[38.8113,1.1695,263.4049],[38.8068,1.1647,263.2803],[38.7977,1.1639,264.637],[38.7963,1.1601,265.6304],[38.7927,1.1611,267.2023],[38.7915,1.1569,267.6777],[38.7875,1.1567,267.5385],[38.7863,1.1543,267.6797],[38.7839,1.1553,267.7128],[38.7825,1.1531,267.8524],[38.7789,1.1533,267.8734],[38.7771,1.1501,268.4963],[38.7777,1.1475,271.1497],[38.7739,1.1439,269.9385],[38.7717,1.1451,270.3713],[38.7717,1.1475,269.3959],[38.7657,1.1441,269.9445],[38.7641,1.1407,270.6151],[38.758,1.1413,270.374],[38.7549,1.1373,270.9667],[38.7565,1.1339,271.6668],[38.7493,1.1321,272.3904],[38.7467,1.1265,273.3989],[38.7443,1.1251,273.1068],[38.7435,1.1073,275.3081],[38.7411,1.1055,275.4454],[38.7367,1.1093,275.6695],[38.7285,1.1049,276.6467],[38.7321,1.0985,277.5686],[38.7289,1.0941,279.0086],[38.7239,1.0925,278.8472],[38.7231,1.0777,281.1922],[38.7191,1.0721,281.9735],[38.7155,1.0707,282.3633],[38.7099,1.0749,283.5233],[38.7025,1.0733,284.6581],[38.6995,1.0709,285.8151],[38.6965,1.0725,288.6806],[38.6941,1.0687,289.6024],[38.6885,1.0652,289.3615],[38.6889,1.0615,288.8915],[38.6875,1.0597,288.86],[38.6701,1.0497,291.0219],[38.6718,1.0446,292.3039],[38.6697,1.0467,291.3789],[38.6641,1.0451,294.473],[38.6605,1.0383,295.0387],[38.6571,1.0369,299.623],[38.6573,1.0341,297.0941],[38.6605,1.0305,294.2104],[38.6597,1.0275,300.3389],[38.6559,1.0303,298.8267],[38.6537,1.0241,299.5905],[38.651,1.0255,299.0024],[38.6453,1.0207,300.2155],[38.6409,1.0219,301.7025],[38.6351,1.0205,303.4712],[38.6349,1.0173,303.8758],[38.6311,1.0165,303.5068],[38.6297,1.0193,304.2302],[38.6255,1.0151,304.2551],[38.6201,1.0175,304.3208],[38.6165,1.0155,305.3741],[38.6133,1.0165,306.8878],[38.6097,1.0217,306.7041],[38.6079,1.0201,307.9608],[38.6043,1.0235,306.718],[38.5943,1.0239,310.515],[38.5867,1.0279,311.7777],[38.5835,1.0245,310.9324],[38.5779,1.0245,314.1539],[38.5681,1.0081,313.3913],[38.5683,0.9975,315.0931],[38.5641,0.9925,316.0182],[38.5657,0.9889,316.7367],[38.5651,0.9859,319.1768],[38.5617,0.9835,320.7974],[38.5653,0.9759,318.647],[38.5621,0.9739,320.7612],[38.5613,0.9709,321.9052],[38.5661,0.9633,324.3663],[38.5621,0.9583,326.4472],[38.5639,0.9557,324.2281],[38.5633,0.9533,324.4672],[38.5587,0.9507,328.519],[38.5587,0.9393,325.7638],[38.5449,0.9195,333.0006],[38.5337,0.9169,336.502],[38.5305,0.9145,337.0178],[38.5279,0.9053,336.7237],[38.5245,0.9005,338.8899],[38.5241,0.8905,340.5314],[38.5195,0.8841,337.4321],[38.5143,0.8815,344.9645],[38.5147,0.8741,341.4156],[38.5111,0.8649,350.2611],[38.5073,0.8655,347.9275],[38.4997,0.8711,371.1586],[38.4973,0.8693,352.0704],[38.4911,0.8759,352.2047],[38.4845,0.8779,354.386],[38.4747,0.8712,360.7602],[38.4761,0.8685,354.6404],[38.4751,0.8657,360.4307],[38.4719,0.8653,359.8996],[38.4531,0.8699,362.3829],[38.4509,0.8655,363.9045],[38.4477,0.8645,363.1683],[38.4437,0.8677,365.6949],[38.4401,0.8683,369.5877],[38.4365,0.8685,365.6501],[38.4295,0.8659,370.3598],[38.4235,0.8681,366.0],[38.4129,0.8655,371.3953],[38.4113,0.8679,375.7604],[38.4085,0.8685,377.0559],[38.4007,0.8621,378.9125],[38.3953,0.8655,373.0],[38.3931,0.8643,376.5408],[38.3943,0.8547,379.6408],[38.3929,0.8515,379.2681],[38.3871,0.8469,386.4192],[38.3827,0.8459,385.749],[38.3761,0.8555,389.044],[38.3703,0.8549,386.0582],[38.3643,0.8427,391.3142],[38.3627,0.8339,392.6668],[38.3609,0.8311,398.392],[38.3584,0.8302,400.8241],[38.3447,0.8405,408.9976],[38.3409,0.8417,411.3131],[38.3379,0.8407,408.1242],[38.3343,0.8367,416.8105],[38.3313,0.8369,418.8799],[38.3237,0.8431,436.1419],[38.3127,0.8309,463.9656],[38.3111,0.8265,468.4711],[38.3029,0.827,475.4555],[38.2893,0.8239,486.0866],[38.2865,0.8239,488.1709],[38.2783,0.8293,493.6208],[38.2715,0.8293,496.9524],[38.2671,0.8311,500.1782],[38.2639,0.8303,504.942],[38.2601,0.8255,503.2555],[38.2575,0.8249,507.9238],[38.2519,0.8257,515.1841],[38.2449,0.8331,518.7734],[38.2355,0.8315,522.4089],[38.2323,0.8293,519.9274],[38.2205,0.8295,534.4163],[38.2157,0.8333,540.7141],[38.2105,0.8337,542.0736],[38.2029,0.8285,541.5076],[38.1939,0.8251,553.4141],[38.1789,0.8291,582.4587],[38.1747,0.8271,561.9185],[38.1707,0.8283,571.2804],[38.1601,0.8253,583.6911],[38.1558,0.8165,581.8402],[38.1501,0.8107,598.5735],[38.1399,0.8109,595.376],[38.1395,0.8157,601.6164],[38.1353,0.8143,598.3305],[38.1333,0.8169,596.9688],[38.1191,0.8193,610.3214],[38.1169,0.8163,602.11],[38.1043,0.8129,612.048],[38.0957,0.8051,615.4525],[38.0885,0.8045,618.9331],[38.0861,0.8029,623.5412],[38.0833,0.7951,637.5578],[38.0845,0.7911,621.6705],[38.0813,0.7843,640.6748]]]]}
,"properties": {"GID_2": "KEN.9.2_1","GID_0": "KEN","country": "Kenya","GID_1": "KEN.9_1","province": "Isiolo","NL_NAME_1": "NA","county": "IsioloSouth","VARNAME_2": "NA","NL_NAME_2": "NA","TYPE_2": "Constituency","ENGTYPE_2": "Constituency","CC_2": "50","HASC_2": "NA","name": "Isiolo_South.county","area_km2": 10122.964,"hist_schema_id": "Elevation0-9000","hist_area_km2": {"200": 204.337,"225": 662.95,"250": 778.228,"275": 695.189,"300": 620.857,"325": 630.921,"350": 611.917,"375": 540.054,"400": 434.053,"425": 394.176,"450": 433.676,"475": 528.895,"500": 617.516,"525": 569.069,"550": 419.849,"575": 367.523,"600": 334.365,"625": 282.824,"650": 223.906,"675": 174.253,"700": 164.31,"725": 126.825,"750": 91.674,"775": 65.024,"800": 43.229,"825": 33.519,"850": 21.35,"875": 20.268,"900": 14.608,"925": 7.23,"950": 3.286,"975": 2.968,"1000": 2.756,"1025": 0.636,"1050": 0.212,"1075": 0.106,"1100": 0.106,"1125": 0.191}}}