{"type":"Feature","properties":{"GID_3":"KEN.23.6.3_1","GID_0":"KEN","country":"Kenya","GID_1":"KEN.23_1","province":"Makueni","NL_NAME_1":"NA","GID_2":"KEN.23.6_1","county":"Mbooni","NL_NAME_2":"NA","city":"Kithungo/Kitundu","VARNAME_3":"NA","NL_NAME_3":"NA","TYPE_3":"Ward","ENGTYPE_3":"Ward","CC_3":"413","HASC_3":"NA","name":"Kithungo_Kitundu.city"},
"geometry":{"type": "MultiPolygon","coordinates": [[[[37.4354,-1.7217,1302.1141],[37.4393,-1.7265,1287.8899],[37.4413,-1.725,1311.0312],[37.4434,-1.7265,1290.163],[37.4428,-1.7282,1294.693],[37.4462,-1.7271,1332.549],[37.4455,-1.7295,1292.6982],[37.4478,-1.7297,1282.567],[37.4474,-1.732,1279.0642],[37.4495,-1.7333,1275.8469],[37.455,-1.7359,1299.4919],[37.4609,-1.7364,1280.1232],[37.4734,-1.7345,1276.8654],[37.4736,-1.7323,1297.8823],[37.4754,-1.7345,1280.8962],[37.4772,-1.7333,1269.965],[37.4828,-1.7339,1259.0154],[37.4841,-1.7301,1269.7258],[37.4872,-1.7343,1281.8594],[37.4892,-1.7344,1291.1672],[37.4913,-1.7307,1250.1786],[37.4903,-1.7293,1260.11],[37.4922,-1.7256,1272.463],[37.494,-1.7262,1263.0247],[37.494,-1.7241,1267.5894],[37.5028,-1.7215,1267.4537],[37.5201,-1.7201,1748.0068],[37.5197,-1.7047,1622.4036],[37.5228,-1.6955,1584.3306],[37.522,-1.694,1564.1599],[37.5209,-1.6947,1674.3113],[37.5204,-1.6909,1657.5129],[37.5221,-1.6734,1637.1963],[37.5201,-1.6681,1500.1907],[37.5149,-1.6653,1324.8921],[37.5103,-1.6582,1293.0056],[37.5077,-1.6573,1278.9431],[37.5067,-1.654,1271.8251],[37.51,-1.6495,1299.3752],[37.5061,-1.6334,1244.9988],[37.5083,-1.6274,1240.5197],[37.5065,-1.6198,1240.8513],[37.5076,-1.6176,1239.1665],[37.4984,-1.6175,1269.4111],[37.4973,-1.6203,1282.8081],[37.4952,-1.621,1308.7979],[37.4951,-1.6253,1312.9856],[37.4882,-1.6244,1354.5449],[37.4709,-1.6615,1792.2864],[37.4614,-1.6637,1882.7264],[37.4613,-1.6745,1835.2094],[37.4535,-1.6706,1883.8899],[37.444,-1.6725,1751.8656],[37.4396,-1.6773,1707.911],[37.4243,-1.6792,1709.7771],[37.4167,-1.6877,1345.3616],[37.4199,-1.6931,1325.7983],[37.4207,-1.6985,1326.7396],[37.4235,-1.7002,1335.1604],[37.4245,-1.703,1325.6521],[37.4288,-1.7051,1321.6564],[37.4346,-1.7141,1305.6859],[37.4331,-1.7182,1306.4932],[37.4354,-1.7184,1313.379],[37.4354,-1.7217,1302.1141]]]]}}