{"type": "Feature","bbox": [36.0754,2.0436,36.7239,2.834],"geometry": {"type": "MultiPolygon","coordinates": [[[[36.3855,2.834,363.8289],[36.3777,2.8332,395.9987],[36.3772,2.8304,395.6731],[36.3745,2.8283,414.4657],[36.3734,2.8182,463.3024],[36.365,2.8131,551.4271],[36.3652,2.8111,587.1091],[36.3619,2.8069,544.0544],[36.3603,2.7981,519.6138],[36.357,2.7945,557.0979],[36.3593,2.7904,564.038],[36.3584,2.786,547.323],[36.3471,2.7728,472.5943],[36.3413,2.7607,471.9888],[36.3408,2.7537,466.4382],[36.344,2.739,474.2316],[36.3437,2.7322,473.9565],[36.339,2.7232,467.7943],[36.3308,2.714,455.1918],[36.3321,2.7087,456.3831],[36.3402,2.6991,464.4525],[36.3423,2.6925,469.1935],[36.3367,2.6589,483.0657],[36.3367,2.6014,494.63],[36.3364,2.5947,489.2407],[36.3334,2.5882,490.9694],[36.3278,2.5821,483.0499],[36.3203,2.578,481.3874],[36.261,2.5509,462.2004],[36.25,2.5429,455.9393],[36.2374,2.5301,460.7046],[36.2202,2.5331,469.4991],[36.2153,2.531,470.2859],[36.2067,2.5233,476.1722],[36.1927,2.5157,480.6525],[36.1821,2.5075,482.909],[36.166,2.5053,488.8798],[36.1567,2.5,494.2076],[36.1531,2.4949,495.4126],[36.1423,2.4902,499.3304],[36.1358,2.4823,501.0703],[36.1282,2.4773,505.2675],[36.118,2.4745,510.3233],[36.1086,2.4695,512.3413],[36.0953,2.4664,514.489],[36.0915,2.4624,517.8879],[36.0912,2.4567,519.5312],[36.0967,2.4471,523.6447],[36.0978,2.4424,520.7547],[36.0866,2.4066,535.5238],[36.0828,2.3529,574.261],[36.0758,2.3053,560.2791],[36.0754,2.2933,562.5081],[36.0763,2.2901,570.9333],[36.0823,2.2861,566.1096],[36.0913,2.2861,548.075],[36.0939,2.2845,549.7959],[36.1094,2.2653,532.798],[36.1194,2.2562,527.6953],[36.1239,2.249,525.6956],[36.1252,2.234,526.0041],[36.1236,2.2131,521.3589],[36.116,2.1794,532.317],[36.1097,2.1236,550.4795],[36.0952,2.0635,563.502],[36.0931,2.062,565.0258],[36.1585,2.0476,549.7739],[36.2006,2.0436,545.4061],[36.2409,2.0467,546.7153],[36.2584,2.0534,548.8854],[36.2731,2.0552,550.8365],[36.2899,2.056,555.0535],[36.3086,2.0531,583.0999],[36.3288,2.0541,665.9894],[36.3367,2.0573,710.082],[36.3508,2.0689,775.4713],[36.3572,2.0714,781.4632],[36.3763,2.0713,663.3383],[36.3882,2.069,440.0245],[36.4086,2.0708,370.3102],[36.425,2.0679,314.1487],[36.4325,2.0711,304.6226],[36.4439,2.0713,291.9737],[36.4524,2.0754,285.5374],[36.5671,2.0767,332.7883],[36.5661,2.085,284.6891],[36.5676,2.0965,405.2028],[36.5647,2.1084,293.2385],[36.5806,2.1258,327.544],[36.585,2.1409,421.711],[36.5879,2.1458,397.8524],[36.595,2.1464,392.4793],[36.5996,2.1536,367.8409],[36.6111,2.1629,424.4269],[36.6132,2.1629,434.1456],[36.6128,2.161,446.8107],[36.6206,2.1654,438.73],[36.6365,2.1682,443.8156],[36.6487,2.1731,497.0116],[36.6587,2.1789,515.8934],[36.6708,2.1909,628.558],[36.6814,2.1973,857.7685],[36.6875,2.2001,927.7974],[36.7004,2.2027,747.6377],[36.7026,2.2055,819.2864],[36.7004,2.2176,823.8734],[36.7041,2.2215,996.9576],[36.7115,2.2241,1067.1643],[36.7124,2.2367,1071.5726],[36.7104,2.2407,965.3952],[36.7139,2.246,1126.5586],[36.7143,2.2555,1340.6729],[36.7127,2.2611,1340.0242],[36.7086,2.2643,1192.2173],[36.7151,2.2672,1094.946],[36.7236,2.276,1255.0364],[36.722,2.2859,1379.4178],[36.7239,2.292,1253.6626],[36.7233,2.3026,1076.3774],[36.6013,2.3608,556.1067],[36.6013,2.4095,375.48],[36.6025,2.4092,362.0],[36.5933,2.4171,396.4037],[36.5917,2.4172,426.9734],[36.5893,2.4132,421.0485],[36.5855,2.4109,382.9656],[36.5795,2.4109,379.7296],[36.5761,2.408,392.7303],[36.5682,2.4086,362.0],[36.5664,2.4039,383.9132],[36.5604,2.4006,370.8176],[36.5527,2.4027,362.5659],[36.5478,2.4072,362.0],[36.5418,2.4084,365.1946],[36.5388,2.4119,368.2359],[36.532,2.4361,362.0],[36.5244,2.451,362.0],[36.5249,2.4595,362.0],[36.5295,2.4735,362.0],[36.5275,2.4867,384.5205],[36.5279,2.4921,370.3677],[36.5311,2.5005,374.7248],[36.5302,2.5264,362.0],[36.5248,2.5304,362.0],[36.5149,2.5605,366.1186],[36.4935,2.5761,363.6815],[36.4743,2.6017,363.0154],[36.4729,2.6093,363.7963],[36.4639,2.6097,387.8253],[36.4535,2.6128999999999998,375.0602],[36.4383,2.6341,371.8101],[36.4381,2.6433,362.0],[36.4347,2.6523,392.9225],[36.4361,2.6693,362.0],[36.4339,2.683,362.0],[36.4381,2.6955,366.5551],[36.4473,2.7095,362.0],[36.4392,2.7156,362.0],[36.4322,2.7187,362.0],[36.4293,2.723,362.0],[36.4213,2.7405,362.0],[36.4219,2.7496,362.0],[36.4187,2.7675,362.0],[36.4132,2.7736,362.0],[36.4117,2.7784,362.0],[36.3963,2.8039,362.0],[36.3882,2.8216,362.0],[36.3855,2.834,363.8289]]]]}
,"properties": {"GID_3": "KEN.43.3.2_1","GID_0": "KEN","country": "Kenya","GID_1": "KEN.43_1","province": "Turkana","NL_NAME_1": "NA","GID_2": "KEN.43.3_1","county": "TurkanaEast","NL_NAME_2": "NA","city": "Katilia","VARNAME_3": "NA","NL_NAME_3": "NA","TYPE_3": "Ward","ENGTYPE_3": "Ward","CC_3": "639","HASC_3": "NA","name": "Katilia.city","area_km2": 3346.57,"hist_schema_id": "Elevation0-9000","hist_area_km2": {"275": 228.27,"300": 67.777,"325": 40.954,"350": 36.184,"375": 34.891,"400": 34.34,"425": 35.569,"450": 50.269,"475": 180.303,"500": 189.606,"525": 250.14,"550": 327.824,"575": 204.242,"600": 160.22,"625": 118.677,"650": 102.831,"675": 102.048,"700": 85.84,"725": 71.816,"750": 69.824,"775": 67.112,"800": 61.795,"825": 67.62,"850": 75.077,"875": 72.64,"900": 72.068,"925": 79.355,"950": 71.58,"975": 65.543,"1000": 52.05,"1025": 47.136,"1050": 38.853,"1075": 34.807,"1100": 26.948,"1125": 28.579,"1150": 29.596,"1175": 24.236,"1200": 18.431,"1225": 10.847,"1250": 4.576,"1275": 2.902,"1300": 1.822,"1325": 0.89,"1350": 0.424,"1375": 0.064}}}