{"type":"Feature","properties":{"GID_3":"KEN.1.7.1_1","GID_0":"KEN","country":"Kenya","GID_1":"KEN.1_1","province":"Baringo","NL_NAME_1":"NA","GID_2":"KEN.1.7_1","county":"Tiaty","NL_NAME_2":"NA","city":"Churo/Amaya","VARNAME_3":"NA","NL_NAME_3":"NA","TYPE_3":"Ward","ENGTYPE_3":"Ward","CC_3":"787","HASC_3":"NA","name":"Churo_Amaya.city"},
"geometry":{"type": "MultiPolygon","coordinates": [[[[36.2779,0.637,1289.1261],[36.2891,0.6507,1672.9731],[36.3474,0.666,1875.541],[36.4047,0.7229,1895.8439],[36.469,0.8264,1844.0464],[36.4754,0.8431,1685.702],[36.4901,0.8523,1631.082],[36.4883,0.855,1622.4404],[36.4817,0.8573,1610.4189],[36.4789,0.8611,1608.5311],[36.4716,0.8649,1594.4644],[36.4706,0.868,1595.5166],[36.4645,0.8697,1584.4128],[36.4625,0.8735,1587.058],[36.4563,0.8765,1586.3497],[36.4457,0.8759,1593.8206],[36.4297,0.889,1572.3779],[36.4235,0.8977,1542.739],[36.4246,0.9023,1571.1248],[36.4191,0.9065,1572.9777],[36.4174,0.9073,1512.5952],[36.4162,0.9055,1469.4248],[36.4109,0.9041,1449.5576],[36.4065,0.9056,1451.2202],[36.4035,0.9048,1450.4456],[36.3958,0.91,1503.6547],[36.396,0.9132,1488.6696],[36.3939,0.914,1324.2788],[36.3952,0.9156,1350.7927],[36.3929,0.9171,1280.5997],[36.3939,0.9248,1490.9111],[36.388,0.931,1313.0151],[36.3886,0.9355,1197.311],[36.379,0.9364,1440.1575],[36.3695,0.932,1407.6772],[36.367,0.9258,1406.0114],[36.3692,0.9158,1473.3655],[36.3664,0.905,1646.9513],[36.354,0.8961,1369.9659],[36.3527,0.8883,1454.1602],[36.3483,0.885,1368.166],[36.3481,0.8821,1367.3972],[36.3389,0.8806,1330.1201],[36.335,0.8743,1343.3966],[36.311,0.8034,1337.2561],[36.3113,0.8001,1365.4551],[36.3038,0.7981,1338.229],[36.2928,0.7982,1246.0955],[36.2873,0.7938,1240.802],[36.2828,0.7741,1303.4436],[36.2832,0.7663,1258.1283],[36.2772,0.7607,1278.9067],[36.2756,0.7557,1214.6221],[36.2649,0.7392,1192.4176],[36.2525,0.7299,1162.887],[36.2514,0.7184,1148.6552],[36.2527,0.7106,1160.9631],[36.2504,0.7111,1150.0417],[36.2467,0.7091,1135.8127],[36.2453,0.7032,1129.2224],[36.2347,0.6924,1122.1738],[36.2236,0.689,1119.6927],[36.2166,0.6847,1124.8652],[36.2206,0.6732,1129.1479],[36.2212,0.6603,1138.7491],[36.2248,0.649,1146.5405],[36.244,0.6464,1167.4688],[36.2496,0.647,1175.5066],[36.2588,0.6505,1188.2377],[36.2648,0.6548,1202.5762],[36.2779,0.637,1289.1261]]]]}}