{"type":"Feature","properties":{"GID_3":"KEN.45.4.1_1","GID_0":"KEN","country":"Kenya","GID_1":"KEN.45_1","province":"Vihiga","NL_NAME_1":"NA","GID_2":"KEN.45.4_1","county":"Sabatia","NL_NAME_2":"NA","city":"Busali","VARNAME_3":"NA","NL_NAME_3":"NA","TYPE_3":"Ward","ENGTYPE_3":"Ward","CC_3":"1060","HASC_3":"NA","name":"Busali.city"},
"geometry":{"type": "MultiPolygon","coordinates": [[[[34.7615,0.1434,1498.1865],[34.7608,0.1394,1516.0597],[34.7639,0.1382,1535.5354],[34.7626,0.1343,1555.7838],[34.7692,0.131,1570.2439],[34.7727,0.1337,1569.8801],[34.7777,0.1349,1551.6375],[34.7795,0.1372,1541.3698],[34.7806,0.1336,1564.6475],[34.7872,0.1314,1596.6552],[34.7894,0.1291,1603.5259],[34.7908,0.1301,1603.5259],[34.7945,0.1291,1612.0022],[34.7985,0.1325,1599.9746],[34.8102,0.1255,1634.1906],[34.8201,0.1241,1637.3716],[34.8187,0.1252,1637.3716],[34.8252,0.1336,1586.4497],[34.8241,0.143,1559.0883],[34.8279,0.1465,1528.5763],[34.8269,0.1491,1525.3545],[34.8195,0.1516,1561.037],[34.8185,0.1539,1541.6918],[34.8217,0.1548,1538.7727],[34.8257,0.1532,1539.0195],[34.8279,0.1562,1521.7808],[34.8256,0.1574,1530.2612],[34.8253,0.1624,1568.1072],[34.8168,0.164,1534.6509],[34.8167,0.1584,1515.5701],[34.8114,0.1568,1535.0887],[34.8076,0.1595,1515.0748],[34.8061,0.1649,1512.7644],[34.8039,0.167,1517.6796],[34.7968,0.1674,1523.3337],[34.7939,0.1632,1518.9729],[34.7905,0.1616,1488.3428],[34.7879,0.1624,1472.0786],[34.7877,0.1643,1476.9308],[34.7811,0.1613,1483.8933],[34.781,0.1579,1469.1423],[34.7764,0.1533,1489.783],[34.77,0.1573,1447.511],[34.7659,0.1548,1468.8276],[34.7669,0.1502,1501.9897],[34.7615,0.1434,1498.1865]]]]}}