{"type": "Feature","bbox": [34.705,-0.4103,35.0514,-0.2189],"geometry": {"type": "MultiPolygon","coordinates": [[[[34.9694,-0.407,1472.7887],[34.9752,-0.4039,1522.3809],[34.9813,-0.4085,1501.4194],[34.9837,-0.4071,1520.7988],[34.9868,-0.4083,1484.7853],[34.9881,-0.4034,1530.5],[34.9979,-0.3993,1532.4521],[35.0025,-0.3996,1512.7616],[35.0046,-0.3945,1540.8073],[35.0072,-0.3932,1514.7974],[35.0069,-0.3897,1544.0621],[35.0106,-0.3854,1521.734],[35.0068,-0.3701,1405.4943],[35.0059,-0.3547,1339.6919],[35.0046,-0.353,1333.605],[35.0059,-0.3485,1317.9727],[35.004,-0.3447,1326.9846],[35.0059,-0.3432,1304.0864],[35.0064,-0.3379,1290.7056],[35.0048,-0.3322,1310.6652],[35.0083,-0.3306,1275.2588],[35.0067,-0.33,1283.861],[35.0073,-0.3265,1274.6318],[35.0236,-0.3182,1284.8799],[35.0469,-0.2966,1262.2354],[35.051,-0.2884,1267.2527],[35.0514,-0.2766,1277.9578],[35.0461,-0.2758,1258.7522],[35.042,-0.2774,1250.5176],[35.0399,-0.2756,1243.3872],[35.0294,-0.2796,1224.8445],[35.0235,-0.275,1211.3245],[35.0157,-0.2755,1199.5312],[35.0145,-0.2742,1195.1611],[35.016,-0.2734,1199.4312],[35.0151,-0.2718,1194.7312],[35.0088,-0.2714,1190.4336],[35.0065,-0.2678,1185.8989],[35.0047,-0.2682,1184.7114],[35.0033,-0.2647,1182.8706],[35.0026,-0.2656,1181.9865],[35.0,-0.2635,1179.4451],[35.0002,-0.2602,1177.9067],[34.9965,-0.259,1172.3281],[34.994,-0.2552,1170.1227],[34.9954,-0.2526,1169.371],[34.9905,-0.2519,1167.3669],[34.9842,-0.2484,1161.4467],[34.9807,-0.2488,1160.7736],[34.9793,-0.2415,1157.3607],[34.9742,-0.2326,1152.1418],[34.9696,-0.2331,1150.2543],[34.9691,-0.2356,1150.8943],[34.967,-0.2339,1149.7253],[34.9659,-0.2348,1150.6198],[34.9622,-0.2311,1148.1223],[34.9603,-0.2318,1147.9301],[34.9574,-0.2278,1146.0283],[34.9418,-0.2189,1142.178],[34.9401,-0.2191,1142.6272],[34.9393,-0.2225,1142.3708],[34.9371,-0.2231,1142.3623],[34.9337,-0.2286,1142.2025],[34.9268,-0.2313,1142.368],[34.9188,-0.2307,1141.064],[34.9107,-0.2445,1138.6675],[34.8836,-0.2625,1136.6978],[34.8807,-0.2697,1136.0375],[34.8779,-0.2695,1135.96],[34.876,-0.2714,1136.3489],[34.8761,-0.2774,1135.6078],[34.8675,-0.2879,1137.6753],[34.8624,-0.2897,1136.595],[34.8591,-0.2892,1136.608],[34.8519,-0.2924,1133.0],[34.836,-0.2907,1133.0],[34.8286,-0.2878,1133.0],[34.7915,-0.2622,1133.0],[34.7729,-0.2539,1133.0],[34.7602,-0.2516,1133.0],[34.7402,-0.2508,1133.0],[34.705,-0.2528,1133.0],[34.7552,-0.2856,1133.0],[34.7558,-0.2905,1133.0],[34.7583,-0.2921,1133.0],[34.7574,-0.3009,1136.7864],[34.7606,-0.3079,1135.1116],[34.7629,-0.306,1135.7472],[34.7654,-0.3076,1135.3975],[34.7683,-0.3045,1135.6924],[34.7688,-0.3066,1136.0217],[34.7731,-0.3087,1136.9526],[34.7756,-0.312,1138.6055],[34.7795,-0.3117,1137.4895],[34.7816,-0.3175,1137.2415],[34.7832,-0.315,1136.8956],[34.7837,-0.3165,1137.129],[34.7856,-0.3166,1136.9857],[34.7843,-0.3177,1137.129],[34.7871,-0.3192,1137.5626],[34.7879,-0.3238,1137.8206],[34.7904,-0.3254,1138.1427],[34.7881,-0.3269,1137.9565],[34.7852,-0.3259,1137.9135],[34.7826,-0.3281,1138.2146],[34.7858,-0.3322,1138.5549],[34.7857,-0.3366,1138.73],[34.7885,-0.3374,1138.8849],[34.7923,-0.3355,1138.7085],[34.7935,-0.3381,1140.3303],[34.7905,-0.3422,1140.0486],[34.7963,-0.3443,1139.7559],[34.7993,-0.3488,1145.0184],[34.8076,-0.3489,1146.7162],[34.8096,-0.3451,1143.6797],[34.811,-0.3457,1143.8944],[34.8106,-0.3503,1149.4928],[34.8177,-0.3586,1359.7292],[34.8203,-0.3648,1232.0569],[34.8229,-0.3657,1381.3743],[34.8213,-0.3731,1353.928],[34.8252,-0.3761,1263.955],[34.8249,-0.3795,1353.3641],[34.822,-0.3802,1355.8662],[34.8238,-0.3818,1311.4586],[34.8333,-0.3822,1363.6516],[34.8389,-0.387,1420.1901],[34.8593,-0.3864,1408.7621],[34.8584,-0.3888,1411.3696],[34.8623,-0.3914,1422.3292],[34.8645,-0.3912,1434.7838],[34.8669,-0.3882,1466.6464],[34.8779,-0.392,1431.9651],[34.8793,-0.3896,1446.5063],[34.8848,-0.39,1453.8922],[34.887,-0.3913,1464.9161],[34.8885,-0.3955,1429.4878],[34.8944,-0.3878,1458.6814],[34.8975,-0.3886,1451.2247],[34.9007,-0.3855,1427.228],[34.9151,-0.3797,1448.645],[34.9162,-0.3843,1422.6384],[34.9145,-0.3861,1416.0111],[34.9154,-0.3892,1410.4128],[34.9132,-0.3905,1425.1896],[34.914,-0.3972,1414.0504],[34.9214,-0.398,1460.0229],[34.9258,-0.3961,1462.7529],[34.9267,-0.3978,1459.4686],[34.9299,-0.3968,1447.6034],[34.9296,-0.4059,1421.7067],[34.9359,-0.405,1482.0859],[34.9386,-0.4073,1478.0548],[34.9453,-0.4076,1495.6222],[34.9507,-0.4103,1461.8848],[34.9574,-0.4088,1501.3044],[34.9611,-0.4098,1507.3862],[34.9646,-0.4083,1466.6718],[34.9644,-0.4059,1489.4966],[34.9668,-0.406,1481.0715],[34.9679,-0.4078,1471.6949],[34.9694,-0.407,1472.7887]]]]}
,"properties": {"GID_2": "KEN.17.5_1","GID_0": "KEN","country": "Kenya","GID_1": "KEN.17_1","province": "Kisumu","NL_NAME_1": "NA","county": "Nyakach","VARNAME_2": "NA","NL_NAME_2": "NA","TYPE_2": "Constituency","ENGTYPE_2": "Constituency","CC_2": "244","HASC_2": "NA","name": "Nyakach.county","area_km2": 404.4682,"hist_schema_id": "Elevation0-9000","hist_area_km2": {"1125": 90.7443,"1150": 81.7547,"1175": 36.7429,"1200": 27.7109,"1225": 20.057,"1250": 16.0074,"1275": 9.3712,"1300": 5.1096,"1325": 5.7033,"1350": 7.039,"1375": 7.1662,"1400": 7.7811,"1425": 8.8623,"1450": 11.767,"1475": 12.3606,"1500": 9.0319,"1525": 5.046,"1550": 6.1273,"1575": 22.9191,"1600": 4.4312,"1625": 4.6432,"1650": 4.0919}}}