{"type": "Feature","bbox": [35.9982,-0.3595,36.051,-0.2902],"geometry": {"type": "MultiPolygon","coordinates": [[[[36.0048,-0.2904,1961.8843],[35.9998,-0.2908,1984.5839],[35.9982,-0.2927,1990.0178],[36.02,-0.3595,1977.3916],[36.024,-0.357,1951.8221],[36.0309,-0.3577,1938.0955],[36.0272,-0.3414,1949.2498],[36.0278,-0.3333,1931.7843],[36.038,-0.3363,1858.8959],[36.0443,-0.3097,1805.2568],[36.0506,-0.3126,1783.3682],[36.051,-0.3069,1793.2084],[36.0492,-0.3072,1794.6014],[36.0495,-0.3051,1801.2189],[36.0432,-0.3032,1815.9524],[36.0451,-0.301,1815.5896],[36.044,-0.2999,1820.5239],[36.0422,-0.3003,1825.7969],[36.0329,-0.2948,1842.8348],[36.0249,-0.2949,1883.8228],[36.0226,-0.2933,1885.8645],[36.0235,-0.291,1888.4362],[36.0222,-0.2902,1888.4362],[36.0048,-0.2904,1961.8843]]]]}
,"properties": {"GID_3": "KEN.31.8.2_1","GID_0": "KEN","country": "Kenya","GID_1": "KEN.31_1","province": "Nakuru","NL_NAME_1": "NA","GID_2": "KEN.31.8_1","county": "NakuruTownWest","NL_NAME_2": "NA","city": "Kapkures","VARNAME_3": "NA","NL_NAME_3": "NA","TYPE_3": "Ward","ENGTYPE_3": "Ward","CC_3": "873","HASC_3": "NA","name": "Kapkures.city","area_km2": 23.40688,"hist_schema_id": "Elevation0-9000","hist_area_km2": {"1775": 0.10601,"1800": 0.69966,"1825": 3.22269,"1850": 2.09899,"1875": 2.28981,"1900": 2.2686,"1925": 3.07428,"1950": 4.36758,"1975": 4.34638,"2000": 0.84807,"2025": 0.08481}}}