{"type":"Feature","properties":{"featurecla":"River","scalerank":7,"rivernum":401,"dissolve":"401River","name":"Tana2","name_alt":null,"note":null,"min_zoom":6.0,"strokeweig":0.2,"name_en":"Tana","min_label":7.0},
"geometry":{"type": "LineString","coordinates": [[37.810644531250006,-0.79949309688088,802.6241],[37.839453125,-0.805498956255889,766.5142],[37.8671875,-0.78728606563088,765.2523],[37.88828125,-0.75798919063088,729.3203],[37.901953125,-0.73064544063088,735.3183],[37.908789062500006,-0.723174737505886,703.9203],[37.902587890625,-0.71184661250588,698.0],[37.900781250000023,-0.677764581255886,698.0],[37.895751953125,-0.661651300005886,698.0],[37.916113281250006,-0.649248956255889,748.895],[37.9111328125,-0.631866143755886,684.3052],[37.896679687500011,-0.61296965938088,627.5784],[37.88828125,-0.596221612505886,628.9816],[37.891699218750006,-0.554034112505889,592.7366],[37.901953125,-0.51775481563088,631.2042],[37.92041015625,-0.482940362505886,625.8429],[37.963623046875,-0.43010833125588,546.7634],[37.977783203125,-0.40105559688088,516.6738],[37.98388671875,-0.36101653438088,543.2173],[37.984619140625,-0.32219817500588,487.2983],[37.986425781250006,-0.31340911250588,490.8911],[37.99658203125,-0.289385675005889,481.2802],[38.0015625,-0.281573175005889,495.4098],[38.013085937500023,-0.276397393755886,497.8941],[38.0244140625,-0.280108331255889,483.5609],[38.035546875000023,-0.28704192500588,501.9005],[38.045996093750006,-0.29119231563088,484.8806],[38.093994140625,-0.28728606563088,475.2049],[38.132714843750023,-0.267608331255886,440.8617],[38.16259765625,-0.23577239375588,420.3073],[38.183837890625,-0.195635675005889,415.05],[38.21044921875,-0.126495050005886,394.6282],[38.2265625,-0.101202081255892,381.0026],[38.2515625,-0.07952239375588,389.3287],[38.268798828125,-0.08342864375588,384.7189],[38.3140625,-0.05266692500588,362.3812],[38.333984375,-0.058477471880892,360.5072],[38.355078125,-0.055547784380892,365.905],[38.391015625000023,-0.07610442500588,341.1464],[38.402929687500006,-0.065264581255889,356.1587],[38.402929687500006,-0.065264581255889,356.1587],[38.402929687500006,-0.065264581255889,356.1587],[38.402929687500006,-0.065264581255889,356.1587],[38.402929687500006,-0.065264581255889,356.1587],[38.4248046875,-0.06951262813088,341.2238],[38.434179687500006,-0.06926848750588,347.4871],[38.443261718750023,-0.065264581255889,346.5124],[38.465917968750006,-0.075176690630883,318.4513],[38.495849609375,-0.061260675005883,311.4256],[38.546289062500023,-0.024297784380892,322.2628],[38.573486328125,-0.02385833125588,292.5],[38.632421875,-0.04363372188088,303.5872],[38.656152343750023,-0.03789641719338,315.9283],[38.670166015625,-0.04497649531838,303.9777],[38.685937500000023,-0.04570891719338,276.9082],[38.69873046875,-0.04338958125588,295.8066],[38.704003906250023,-0.04131438594338,308.284],[38.709082031250006,-0.049541925005883,294.5525],[38.721093750000023,-0.056475518755889,286.1183],[38.74560546875,-0.065264581255889,274.0588],[38.933691406250006,-0.09319426875588,219.7413],[38.946044921875,-0.088995050005892,218.3135],[38.953857421875,-0.078936456255889,213.878],[38.960058593750006,-0.066534112505892,217.0226],[38.9677734375,-0.05535247188088,220.5391],[38.978515625,-0.048955987505892,213.4389],[38.994384765625,-0.04363372188088,209.6132],[39.026123046875,-0.03789641719338,215.7382],[39.056884765625,-0.03789641719338,215.2776],[39.064697265625,-0.04021575313088,206.8037],[39.069433593750006,-0.045049737505892,200.7176],[39.0732421875,-0.04998137813088,205.6742],[39.07763671875,-0.05217864375588,201.7168],[39.08984375,-0.06218840938088,198.221],[39.142675781250006,-0.12737395625588,194.4723],[39.228417968750023,-0.13079192500588,179.5268],[39.246679687500006,-0.139483331255889,180.6344],[39.265380859375,-0.137530206255889,178.3184],[39.28515625,-0.13298919063088,178.2979],[39.306640625,-0.13420989375588,177.0096],[39.322509765625,-0.14226653438088,178.1843],[39.331298828125,-0.151397393755886,176.8549],[39.342675781250023,-0.159014581255889,173.098],[39.372314453125,-0.16375090938088,175.9186],[39.3798828125,-0.167998956255886,167.8359],[39.386132812500023,-0.17351653438088,167.5177],[39.388671875,-0.17888762813088,178.8552],[39.394238281250011,-0.180694268755886,175.7641],[39.43017578125,-0.188799737505889,162.9538],[39.44296875,-0.19475676875588,163.6889],[39.458740234375,-0.20476653438088,161.5517],[39.472265625,-0.21624114375588,161.0686],[39.481054687500006,-0.23211028438088,160.9394],[39.495214843750006,-0.24187590938088,159.0719],[39.500585937500006,-0.250323175005889,156.3863],[39.512109375000023,-0.278155206255889,163.1752],[39.522851562500023,-0.28362395625588,151.5359],[39.53759765625,-0.28167083125588,153.3792],[39.546875,-0.284991143755889,154.4882],[39.550683593750023,-0.29021575313088,154.178],[39.560791015625,-0.308428643755889,155.9778],[39.56396484375,-0.312334893755889,157.207],[39.580957031250023,-0.32244231563088,148.4958],[39.59423828125,-0.34636809688088,151.9099],[39.632910156250006,-0.489580987505889,138.0571],[39.6396484375,-0.504717706255889,140.1053],[39.651562500000011,-0.50750090938088,137.7005],[39.658935546875,-0.515459893755889,137.5836],[39.6625,-0.52727630000588,132.9695],[39.66357421875,-0.54192473750588,137.421],[39.669677734375,-0.54265715938088,132.7374],[39.694726562500023,-0.57268645625588,133.4091],[39.6982421875,-0.579131768755886,133.1557],[39.710205078125,-0.58391692500588,129.0059],[39.736425781250006,-0.58660247188088,128.652],[39.752343750000023,-0.592803643755886,129.4459],[39.764746093750006,-0.601592706255886,128.6847],[39.773681640625,-0.61248137813088,126.0467],[39.779052734375,-0.626495050005886,126.1692],[39.780859375,-0.64470794063088,127.5431],[39.811279296875,-0.68962981563088,119.0838],[39.812744140625,-0.696319268755886,121.5546],[39.811132812500006,-0.71135833125588,124.111],[39.812109375,-0.727373956255889,117.3788],[39.8212890625,-0.736846612505886,118.8021]]}}