{"type": "Feature","bbox": [37.2386,-0.5241,37.3078,-0.1457],"geometry": {"type": "MultiPolygon","coordinates": [[[[37.3078,-0.1457,4597.0439],[37.2467,-0.4112,2046.2368],[37.2527,-0.4233,1929.5486],[37.2486,-0.4318,1878.9382],[37.2428,-0.437,1865.698],[37.2386,-0.4438,1821.3923],[37.2446,-0.4749,1678.3818],[37.254,-0.49,1624.4614],[37.2543,-0.5012,1592.5803],[37.2602,-0.5015,1574.9916],[37.262,-0.5037,1572.9229],[37.263,-0.5145,1523.3696],[37.2712,-0.5148,1512.8795],[37.2713,-0.5167,1503.1438],[37.2688,-0.5167,1506.6179],[37.2689,-0.5188,1490.8811],[37.2722,-0.5241,1467.8104],[37.2834,-0.5198,1473.2013],[37.2773,-0.5056,1533.5527],[37.2757,-0.5069,1531.859],[37.2744,-0.5051,1539.3484],[37.2747,-0.5027,1556.3282],[37.2706,-0.494,1589.7668],[37.2671,-0.4926,1598.415],[37.2649,-0.4837,1629.4878],[37.2571,-0.4745,1681.2791],[37.2539,-0.4734,1687.7247],[37.2541,-0.4678,1714.0493],[37.2545,-0.4651,1720.3258],[37.2588,-0.4653,1717.7629],[37.2597,-0.4571,1750.9071],[37.2734,-0.4625,1714.684],[37.2771,-0.4654,1686.0229],[37.2814,-0.4645,1690.1627],[37.2794,-0.4611,1700.2965],[37.2808,-0.4559,1735.9915],[37.2826,-0.4536,1740.6757],[37.2867,-0.4551,1690.051],[37.2888,-0.4531,1714.6959],[37.2859,-0.45,1719.0927],[37.2851,-0.4465,1761.79],[37.2864,-0.4461,1761.0891],[37.2854,-0.4435,1780.7799],[37.2877,-0.4407,1799.0881],[37.2885,-0.4366,1821.2721],[37.2861,-0.431,1841.6909],[37.2808,-0.4276,1880.6204],[37.2769,-0.4218,1901.7723],[37.274,-0.4087,1987.0891],[37.3078,-0.1457,4597.0439]]]]}
,"properties": {"GID_3": "KEN.15.2.1_1","GID_0": "KEN","country": "Kenya","GID_1": "KEN.15_1","province": "Kirinyaga","NL_NAME_1": "NA","GID_2": "KEN.15.2_1","county": "KirinyagaCentral","NL_NAME_2": "NA","city": "Inoi","VARNAME_3": "NA","NL_NAME_3": "NA","TYPE_3": "Ward","ENGTYPE_3": "Ward","CC_3": "515","HASC_3": "NA","name": "Inoi.city","area_km2": 78.21313,"hist_schema_id": "Elevation0-9000","hist_area_km2": {"1475": 0.69964,"1500": 0.67844,"1525": 1.14487,"1550": 0.80565,"1575": 0.91166,"1600": 1.39929,"1625": 1.14488,"1650": 0.91166,"1675": 1.06007,"1700": 0.97527,"1725": 1.78093,"1750": 2.37457,"1775": 2.31097,"1800": 2.735,"1825": 3.66787,"1850": 3.07423,"1875": 2.6926,"1900": 1.75973,"1925": 1.20849,"1950": 1.06008,"1975": 0.93287,"2000": 1.12369,"2025": 1.50532,"2050": 1.3145,"2075": 1.82335,"2100": 1.69614,"2125": 2.12017,"2150": 1.86575,"2175": 1.2721,"2200": 1.27211,"2225": 0.76326,"2250": 0.95408,"2275": 0.82687,"2300": 0.50884,"2325": 0.61485,"2350": 0.44524,"2375": 0.50884,"2400": 0.46644,"2425": 0.44524,"2450": 0.57245,"2475": 0.65726,"2500": 0.46644,"2525": 0.57245,"2550": 0.76327,"2575": 0.67846,"2600": 0.65726,"2625": 0.67846,"2650": 0.95408,"2675": 0.76327,"2700": 0.48764,"2725": 0.36043,"2750": 0.29683,"2775": 0.27562,"2800": 0.19082,"2825": 0.33923,"2850": 0.27562,"2875": 0.33923,"2900": 0.36043,"2925": 0.46644,"2950": 0.25442,"2975": 0.19082,"3000": 0.48764,"3025": 0.57245,"3050": 0.80567,"3075": 0.67846,"3100": 0.63606,"3125": 0.55125,"3150": 0.48765,"3175": 0.38164,"3200": 0.25442,"3225": 0.23322,"3250": 0.23322,"3275": 0.14841,"3300": 0.27563,"3325": 0.14841,"3350": 0.21202,"3375": 0.38164,"3400": 0.48765,"3425": 0.40284,"3450": 0.31803,"3475": 0.27563,"3500": 0.25442,"3525": 0.48765,"3550": 0.21202,"3575": 0.29683,"3600": 0.36043,"3625": 0.31803,"3650": 0.25442,"3675": 0.19082,"3700": 0.19082,"3725": 0.14841,"3750": 0.12721,"3775": 0.12721,"3800": 0.14841,"3825": 0.19082,"3850": 0.19082,"3875": 0.16962,"3900": 0.19082,"3925": 0.33923,"3950": 0.14841,"3975": 0.10601,"4000": 0.12721,"4025": 0.16962,"4050": 0.12721,"4075": 0.08481,"4100": 0.16962,"4125": 0.06361,"4150": 0.14841,"4175": 0.19082,"4200": 0.19082,"4225": 0.08481,"4250": 0.0212,"4275": 0.0212,"4300": 0.10601,"4325": 0.08481,"4350": 0.06361,"4375": 0.10601,"4400": 0.08481,"4425": 0.08481,"4450": 0.12721,"4475": 0.0212,"4500": 0.06361,"4525": 0.0424,"4550": 0.06361,"4800": 0.0212,"4825": 0.0424,"4900": 0.0212}}}