{"type":"Feature","properties":{"GID_3":"KEN.31.3.3_1","GID_0":"KEN","country":"Kenya","GID_1":"KEN.31_1","province":"Nakuru","NL_NAME_1":"NA","GID_2":"KEN.31.3_1","county":"KuresoiNorth","NL_NAME_2":"NA","city":"Nyota","VARNAME_3":"NA","NL_NAME_3":"NA","TYPE_3":"Ward","ENGTYPE_3":"Ward","CC_3":"854","HASC_3":"NA","name":"Nyota.city"},
"geometry":{"type": "MultiPolygon","coordinates": [[[[35.5638,-0.2713,2712.8154],[35.5517,-0.2924,2650.041],[35.5572,-0.2986,2642.9724],[35.5661,-0.3033,2639.7656],[35.5712,-0.3142,2618.0732],[35.5783,-0.3114,2663.5254],[35.5774,-0.3173,2648.8538],[35.5684,-0.328,2600.1858],[35.5689,-0.3328,2631.0872],[35.565,-0.3338,2580.2722],[35.566,-0.3355,2609.2048],[35.5646,-0.3371,2590.7271],[35.5648,-0.3416,2617.6646],[35.5663,-0.3438,2651.7332],[35.5688,-0.3424,2662.3413],[35.5714,-0.3515,2650.7683],[35.5751,-0.3524,2649.7822],[35.5802,-0.3496,2581.5403],[35.589,-0.3488,2612.2898],[35.5964,-0.3557,2570.8408],[35.5923,-0.3607,2612.95],[35.5888,-0.3692,2610.5464],[35.5843,-0.3727,2595.1592],[35.5806,-0.3727,2565.4338],[35.5758,-0.3756,2584.6997],[35.5735,-0.3795,2558.8479],[35.5679,-0.3834,2549.9375],[35.5706,-0.3989,2536.7007],[35.5756,-0.4073,2494.7373],[35.5802,-0.4062,2511.3774],[35.5799,-0.4029,2510.2717],[35.5895,-0.3999,2558.2634],[35.594,-0.3961,2602.4658],[35.6024,-0.3971,2560.8596],[35.6127,-0.3952,2595.0427],[35.6329,-0.4064,2599.5256],[35.6388,-0.4194,2584.7886],[35.6422,-0.4172,2585.3853],[35.6457,-0.4183,2564.8813],[35.6519,-0.4115,2638.6436],[35.6727,-0.403,2715.8323],[35.6825,-0.4018,2737.563],[35.6919,-0.4086,2707.9629],[35.6997,-0.4064,2726.051],[35.7044,-0.4032,2736.9373],[35.7067,-0.3975,2770.9399],[35.7156,-0.3929,2821.187],[35.7272,-0.3837,2844.0088],[35.6953,-0.3311,2806.095],[35.6683,-0.3123,2719.5024],[35.659,-0.3204,2707.2866],[35.6532,-0.3213,2696.1589],[35.6512,-0.314,2709.7952],[35.6629,-0.3,2740.1902],[35.6291,-0.2907,2718.5603],[35.6086,-0.2947,2703.541],[35.6073,-0.2901,2706.6436],[35.6048,-0.2888,2698.4219],[35.6015,-0.2776,2743.7935],[35.5944,-0.2714,2765.3643],[35.5925,-0.2723,2723.1438],[35.5918,-0.28,2740.8193],[35.585,-0.2867,2664.0518],[35.581,-0.3031,2687.6772],[35.5693,-0.2983,2649.9944],[35.5723,-0.2772,2672.7756],[35.5638,-0.2713,2712.8154]]]]}}