{"type": "Feature","bbox": [39.1389,-4.561,39.3053,-4.374],"geometry": {"type": "MultiPolygon","coordinates": [[[[39.1912,-4.5164,41.9414],[39.1947,-4.5201,25.8632],[39.2007,-4.5219,38.9438],[39.2037,-4.5261,28.5325],[39.2027,-4.5285,28.6986],[39.2059,-4.5311,25.2469],[39.2076,-4.5392,20.6369],[39.2097,-4.5393,21.864],[39.2089,-4.5406,17.1925],[39.2109,-4.5448,18.417],[39.2077,-4.5469,15.192],[39.2131,-4.549,16.5713],[39.2169,-4.5552,14.8981],[39.2159,-4.557,12.0078],[39.2176,-4.561,11.1064],[39.2211,-4.5521,21.6243],[39.2331,-4.552,19.8466],[39.2436,-4.5414,31.0212],[39.249,-4.5314,40.712],[39.2495,-4.5271,53.4466],[39.2688,-4.5028,28.9919],[39.2641,-4.5016,30.6162],[39.2601,-4.4983,39.0027],[39.2693,-4.4978,27.8169],[39.2825,-4.4801,32.5333],[39.2732,-4.4681,47.071],[39.2691,-4.4583,53.9763],[39.2733,-4.4481,83.4847],[39.2845,-4.4312,57.1383],[39.2994,-4.4141,47.6293],[39.2997,-4.4051,48.4537],[39.3029,-4.4027,37.2154],[39.3053,-4.4041,39.4835],[39.3025,-4.4003,48.4146],[39.3002,-4.3995,41.174],[39.2971,-4.401,40.5583],[39.292,-4.3926,60.5306],[39.2877,-4.3935,43.8861],[39.2831,-4.3889,50.0009],[39.2717,-4.3859,54.9707],[39.2557,-4.392,52.951],[39.2507,-4.3888,64.8925],[39.2455,-4.3924,66.7165],[39.2441,-4.3968,51.3284],[39.2382,-4.3836,51.9835],[39.2343,-4.3843,62.8013],[39.2311,-4.3805,70.4776],[39.224,-4.379,60.0022],[39.2213,-4.3825,58.9623],[39.2156,-4.3772,80.505],[39.2132,-4.3779,69.5682],[39.2101,-4.3823,65.8098],[39.2045,-4.3807,65.503],[39.2027,-4.3858,69.6014],[39.1979,-4.385,66.0557],[39.1964,-4.3817,67.1155],[39.1932,-4.3826,72.5142],[39.1921,-4.3839,77.9398],[39.1932,-4.3869,65.2903],[39.1909,-4.3883,71.4942],[39.1819,-4.3827,77.6959],[39.1831,-4.3786,73.2424],[39.1813,-4.374,75.3004],[39.1776,-4.3765,76.0702],[39.1707,-4.3778,96.5327],[39.168,-4.3826,82.2503],[39.1596,-4.3887,88.862799999999993],[39.1497,-4.4274,126.6854],[39.1389,-4.4543,106.923],[39.1463,-4.4593,114.948],[39.1539,-4.4706,105.0327],[39.1537,-4.4813,92.3931],[39.1557,-4.4856,80.1381],[39.1581,-4.4863,76.6535],[39.1659,-4.4844,70.5965],[39.1709,-4.4879,72.874],[39.1793,-4.4842,61.4978],[39.1841,-4.4879,56.3627],[39.1851,-4.4916,53.2057],[39.1909,-4.497,55.4722],[39.1885,-4.5041,53.7147],[39.1903,-4.5064,41.4062],[39.1869,-4.5094,46.4065],[39.1895,-4.5106,39.206],[39.1892,-4.5143,33.7353],[39.1912,-4.5164,41.9414]]]]}
,"properties": {"GID_3": "KEN.19.2.1_1","GID_0": "KEN","country": "Kenya","GID_1": "KEN.19_1","province": "Kwale","NL_NAME_1": "NA","GID_2": "KEN.19.2_1","county": "Lungalunga","NL_NAME_2": "NA","city": "Dzombo","VARNAME_3": "NA","NL_NAME_3": "NA","TYPE_3": "Ward","ENGTYPE_3": "Ward","CC_3": "36","HASC_3": "NA","name": "Dzombo.city","area_km2": 214.7222,"hist_schema_id": "Elevation0-9000","hist_area_km2": {"0": 0.1268,"25": 8.9618,"50": 35.8501,"75": 57.0948,"100": 54.2412,"125": 36.1678,"150": 15.3042,"175": 2.5154,"200": 1.1415,"225": 0.8878,"250": 0.7187,"275": 0.5919,"300": 0.2325,"325": 0.2959,"350": 0.2325,"375": 0.148,"400": 0.0846,"425": 0.0634,"450": 0.0634}}}