{"type": "Feature","bbox": [36.8834,-1.1731,36.9695,-1.1181],"geometry": {"type": "MultiPolygon","coordinates": [[[[36.9443,-1.1181,1541.8158],[36.9268,-1.1211,1572.8134],[36.9161,-1.1304,1561.7083],[36.9115,-1.1314,1576.1445],[36.8932,-1.1307,1601.1953],[36.8915,-1.1332,1599.4231],[36.8934,-1.1344,1597.637],[36.8834,-1.1506,1589.9694],[36.8842,-1.1543,1591.3821],[36.8895,-1.1561,1582.9243],[36.8936,-1.155,1586.9332],[36.8977,-1.1585,1567.3969],[36.8935,-1.1669,1572.3799],[36.8945,-1.1652,1573.7544],[36.8978,-1.1584,1567.3969],[36.916,-1.159,1552.7864],[36.92,-1.1601,1551.7817],[36.9207,-1.1623,1536.4048],[36.924,-1.1632,1547.6116],[36.9268,-1.1664,1529.3621],[36.9301,-1.1662,1544.0862],[36.9383,-1.1697,1523.3264],[36.9418,-1.1731,1523.4541],[36.9561,-1.1636,1534.2756],[36.9629,-1.1437,1515.0295],[36.9695,-1.1355,1531.6223],[36.9677,-1.1342,1534.2949],[36.9692,-1.132,1532.6965],[36.9599,-1.1254,1539.4816],[36.9564,-1.1306,1540.9998],[36.9567,-1.1324,1545.6199],[36.9544,-1.1317,1549.5029],[36.951,-1.1294,1533.2695],[36.9496,-1.1236,1547.9897],[36.9443,-1.1181,1541.8158]]]]}
,"properties": {"GID_3": "KEN.13.11.2_1","GID_0": "KEN","country": "Kenya","GID_1": "KEN.13_1","province": "Kiambu","NL_NAME_1": "NA","GID_2": "KEN.13.11_1","county": "Ruiru","NL_NAME_2": "NA","city": "Gitothua","VARNAME_3": "NA","NL_NAME_3": "NA","TYPE_3": "Ward","ENGTYPE_3": "Ward","CC_3": "569","HASC_3": "NA","name": "Gitothua.city","area_km2": 33.70478,"hist_schema_id": "Elevation0-9000","hist_area_km2": {"1525": 7.2921,"1550": 16.49202,"1575": 7.82206,"1600": 2.0986}}}