{"type": "Feature","bbox": [39.1565,-4.3883,39.4405,-4.1471],"geometry": {"type": "MultiPolygon","coordinates": [[[[39.3275,-4.1496,177.5454],[39.3285,-4.1549,179.6233],[39.3383,-4.1682,223.7424],[39.3359,-4.1724,238.4946],[39.3361,-4.1767,214.0526],[39.3387,-4.1796,202.295],[39.3513,-4.1859,163.4303],[39.3597,-4.1839,155.6083],[39.3705,-4.1916,144.7428],[39.3629,-4.1967,164.7144],[39.3615,-4.1993,161.7893],[39.3507,-4.2229,195.4409],[39.3437,-4.25,204.2194],[39.3399,-4.2535,207.1773],[39.3383,-4.2575,211.0095],[39.3305,-4.2642,212.396],[39.3257,-4.2791,232.9893],[39.3193,-4.2879,241.5015],[39.2815,-4.2826,211.3715],[39.2673,-4.2627,175.2499],[39.2611,-4.2416,181.9917],[39.2559,-4.2372,182.6465],[39.2535,-4.2291,195.4496],[39.2497,-4.2256,191.8145],[39.2435,-4.2269,183.7898],[39.2373,-4.2188,195.198],[39.2367,-4.2147,198.0549],[39.2295,-4.2249,200.5192],[39.2277,-4.234,183.739],[39.2249,-4.2394,181.2277],[39.2151,-4.2509,186.2641],[39.2103,-4.2598,161.4747],[39.1947,-4.2714,144.3877],[39.1853,-4.2851,128.9608],[39.1683,-4.2976,120.6427],[39.1685,-4.3004,108.7165],[39.1669,-4.3018,111.9617],[39.1691,-4.3063,103.6793],[39.1679,-4.3073,109.4639],[39.1713,-4.3102,103.3618],[39.1713,-4.3128,102.2422],[39.1673,-4.3174,117.5077],[39.1659,-4.3217,107.9028],[39.1673,-4.3242,94.9032],[39.1639,-4.3249,90.8528],[39.1631,-4.3225,114.2852],[39.1597,-4.3261,91.1728],[39.1595,-4.3318,91.977],[39.1565,-4.3364,93.7276],[39.1595,-4.3422,85.8563],[39.1643,-4.3435,92.9729],[39.1667,-4.3492,82.9189],[39.1685,-4.3493,85.7091],[39.1695,-4.3462,95.7136],[39.1741,-4.3458,86.5319],[39.1727,-4.3509,81.6092],[39.1747,-4.3617,76.9085],[39.1735,-4.3678,91.8709],[39.1767,-4.3734,74.9375],[39.1819,-4.3742,75.3004],[39.1831,-4.3786,73.2424],[39.1819,-4.3827,77.6959],[39.1835,-4.3844,72.3382],[39.1909,-4.3883,71.4942],[39.1932,-4.3869,65.2903],[39.1923,-4.3832,77.9398],[39.1959,-4.3817,67.1155],[39.1979,-4.385,66.0557],[39.2032,-4.3854,63.1992],[39.2039,-4.3818,66.0198],[39.2063,-4.3796,60.3012],[39.2057,-4.3777,63.6282],[39.2041,-4.3781,63.3891],[39.2043,-4.3735,67.6503],[39.2001,-4.3668,85.6712],[39.2025,-4.3636,73.9491],[39.2027,-4.3535,100.5263],[39.2081,-4.349,97.2281],[39.2205,-4.3439,130.6835],[39.2579,-4.3387,191.0193],[39.2627,-4.336,149.7477],[39.2773,-4.3545,124.9694],[39.3727,-4.3116,243.3451],[39.4333,-4.3014,132.2917],[39.4405,-4.2549,274.4003],[39.4081,-4.1988,170.4919],[39.3909,-4.1932,135.8831],[39.3923,-4.1849,132.4117],[39.3959,-4.1821,130.8941],[39.3945,-4.1786,139.1001],[39.3895,-4.1743,137.7619],[39.4007,-4.1601,123.3475],[39.3941,-4.1591,125.692],[39.3921,-4.1556,147.8351],[39.3885,-4.1556,133.8248],[39.3751,-4.1681,149.3934],[39.3695,-4.1649,161.0003],[39.3781,-4.1552,152.3832],[39.3743,-4.1471,193.6529],[39.3711,-4.1484,172.7672],[39.3639,-4.1576,159.3371],[39.3603,-4.1567,160.2823],[39.3589,-4.1535,173.4124],[39.3555,-4.1527,185.0703],[39.3475,-4.1534,174.7359],[39.3339,-4.1482,170.8885],[39.3275,-4.1496,177.5454]]]]}
,"properties": {"GID_3": "KEN.19.3.2_1","GID_0": "KEN","country": "Kenya","GID_1": "KEN.19_1","province": "Kwale","NL_NAME_1": "NA","GID_2": "KEN.19.3_1","county": "Matuga","NL_NAME_2": "NA","city": "Mkongani","VARNAME_3": "NA","NL_NAME_3": "NA","TYPE_3": "Ward","ENGTYPE_3": "Ward","CC_3": "43","HASC_3": "NA","name": "Mkongani.city","area_km2": 325.6887,"hist_schema_id": "Elevation0-9000","hist_area_km2": {"50": 0.0423,"75": 4.7355,"100": 17.0399,"125": 39.0918,"150": 55.5848,"175": 65.7566,"200": 51.6115,"225": 24.5898,"250": 14.8002,"275": 8.6053,"300": 6.9562,"325": 9.2609,"350": 9.5992,"375": 7.8444,"400": 5.6243,"425": 3.2985,"450": 1.1841,"475": 0.0634}}}