{"type": "Feature","bbox": [34.7395,-0.0287,34.8874,0.0651],"geometry": {"type": "MultiPolygon","coordinates": [[[[34.8131,0.0047,1560.1157],[34.8243,0.0086,1497.0977],[34.8262,0.0068,1486.1742],[34.8287,0.0085,1514.752],[34.8347,0.0071,1526.641],[34.8366,0.0102,1527.0083],[34.8433,0.0146,1605.0168],[34.8499,0.015,1669.512],[34.8539,0.0176,1735.8748],[34.8592,0.0184,1669.2839],[34.863,0.0228,1727.6848],[34.8668,0.0218,1669.7424],[34.8761,0.0232,1704.2831],[34.8785,0.0256,1718.9543],[34.8852,0.0268,1644.7185],[34.8867,0.0286,1611.8494],[34.8874,0.035,1619.3522],[34.8872,0.0429,1695.5966],[34.8847,0.0528,1690.1833],[34.8742,0.0564,1716.3081],[34.8725,0.0626,1721.0542],[34.8633,0.0591,1692.1171],[34.8585,0.055,1646.7112],[34.8562,0.0634,1672.7849],[34.8497,0.064,1672.1678],[34.8495,0.0651,1672.1678],[34.8396,0.0511,1724.9938],[34.838,0.0394,1694.3148],[34.836,0.0365,1620.4929],[34.8287,0.0349,1681.6356],[34.8206,0.0392,1562.8123],[34.8093,0.0334,1459.952],[34.8085,0.0317,1453.7831],[34.8102,0.0286,1534.2274],[34.8089,0.0276,1478.073],[34.8043,0.0264,1444.7808],[34.7985,0.03,1501.7831],[34.7984,0.028,1478.5657],[34.7897,0.0239,1495.2428],[34.7899,0.022,1486.4395],[34.7861,0.0176,1428.8425],[34.7839,0.0188,1416.5486],[34.7835,0.0171,1413.2867],[34.7811,0.0167,1403.9561],[34.7786,0.0111,1411.9121],[34.7747,0.0104,1413.0039],[34.77,0.0058,1398.3424],[34.7667,0.0062,1429.3799],[34.7628,0.0034,1412.8961],[34.7597,0.0084,1437.4319],[34.7598,0.0145,1452.5782],[34.7543,0.0151,1438.6525],[34.7513,0.0119,1480.8982],[34.7475,0.0112,1523.6163],[34.7474,0.0092,1527.1095],[34.7411,0.0093,1524.5854],[34.7395,0.0037,1525.7161],[34.7444,-0.0052,1514.6313],[34.7449,-0.0123,1522.8035],[34.7482,-0.0114,1510.5006],[34.7497,-0.0146,1497.9679],[34.7495,-0.016,1497.9679],[34.7466,-0.0169,1495.4797],[34.7522,-0.0287,1492.6423],[34.758,-0.0194,1431.601],[34.7615,-0.0169,1320.4141],[34.7643,-0.0105,1366.3932],[34.7708,-0.0117,1265.4781],[34.7755,-0.01,1335.9723],[34.7808,-0.0125,1299.8237],[34.7862,-0.0011,1435.8143],[34.804,0.0151,1506.9498],[34.8095,0.016,1522.13],[34.8165,0.0224,1639.8867],[34.819,0.0275,1656.2643],[34.8314,0.0301,1584.4266],[34.8131,0.0047,1560.1157]]]]}
,"properties": {"GID_3": "KEN.32.1.6_1","GID_0": "KEN","country": "Kenya","GID_1": "KEN.32_1","province": "Nandi","NL_NAME_1": "NA","GID_2": "KEN.32.1_1","county": "Aldai","NL_NAME_2": "NA","city": "Terik","VARNAME_3": "NA","NL_NAME_3": "NA","TYPE_3": "Ward","ENGTYPE_3": "Ward","CC_3": "756","HASC_3": "NA","name": "Terik.city","area_km2": 49.18911,"hist_schema_id": "Elevation0-9000","hist_area_km2": {"1275": 0.0212,"1300": 0.25443,"1325": 0.42404,"1350": 0.9329,"1375": 1.75978,"1400": 2.56547,"1425": 2.8835,"1450": 2.65028,"1475": 2.26864,"1500": 2.8835,"1525": 3.60438,"1550": 3.03192,"1575": 2.31104,"1600": 2.73508,"1625": 3.60437,"1650": 3.34995,"1675": 4.30405,"1700": 3.92241,"1725": 3.8164,"1750": 1.69618,"1775": 0.16962}}}