{"type":"Feature","properties":{"GID_3":"KEN.22.7.2_1","GID_0":"KEN","country":"Kenya","GID_1":"KEN.22_1","province":"Machakos","NL_NAME_1":"NA","GID_2":"KEN.22.7_1","county":"Mwala","NL_NAME_2":"NA","city":"Makutano/Mwala","VARNAME_3":"NA","NL_NAME_3":"NA","TYPE_3":"Ward","ENGTYPE_3":"Ward","CC_3":"406","HASC_3":"NA","name":"Makutano_Mwala.city"},
"geometry":{"type": "MultiPolygon","coordinates": [[[[37.4063,-1.4055,1574.9331],[37.4122,-1.4125,1405.423],[37.4125,-1.4161,1500.4547],[37.421,-1.4213,1432.0945],[37.4315,-1.4241,1362.0911],[37.4361,-1.429,1353.7584],[37.4423,-1.4185,1323.0812],[37.4443,-1.4175,1303.3411],[37.4495,-1.4194,1317.5815],[37.4567,-1.4154,1292.2268],[37.461,-1.4199,1312.576],[37.4701,-1.4092,1302.4558],[37.4773,-1.408,1299.9213],[37.4808,-1.4031,1303.807],[37.4895,-1.4031,1307.4138],[37.4985,-1.4053,1296.7676],[37.5061,-1.4018,1296.7577],[37.5105,-1.3957,1316.8412],[37.5078,-1.3899,1302.1124],[37.5111,-1.381,1242.4469],[37.508,-1.379,1251.7501],[37.5186,-1.3713,1206.0228],[37.5182,-1.3639,1200.1497],[37.5233,-1.3588,1190.1333],[37.5218,-1.3506,1202.7921],[37.5252,-1.3486,1180.5087],[37.5256,-1.3426,1185.6478],[37.5325,-1.3402,1168.7661],[37.5333,-1.336,1165.3821],[37.5316,-1.3333,1170.0713],[37.5342,-1.3301,1180.0087],[37.5362,-1.3297,1179.5491],[37.5371,-1.3323,1160.6794],[37.5384,-1.3321,1153.6835],[37.5383,-1.33,1164.3696],[37.54,-1.3301,1146.7561],[37.5383,-1.3274,1179.9016],[37.5414,-1.3219,1132.8427],[37.5394,-1.3189,1160.7477],[37.5424,-1.3199,1136.564],[37.5441,-1.3171,1146.1589],[37.5481,-1.3189,1132.2482],[37.5482,-1.3137,1132.5404],[37.5502,-1.3123,1136.2717],[37.5533,-1.3128,1129.8899],[37.5543,-1.3149,1109.967],[37.56,-1.3129,1097.7612],[37.5579,-1.3076,1115.5974],[37.553,-1.3047,1098.0752],[37.5404,-1.3063,1115.7885],[37.5274,-1.2836,1114.6104],[37.5139,-1.2641,1149.9214],[37.5091,-1.262,1143.8832],[37.5071,-1.2642,1136.6642],[37.4925,-1.2696,1183.558],[37.4917,-1.275,1177.2919],[37.4864,-1.2802,1196.3582],[37.4643,-1.2852,1229.4766],[37.4579,-1.2847,1206.7678],[37.4522,-1.301,1211.5225],[37.4416,-1.3031,1236.3108],[37.4356,-1.3104,1241.5365],[37.4308,-1.3125,1258.0782],[37.4234,-1.3105,1278.553],[37.4127,-1.3152,1638.9293],[37.4196,-1.3224,1462.4392],[37.424,-1.3448,1483.0254],[37.4238,-1.3462,1483.0254],[37.4181,-1.3493,1348.9778],[37.4169,-1.3525,1322.4321],[37.4102,-1.3545,1376.3567],[37.4082,-1.3608,1346.1697],[37.4104,-1.3647,1307.6594],[37.4076,-1.3655,1326.2692],[37.4039,-1.3711,1355.7615],[37.4037,-1.3738,1384.1418],[37.4075,-1.3776,1442.2314],[37.4059,-1.3816,1530.3835],[37.4037,-1.3829,1483.4865],[37.4067,-1.3857,1445.4901],[37.4046,-1.3878,1568.0242],[37.4075,-1.3924,1452.0891],[37.4063,-1.4008,1579.3307],[37.4077,-1.4054,1544.3573],[37.4063,-1.4055,1574.9331]]]]}}