{"type": "Feature","bbox": [34.8196,1.2485,35.0893,1.5053],"geometry": {"type": "MultiPolygon","coordinates": [[[[34.9051,1.2564,1816.3801],[34.9051,1.2524,1844.5537],[34.939,1.2536,1795.4539],[34.97,1.2485,1845.6765],[34.9819,1.254,1652.3552],[34.9792,1.2567,1575.3773],[34.9819,1.258,1608.381],[34.9742,1.2686,1521.9865],[34.9677,1.2745,1500.436],[34.9682,1.2774,1491.7815],[34.9658,1.2798,1490.6196],[34.9662,1.2814,1488.9568],[34.9639,1.2814,1491.552],[34.9656,1.2837,1497.8707],[34.9621,1.2875,1473.615],[34.9622,1.2968,1463.9738],[34.9578,1.3053,1436.7317],[34.9586,1.3084,1444.2467],[34.9573,1.3075,1442.3698],[34.9572,1.3112,1438.8831],[34.9549,1.3127,1435.201],[34.9555,1.3142,1436.1633],[34.9574,1.314,1436.1516],[34.9626,1.3053,1450.0374],[34.9855,1.3368,1403.6083],[34.9942,1.3094,1486.8529],[35.0193,1.268,1504.5281],[35.0362,1.268,1640.5593],[35.0356,1.2968,1600.0042],[35.0311,1.3332,1492.483],[35.0436,1.3323,1475.5591],[35.0635,1.3397,1425.4873],[35.0811,1.3513,1682.3616],[35.0888,1.3617,1839.7788],[35.0862,1.364,1696.72],[35.086,1.3687,1641.915],[35.0815,1.3717,1789.7227],[35.0832,1.3768,1935.9309],[35.081,1.3906,1603.3269],[35.0874,1.3969,1640.7056],[35.0886,1.401,1815.7151],[35.0859,1.4066,1856.86],[35.08,1.4114,1847.287],[35.0853,1.4194,1689.5988],[35.0856,1.4258,1811.1947],[35.081,1.4316,2024.2993],[35.079,1.4371,1970.0974],[35.0775,1.4577,1727.7611],[35.0781,1.4612,1614.4116],[35.0819,1.4626,1562.594],[35.0863,1.4674,1610.3124],[35.0878,1.4721,1710.4033],[35.0863,1.4775,1585.1221],[35.0893,1.4813,1618.2632],[35.0893,1.4847,1476.0619],[35.0625,1.5051,1246.835],[35.058,1.5053,1255.0137],[35.0579,1.5014,1249.2024],[35.0544,1.5003,1252.1017],[35.0538,1.4977,1251.8124],[35.0477,1.4923,1259.4438],[35.0442,1.4915,1263.5674],[35.0384,1.4849,1263.1693],[35.0176,1.4794,1278.277],[35.0086,1.4822,1284.2738],[35.0049,1.4802,1274.5421],[35.0043,1.4827,1278.5349],[35.0008,1.4817,1278.6414],[35.0001,1.4797,1278.3884],[34.9983,1.4807,1280.0681],[34.9963,1.4796,1280.8829],[34.993,1.4817,1282.8492],[34.9905,1.4805,1278.9744],[34.9872,1.4824,1283.9913],[34.985,1.481,1285.7828],[34.9824,1.4826,1293.0374],[34.9768,1.4792,1292.9058],[34.9755,1.4692,1290.0099],[34.9722,1.4693,1289.4988],[34.9712,1.4672,1290.1929],[34.969,1.4681,1291.854],[34.9619,1.4662,1294.6736],[34.9619,1.4683,1294.337],[34.9566,1.4662,1296.4545],[34.957,1.4606,1297.1289],[34.9544,1.4565,1298.0129],[34.9536,1.4497,1300.2701],[34.9515,1.4505,1301.2979],[34.949,1.4466,1303.2738],[34.9515,1.4451,1300.0718],[34.9494,1.4405,1305.7153],[34.9436,1.4357,1307.4707],[34.9409,1.4365,1308.5874],[34.9393,1.4343,1309.3743],[34.9396,1.4266,1309.4161],[34.9359,1.426,1313.0352],[34.9343,1.4225,1316.5928],[34.9331,1.4244,1318.1785],[34.9309,1.4247,1318.0104],[34.9268,1.4182,1320.2135],[34.9279,1.416,1314.8402],[34.9255,1.4159,1318.6545],[34.9244,1.413,1321.5464],[34.9225,1.4136,1319.1211],[34.9223,1.4103,1318.1813],[34.9163,1.4119,1328.4321],[34.9162,1.4019,1326.3684],[34.9109,1.3805,1338.2341],[34.908,1.3782,1343.8586],[34.9068,1.3747,1341.5079],[34.9047,1.3754,1344.827],[34.9021,1.3727,1345.2899],[34.9017,1.3705,1345.2162],[34.8961,1.3697,1356.1272],[34.8957,1.3664,1348.7124],[34.8925,1.3665,1352.2703],[34.8929,1.3633,1349.3135],[34.889,1.3594,1360.8074],[34.8877,1.3599,1368.2146],[34.8877,1.3574,1363.2334],[34.8851,1.3562,1359.7122],[34.8855,1.3541,1360.8773],[34.8825,1.3542,1373.3613],[34.8805,1.3517,1369.1499],[34.8776,1.3513,1380.2815],[34.8734,1.3441,1380.0281],[34.8745,1.335,1378.8053],[34.8677,1.3326,1418.5718],[34.8642,1.3285,1448.1324],[34.8614,1.3278,1439.2714],[34.8651,1.3208,1441.9983],[34.8626,1.3192,1506.9591],[34.8571,1.3194,1507.3259],[34.8562,1.3161,1563.4126],[34.8524,1.318,1530.3359],[34.8527,1.3087,1544.2914],[34.8389,1.3092,1583.9767],[34.8293,1.3065,1613.5132],[34.83,1.3034,1566.0546],[34.8282,1.2967,1664.762],[34.829,1.275,1720.1898],[34.8314,1.2712,1726.8802],[34.8248,1.2646,1757.87],[34.8196,1.2622,1786.0229],[34.9067,1.2838,1765.2751],[34.9051,1.2564,1816.3801]]]]}
,"properties": {"GID_3": "KEN.47.2.3_1","GID_0": "KEN","country": "Kenya","GID_1": "KEN.47_1","province": "WestPokot","NL_NAME_1": "NA","GID_2": "KEN.47.2_1","county": "Kapenguria","NL_NAME_2": "NA","city": "Lokori/Kochodin","VARNAME_3": "NA","NL_NAME_3": "NA","TYPE_3": "Ward","ENGTYPE_3": "Ward","CC_3": "641","HASC_3": "NA","name": "Lokori_Kochodin.city","area_km2": 437.6155,"hist_schema_id": "Elevation0-9000","hist_area_km2": {"1250": 5.5107,"1275": 21.8523,"1300": 35.8626,"1325": 48.0505,"1350": 56.9534,"1375": 50.3831,"1400": 41.7355,"1425": 33.342,"1450": 24.7576,"1475": 17.9536,"1500": 11.3402,"1525": 8.6482,"1550": 7.0797,"1575": 7.4824,"1600": 7.0585,"1625": 7.546,"1650": 7.0161,"1675": 7.0161,"1700": 7.4825,"1725": 6.571,"1750": 6.0835,"1775": 6.2319,"1800": 5.2568,"1825": 3.8578,"1850": 0.975,"1875": 0.3391,"1900": 0.3179,"1925": 0.2543,"1950": 0.2967,"1975": 0.1272,"2000": 0.1484,"2025": 0.0636,"2050": 0.0212}}}