{"type": "Feature","bbox": [36.8148,-1.1779,36.8607,-1.144],"geometry": {"type": "MultiPolygon","coordinates": [[[[36.823,-1.1634,1730.0938],[36.826,-1.1676,1716.3204],[36.8289,-1.1662,1706.1096],[36.835,-1.1692,1686.231],[36.8404,-1.1695,1655.4192],[36.8365,-1.1763,1669.4347],[36.8397,-1.1779,1663.567],[36.8441,-1.1768,1649.1007],[36.8485,-1.1699,1660.2156],[36.8529,-1.1696,1643.8226],[36.8607,-1.1661,1631.2812],[36.8583,-1.1652,1617.491],[36.8561,-1.1604,1663.7222],[36.8524,-1.1604,1668.3276],[36.8397,-1.1536,1698.0342],[36.8376,-1.1483,1705.5049],[36.8352,-1.1466,1733.3044],[36.8179,-1.144,1792.5272],[36.8148,-1.1536,1794.0803],[36.8187,-1.1559,1791.6332],[36.823,-1.1634,1730.0938]]]]}
,"properties": {"GID_3": "KEN.13.7.2_1","GID_0": "KEN","country": "Kenya","GID_1": "KEN.13_1","province": "Kiambu","NL_NAME_1": "NA","GID_2": "KEN.13.7_1","county": "Kiambu","NL_NAME_2": "NA","city": "Riabai","VARNAME_3": "NA","NL_NAME_3": "NA","TYPE_3": "Ward","ENGTYPE_3": "Ward","CC_3": "584","HASC_3": "NA","name": "Riabai.city","area_km2": 8.754718,"hist_schema_id": "Elevation0-9000","hist_area_km2": {"1600": 0.063593,"1625": 0.148385,"1650": 0.953901,"1675": 1.992595,"1700": 1.526246,"1725": 1.250675,"1750": 1.187083,"1775": 1.335469,"1800": 0.296771}}}