{"type":"Feature","properties":{"GID_2":"KEN.11.5_1","GID_0":"KEN","country":"Kenya","GID_1":"KEN.11_1","province":"Kakamega","NL_NAME_1":"NA","county":"Lurambi","VARNAME_2":"NA","NL_NAME_2":"NA","TYPE_2":"Constituency","ENGTYPE_2":"Constituency","CC_2":"202","HASC_2":"NA","name":"Lurambi.county"},
"geometry":{"type": "MultiPolygon","coordinates": [[[[34.6091,0.1932,1489.9785],[34.6159,0.1875,1456.2529],[34.6208,0.1886,1480.1141],[34.6262,0.1929,1463.3508],[34.6239,0.2019,1490.9143],[34.6312,0.2061,1509.0502],[34.6366,0.2031,1508.5546],[34.6428,0.2098,1477.2992],[34.6388,0.2212,1480.8029],[34.6319,0.224,1480.9241],[34.6306,0.2382,1404.202],[34.635,0.2399,1396.1013],[34.6377,0.2454,1413.1467],[34.6429,0.2452,1386.7644],[34.6436,0.2482,1393.1042],[34.6505,0.2498,1403.1982],[34.6518,0.2476,1426.5154],[34.6509,0.2463,1400.2083],[34.6564,0.2452,1400.969],[34.6615,0.2468,1420.0205],[34.6671,0.2491,1433.8462],[34.6692,0.2525,1408.0831],[34.6739,0.2526,1449.6495],[34.6744,0.2549,1464.8938],[34.6772,0.255,1474.4888],[34.6774,0.2586,1455.3491],[34.6948,0.2641,1467.9241],[34.6997,0.2678,1464.9924],[34.7029,0.2659,1470.8145],[34.7051,0.2668,1467.8054],[34.7049,0.2652,1472.1322],[34.7077,0.2639,1458.3215],[34.7083,0.2564,1474.0165],[34.7112,0.2538,1462.0446],[34.7125,0.2489,1452.7306],[34.7154,0.2548,1451.5996],[34.7276,0.2598,1476.1443],[34.727,0.2626,1488.3202],[34.7304,0.2614,1484.8389],[34.7322,0.2627,1491.9968],[34.7336,0.2619,1485.6206],[34.7345,0.2635,1492.1665],[34.7367,0.2605,1485.2217],[34.7388,0.2604,1484.8025],[34.7444,0.2627,1499.547],[34.7471,0.2602,1485.2247],[34.7495,0.2621,1497.2744],[34.7515,0.2613,1504.7878],[34.7543,0.2626,1517.1902],[34.7602,0.2555,1486.0483],[34.7649,0.2596,1498.4962],[34.7684,0.26,1488.7576],[34.7675,0.2624,1509.5261],[34.7735,0.2619,1487.4371],[34.7721,0.2653,1504.9861],[34.7737,0.267,1509.6887],[34.7729,0.2693,1512.8962],[34.7758,0.2726,1493.7115],[34.7753,0.2827,1518.6744],[34.777,0.282,1514.2466],[34.7766,0.2868,1533.1603],[34.7789,0.2858,1531.9297],[34.7792,0.2876,1533.5387],[34.7824,0.2849,1524.0597],[34.7843,0.2878,1521.8423],[34.7831,0.2893,1520.4248],[34.786,0.288,1517.8047],[34.7872,0.2922,1561.426],[34.7921,0.2976,1554.5383],[34.7953,0.3129,1546.2449],[34.7909,0.3179,1550.9603],[34.7919,0.3217,1573.2942],[34.7908,0.3238,1595.4347],[34.7865,0.3261,1585.041],[34.7855,0.3295,1557.2482],[34.7929,0.3396,1569.97],[34.7959,0.34,1578.5641],[34.7892,0.3511,1553.1379],[34.7782,0.3642,1532.8846],[34.7741,0.3666,1535.8239],[34.7702,0.3648,1534.0355],[34.7691,0.3591,1513.4712],[34.7636,0.3581,1521.2367],[34.7619,0.3557,1509.4829],[34.7589,0.3564,1510.1229],[34.7568,0.3533,1514.7188],[34.7554,0.3538,1514.3805],[34.7526,0.3478,1500.9764],[34.7514,0.3485,1498.505],[34.7488,0.3458,1482.3757],[34.7462,0.3462,1486.2031],[34.7443,0.3438,1479.7041],[34.7405,0.3437,1484.3129],[34.7389,0.3458,1490.0745],[34.7376,0.3423,1484.2643],[34.7328,0.3421,1481.1327],[34.7283,0.3444,1457.3101],[34.7261,0.3438,1453.1106],[34.7259,0.3457,1465.6165],[34.7241,0.3462,1475.0203],[34.723,0.3441,1477.4889],[34.7215,0.3447,1477.4889],[34.723,0.3427,1468.4957],[34.7214,0.3396,1459.7563],[34.7181,0.338,1462.4203],[34.715,0.3335,1455.2573],[34.7162,0.3284,1436.4697],[34.7122,0.3276,1455.092],[34.7145,0.3263,1448.0852],[34.7142,0.3245,1440.4077],[34.7109,0.3234,1449.0686],[34.7125,0.3218,1439.6104],[34.7063,0.3173,1438.9132],[34.7032,0.3101,1435.811],[34.693,0.3092,1466.9387],[34.6821,0.3044,1401.8185],[34.6781,0.3048,1416.3088],[34.677,0.3025,1397.8433],[34.6745,0.302,1383.4614],[34.6665,0.3062,1407.5574],[34.6648,0.3089,1394.0012],[34.6613,0.3087,1377.4387],[34.6601,0.3119,1384.583],[34.6537,0.3111,1376.4966],[34.6538,0.3087,1372.7939],[34.6528,0.3099,1380.6562],[34.6515,0.3072,1382.0399],[34.6489,0.308,1373.2531],[34.647,0.3055,1401.6016],[34.6428,0.3039,1383.9349],[34.6426,0.3022,1372.0789],[34.6415,0.3034,1372.0789],[34.6405,0.3023,1375.1033],[34.64,0.3039,1374.1022],[34.6325,0.3004,1366.3933],[34.6317,0.2964,1361.209],[34.6298,0.297,1373.0535],[34.6275,0.2941,1377.5592],[34.629,0.2918,1347.0161],[34.6284,0.2893,1354.5963],[34.625,0.2846,1353.1499],[34.6212,0.2851,1331.3746],[34.6183,0.2877,1342.9482],[34.6138,0.2824,1337.8239],[34.6114,0.2823,1326.0461],[34.6135,0.28,1326.6299],[34.6139,0.2729,1326.9924],[34.6165,0.2698,1340.9873],[34.6163,0.2667,1350.5758],[34.6098,0.2609,1375.1992],[34.6054,0.2624,1353.2955],[34.6051,0.2613,1358.0901],[34.6085,0.256,1392.0037],[34.6069,0.2445,1418.4861],[34.61,0.24,1417.3625],[34.6146,0.2378,1450.7251],[34.616,0.2344,1447.3738],[34.6154,0.2297,1439.3767],[34.6085,0.2216,1447.4698],[34.6085,0.2163,1457.9639],[34.607,0.2152,1449.8445],[34.6091,0.1932,1489.9785]]]]}}