{"type": "Feature","bbox": [35.4249,2.5301,36.3855,3.7413],"geometry": {"type": "MultiPolygon","coordinates": [[[[36.1316,3.0142,362.4141],[36.1364,3.018,362.0],[36.1369,3.0295,362.0],[36.1407,3.0365,362.0],[36.1423,3.0533,362.401],[36.142,3.0618,367.0159],[36.1398,3.0656,367.3181],[36.1409,3.0725,372.7009],[36.1473,3.0741,366.5],[36.1487,3.0759,371.5549],[36.1519,3.0815,364.9991],[36.1529,3.0883,367.6693],[36.1497,3.0955,366.7333],[36.1521,3.1171,362.0],[36.1495,3.1347,362.0],[36.1439,3.1453,362.7565],[36.1393,3.1489,364.4534],[36.1385,3.1515,364.7119],[36.1505,3.1907,362.0],[36.1521,3.2121,362.0],[36.1507,3.2177,362.0],[36.1485,3.2217,362.0],[36.1461,3.2233,362.5543],[36.1441,3.2227,364.5407],[36.1399,3.2149,364.7485],[36.1423,3.2119,365.6958],[36.1413,3.2099,366.3301],[36.1379,3.2087,365.4561],[36.1209,3.2133,362.0],[36.1109,3.2207,362.0],[36.1013,3.2205,363.1276],[36.0833,3.2255,363.5763],[36.0741,3.2259,362.0],[36.0521,3.2385,362.0],[36.0504,3.7413,362.0],[35.8291,3.7148,365.3952],[35.8208,3.7084,380.4553],[35.8154,3.7076,389.014],[35.8109,3.7029,407.5405],[35.797,3.7001,462.8295],[35.7908,3.6962,504.4416],[35.7874,3.6836,500.1633],[35.7762,3.6718,570.2605],[35.775,3.6626,547.1463],[35.7686,3.6498,560.7255],[35.7609,3.6422,564.5569],[35.7497,3.6351,556.41],[35.7356,3.6308,528.8562],[35.7192,3.6297,528.6767],[35.6882,3.6356,576.7302],[35.6521,3.6365,546.226],[35.6311,3.6279,517.0137],[35.6328,3.6072,509.1484],[35.6294,3.6012,506.4723],[35.6275,3.582,500.3647],[35.6166,3.5893,509.2164],[35.6047,3.5864,510.6678],[35.6007,3.59,514.968],[35.5954,3.6021,534.2935],[35.5842,3.6006,531.8147],[35.5795,3.6042,546.9659],[35.572,3.6033,542.9663],[35.5688,3.6059,554.4775],[35.5622,3.6038,558.7351],[35.5543,3.6043,569.9487],[35.5453,3.6014,571.6737],[35.5443,3.5973,550.6577],[35.527,3.6013,569.0462],[35.5135,3.5993,571.725],[35.5019,3.5994,573.6735],[35.492,3.597,618.8665],[35.4843,3.5935,587.832],[35.4797,3.5844,583.5026],[35.4736,3.5773,592.1255],[35.4671,3.5732,605.2047],[35.4594,3.5733,617.4623],[35.4521,3.5696,645.3595],[35.4388,3.5735,594.8428],[35.4339,3.5695,593.4692],[35.4323,3.5647,588.1656],[35.4249,3.5568,578.0218],[35.4259,3.5426,572.1683],[35.4311,3.5377,573.3981],[35.4365,3.5275,565.889],[35.4432,3.5271,568.4069],[35.4493,3.5212,561.9902],[35.4518,3.5157,559.7066],[35.4528,3.5071,556.2764],[35.4641,3.505,556.9386],[35.4735,3.5007,556.9426],[35.4757,3.4969,548.8135],[35.4771,3.4747,555.5955],[35.473,3.4498,564.2101],[35.4741,3.4281,557.6865],[35.4778,3.4149,555.3334],[35.483,3.4073,550.3014],[35.4888,3.4049,547.1561],[35.4944,3.3996,539.7228],[35.5136,3.3763,533.3804],[35.5252,3.3676,556.5835],[35.533,3.3566,574.569],[35.5381,3.3523,570.0858],[35.543,3.3422,569.0452],[35.5508,3.3373,586.5457],[35.555,3.3316,585.9468],[35.5574,3.3169,592.7609],[35.5561,3.2902,585.3081],[35.5578,3.2785,594.0045],[35.5609,3.2712,579.8512],[35.5989,3.2486,577.3246],[35.6034,3.2392,564.1874],[35.6019,3.2284,664.6112],[35.5919,3.2109,633.6516],[35.5954,3.2058,579.4434],[35.6034,3.2063,566.9005],[35.6067,3.204,565.3131],[35.5983,3.1859,623.3245],[35.5964,3.1845,586.506],[35.584,3.1866,577.9816],[35.581,3.1845,673.4646],[35.574,3.1664,611.9011],[35.5546,3.1517,505.3797],[35.5507,3.1466,503.6757],[35.5493,3.1393,502.7365],[35.5689,3.107,502.739],[35.5841,3.0869,530.8],[35.6,3.0722,536.7796],[35.6164,3.0623,538.2488],[35.6196,3.0544,539.7343],[35.6207,3.0389,530.9995],[35.6247,3.0298,526.105],[35.6517,3.0025,522.1498],[35.6588,3.0167,509.4203],[35.6621,3.0302,501.6613],[35.6667,3.0398,499.0185],[35.6827,3.0455,490.7779],[35.695,3.046,492.186],[35.7066,3.043,486.9869],[35.715,3.0478,480.9692],[35.7217,3.0484,479.4991],[35.7251,3.051,478.3701],[35.7261,3.0547,477.7423],[35.7284,3.0545,477.731],[35.7302,3.0392,478.9646],[35.738,3.0287,481.0371],[35.7395,3.014,481.8805],[35.7371,3.0049,482.8704],[35.7403,2.9882,483.9976],[35.7482,2.9792,485.119],[35.7555,2.9631,486.9468],[35.7655,2.9296,487.6858],[35.7826,2.9174,486.4362],[35.7909,2.9202,487.4961],[35.7959,2.9201,486.2434],[35.7924,2.9147,484.5135],[35.791,2.9037,484.8699],[35.7932,2.8881,488.8587],[35.8028,2.8692,494.7646],[35.8055,2.8586,497.7542],[35.8117,2.8445,501.9077],[35.8293,2.8095,512.0316],[35.8353,2.8026,511.2996],[35.8396,2.8019,508.753],[35.8657,2.8062,495.9001],[35.8702,2.8101,491.2188],[35.8722,2.8149,551.163],[35.8733,2.8145,551.163],[35.8739,2.8089,489.8093],[35.8711,2.8032,492.8008],[35.8704,2.7962,497.0536],[35.8722,2.7769,502.38869999999997],[35.8716,2.7601,508.2294],[35.8694,2.7478,512.9825],[35.862,2.7374,518.8907],[35.8616,2.7133,525.3218],[35.8645,2.7126,526.3098],[35.8711,2.7154,529.3005],[35.8931,2.7311,534.6824],[35.9076,2.744,549.5294],[35.923,2.7626,542.5791],[35.9488,2.7992,496.2543],[35.949,2.8034,495.3811],[35.9512,2.8058,490.2392],[35.9564,2.8194,475.7662],[35.9558,2.8254,474.0415],[35.9586,2.8312,469.3901],[35.9626,2.8329,467.3259],[35.9677,2.8318,466.7852],[35.9965,2.8077,468.8742],[36.0208,2.7801,479.0641],[36.0237,2.7717,486.4078],[36.0218,2.7512,508.0479],[36.023,2.7426,501.9279],[36.028,2.7369,495.8188],[36.0453,2.7255,500.8386],[36.0576,2.7104,488.0138],[36.058,2.698,486.4784],[36.0516,2.6815,501.7146],[36.0544,2.6769,494.0744],[36.0657,2.6696,487.3288],[36.0692,2.6654,481.0109],[36.0713,2.647,490.6374],[36.0708,2.618,501.869],[36.0672,2.5998,518.9205],[36.059,2.5797,555.2168],[36.061,2.5727,551.2051],[36.0663,2.5694,538.9359],[36.0716,2.5694,531.611],[36.0791,2.5736,523.8257],[36.0859,2.5744,513.2844],[36.1001,2.5669,509.8129],[36.1091,2.5601,506.8241],[36.1451,2.5415,496.0174],[36.158,2.5324,498.3753],[36.1656,2.5325,491.0923],[36.1782,2.5371,488.8631],[36.1898,2.5381,487.805],[36.1952,2.5364,477.9932],[36.2007,2.538,473.3106],[36.2374,2.5301,460.7046],[36.25,2.5429,455.9393],[36.261,2.5509,462.2004],[36.3203,2.578,481.3874],[36.3278,2.5821,483.0499],[36.3334,2.5882,490.9694],[36.3364,2.5947,489.2407],[36.3367,2.6014,494.63],[36.3367,2.6589,483.0657],[36.3423,2.6925,469.1935],[36.3402,2.6991,464.4525],[36.3321,2.7087,456.3831],[36.3308,2.714,455.1918],[36.339,2.7232,467.7943],[36.3437,2.7322,473.9565],[36.344,2.739,474.2316],[36.3408,2.7537,466.4382],[36.3413,2.7607,471.9888],[36.3471,2.7728,472.5943],[36.3584,2.786,547.323],[36.3593,2.7904,564.038],[36.357,2.7945,557.0979],[36.3603,2.7981,519.6138],[36.3619,2.8069,544.0544],[36.3652,2.8111,587.1091],[36.365,2.8131,551.4271],[36.3734,2.8182,463.3024],[36.3745,2.8283,414.4657],[36.3772,2.8304,395.6731],[36.3777,2.8332,395.9987],[36.3855,2.834,363.8289],[36.3807,2.8431,367.1654],[36.3675,2.856,362.4938],[36.3616,2.8648,362.0],[36.3467,2.8673,362.0],[36.3225,2.8786,362.0],[36.2998,2.8924,362.0],[36.2914,2.8926,363.0583],[36.2827,2.8964,364.9308],[36.2691,2.9148,362.0],[36.2669,2.9264,362.0],[36.2615,2.939,362.0],[36.2582,2.9638,365.3176],[36.2548,2.9704,364.1843],[36.2537,2.9695,365.0359],[36.2556,2.9656,365.123],[36.2549,2.9561,366.4331],[36.2477,2.9507,366.033],[36.2331,2.9585,365.5584],[36.2251,2.9587,366.3838],[36.2249,2.9569,366.2767],[36.2227,2.9563,366.0892],[36.2175,2.9599,365.7874],[36.2031,2.9623,366.2835],[36.1927,2.9691,365.6623],[36.1793,2.9673,366.3845],[36.1703,2.9691,366.3121],[36.1643,2.9677,365.9957],[36.1385,2.9703,365.7007],[36.1341,2.9685,365.5892],[36.1374,2.9843,364.9324],[36.1333,2.9827,368.0411],[36.13,2.9792,367.5696],[36.1296,2.9854,367.2114],[36.1249,2.9841,366.1832],[36.1237,2.9859,365.5807],[36.127,3.0056,364.4144],[36.1316,3.0142,362.4141]]]]}
,"properties": {"GID_2": "KEN.43.2_1","GID_0": "KEN","country": "Kenya","GID_1": "KEN.43_1","province": "Turkana","NL_NAME_1": "NA","county": "TurkanaCentral","VARNAME_2": "NA","NL_NAME_2": "NA","TYPE_2": "Constituency","ENGTYPE_2": "Constituency","CC_2": "125","HASC_2": "NA","name": "Turkana_Central.county","area_km2": 6635.775,"hist_schema_id": "Elevation0-9000","hist_area_km2": {"350": 830.916,"375": 765.645,"400": 572.692,"425": 646.564,"450": 1055.141,"475": 760.966,"500": 948.912,"525": 539.197,"550": 286.757,"575": 145.383,"600": 63.534,"625": 11.578,"650": 4.72,"675": 2.244,"700": 0.889,"725": 0.36,"750": 0.106,"775": 0.064}}}