{"type": "Feature","bbox": [37.9413,2.1119,38.1851,2.5853],"geometry": {"type": "MultiPolygon","coordinates": [[[[38.1485,2.3019,690.33],[38.1445,2.3039,706.4982],[38.0765,2.5347,914.8601],[37.9413,2.5853,638.0352],[37.9433,2.5797,641.8098],[37.9492,2.5753,647.1298],[37.9541,2.5673,656.7827],[37.9549,2.5573,665.738],[37.9636,2.5452,678.9931],[37.9609,2.5351,686.2736],[37.9617,2.5255,700.8284],[37.9579,2.5163,716.9348],[37.9593,2.5081,738.6798],[37.9557,2.4899,765.7203],[37.9585,2.4733,789.5105],[37.9669,2.4565,856.3978],[37.9731,2.4293,962.6674],[37.9765,2.4221,977.8076],[37.9829,2.4151,1029.9814],[37.9969,2.3833,1216.9878],[37.9989,2.3763,1292.8738],[37.9971,2.3681,1306.3888],[38.0151,2.356,1315.5664],[38.023,2.3473,1264.0438],[38.0338,2.3395,1192.0171],[38.037,2.3352,1180.1766],[38.0385,2.3257,1156.3296],[38.0383,2.3171,1162.8358],[38.0323,2.3103,1155.7317],[38.0327,2.2923,1096.512],[38.0349,2.2827,1041.9935],[38.0295,2.2665,1020.0337],[38.0255,2.2593,1025.0341],[38.0023,2.2439,1008.2243],[37.9965,2.2323,994.4393],[37.9919,2.2283,973.8154],[37.9801,2.2259,1002.6788],[37.9717,2.2261,1021.8098],[37.9713,2.2236,1003.2808],[37.9735,2.2219,1006.6191],[37.9843,2.2199,970.6244],[37.9879,2.2161,943.7081],[37.9913,2.2083,909.0674],[37.993899999999996,2.2073,901.1527],[37.9953,2.2033,886.6089],[38.0085,2.1861,730.8634],[38.0131,2.1853,784.7491],[38.0128,2.1798,761.7903],[38.0165,2.1757,754.5624],[38.0157,2.1723,750.8868],[38.0175,2.1673,730.0427],[38.0165,2.1631,716.0243],[38.0207,2.1587,708.8984],[38.0219,2.1511,685.5117],[38.0289,2.1449,670.9983],[38.0323,2.1315,638.4011],[38.0395,2.1235,554.518],[38.0521,2.1201,590.5212],[38.0589,2.1119,505.6924],[38.1457,2.1463,490.2302],[38.1851,2.1601,481.6182],[38.1443,2.3035,710.6534],[38.1485,2.3019,690.33]]]]}
,"properties": {"GID_3": "KEN.25.4.3_1","GID_0": "KEN","country": "Kenya","GID_1": "KEN.25_1","province": "Marsabit","NL_NAME_1": "NA","GID_2": "KEN.25.4_1","county": "Saku","NL_NAME_2": "NA","city": "Sagante/Jaldesa","VARNAME_3": "NA","NL_NAME_3": "NA","TYPE_3": "Ward","ENGTYPE_3": "Ward","CC_3": "233","HASC_3": "NA","name": "Sagante_Jaldesa.city","area_km2": 708.0308,"hist_schema_id": "Elevation0-9000","hist_area_km2": {"475": 0.8899,"500": 10.826599999999999,"525": 15.4453,"550": 15.5301,"575": 19.6826,"600": 21.0597,"625": 23.1995,"650": 32.0959,"675": 34.7437,"700": 31.7351,"725": 32.0525,"750": 32.8568,"775": 35.8221,"800": 33.7032,"825": 31.1399,"850": 29.8054,"875": 29.8265,"900": 26.9035,"925": 28.3444,"950": 32.8565,"975": 36.5211,"1000": 27.6662,"1025": 20.4424,"1050": 16.6081,"1075": 15.2524,"1100": 14.0238,"1125": 12.6045,"1150": 11.3123,"1175": 8.7278,"1200": 6.7577,"1225": 6.6306,"1250": 4.8088,"1275": 3.1352,"1300": 2.9658,"1325": 1.3982,"1350": 0.4237,"1375": 0.1907,"1400": 0.0424}}}