{"type": "Feature","bbox": [37.8535,-3.3661,38.7361,-2.6792],"geometry": {"type": "MultiPolygon","coordinates": [[[[37.8751,-3.0399,791.9648],[37.8707,-3.0775,846.52],[37.8663,-3.0792,851.5763],[37.8543,-3.0801,867.5574],[37.8535,-3.1692,876.6569],[37.8551,-3.1696,874.6762],[37.8645,-3.1602,866.1034],[37.8665,-3.1601,861.9606],[37.8719,-3.151,854.9244],[37.8723,-3.1456,853.5226],[37.8843,-3.1381,839.2659],[37.8891,-3.1319,835.8413],[37.8945,-3.1316,831.653],[37.8939,-3.1198,826.3398],[37.8961,-3.1086,828.8845],[37.9003,-3.1052,823.8339],[37.9025,-3.0964,807.7444],[37.9031,-3.0847,794.1102],[37.9001,-3.0733,799.541],[37.9011,-3.0714,785.5826],[37.9051,-3.0703,776.4055],[37.9133,-3.0587,766.8514],[37.9107,-3.051,760.061],[37.9135,-3.0412,759.453],[37.9195,-3.0389,748.6982],[37.9237,-3.0294,739.4147],[37.9273,-3.029,738.0289],[37.9335,-3.0147,727.9602],[37.9397,-3.0103,725.7012],[37.9389,-3.0065,724.7648],[37.9433,-2.9995,727.998],[37.9459,-2.999,720.9926],[37.9493,-3.0012,719.0298],[37.9521,-3.0002,718.978],[37.9549,-3.0037,713.974],[37.9589,-3.0042,714.1665],[37.9601,-3.0066,712.2861],[37.9613,-3.0056,712.749],[37.9667,-3.0107,708.517],[37.9747,-3.0068,710.7516],[37.9769,-3.0071,711.2592],[37.9783,-3.0121,704.6185],[37.9853,-3.0169,696.1659],[37.9907,-3.0175,693.6628],[38.0001,-3.0134,696.5028],[38.0043,-3.0133,691.8414],[38.0065,-3.0113,683.8963],[38.0173,-3.0155,677.8099],[38.0211,-3.0199,670.9948],[38.0263,-3.0223,663.47],[38.0303,-3.0211,659.1885],[38.0307,-3.0183,659.3229],[38.0353,-3.0198,651.6166],[38.0361,-3.0228,650.79],[38.0383,-3.0241,647.9681],[38.0397,-3.0225,645.3986],[38.0477,-3.0224,640.5913],[38.0513,-3.0198,639.174],[38.0539,-3.0201,639.0378],[38.0571,-3.0284,643.5665],[38.0659,-3.0364,636.4703],[38.0679,-3.0349,630.461],[38.0741,-3.036,629.3535],[38.0743,-3.039,631.8184],[38.0761,-3.0362,634.5019],[38.0835,-3.0371,625.4923],[38.0809,-3.0337,648.4171],[38.0895,-3.034,642.0624],[38.0917,-3.0367,625.1107],[38.0953,-3.0373,629.3591],[38.0953,-3.041,622.3209],[38.1001,-3.0404,627.144],[38.1049,-3.0469,636.6459],[38.1113,-3.046,628.5615],[38.1163,-3.0507,618.2039],[38.1273,-3.0487,617.1371],[38.1297,-3.0541,615.1586],[38.1345,-3.0525,622.2853],[38.1379,-3.0534,612.7467],[38.1379,-3.0548,610.297],[38.1329,-3.057,613.2565],[38.1339,-3.0602,606.9621],[38.1373,-3.0597,606.0185],[38.1397,-3.057,613.0837],[38.1471,-3.0621,605.7488],[38.1495,-3.0586,605.788],[38.1525,-3.0632,601.0975],[38.1565,-3.0647,603.0896],[38.1589,-3.0678,602.6468],[38.1673,-3.0678,603.8434],[38.1717,-3.0583,602.8197],[38.1755,-3.0612,599.0024],[38.1869,-3.0649,591.998],[38.1889,-3.0598,594.1586],[38.1957,-3.0614,589.4004],[38.1985,-3.0571,598.0908],[38.2018,-3.0597,588.0133],[38.2015,-3.0615,586.4133],[38.2065,-3.064,586.662],[38.2107,-3.063,587.743],[38.2197,-3.0683,581.5327],[38.2201,-3.0656,597.8888],[38.2231,-3.0665,588.6502],[38.2249,-3.0697,581.8672],[38.2239,-3.0719,580.2197],[38.2275,-3.0763,576.0497],[38.2289,-3.0759,574.1639],[38.2309,-3.0707,621.1569],[38.2319,-3.0757,573.1441],[38.2375,-3.075,574.7014],[38.2403,-3.0728,586.7401],[38.2413,-3.0755,573.4066],[38.243899999999996,-3.0753,581.0289],[38.2459,-3.0789,569.8156],[38.2529,-3.0796,576.0358],[38.2555,-3.0778,563.8036],[38.2553,-3.0746,568.0119],[38.2509,-3.0718,562.7422],[38.2551,-3.0656,559.0997],[38.2523,-3.0632,570.3154],[38.2531,-3.0615,563.7175],[38.2579,-3.0605,570.9992],[38.2601,-3.0631,558.6155],[38.2587,-3.0669,556.6782],[38.2649,-3.0691,556.0597],[38.2663,-3.0668,554.636],[38.2645,-3.0646,569.329],[38.2675,-3.0609,569.0759],[38.2703,-3.0633,554.0828],[38.2697,-3.0661,551.7119],[38.2711,-3.067,560.6788],[38.2783,-3.0635,548.4736],[38.2761,-3.06,550.4594],[38.2768,-3.0587,560.4554],[38.2811,-3.0584,557.0607],[38.2847,-3.0613,543.6236],[38.2881,-3.0592,563.4873],[38.2883,-3.0629,541.4607],[38.2933,-3.0612,553.6455],[38.2941,-3.0562,569.4468],[38.2999,-3.059,563.8992],[38.3029,-3.0567,577.9714],[38.3049,-3.0642,555.5571],[38.3075,-3.0676,568.8502],[38.3085,-3.0743,579.2933],[38.3141,-3.0789,591.0587],[38.3107,-3.0796,596.8629],[38.3099,-3.0861,596.542],[38.3081,-3.0871,601.5057],[38.3101,-3.0907,596.701],[38.3047,-3.0927,611.9843],[38.3035,-3.0964,611.5466],[38.2997,-3.0977,621.9009],[38.2991,-3.1038,613.0386],[38.2945,-3.1068,622.3371],[38.2909,-3.1068,640.943],[38.2861,-3.1122,639.4448],[38.2871,-3.1143,633.2641],[38.2839,-3.1175,643.131],[38.2885,-3.1208,655.0514],[38.2873,-3.1229,645.4846],[38.2893,-3.1259,648.7786],[38.2849,-3.1408,672.5249],[38.2854,-3.1446,674.1972],[38.2881,-3.1467,677.2312],[38.2869,-3.151,683.4917],[38.2911,-3.1547,684.9263],[38.2917,-3.1594,686.5411],[38.2957,-3.1612,709.1525],[38.2977,-3.1665,699.1096],[38.4417,-3.1665,754.3201],[38.4405,-3.174,912.105],[38.4421,-3.1967,912.1265],[38.4349,-3.2204,941.9696],[38.4325,-3.2528,655.6646],[38.4251,-3.2519,660.5981],[38.4161,-3.2541,668.28],[38.4269,-3.2812,657.0974],[38.4283,-3.2918,672.4745],[38.4251,-3.295,730.6177],[38.4055,-3.2968,851.7258],[38.4053,-3.3011,854.2466],[38.4079,-3.3037,891.9692],[38.4109,-3.3137,931.0499],[38.4147,-3.3163,1153.6091],[38.4149,-3.3196,1098.7568],[38.4125,-3.3233,1178.9053],[38.4177,-3.3317,1283.4016],[38.4245,-3.3314,1308.3495],[38.4267,-3.3363,1281.0793],[38.4411,-3.3365,1362.1025],[38.4385,-3.3424,1344.2761],[38.4387,-3.3493,1382.949],[38.4409,-3.3543,1324.6318],[38.4383,-3.3544,1348.2155],[38.4389,-3.3563,1281.0134],[38.4363,-3.3633,1268.7729],[38.4373,-3.365,1256.8547],[38.4439,-3.3661,1033.6271],[38.4479,-3.34,1510.6776],[38.4571,-3.3376,1279.5774],[38.4585,-3.3208,1539.3228],[38.4847,-3.3139,783.7501],[38.5179,-3.2965,619.5659],[38.5021,-3.2337,579.7872],[38.5023,-3.2279,577.2095],[38.5107,-3.227,569.897],[38.5129,-3.2239,568.8004],[38.5181,-3.2227,563.6577],[38.5195,-3.2207,564.0599],[38.5277,-3.2226,557.0009],[38.5341,-3.2173,550.817],[38.5441,-3.214,542.5737],[38.5483,-3.2099,539.91],[38.5521,-3.2094,534.9763],[38.5533,-3.2111,532.5404],[38.5565,-3.2083,531.8152],[38.5629,-3.2087,525.3575],[38.5653,-3.2067,521.5699],[38.5657,-3.201,517.2863],[38.5701,-3.1945,512.406],[38.5749,-3.1924,508.7043],[38.5797,-3.1844,501.2575],[38.5827,-3.1847,499.5231],[38.5869,-3.183,494.578],[38.5871,-3.1802,493.5512],[38.5903,-3.1803,489.822],[38.5953,-3.1704,481.3204],[38.5965,-3.171,480.4747],[38.6061,-3.1644,469.7327],[38.6093,-3.1655,469.6963],[38.6123,-3.1604,463.2107],[38.6227,-3.157,454.2671],[38.6279,-3.1468,443.1165],[38.6365,-3.1417,435.4129],[38.6391,-3.1384,437.3241],[38.6409,-3.1386,432.3784],[38.6441,-3.1338,428.4026],[38.6473,-3.1334,425.0605],[38.6495,-3.1313,424.3677],[38.6569,-3.1319,418.5005],[38.6585,-3.1297,416.2614],[38.6609,-3.1296,413.7932],[38.6611,-3.1258,422.1189],[38.6717,-3.1227,404.2607],[38.6735,-3.1165,397.8721],[38.6721,-3.1118,395.7792],[38.6739,-3.1077,390.5284],[38.6777,-3.1075,390.8442],[38.6827,-3.0994,380.628],[38.6851,-3.0981,377.8068],[38.6839,-3.092,379.0679],[38.6913,-3.0893,373.377],[38.6981,-3.083,363.4146],[38.6971,-3.0767,365.3289],[38.6933,-3.0746,356.9709],[38.6943,-3.0715,358.6778],[38.6979,-3.071,349.7256],[38.6983,-3.0684,354.5089],[38.7027,-3.0691,343.8029],[38.7005,-3.0642,343.2091],[38.7021,-3.0582,342.9311],[38.7053,-3.057,337.9161],[38.7063,-3.0543,343.9796],[38.7121,-3.0543,329.0604],[38.7121,-3.0492,335.4744],[38.7161,-3.0512,325.3628],[38.7199,-3.0497,322.2818],[38.7221,-3.0449,323.7307],[38.7253,-3.047,318.0719],[38.7333,-3.0471,312.1468],[38.7361,-3.0425,314.2017],[38.7319,-3.0416,310.0265],[38.7231,-3.0364,314.0402],[38.7073,-3.0315,320.4915],[38.6943,-3.0356,340.0911],[38.6816,-3.035,351.2504],[38.6652,-3.0393,348.2458],[38.6613,-3.0288,351.704],[38.6538,-3.025,353.6581],[38.6513,-3.0204,351.9821],[38.6427,-3.0127,365.1873],[38.6358,-3.0108,362.6299],[38.6295,-3.0119,359.5702],[38.6251,-3.0099,360.8867],[38.6176,-3.0099,362.194],[38.6133,-3.007,380.5924],[38.6083,-3.0064,361.916],[38.6061,-3.0033,381.5929],[38.6092,-2.9967,370.9499],[38.6085,-2.9947,384.0576],[38.6019,-2.9986,385.5702],[38.594,-2.9991,391.4878],[38.5843,-2.9875,402.5524],[38.5595,-2.986,407.915],[38.5507,-2.9805,406.4836],[38.5439,-2.9796,394.8941],[38.5381,-2.9734,412.3687],[38.5309,-2.9759,416.5619],[38.5257,-2.974,412.8033],[38.5194,-2.9747,410.0339],[38.5143,-2.9789,417.4218],[38.5147,-2.9825,408.5034],[38.5132,-2.9835,421.6902],[38.5083,-2.9824,436.1451],[38.4928,-2.984,421.9268],[38.4885,-2.9776,436.3184],[38.4774,-2.9853,460.3888],[38.4681,-2.985,458.3693],[38.4677,-2.9877,455.2114],[38.4633,-2.9878,458.3545],[38.4599,-2.9922,462.2684],[38.4589,-2.9917,462.2684],[38.4475,-2.971,511.3014],[38.4301,-2.9556,541.0044],[38.4087,-2.927,581.8837],[38.4053,-2.9256,577.1709],[38.3982,-2.9271,591.1759],[38.3929,-2.926,599.5453],[38.3619,-2.898,584.9203],[38.3385,-2.8653,603.2452],[38.3187,-2.8327,620.458],[38.302,-2.8159,632.2194],[38.2791,-2.7824,660.3914],[38.2579,-2.7576,675.8115],[38.2505,-2.752,680.5889],[38.2497,-2.7497,683.3294],[38.1847,-2.7028,746.063],[38.1669,-2.6931,756.7743],[38.1625,-2.693,764.1577],[38.1613,-2.6792,744.239],[38.1573,-2.6881,747.7833],[38.1577,-2.6936,749.2619],[38.1533,-2.6982,761.1472],[38.1287,-2.6981,785.5686],[38.1224,-2.7045,793.6829],[38.1183,-2.7047,801.611],[38.1153,-2.7126,808.6906],[38.1013,-2.7183,833.2986],[38.1001,-2.7207,835.3469],[37.9744,-2.7874,1692.6051],[37.9375,-2.7708,1496.3254],[37.9179,-2.8684,1030.1255],[37.8945,-2.8857,871.4315],[37.8751,-3.0399,791.9648]]]]}
,"properties": {"GID_3": "KEN.39.3.5_1","GID_0": "KEN","country": "Kenya","GID_1": "KEN.39_1","province": "TaitaTaveta","NL_NAME_1": "NA","GID_2": "KEN.39.3_1","county": "Voi","NL_NAME_2": "NA","city": "Ngolia","VARNAME_3": "NA","NL_NAME_3": "NA","TYPE_3": "Ward","ENGTYPE_3": "Ward","CC_3": "130","HASC_3": "NA","name": "Ngolia.city","area_km2": 2691.608,"hist_schema_id": "Elevation0-9000","hist_area_km2": {"300": 1.122,"325": 4.425,"350": 14.927,"375": 22.802,"400": 42.683,"425": 50.792,"450": 59.366,"475": 77.108,"500": 86.974,"525": 107.192,"550": 109.733,"575": 118.328,"600": 134.652,"625": 131.119,"650": 155.11,"675": 155.643,"700": 125.219,"725": 117.706,"750": 121.669,"775": 130.649,"800": 128.638,"825": 134.736,"850": 132.343,"875": 125.674,"900": 115.407,"925": 59.651,"950": 31.127,"975": 24.118,"1000": 18.973,"1025": 16.199,"1050": 14.06,"1075": 11.731,"1100": 10.439,"1125": 9.38,"1150": 9.571,"1175": 7.284,"1200": 6.162,"1225": 7.411,"1250": 5.823,"1275": 5.441,"1300": 6.267,"1325": 5.378,"1350": 3.959,"1375": 3.769,"1400": 3.578,"1425": 3.43,"1450": 3.43,"1475": 3.113,"1500": 2.943,"1525": 2.308,"1550": 1.884,"1575": 1.673,"1600": 1.694,"1625": 1.99,"1650": 1.652,"1675": 1.292,"1700": 0.635,"1725": 0.614,"1750": 0.381,"1775": 0.191,"1800": 0.042}}}