{"type":"Feature","properties":{"GID_3":"KEN.47.4.4_1","GID_0":"KEN","country":"Kenya","GID_1":"KEN.47_1","province":"WestPokot","NL_NAME_1":"NA","GID_2":"KEN.47.4_1","county":"Sigor","NL_NAME_2":"NA","city":"Weiwei","VARNAME_3":"NA","NL_NAME_3":"NA","TYPE_3":"Ward","ENGTYPE_3":"Ward","CC_3":"650","HASC_3":"NA","name":"Weiwei.city"},
"geometry":{"type": "MultiPolygon","coordinates": [[[[35.5181,1.271,3510.6675],[35.5205,1.2972,3237.1538],[35.5183,1.3057,2865.571],[35.522,1.3133,2882.9873],[35.5217,1.3227,2734.6299],[35.5163,1.335,2787.2764],[35.517,1.3409,2738.6309],[35.5089,1.3581,2629.1902],[35.5094,1.3683,2388.2136],[35.5036,1.3737,2378.448],[35.5007,1.3812,2282.3887],[35.5005,1.4193,1696.6182],[35.5035,1.427,1627.6029],[35.5103,1.4305,1398.1129],[35.5149,1.4297,1208.0328],[35.5196,1.4316,1041.3127],[35.5253,1.4367,1010.0437],[35.5343,1.4415,986.3906],[35.5432,1.4528,960.0866],[35.5447,1.4579,951.9338],[35.5546,1.4651,940.7137],[35.5537,1.4716,938.648],[35.5452,1.4833,925.0728],[35.5506,1.5086,906.4266],[35.5651,1.5301,906.9932],[35.5572,1.5339,896.789],[35.5577,1.5353,896.789],[35.5557,1.5358,896.0988],[35.5533,1.54,895.4304],[35.5537,1.5423,898.0012],[35.549,1.5482,891.2211],[35.5486,1.5526,891.1245],[35.55,1.5545,889.0214],[35.5486,1.5615,884.1682],[35.5501,1.5663,879.1839],[35.5473,1.5736,878.3598],[35.5477,1.5751,878.4167],[35.5504,1.5748,877.24],[35.5491,1.5782,876.5038],[35.5512,1.5798,886.8241],[35.5493,1.5855,883.8823],[35.5454,1.5864,879.3569],[35.5434,1.5921,874.9617],[35.5385,1.5954,873.5186],[35.5421,1.599,872.256],[35.5429,1.6027,871.9733],[35.5461,1.6027,871.7267],[35.5453,1.6063,870.6556],[35.549,1.6108,869.1746],[35.5433,1.6235,865.1509],[35.5439,1.6216,860.1635],[35.5422,1.6209,859.1959],[35.5411,1.6171,866.0681],[35.5352,1.6137,871.3485],[35.5365,1.6109,873.7453],[35.5318,1.6083,876.4227],[35.5309,1.6101,875.8331],[35.5298,1.607,879.0706],[35.5286,1.6072,879.5029],[35.5296,1.605,881.2964],[35.5271,1.6034,883.6309],[35.5287,1.6013,881.9703],[35.5245,1.5986,881.1957],[35.5259,1.5974,881.1957],[35.5252,1.5924,873.9254],[35.524,1.5932,873.9254],[35.524,1.5905,874.8718],[35.5216,1.5901,890.004],[35.5211,1.585,886.5131],[35.519,1.5849,891.1761],[35.5163,1.5799,887.3009],[35.5126,1.5821,904.0228],[35.5103,1.5798,900.7849],[35.506,1.5803,907.0497],[35.5047,1.5772,907.3822],[35.5014,1.5778,910.3672],[35.5024,1.5754,906.5071],[35.5005,1.5736,906.5374],[35.4999,1.5684,890.1273],[35.4981,1.5695,899.8833],[35.4953,1.5685,910.265],[35.496,1.5663,911.8157],[35.494,1.566,914.5848],[35.492,1.5627,912.5901],[35.4895,1.5639,915.2964],[35.486,1.5617,921.0999],[35.487,1.5599,911.6985],[35.4825,1.5589,925.0425],[35.4843,1.5575,920.9023],[35.4816,1.5496,905.5021],[35.4796,1.5517,919.7532],[35.4786,1.5489,906.968],[35.4694,1.5454,935.8451],[35.4633,1.5393,921.5988],[35.4564,1.543,934.1539],[35.4517,1.5382,961.9944],[35.4443,1.5379,1043.3373],[35.4392,1.5336,1240.1431],[35.4362,1.5352,1391.7955],[35.434,1.5337,1279.77],[35.4295,1.5355,1552.9636],[35.4219,1.5353,1309.3201],[35.4125,1.5392,1183.9033],[35.4122,1.5348,1199.0767],[35.4104,1.5342,1283.9852],[35.4053,1.5404,1358.8455],[35.397,1.5437,1316.7185],[35.3965,1.5423,1316.7185],[35.3923,1.5419,1344.4998],[35.3636,1.521,1469.76],[35.3421,1.5108,1416.51],[35.34,1.5082,1351.6125],[35.3443,1.5035,1413.2853],[35.353,1.5008,1571.8103],[35.3546,1.4964,1620.163],[35.3584,1.4944,1825.5459],[35.3701,1.4829,1496.9288],[35.3725,1.4823,1473.1412],[35.3745,1.4855,1586.733],[35.376,1.4854,1508.647],[35.3757,1.484,1508.647],[35.3795,1.4807,1297.3318],[35.3826,1.4739,1479.1885],[35.3861,1.4716,1421.511],[35.3925,1.4567,1744.3481],[35.4025,1.4485,2273.6143],[35.4082,1.4399,2542.9558],[35.4427,1.4332,1692.6541],[35.4652,1.4326,1097.5045],[35.4613,1.4264,1139.215],[35.4444,1.4231,1781.1279],[35.4361,1.4104,2243.0488],[35.4377,1.3996,2247.1187],[35.4478,1.3665,1812.8767],[35.4498,1.3328,2174.116],[35.4352,1.2847,3115.3174],[35.4475,1.2791,2903.2893],[35.4498,1.2711,2979.2642],[35.4674,1.2361,3161.0635],[35.467,1.229,3140.9016],[35.5181,1.271,3510.6675]]]]}}