{"type": "Feature","bbox": [36.6573,-1.9889,36.8282,-1.7409],"geometry": {"type": "MultiPolygon","coordinates": [[[[36.7547,-1.7663,1733.6859],[36.7066,-1.7572,1807.7903],[36.6747,-1.7409,1985.9478],[36.6573,-1.8257,1649.8457],[36.662,-1.8568,1747.845],[36.7139,-1.9124,1687.8707],[36.7318,-1.9177,1707.2502],[36.7384,-1.927,1692.8945],[36.7435,-1.9387,1721.6562],[36.7387,-1.9506,1717.4657],[36.7365,-1.9618,1783.6351],[36.7341,-1.9646,1811.3481],[36.7341,-1.967,1818.1232],[36.7298,-1.9708,1922.9841],[36.7354,-1.9889,2028.8501],[36.7449,-1.9814,1961.0652],[36.7475,-1.9814,1962.4265],[36.7531,-1.9882,2009.8196],[36.7628,-1.9834,1897.9263],[36.7682,-1.9786,1850.2898],[36.7687,-1.9708,1743.0797],[36.7714,-1.9668,1733.7517],[36.7804,-1.9675,1691.8795],[36.7905,-1.953,1639.3523],[36.8038,-1.9484,1624.4836],[36.8079,-1.9485,1639.2607],[36.8173,-1.9423,1622.3274],[36.8228,-1.9414,1569.1591],[36.8223,-1.9377,1590.6656],[36.8248,-1.9379,1586.3889],[36.8282,-1.9357,1583.1694],[36.8246,-1.933,1582.3872],[36.8228,-1.934,1583.7292],[36.8231,-1.9304,1591.6924],[36.8202,-1.9299,1602.0892],[36.8167,-1.9326,1591.9961],[36.8172,-1.93,1600.094],[36.8126,-1.9301,1596.1172],[36.8134,-1.9282,1600.387],[36.8119,-1.9267,1604.7111],[36.8095,-1.928,1600.824],[36.807,-1.927,1604.5321],[36.8085,-1.9238,1603.2302],[36.8078,-1.9189,1609.0122],[36.8057,-1.916,1611.6246],[36.804,-1.9166,1609.9019],[36.7992,-1.9135,1613.4304],[36.7966,-1.9073,1619.5642],[36.795,-1.9054,1618.0012],[36.7943,-1.9065,1621.2153],[36.7933,-1.9026,1620.9852],[36.7914,-1.9026,1627.8713],[36.7902,-1.9006,1626.3625],[36.7898,-1.8973,1629.2446],[36.7915,-1.896,1625.7078],[36.7906,-1.8939,1632.2484],[36.7956,-1.8888,1630.5929],[36.7924,-1.8861,1634.2959],[36.7927,-1.8839,1634.014],[36.7873,-1.878,1643.1494],[36.7755,-1.8736,1647.8732],[36.7671,-1.8669,1651.6628],[36.7795,-1.8553,1722.9292],[36.7822,-1.8561,1727.1786],[36.7887,-1.8477,1734.3713],[36.7896,-1.8427,1738.8888],[36.7855,-1.8419,1732.9955],[36.7822,-1.8375,1713.7734],[36.7782,-1.8393,1718.1885],[36.7762,-1.834,1722.4038],[36.7809,-1.8286,1710.3613],[36.7824,-1.8149,1702.1388],[36.7711,-1.8068,1688.0372],[36.7659,-1.7925,1703.7245],[36.7657,-1.7881,1703.9443],[36.7599,-1.7789,1717.5914],[36.7572,-1.7688,1731.4637],[36.7547,-1.7663,1733.6859]]]]}
,"properties": {"GID_3": "KEN.10.1.2_1","GID_0": "KEN","country": "Kenya","GID_1": "KEN.10_1","province": "Kajiado","NL_NAME_1": "NA","GID_2": "KEN.10.1_1","county": "KajiadoCentral","NL_NAME_2": "NA","city": "Ildamat","VARNAME_3": "NA","NL_NAME_3": "NA","TYPE_3": "Ward","ENGTYPE_3": "Ward","CC_3": "917","HASC_3": "NA","name": "Ildamat.city","area_km2": 256.0727,"hist_schema_id": "Elevation0-9000","hist_area_km2": {"1525": 0.106,"1550": 0.2967,"1575": 0.7417,"1600": 1.9919,"1625": 5.0433,"1650": 13.4136,"1675": 25.4288,"1700": 39.0125,"1725": 48.019,"1750": 84.0231,"1775": 20.4923,"1800": 6.4635,"1825": 3.0515,"1850": 1.5469,"1875": 1.1231,"1900": 1.1231,"1925": 1.0596,"1950": 1.0384,"1975": 1.102,"2000": 0.2755,"2025": 0.2755,"2050": 0.1483,"2075": 0.1483,"2100": 0.0636,"2125": 0.0424,"2150": 0.0424}}}