{"type":"Feature","properties":{"GID_3":"KEN.37.3.4_1","GID_0":"KEN","country":"Kenya","GID_1":"KEN.37_1","province":"Samburu","NL_NAME_1":"NA","GID_2":"KEN.37.3_1","county":"SamburuWest","NL_NAME_2":"NA","city":"Poro","VARNAME_3":"NA","NL_NAME_3":"NA","TYPE_3":"Ward","ENGTYPE_3":"Ward","CC_3":"665","HASC_3":"NA","name":"Poro.city"},
"geometry":{"type": "MultiPolygon","coordinates": [[[[36.6241,1.3769,1916.1604],[36.6284,1.3829,1914.9399],[36.6289,1.387,1883.5107],[36.6178,1.3914,1939.6936],[36.5991,1.3941,1545.1525],[36.5887,1.4001999999999999,1266.0309],[36.5833,1.4001,1256.3715],[36.5775,1.4023,1295.6344],[36.5736,1.4058,1308.9677],[36.5686,1.4073,1197.2413],[36.5676,1.4101,1206.6377],[36.5634,1.4119,1215.2673],[36.5611,1.4153,1273.3202],[36.5545,1.4175,1139.4617],[36.5533,1.4202,1144.8124],[36.5511,1.4199,1110.7772],[36.5526,1.4214,1120.4163],[36.5479,1.4248,1187.8301],[36.5454,1.4239,1147.2083],[36.5443,1.4258,1097.213],[36.5397,1.4267,1126.4086],[36.5355,1.4315,1074.7227],[36.5332,1.4318,1021.4799],[36.5328,1.4341,973.0762],[36.5262,1.4398,859.1218],[36.526,1.4461,840.0168],[36.5285,1.4499,831.6025],[36.5278,1.4554,822.5036],[36.5255,1.4552,821.6124],[36.5209,1.4523,989.8965],[36.5176,1.4528,1123.2152],[36.5122,1.45,1055.2184],[36.5085,1.4468,1009.298],[36.5058,1.4392,901.1829],[36.4809,1.4277,1341.6555],[36.4758,1.4239,1306.151],[36.4705,1.4149,1099.3523],[36.4671,1.415,1046.9735],[36.4674,1.413,992.9282],[36.4635,1.4068,1006.2844],[36.4669,1.4025,1091.2577],[36.466,1.3846,956.6085],[36.4604,1.3717,984.5895],[36.4416,1.3622,915.3093],[36.434,1.3526,875.7759],[36.4248,1.3496,827.9008],[36.4223,1.3465,945.0344],[36.4211,1.3347,987.7703],[36.4124,1.3297,880.4491],[36.4039,1.3173,947.9888],[36.396,1.3184,840.6144],[36.3937,1.3157,860.4387],[36.3972,1.3119,876.9043],[36.403,1.3121,1084.6589],[36.4061,1.3036,956.8768],[36.4108,1.3042,1150.2347],[36.421,1.2996,1127.4779],[36.4267,1.3046,1147.2781],[36.435,1.3078,1154.9431],[36.4377,1.3058,1229.4827],[36.4367,1.2953,1127.7345],[36.4402,1.2919,1188.1244],[36.4444,1.2822,1134.4143],[36.451,1.2746,964.7988],[36.4536,1.2607,998.1839],[36.4511,1.2574,949.453],[36.4472,1.2561,936.2599],[36.4499,1.2531,980.3403],[36.4502,1.2475,954.8483],[36.4546,1.2374,1011.3595],[36.4536,1.2345,984.4525],[36.4569,1.2278,1038.8735],[36.4563,1.2166,1038.7869],[36.4606,1.2115,1098.8926],[36.478,1.2047,1240.8225],[36.4844,1.2102,1362.0605],[36.4876,1.2084,1252.6438],[36.4927,1.2107,1358.1263],[36.4968,1.2082,1409.6221],[36.5031,1.2137,1581.9883],[36.506,1.22,1811.1525],[36.5089,1.2219,1952.5878],[36.5388,1.2254,2164.4351],[36.5472,1.2236,2448.156],[36.5465,1.2148,2449.9712],[36.5538,1.2008,2382.1921],[36.5513,1.1763,2350.2563],[36.5597,1.1572,2294.6909],[36.5577,1.144,2252.7559],[36.5586,1.1344,2263.9346],[36.5672,1.1197,2201.7356],[36.5768,1.1083,2171.2515],[36.5815,1.0984,2145.0532],[36.5825,1.0815,2142.2473],[36.5869,1.0795,2142.4673],[36.5984,1.0675,2068.4492],[36.6217,1.051,2044.2317],[36.6251,1.0468,2038.4503],[36.6291,1.0336,1983.1931],[36.641,1.0225,1926.1174],[36.6343,1.0213,1931.8274],[36.66,1.0059,1865.5104],[36.6652,0.9956,1859.2188],[36.6701,0.9931,1857.3748],[36.6703,0.9906,1852.0972],[36.6719,0.9913,1852.0972],[36.6723,0.9855,1843.6536],[36.6742,0.9815,1839.5883],[36.6758,0.9814,1839.5883],[36.6753,0.976,1837.5583],[36.677,0.9763,1834.9614],[36.6751,0.9734,1832.9442],[36.6767,0.971,1831.4285],[36.6753,0.9682,1827.9836],[36.6792,0.9662,1824.9526],[36.6804,0.9623,1821.0496],[36.6775,0.9571,1818.0128],[36.6788,0.9562,1817.0364],[36.6773,0.9503,1812.0792],[36.6783,0.9485,1812.241],[36.6741,0.9455,1809.7119],[36.6757,0.9403,1807.4867],[36.6786,0.937,1803.2935],[36.6853,0.9345,1800.635],[36.691,0.9288,1796.13],[36.6932,0.929,1795.6189],[36.6934,0.9272,1795.7527],[36.7032,0.93,1792.1414],[36.7084,0.9341,1794.5881],[36.7368,0.9321,1789.1489],[36.7394,0.9332,1789.8788],[36.7396,0.9317,1788.6019],[36.7463,0.9295,1793.0463],[36.7557,0.9301,1782.8606],[36.7576,0.9324,1786.7534],[36.7636,0.9569,1792.9812],[36.7486,0.9922,1842.043],[36.7257,1.027,1888.2825],[36.7144,1.0176,1841.3352],[36.7106,1.0253,1846.1913],[36.6992,1.0361,1874.9248],[36.6961,1.038,1903.1547],[36.6929,1.0373,1902.0764],[36.6899,1.0397,1908.3392],[36.6889,1.0431,1926.0441],[36.682,1.0489,1908.2026],[36.6788,1.054,1917.7291],[36.6716,1.074,2005.8391],[36.6509,1.0883,2012.8965],[36.6405,1.107,2046.3215],[36.6279,1.1196,2088.5938],[36.6181,1.1268,2097.8352],[36.6102,1.1418,2173.1589],[36.611,1.1473,2179.7544],[36.6075,1.1605,2221.8989],[36.6085,1.17,2219.4541],[36.6057,1.1804,2292.5193],[36.618,1.1805,2387.335],[36.619,1.1985,2432.7065],[36.6159,1.2073,2423.5842],[36.6124,1.2112,2442.0947],[36.612,1.2179,2440.1704],[36.6075,1.2213,2531.1887],[36.6048,1.2374,2442.2715],[36.609,1.244,2401.739],[36.602,1.2511,2360.2896],[36.6024,1.2569,2308.6663],[36.6002,1.2622,2221.6506],[36.6053,1.273,2215.853],[36.6161,1.2807,2273.0723],[36.6197,1.2989,2163.4775],[36.6191,1.3035,2111.0669],[36.6219,1.3096,2022.2634],[36.616,1.3075,2158.8384],[36.6151,1.31,2173.0869],[36.6195,1.3146,2034.3242],[36.6229,1.327,2085.1106],[36.6275,1.3318,2021.7419],[36.6281,1.3378,1953.1853],[36.6318,1.3447,1964.2103],[36.6304,1.3474,1947.7853],[36.6319,1.3492,1920.9614],[36.63,1.3576,1928.2772],[36.6269,1.3576,1937.9962],[36.6271,1.3657,1866.875],[36.6219,1.37,1867.5599],[36.6241,1.3769,1916.1604]]]]}}