{"type":"Feature","properties":{"GID_3":"KEN.13.9.2_1","GID_0":"KEN","country":"Kenya","GID_1":"KEN.13_1","province":"Kiambu","NL_NAME_1":"NA","GID_2":"KEN.13.9_1","county":"Lari","NL_NAME_2":"NA","city":"Kijabe","VARNAME_3":"NA","NL_NAME_3":"NA","TYPE_3":"Ward","ENGTYPE_3":"Ward","CC_3":"607","HASC_3":"NA","name":"Kijabe.city"},
"geometry":{"type": "MultiPolygon","coordinates": [[[[36.5801,-0.9428,2046.4562],[36.5877,-0.9587,1963.4039],[36.5871,-0.9716,1868.4893],[36.5914,-0.9793,1917.9155],[36.5965,-0.9793,2017.1299],[36.6037,-0.9725,2075.5242],[36.6095,-0.9734,2150.3667],[36.6134,-0.9778,2198.3716],[36.6152,-0.9765,2201.5505],[36.6198,-0.9771,2268.5264],[36.6225,-0.9789,2290.1006],[36.6236,-0.9821,2267.3193],[36.6205,-0.9904,2253.9443],[36.634,-0.9902,2390.1587],[36.6379,-0.9986,2379.0984],[36.6386,-0.9969,2385.8809],[36.6498,-0.9914,2358.4551],[36.6652,-0.9914,2351.6064],[36.6727,-0.9957,2310.7947],[36.674,-0.9996,2294.322],[36.681,-0.9998,2262.6401],[36.6849,-1.0019,2236.2273],[36.6866,-0.9821,2270.0935],[36.6887,-0.9785,2285.9751],[36.688,-0.9756,2300.1143],[36.6946,-0.9708,2250.0767],[36.7016,-0.9687,2251.9595],[36.712,-0.9608,2217.2554],[36.6944,-0.9507,2309.4309],[36.6816,-0.9297,2382.2021],[36.6732,-0.9295,2408.3086],[36.6699,-0.9278,2426.2188],[36.6645,-0.9208,2458.5317],[36.6438,-0.9118,2630.7283],[36.6348,-0.9101,2605.9246],[36.6338,-0.91,2605.9246],[36.6376,-0.9151,2577.7119],[36.6342,-0.9148,2598.6201],[36.6353,-0.9169,2600.7065],[36.6333,-0.9178,2594.3093],[36.6389,-0.9238,2576.624],[36.6406,-0.9321,2613.021],[36.6398,-0.9356,2606.9033],[36.6347,-0.9372,2574.9551],[36.6346,-0.9404,2549.2791],[36.629,-0.9507,2503.3118],[36.6264,-0.9415,2556.9795],[36.6106,-0.9169,2615.8333],[36.6055,-0.9163,2607.7249],[36.6057,-0.9201,2599.0728],[36.602,-0.9213,2586.9031],[36.6101,-0.938,2546.259],[36.6089,-0.9401,2538.739],[36.6112,-0.9453,2478.0242],[36.6102,-0.9473,2436.0664],[36.6012,-0.941,2328.0483],[36.5964,-0.9329,2415.9348],[36.5801,-0.9428,2046.4562]]]]}}