{"type": "Feature","bbox": [35.4214,0.9516,35.7098,1.3241],"geometry": {"type": "MultiPolygon","coordinates": [[[[35.6423,1.0246,998.099],[35.6416,1.0251,998.099],[35.6435,1.0226,982.8577],[35.6434,1.0237,982.8577],[35.6423,1.0246,998.099]]],
[[[35.6844,1.0946,960.1705],[35.6837,1.1003,966.7187],[35.6865,1.0992,962.0426],[35.6864,1.1031,969.9694],[35.6913,1.1042,963.4655],[35.6928,1.1087,961.7702],[35.6953,1.1076,959.3015],[35.6989,1.1092,959.1655],[35.6972,1.1163,958.1826],[35.7022,1.1278,952.8989],[35.7007,1.1331,956.989],[35.7055,1.138,949.603],[35.7053,1.1511,951.6335],[35.7098,1.1541,948.6418],[35.7037,1.1568,944.8322],[35.7059,1.1597,947.3658],[35.7028,1.1621,950.5992],[35.7054,1.1637,947.3245],[35.7038,1.1679,950.8023],[35.7054,1.174,946.024],[35.7043,1.1801,944.5311],[35.7062,1.1803,943.087],[35.7066,1.1823,942.0302],[35.7034,1.1834,942.3692],[35.7045,1.1865,943.3976],[35.7029,1.1891,940.5021],[35.7038,1.1914,943.1376],[35.7027,1.1937,945.2709],[35.7043,1.1955,941.8914],[35.7023,1.2009,942.5725],[35.7031,1.2035,941.1716],[35.6999,1.2067,941.1891],[35.6979,1.205,940.1918],[35.6965,1.2084,939.4728],[35.6983,1.2093,937.2796],[35.6968,1.219,936.9739],[35.7042,1.2311,936.477],[35.7037,1.2363,932.8249],[35.7009,1.237,935.7211],[35.6996,1.24,931.8378],[35.7018,1.2411,930.1661],[35.6996,1.2437,935.0002],[35.7029,1.2462,928.1534],[35.7025,1.2493,928.0529],[35.7011,1.2497,928.0529],[35.7038,1.2515,926.968],[35.7008,1.2518,930.0128],[35.7004,1.256,926.2082],[35.7018,1.2574,927.5728],[35.6997,1.2626,933.3107],[35.7018,1.2645,933.6597],[35.7038,1.2641,927.9594],[35.7031,1.2663,925.3425],[35.7059,1.2689,923.9602],[35.7072,1.2735,926.4744],[35.7068,1.2772,930.213],[35.7027,1.2758,924.2938],[35.7014,1.2817,923.4113],[35.6974,1.2826,920.5363],[35.698,1.2889,918.554],[35.6953,1.2884,924.0665],[35.6948,1.2926,918.5524],[35.6975,1.3002,918.0813],[35.6942,1.3008,919.92],[35.6987,1.3089,917.5239],[35.6947,1.309,917.4985],[35.6975,1.3116,919.6799],[35.6982,1.318,914.7626],[35.6969,1.3241,912.7504],[35.6725,1.3201,942.0013],[35.6317,1.3054,1022.1025],[35.6279,1.3002,1031.3116],[35.624,1.2993,1038.5006],[35.6165,1.2938,1079.2261],[35.6122,1.2854,1134.5586],[35.6065,1.2832,1172.4205],[35.5889,1.2871,1799.822],[35.5794,1.2963,2380.1477],[35.5681,1.2964,2602.3098],[35.5598,1.2936,2721.8794],[35.5588,1.2905,2910.9331],[35.5443,1.2911,2987.1001],[35.5002,1.257,3441.6199],[35.4232,1.1927,3008.6245],[35.4219,1.1878,3132.426],[35.4234,1.1795,3099.1047],[35.4214,1.1765,3001.2361],[35.4278,1.1739,3028.7676],[35.4294,1.1772,3054.5154],[35.4326,1.179,3130.7715],[35.4329,1.1766,3027.978],[35.4374,1.1765,3149.4058],[35.4389,1.173,3111.8997],[35.4375,1.1702,3144.9824],[35.442,1.1693,3195.0073],[35.4414,1.165,3065.3291],[35.4458,1.1676,3143.1897],[35.4483,1.1642,3130.6482],[35.4542,1.1625,3218.8955],[35.4583,1.165,3164.571],[35.4608,1.1647,3138.7205],[35.4727,1.1441,2945.1636],[35.4736,1.1348,2896.9067],[35.4685,1.1244,2901.9739],[35.4578,1.1247,2947.3643],[35.453,1.1228,2914.4531],[35.4508,1.1297,2965.8528],[35.4474,1.1273,2960.9426],[35.4488,1.1228,2878.9067],[35.4479,1.1032,2821.5276],[35.4518,1.0973,2847.5601],[35.4539,1.0879,2826.0315],[35.4478,1.0786,2812.0942],[35.4492,1.0613,2863.5361],[35.4537,1.057,2867.4722],[35.4536,1.0436,2748.6025],[35.4635,1.0435,2807.6995],[35.4673,1.0407,2673.011],[35.4662,1.0371,2700.0654],[35.4674,1.0337,2637.2798],[35.4714,1.0315,2752.3657],[35.474,1.0318,2730.0515],[35.475,1.0294,2634.7942],[35.4754,1.0229,2515.1216],[35.4732,1.0177,2571.1724],[35.4738,1.0057,2535.251],[35.4689,1.0053,2759.2207],[35.4669,1.0037,2712.7166],[35.4676,1.0008,2680.916],[35.4757,1.0022,2489.4441],[35.4757,0.9985,2470.1636],[35.4811,0.9975,2640.6147],[35.482,0.9961,2623.8804],[35.4941,0.9995,2732.0117],[35.4971,0.9924,2623.0281],[35.497,0.9907,2613.9229],[35.4945,0.9897,2660.8962],[35.4959,0.9837,2556.2705],[35.5002,0.976,2470.625],[35.507,0.9725,2499.9604],[35.5115,0.9761,2541.4922],[35.5119,0.9718,2455.8052],[35.5142,0.9697,2478.5508],[35.5143,0.9516,2407.7966],[35.5237,0.9668,2557.645],[35.5312,0.9686,2452.3074],[35.534,0.9726,2366.1929],[35.5389,0.9744,2363.2751],[35.5394,0.9772,2383.4546],[35.5413,0.9774,2333.6802],[35.5409,0.98,2367.2854],[35.5384,0.9789,2419.6475],[35.5394,0.9817,2442.1384],[35.5446,0.987,2403.8066],[35.5456,0.9859,2403.8066],[35.549,0.9877,2392.9819],[35.5523,0.9952,2315.9148],[35.5517,1.0068,2377.603],[35.5532,1.0114,2375.5464],[35.5603,1.0158,2242.5356],[35.5605,1.0247,2355.325],[35.5634,1.0288,2319.8921],[35.5662,1.0278,2273.7659],[35.5733,1.0302,2331.906],[35.5751,1.0292,2331.906],[35.5773,1.0233,2491.553],[35.5922,1.0214,2124.2844],[35.6012,1.0221,1840.2327],[35.6088,1.0256,1411.5586],[35.6308,1.024,1027.0542],[35.635,1.0254,1012.8722],[35.6356,1.0271,1016.9929],[35.6436,1.0253,991.33],[35.6478,1.03,986.3815],[35.6502,1.0292,987.1174],[35.6516,1.0304,985.5716],[35.6545,1.0286,980.8063],[35.6554,1.0327,986.3096],[35.6576,1.033,985.6495],[35.6602,1.0364,981.9628],[35.6643,1.0353,974.2579],[35.6643,1.0381,977.9758],[35.667,1.04,973.4032],[35.6671,1.0444,974.3883],[35.6696,1.0438,973.8553],[35.6717,1.0459,977.3418],[35.668,1.049,975.4883],[35.6722,1.0534,970.8975],[35.6713,1.0563,973.5289],[35.6753,1.0605,969.0733],[35.6743,1.0671,966.1722],[35.6756,1.0688,966.9447],[35.6741,1.0699,966.9447],[35.6735,1.0743,968.3508],[35.6763,1.0765,963.4237],[35.6778,1.0872,971.783],[35.6797,1.0866,964.6908],[35.6798,1.0893,969.1702],[35.6835,1.0886,963.7028],[35.6844,1.0946,960.1705]],
[[35.673,1.0742,968.3508],[35.6731,1.074,968.3508],[35.6723,1.073,966.9745],[35.6723,1.0742,968.3508],[35.673,1.0742,968.3508]]],
[[[35.4669,1.0077,2681.519],[35.4685,1.0084,2681.3276],[35.4688,1.0093,2608.9678],[35.4682,1.0085,2681.519],[35.4669,1.0077,2681.519]]],
[[[35.4663,1.0191,2724.3369],[35.4656,1.0203,2731.6575],[35.4616,1.0196,2766.5278],[35.4632,1.0173,2772.5703],[35.4604,1.0171,2794.0774],[35.4603,1.0141,2814.2747],[35.462,1.0139,2814.2747],[35.4605,1.0122,2810.3911],[35.4639,1.0106,2712.0117],[35.4687,1.0126,2623.3179],[35.466,1.0138,2709.1226],[35.4684,1.0177,2700.3994],[35.4663,1.0191,2724.3369]]]]}
,"properties": {"GID_2": "KEN.5.3_1","GID_0": "KEN","country": "Kenya","GID_1": "KEN.5_1","province": "Elgeyo-Marakwet","NL_NAME_1": "NA","county": "MarakwetEast","VARNAME_2": "NA","NL_NAME_2": "NA","TYPE_2": "Constituency","ENGTYPE_2": "Constituency","CC_2": "147","HASC_2": "NA","name": "Marakwet_East.county","area_km2": 819.7227,"hist_schema_id": "Elevation0-9000","hist_area_km2": {"900": 0.0424,"925": 14.4775,"950": 39.9358,"975": 46.0202,"1000": 39.4492,"1025": 27.5785,"1050": 18.8449,"1075": 13.1851,"1100": 9.3694,"1125": 6.4865,"1150": 4.9603,"1175": 3.9428,"1200": 3.3492,"1225": 3.2221,"1250": 3.3916,"1275": 2.7133,"1300": 3.3493,"1325": 2.9889,"1350": 2.8617,"1375": 2.7133,"1400": 2.5013,"1425": 2.9465,"1450": 2.7557,"1475": 2.4377,"1500": 2.6497,"1525": 2.5649,"1550": 2.4377,"1575": 2.0562,"1600": 2.9465,"1625": 2.247,"1650": 2.5013,"1675": 2.8193,"1700": 2.3953,"1725": 2.6497,"1750": 2.3953,"1775": 2.353,"1800": 2.035,"1825": 1.9926,"1850": 2.5013,"1875": 2.353,"1900": 2.1622,"1925": 2.2894,"1950": 2.7557,"1975": 2.5437,"2000": 2.5437,"2025": 2.7345,"2050": 2.8829,"2075": 3.0525,"2100": 3.0949,"2125": 2.8617,"2150": 2.9677,"2175": 3.5613,"2200": 3.5825,"2225": 3.3493,"2250": 4.4092,"2275": 4.7272,"2300": 4.9604,"2325": 5.4056,"2350": 6.4443,"2375": 7.0803,"2400": 7.4194,"2425": 7.589,"2450": 10.0904,"2475": 11.4895,"2500": 11.8074,"2525": 12.6341,"2550": 12.6129,"2575": 13.9483,"2600": 14.8174,"2625": 14.3299,"2650": 13.1853,"2675": 11.6378,"2700": 10.8959,"2725": 10.8111,"2750": 11.0655,"2775": 11.977,"2800": 13.1854,"2825": 15.4111,"2850": 16.5134,"2875": 15.2627,"2900": 15.9198,"2925": 13.694,"2950": 13.5879,"2975": 12.634,"3000": 14.6054,"3025": 13.5879,"3050": 12.9519,"3075": 10.3021,"3100": 8.7123,"3125": 9.5389,"3150": 8.4578,"3175": 9.2209,"3200": 10.4716,"3225": 13.0152,"3250": 12.6761,"3275": 8.1398,"3300": 5.3629,"3325": 3.4128,"3350": 1.8865,"3375": 0.9327,"3400": 0.7631,"3425": 0.5723,"3450": 0.5511,"3475": 0.1484,"3500": 0.0636}}}