{"type": "Feature","bbox": [39.5149,-4.3535,39.5874,-4.2832],"geometry": {"type": "MultiPolygon","coordinates": [[[[39.5149,-4.3059,87.124],[39.5233,-4.3041,58.9647],[39.5217,-4.3119,60.4363],[39.5291,-4.312,41.4554],[39.5257,-4.3174,36.9991],[39.5383,-4.3368,27.372],[39.5529,-4.3359,16.9008],[39.5631,-4.3393,15.4305],[39.5601,-4.3496,14.3278],[39.5607,-4.3529,13.5319],[39.5638,-4.3535,0.0],[39.5701,-4.3382,0.0],[39.5715,-4.3293,5.4515],[39.5874,-4.2956,2.2373],[39.5629,-4.2867,33.4116],[39.5571,-4.2832,38.7871],[39.5527,-4.2835,42.2718],[39.5428,-4.2941,43.3836],[39.5359,-4.2964,41.6148],[39.5293,-4.3012,49.2879],[39.5217,-4.3012,69.175],[39.5195,-4.3045,89.1548],[39.5149,-4.3059,87.124]]]]}
,"properties": {"GID_3": "KEN.19.4.4_1","GID_0": "KEN","country": "Kenya","GID_1": "KEN.19_1","province": "Kwale","NL_NAME_1": "NA","GID_2": "KEN.19.4_1","county": "Msambweni","NL_NAME_2": "NA","city": "Ukunda","VARNAME_3": "NA","NL_NAME_3": "NA","TYPE_3": "Ward","ENGTYPE_3": "Ward","CC_3": "32","HASC_3": "NA","name": "Ukunda.city","area_km2": 29.64133,"hist_schema_id": "Elevation0-9000","hist_area_km2": {"0": 2.68505,"25": 21.05755,"50": 5.81416,"75": 0.04228,"100": 0.04228}}}