{"type":"Feature","properties":{"GID_1":"KEN.8_1","GID_0":"KEN","country":"Kenya","province":"HomaBay","VARNAME_1":"NA","NL_NAME_1":"NA","TYPE_1":"County","ENGTYPE_1":"County","CC_1":"43","HASC_1":"KE.HB","ISO_1":"KE-08","name":"Homa_Bay.province"},
"geometry":{"type": "MultiPolygon","coordinates": [[[[34.3717,-0.8416,1263.6356],[34.3738,-0.8406,1259.585],[34.3752,-0.8425,1263.6575],[34.3786,-0.8394,1251.7799],[34.3821,-0.8422,1252.0547],[34.3902,-0.8262,1254.4607],[34.3915,-0.8252,1254.4607],[34.3933,-0.8267,1252.5411],[34.3941,-0.8238,1254.72],[34.3874,-0.8167,1253.8136],[34.3884,-0.816,1254.1541],[34.387,-0.8108,1256.1221],[34.41,-0.82,1275.6384],[34.4119,-0.8236,1278.1816],[34.4288,-0.8311,1290.8881],[34.4413,-0.8417,1345.5392],[34.4452,-0.8427,1388.8353],[34.4643,-0.8589,1473.7144],[34.4643,-0.8321,1424.0259],[34.4755,-0.8067,1327.0555],[34.4822,-0.7954,1287.9077],[34.4855,-0.7824,1302.0933],[34.5184,-0.752,1323.7319],[34.5261,-0.7408,1348.7546],[34.5327,-0.7356,1363.7246],[34.5359,-0.7245,1325.6575],[34.5307,-0.7212,1336.684],[34.535,-0.7177,1345.8784],[34.5337,-0.7153,1339.9072],[34.5341,-0.698,1335.5319],[34.537,-0.6971,1337.5208],[34.5374,-0.6927,1332.2896],[34.5416,-0.6863,1330.4065],[34.5454,-0.6823,1331.0709],[34.5479,-0.682,1332.8256],[34.5523,-0.6761,1335.6829],[34.5529,-0.6708,1339.6293],[34.5599,-0.6675,1341.2183],[34.5572,-0.6617,1348.484],[34.5609,-0.6591,1355.7856],[34.565,-0.6597,1349.7338],[34.5693,-0.6569,1350.9977],[34.5799,-0.6549,1359.7871],[34.5818,-0.6537,1362.3098],[34.5823,-0.6479,1360.6562],[34.5892,-0.6452,1368.2554],[34.5987,-0.6453,1385.5642],[34.6059,-0.6473,1377.1038],[34.6083,-0.6453,1377.3042],[34.6199,-0.6498,1390.8406],[34.6267,-0.6506,1395.3641],[34.6303,-0.6548,1401.2656],[34.6366,-0.657,1434.4404],[34.6425,-0.6291,1477.3605],[34.6503,-0.6194,1543.038],[34.6502,-0.6119,1518.9755],[34.6566,-0.6041,1495.3525],[34.6583,-0.599,1490.4332],[34.66,-0.5998,1482.1298],[34.6607,-0.5987,1473.7844],[34.6853,-0.5967,1497.5668],[34.6897,-0.5902,1446.6948],[34.6963,-0.5851,1455.4467],[34.7015,-0.5707,1464.2351],[34.7098,-0.5636,1441.7195],[34.7122,-0.553,1458.7847],[34.7234,-0.5553,1484.7073],[34.7298,-0.5511,1503.4172],[34.7384,-0.5539,1490.9475],[34.7485,-0.5535,1533.7126],[34.7529,-0.5514,1546.6475],[34.7611,-0.5426,1569.1807],[34.7611,-0.5388,1555.8936],[34.7653,-0.5344,1605.8821],[34.7681,-0.5283,1530.2902],[34.7762,-0.5286,1547.5142],[34.7777,-0.527,1515.2057],[34.7786,-0.5295,1527.0796],[34.7892,-0.5273,1547.1285],[34.7932,-0.5217,1584.5338],[34.7993,-0.522,1571.7188],[34.8208,-0.5126,1604.5956],[34.8307,-0.5112,1552.3641],[34.8498,-0.505,1542.7119],[34.851,-0.5062,1548.3513],[34.8559,-0.5003,1610.5247],[34.8557,-0.4983,1608.6377],[34.8591,-0.4984,1629.3823],[34.8799,-0.4828,1524.8994],[34.9062,-0.476,1539.5342],[34.9403,-0.459,1531.8364],[34.9667,-0.4366,1580.781],[34.9996,-0.4232,1589.9897],[35.0197,-0.4065,1510.488],[35.0216,-0.3999,1512.7218],[35.0176,-0.3964,1500.0621],[35.0178,-0.3913,1529.3865],[35.0103,-0.3855,1521.734],[35.007,-0.3894,1558.8523],[35.0072,-0.3932,1514.7974],[35.0046,-0.3945,1540.8073],[35.003,-0.3993,1505.7142],[34.9979,-0.3993,1532.4521],[34.9881,-0.4034,1530.5],[34.9867,-0.4083,1502.2928],[34.9837,-0.4071,1520.7988],[34.9813,-0.4085,1501.4194],[34.9752,-0.4039,1522.3809],[34.9682,-0.4077,1471.6949],[34.9668,-0.406,1481.0715],[34.9638,-0.406,1496.7494],[34.9646,-0.4083,1466.6718],[34.9595,-0.4102,1495.726],[34.9574,-0.4088,1501.3044],[34.9505,-0.4103,1461.8848],[34.9453,-0.4076,1495.6222],[34.9386,-0.4073,1478.0548],[34.9359,-0.405,1482.0859],[34.9296,-0.4059,1421.7067],[34.9299,-0.3968,1447.6034],[34.9141,-0.3974,1414.0504],[34.9132,-0.3905,1425.1896],[34.9154,-0.3892,1410.4128],[34.9145,-0.3861,1416.0111],[34.9162,-0.3843,1422.6384],[34.9151,-0.3797,1448.645],[34.9007,-0.3855,1427.228],[34.8975,-0.3886,1451.2247],[34.8944,-0.3878,1458.6814],[34.8885,-0.3955,1429.4878],[34.887,-0.3913,1464.9161],[34.8848,-0.39,1453.8922],[34.8793,-0.3896,1446.5063],[34.8779,-0.392,1431.9651],[34.8669,-0.3882,1466.6464],[34.8645,-0.3912,1434.7838],[34.8623,-0.3914,1422.3292],[34.8584,-0.3888,1411.3696],[34.8593,-0.3864,1408.7621],[34.8389,-0.387,1420.1901],[34.8333,-0.3822,1363.6516],[34.8248,-0.3824,1285.4584],[34.822,-0.3804,1355.8662],[34.8246,-0.3798,1337.8884],[34.8252,-0.3779,1327.2103],[34.8249,-0.3755,1263.955],[34.8213,-0.3731,1353.928],[34.8229,-0.3657,1381.3743],[34.8203,-0.3648,1232.0569],[34.8177,-0.3586,1359.7292],[34.8106,-0.3503,1149.4928],[34.811,-0.3457,1143.8944],[34.8096,-0.3451,1143.6797],[34.8076,-0.3489,1146.7162],[34.7993,-0.3488,1145.0184],[34.7963,-0.3443,1139.7559],[34.7905,-0.3422,1140.0486],[34.7935,-0.3381,1140.3303],[34.7923,-0.3355,1138.7085],[34.7885,-0.3374,1138.8849],[34.7857,-0.3366,1138.73],[34.7858,-0.3322,1138.5549],[34.7826,-0.3281,1138.2146],[34.7852,-0.3259,1137.9135],[34.7881,-0.3269,1137.9565],[34.7904,-0.3254,1138.1427],[34.7879,-0.3238,1137.8206],[34.7871,-0.3192,1137.5626],[34.7843,-0.3177,1137.129],[34.7856,-0.3166,1136.9857],[34.7837,-0.3165,1137.129],[34.7832,-0.315,1136.8956],[34.7816,-0.3175,1137.2415],[34.7795,-0.3117,1137.4895],[34.7756,-0.312,1138.6055],[34.7731,-0.3087,1136.9526],[34.7688,-0.3066,1136.0217],[34.7683,-0.3045,1135.6924],[34.7654,-0.3076,1135.3975],[34.7629,-0.306,1135.7472],[34.7606,-0.3079,1135.1116],[34.7574,-0.3009,1136.7864],[34.7583,-0.2921,1133.0],[34.7558,-0.2905,1133.0],[34.7552,-0.2856,1133.0],[34.705,-0.2528,1133.0],[34.5304,-0.2666,1133.0],[34.4218,-0.3308,1133.0],[34.3195,-0.4167,1133.0],[34.3139,-0.4204,1133.0],[34.3029,-0.424,1133.0],[34.2941,-0.4243,1133.0],[34.2852,-0.4225,1133.0],[34.2771,-0.4181,1133.0],[34.2711,-0.4121,1133.0],[34.24,-0.3341,1133.0],[33.9559,-0.3341,1133.0],[33.9405,-0.4188,1133.0],[33.9354,-0.4599,1133.0],[33.932,-0.5165,1133.0],[33.9286,-0.5371,1133.0],[33.9286,-0.6725,1133.0],[33.9364,-0.8009,1133.0],[34.0796,-0.8012,1145.3296],[34.0839,-0.7843,1165.4008],[34.0865,-0.7811,1148.7052],[34.0975,-0.7786,1220.1844],[34.1117,-0.7777,1202.6755],[34.1198,-0.7735,1210.1348],[34.1388,-0.7736,1471.5074],[34.1447,-0.7719,1403.2118],[34.1528,-0.7625,1305.2747],[34.1693,-0.7587,1274.2897],[34.1904,-0.7416,1436.7622],[34.1992,-0.7382,1450.4836],[34.2016,-0.74,1438.4648],[34.2025,-0.7469,1413.7638],[34.2104,-0.7554,1392.1633],[34.2133,-0.7633,1365.5872],[34.2191,-0.7662,1395.6461],[34.2269,-0.7745,1346.9556],[34.2329,-0.7779,1334.6699],[34.2385,-0.7904,1316.649],[34.2453,-0.7978,1311.4514],[34.2476,-0.8031,1279.8728],[34.2532,-0.8073,1282.8027],[34.2541,-0.8151,1256.751],[34.2724,-0.8206,1353.7941],[34.2815,-0.8198,1311.4612],[34.2859,-0.8214,1311.5669],[34.2886,-0.8254,1316.046],[34.3,-0.8345,1294.9988],[34.3095,-0.8502,1284.2141],[34.32,-0.8613,1271.7003],[34.3244,-0.862,1327.9678],[34.3368,-0.8581,1326.8085],[34.3381,-0.8524,1312.106],[34.3397,-0.8513,1318.6765],[34.3692,-0.8475,1265.261],[34.3713,-0.8455,1257.9707],[34.3717,-0.8416,1263.6356]]]]}}