{"type":"Feature","properties":{"GID_3":"KEN.25.2.7_1","GID_0":"KEN","country":"Kenya","GID_1":"KEN.25_1","province":"Marsabit","NL_NAME_1":"NA","GID_2":"KEN.25.2_1","county":"Moyale","NL_NAME_2":"NA","city":"Uran","VARNAME_3":"NA","NL_NAME_3":"NA","TYPE_3":"Ward","ENGTYPE_3":"Ward","CC_3":"226","HASC_3":"NA","name":"Uran.city"},
"geometry":{"type": "MultiPolygon","coordinates": [[[[38.1295,3.608,1012.433],[38.3861,3.3089,753.7083],[38.5295,3.0121,626.0359],[38.5473,2.9719,592.6707],[38.8981,2.2351,372.3989],[38.9297,2.1693,361.1492],[38.9365,2.1585,358.9387],[38.9376,2.2143,368.4568],[38.934,2.2427,372.9927],[38.9285,2.2606,376.3842],[38.9281,2.2747,378.7448],[38.9257,2.2819,379.9125],[38.9299,2.2991,380.8773],[38.9357,2.3147,384.7049],[38.9313,2.3429,389.5436],[38.9343,2.3703,393.7963],[38.9305,2.3813,395.8654],[38.9275,2.4127,399.7503],[38.9137,2.4423,404.5458],[38.9131,2.4507,406.5691],[38.9023,2.4781,412.6111],[38.8985,2.4985,415.9351],[38.8919,2.5171,420.2697],[38.8827,2.5285,420.8007],[38.8813,2.5377,422.619],[38.8743,2.5477,425.726],[38.8757,2.5627,427.9255],[38.8745,2.5673,430.3139],[38.8685,2.5753,434.7522],[38.8661,2.5829,435.0033],[38.8701,2.5995,442.9814],[38.8801,2.6077,443.7976],[38.8807,2.6109,443.4398],[38.8725,2.6217,449.5745],[38.868899999999996,2.6233,452.6883],[38.8669,2.6274,457.1793],[38.8595,2.6687,479.8174],[38.8415,2.6997,476.7852],[38.8367,2.7023,475.7262],[38.8343,2.7091,478.3868],[38.8301,2.7143,480.8641],[38.8287,2.7199,481.2013],[38.8235,2.7243,482.9011],[38.8193,2.7359,486.1269],[38.8181,2.7463,489.723],[38.8129,2.7561,503.0961],[38.8049,2.7609,502.0597],[38.7967,2.7625,498.8719],[38.7889,2.7749,506.8768],[38.7865,2.7831,513.9019],[38.7789,2.7885,519.9739],[38.7705,2.7975,528.6178],[38.7669,2.8017,538.8364],[38.7637,2.8093,523.5921],[38.7613,2.8277,507.1625],[38.7621,2.8355,505.3317],[38.7671,2.8449,505.5036],[38.7711,2.8485,505.8101],[38.7785,2.8485,506.1689],[38.7911,2.8527,507.3389],[38.7959,2.8603,508.078],[38.7959,2.8631,508.3066],[38.7901,2.8717,516.7339],[38.7787,2.8857,515.678],[38.7795,2.8933,515.8234],[38.7777,2.8977,522.0262],[38.7829,2.9123,523.0153],[38.7689,2.9249,529.0033],[38.7695,2.9283,524.0521],[38.7655,2.9423,525.373],[38.7603,2.9489,526.1132],[38.7589,2.9545,527.054],[38.7523,2.9607,527.875],[38.7447,2.9651,528.735],[38.7237,2.9639,531.3063],[38.7105,2.9665,533.2346],[38.7043,2.9693,534.6672],[38.6947,2.9769,535.9622],[38.6905,2.9831,537.4401],[38.6879,2.9917,538.3333],[38.6821,2.9963,539.6456],[38.6791,3.0023,540.7015],[38.6707,3.0119,543.1573],[38.6629,3.0169,544.49],[38.6577,3.0261,547.0287],[38.6535,3.0383,562.2744],[38.6507,3.0529,551.8107],[38.6575,3.0647,553.6831],[38.6603,3.0743,556.0336],[38.6607,3.0781,556.4235],[38.6587,3.0817,556.4683],[38.6533,3.0883,559.0591],[38.6431,3.0963,560.0259],[38.6395,3.1073,561.3419],[38.6359,3.1115,565.2642],[38.6335,3.1113,566.3931],[38.6269,3.1061,576.4891],[38.6183,3.1107,571.9929],[38.6157,3.1145,570.6797],[38.6113,3.1155,573.9995],[38.6075,3.1139,572.2795],[38.6007,3.1223,568.9807],[38.5909,3.1287,571.1205],[38.5819,3.1463,574.8115],[38.5837,3.1589,575.7386],[38.5821,3.1763,578.6381],[38.5863,3.1825,585.2638],[38.5871,3.1885,584.0642],[38.5837,3.1963,583.765],[38.5855,3.2025,593.9429],[38.5943,3.2061,601.4078],[38.5917,3.2145,585.6736],[38.5957,3.2217,595.587],[38.5953,3.2247,586.2975],[38.5903,3.2301,587.311],[38.5905,3.2405,592.9523],[38.5849,3.2489,589.1084],[38.5847,3.2573,597.0514],[38.5821,3.2639,596.1166],[38.5869,3.2805,598.1913],[38.5859,3.2879,596.1573],[38.5873,3.2935,599.5968],[38.5851,3.3103,601.7927],[38.5861,3.3137,610.9312],[38.5899,3.3165,626.2296],[38.6011,3.3219,619.1288],[38.5961,3.3315,609.31],[38.5955,3.3425,610.6892],[38.6007,3.3543,627.5267],[38.6085,3.3571,623.4382],[38.6231,3.3567,630.0312],[38.6301,3.3643,625.4039],[38.6287,3.3675,622.1887],[38.6227,3.3695,629.9603],[38.6211,3.3839,628.3342],[38.6085,3.4063,636.3359],[38.6063,3.4239,635.6029],[38.6205,3.4447,646.5197],[38.6229,3.4539,648.0332],[38.6229,3.4643,652.2997],[38.6249,3.4731,656.8929],[38.6455,3.5051,674.8256],[38.6437,3.5187,704.4882],[38.6393,3.5293,795.2385],[38.6317,3.5395,830.0247],[38.6239,3.5469,756.8142],[38.6205,3.5575,848.547],[38.6207,3.5659,865.6281],[38.6169,3.5737,875.6699],[38.6131,3.5923,754.8444],[38.6069,3.6025,737.4353],[38.6064,3.6093,773.748],[38.5961,3.6045,730.4875],[38.5724,3.6034,757.8146],[38.5682,3.6068,771.647],[38.5532,3.6126,772.9971],[38.5513,3.6175,802.0223],[38.552,3.6235,916.4915],[38.5439,3.639,1099.1042],[38.5328,3.6527,1075.6364],[38.5136,3.647,1113.3881],[38.5169,3.6398,1288.0685],[38.5174,3.6263,1208.7152],[38.4762,3.6109,738.1301],[38.4488,3.6265,757.8435],[38.4372,3.6013,739.6089],[38.3417,3.6062,725.3186],[38.3224,3.6092,737.3185],[38.2776,3.6119,761.3232],[38.2534,3.612,774.4974],[38.1885,3.618,794.5167],[38.1438,3.6093,886.6291],[38.1295,3.608,1012.433]]]]}}