{"type": "Feature","bbox": [35.5229,-0.1989,35.8773,0.1948],"geometry": {"type": "MultiPolygon","coordinates": [[[[35.8234,0.0244,1766.5411],[35.8264,0.0271,1722.6464],[35.8261,0.029,1730.7681],[35.8318,0.0327,1706.9447],[35.8327,0.0456,1693.5354],[35.8371,0.0492,1689.6385],[35.8342,0.0622,1706.0513],[35.8383,0.0726,1672.2385],[35.845,0.0762,1654.3048],[35.8449,0.0793,1652.5702],[35.8478,0.0792,1642.9734],[35.8501,0.0813,1641.9323],[35.8575,0.0946,1624.8838],[35.844,0.1097,1642.9786],[35.8326,0.132,1673.6628],[35.8252,0.1372,1714.1951],[35.8153,0.1481,1651.6096],[35.812,0.1542,1629.5759],[35.8103,0.1533,1576.5319],[35.7987,0.1642,1709.9269],[35.7953,0.1638,1821.0898],[35.7922,0.1661,1803.0659],[35.7795,0.1632,1886.165],[35.7771,0.1569,1934.5587],[35.7727,0.1556,2027.8872],[35.7668,0.157,2013.8115],[35.7633,0.1525,2034.1494],[35.7604,0.1565,2080.7153],[35.7565,0.1584,2147.9429],[35.7566,0.1605,2249.5767],[35.7526,0.1618,2362.9231],[35.753,0.1644,2322.3264],[35.728,0.1913,2080.6211],[35.7256,0.1899,2147.1858],[35.7234,0.1916,2003.2695],[35.7226,0.1904,2043.2374],[35.7187,0.1907,2174.3501],[35.7146,0.1948,2301.8008],[35.7045,0.1866,2282.5],[35.6692,0.1745,2652.9902],[35.5881,0.1745,2598.7744],[35.5907,0.1532,2554.3577],[35.5752,0.1193,2588.3716],[35.5735,0.0707,2713.2368],[35.5866,0.0378,2718.0825],[35.5229,0.0199,2831.2285],[35.5431,-0.0023,2754.979],[35.571,-0.0015,2630.9897],[35.5724,-0.0033,2643.0576],[35.5839,-0.0013,2692.8657],[35.6113,-0.0264,2557.9736],[35.6328,-0.0294,2542.6062],[35.6401,-0.0446,2522.1353],[35.6365,-0.0485,2500.8621],[35.6412,-0.0544,2506.2927],[35.6476,-0.0528,2450.0269],[35.6579,-0.0456,2421.1057],[35.6596,-0.0483,2423.26],[35.6671,-0.0437,2400.7163],[35.6523,-0.0724,2491.1917],[35.666,-0.0686,2481.5674],[35.6889,-0.0684,2501.3677],[35.6903,-0.0787,2504.1074],[35.6887,-0.0869,2510.0869],[35.6934,-0.103,2640.6987],[35.7066,-0.1161,2756.7104],[35.7058,-0.1183,2740.0105],[35.7137,-0.1262,2779.6606],[35.7298,-0.1513,2692.1636],[35.7228,-0.1673,2576.6279],[35.7227,-0.194,2469.262],[35.7243,-0.1989,2482.8264],[35.772,-0.1882,2249.3992],[35.7904,-0.157,2234.0625],[35.7905,-0.1061,2104.5977],[35.7958,-0.105,2034.9075],[35.7989,-0.0979,2014.2982],[35.8029,-0.0938,2020.299],[35.8071,-0.0932,1995.9213],[35.8186,-0.1083,1960.8217],[35.8193,-0.1116,1945.0251],[35.8221,-0.1124,1942.5667],[35.8464,-0.078,2010.5803],[35.8773,-0.0297,1696.6687],[35.8721,-0.0236,1699.4337],[35.8681,-0.0141,1700.9697],[35.8579,0.0016,1711.7678],[35.8491,0.0079,1765.3247],[35.8452,0.0177,1744.0609],[35.8421,0.0212,1729.1718],[35.834,0.0255,1717.9783],[35.8234,0.0244,1766.5411]]]]}
,"properties": {"GID_2": "KEN.1.5_1","GID_0": "KEN","country": "Kenya","GID_1": "KEN.1_1","province": "Baringo","NL_NAME_1": "NA","county": "EldamaRavine","VARNAME_2": "NA","NL_NAME_2": "NA","TYPE_2": "Constituency","ENGTYPE_2": "Constituency","CC_2": "162","HASC_2": "NA","name": "Eldama_Ravine.county","area_km2": 910.8456,"hist_schema_id": "Elevation0-9000","hist_area_km2": {"1575": 0.4452,"1600": 0.7633,"1625": 1.7598,"1650": 9.0533,"1675": 8.5869,"1700": 11.1735,"1725": 13.739,"1750": 13.4422,"1775": 12.4881,"1800": 11.2584,"1825": 12.6153,"1850": 11.2584,"1875": 13.4846,"1900": 16.0925,"1925": 11.8732,"1950": 12.5941,"1975": 14.5235,"2000": 18.8487,"2025": 25.4638,"2050": 26.5239,"2075": 25.8455,"2100": 23.4284,"2125": 21.5414,"2150": 19.9725,"2175": 21.1386,"2200": 22.9196,"2225": 21.1386,"2250": 22.7075,"2275": 22.0715,"2300": 25.2094,"2325": 26.9692,"2350": 25.8243,"2375": 27.1176,"2400": 27.8173,"2425": 28.1141,"2450": 28.6653,"2475": 28.5169,"2500": 30.2131,"2525": 29.153,"2550": 30.5099,"2575": 32.2697,"2600": 30.5311,"2625": 21.3294,"2650": 15.4776,"2675": 13.2302,"2700": 9.5198,"2725": 7.2935,"2750": 6.085,"2775": 4.3888,"2800": 3.8376,"2825": 3.6256,"2850": 2.417,"2875": 2.099,"2900": 1.675,"2925": 1.1661,"2950": 0.5301,"2975": 0.2544,"3000": 0.2544}}}