{"type": "Feature","bbox": [34.5028,0.5053,34.565,0.6012],"geometry": {"type": "MultiPolygon","coordinates": [[[[34.5648,0.5053,1363.627],[34.565,0.52,1376.9625],[34.5614,0.5269,1376.5386],[34.5627,0.5372,1392.1638],[34.5523,0.5386,1447.0197],[34.553,0.5501,1430.5122],[34.5587,0.5625,1429.835],[34.5532,0.5639,1427.1461],[34.5554,0.5675,1435.0596],[34.5554,0.5716,1440.0978],[34.5478,0.5734,1417.0508],[34.547,0.5755,1413.0503],[34.55,0.5868,1420.7227],[34.5572,0.5879,1446.0022],[34.5523,0.5993,1455.9359],[34.5389,0.5981,1462.2256],[34.5296,0.6012,1453.4976],[34.525,0.6009,1462.9636],[34.523,0.5986,1465.1129],[34.5119,0.5999,1401.0298],[34.5111,0.5979,1376.6394],[34.507,0.597,1348.9526],[34.5097,0.584,1359.1218],[34.5049,0.5777,1332.1582],[34.5028,0.5772,1328.2141],[34.5118,0.5733,1338.2844],[34.5268,0.5728,1407.0308],[34.5281,0.5693,1414.4443],[34.5377,0.5726,1417.427],[34.5382,0.5714,1401.6355],[34.5342,0.5619,1396.4417],[34.5316,0.5608,1401.9888],[34.524,0.5617,1396.5286],[34.52,0.5601,1389.3175],[34.5073,0.5489,1366.0073],[34.5092,0.5417,1351.9012],[34.5086,0.5361,1347.5819],[34.5122,0.5287,1344.2065],[34.5113,0.5212,1338.7452],[34.5256,0.5151,1364.9863],[34.5311,0.5155,1378.2537],[34.535,0.5133,1367.0649],[34.5404,0.5128,1391.0609],[34.5452,0.5077,1395.7936],[34.5477,0.5087,1400.444],[34.5551,0.5059,1393.3159],[34.5648,0.5053,1363.627]]]]}
,"properties": {"GID_3": "KEN.3.3.6_1","GID_0": "KEN","country": "Kenya","GID_1": "KEN.3_1","province": "Bungoma","NL_NAME_1": "NA","GID_2": "KEN.3.3_1","county": "Kanduyi","NL_NAME_2": "NA","city": "Musikoma","VARNAME_3": "NA","NL_NAME_3": "NA","TYPE_3": "Ward","ENGTYPE_3": "Ward","CC_3": "1100","HASC_3": "NA","name": "Musikoma.city","area_km2": 46.07025,"hist_schema_id": "Elevation0-9000","hist_area_km2": {"1325": 0.72084,"1350": 3.75261,"1375": 9.75257,"1400": 14.79847,"1425": 11.97867,"1450": 4.45224,"1475": 0.59363,"1500": 0.0212}}}