{"type":"Feature","properties":{"GID_3":"KEN.2.4.4_1","GID_0":"KEN","country":"Kenya","GID_1":"KEN.2_1","province":"Bomet","NL_NAME_1":"NA","GID_2":"KEN.2.4_1","county":"Konoin","NL_NAME_2":"NA","city":"Kimulot","VARNAME_3":"NA","NL_NAME_3":"NA","TYPE_3":"Ward","ENGTYPE_3":"Ward","CC_3":"987","HASC_3":"NA","name":"Kimulot.city"},
"geometry":{"type": "MultiPolygon","coordinates": [[[[35.4886,-0.4194,2458.5774],[35.4738,-0.3951,2442.7603],[35.4726,-0.3954,2442.7603],[35.4695,-0.3977,2398.4563],[35.4689,-0.4,2423.3062],[35.4644,-0.3997,2385.6836],[35.4633,-0.4041,2377.689],[35.4605,-0.4049,2413.7488],[35.4533,-0.4162,2407.5168],[35.4534,-0.4189,2392.6313],[35.4473,-0.4232,2372.3816],[35.446,-0.4225,2342.9409],[35.4413,-0.4247,2332.8264],[35.4386,-0.4318,2352.0835],[35.4355,-0.4326,2345.1199],[35.4356,-0.4365,2320.9917],[35.4328,-0.4382,2356.5286],[35.4314,-0.4429,2329.5859],[35.4323,-0.4447,2314.407],[35.4277,-0.4506,2309.6602],[35.4257,-0.4514,2326.439],[35.4249,-0.4495,2327.1685],[35.4239,-0.4517,2325.0972],[35.4182,-0.4491,2259.647],[35.4144,-0.4515,2275.437],[35.4113,-0.4512,2280.6997],[35.4088,-0.4554,2268.2852],[35.406,-0.4568,2296.5237],[35.4044,-0.455,2258.553],[35.4006,-0.4573,2264.4568],[35.3985,-0.4543,2274.5781],[35.3946,-0.4553,2292.0176],[35.3938,-0.4592,2258.1919],[35.3918,-0.46,2261.6897],[35.3896,-0.4643,2256.3347],[35.3888,-0.4632,2256.3347],[35.3878,-0.4641,2236.5503],[35.3858,-0.4698,2246.9746],[35.3808,-0.4674,2205.1819],[35.3786,-0.4705,2219.8438],[35.3802,-0.4716,2207.0786],[35.3778,-0.472,2235.2554],[35.3761,-0.4761,2254.27],[35.3704,-0.4777,2223.5122],[35.3692,-0.4794,2203.8396],[35.3655,-0.4778,2232.7925],[35.361,-0.4783,2225.3018],[35.356,-0.4835,2208.6885],[35.3516,-0.4823,2171.5679],[35.3499,-0.4849,2176.5327],[35.3107,-0.5065,2083.0085],[35.3089,-0.5091,2093.4976],[35.2896,-0.5175,1993.1123],[35.2859,-0.5162,2002.5927],[35.2795,-0.5167,2011.7023],[35.2693,-0.5219,1990.2836],[35.2616,-0.5222,1964.7324],[35.2492,-0.5167,1875.1932],[35.2474,-0.5078,1862.2083],[35.2285,-0.5029,1878.1594],[35.2247,-0.5133,1895.1064],[35.2149,-0.5097,1870.2788],[35.1969,-0.5071,1831.917],[35.1931,-0.5034,1820.5989],[35.1923,-0.5076,1789.3931],[35.1899,-0.5104,1792.593],[35.1898,-0.5157,1817.5643],[35.1928,-0.5191,1819.8434],[35.1991,-0.5213,1858.717],[35.2002,-0.5259,1850.4116],[35.1974,-0.5315,1843.2545],[35.1997,-0.5367,1831.7666],[35.2016,-0.5379,1847.828],[35.2033,-0.5365,1864.5413],[35.2056,-0.5385,1877.6254],[35.2093,-0.5378,1884.0526],[35.2216,-0.5429,1916.8513],[35.2288,-0.5424,1898.4734],[35.2347,-0.5447,1909.995],[35.2378,-0.5506,1868.5132],[35.2407,-0.5509,1882.416],[35.2422,-0.549,1917.2891],[35.2447,-0.5518,1924.9799],[35.2508,-0.5475,1946.1484],[35.2537,-0.549,1916.2578],[35.2551,-0.5477,1934.408],[35.2583,-0.5486,1956.1976],[35.2627,-0.5436,1934.8864],[35.2687,-0.5435,1937.2643],[35.2698,-0.5421,1943.082],[35.2712,-0.5439,1970.8732],[35.2757,-0.5441,1956.0955],[35.2788,-0.5463,1935.446],[35.2809,-0.5451,1950.7988],[35.2847,-0.5466,1988.526],[35.2886,-0.545,1989.3066],[35.3002,-0.5473,1979.0509],[35.3045,-0.5451,1952.4689],[35.3036,-0.5407,2020.0001],[35.3052,-0.5341,2029.1731],[35.3104,-0.5284,2051.2837],[35.3106,-0.5258,2048.0801],[35.3171,-0.5215,2030.3108],[35.319,-0.5225,2059.9536],[35.3251,-0.5193,2065.7832],[35.326,-0.5169,2079.0356],[35.3318,-0.5151,2080.5083],[35.3364,-0.5089,2067.3508],[35.3431,-0.505,2128.1201],[35.3516,-0.4952,2171.8132],[35.3573,-0.4934,2207.0603],[35.3616,-0.4879,2186.0215],[35.3691,-0.4856,2176.3301],[35.3907,-0.4848,2284.3401],[35.3973,-0.4807,2292.7874],[35.3997,-0.4742,2311.2981],[35.4065,-0.468,2292.6033],[35.4138,-0.468,2296.0164],[35.4189,-0.4661,2275.9951],[35.4308,-0.467,2337.5391],[35.4428,-0.4624,2339.104],[35.4531,-0.4539,2312.7322],[35.4547,-0.4496,2292.2046],[35.4538,-0.448,2319.1116],[35.4592,-0.4389,2336.2324],[35.463,-0.436,2392.0791],[35.4638,-0.4323,2375.0474],[35.4696,-0.4315,2386.4792],[35.4703,-0.4275,2410.1509],[35.4728,-0.4285,2417.7119],[35.4744,-0.4263,2434.2642],[35.4815,-0.4257,2438.4563],[35.4853,-0.421,2434.729],[35.4886,-0.4194,2458.5774]]]]}}