{"type": "Feature","bbox": [36.2124,-0.2208,36.3535,-0.0405],"geometry": {"type": "MultiPolygon","coordinates": [[[[36.2124,-0.1155,2467.9165],[36.2235,-0.1271,2520.531],[36.2203,-0.1376,2608.3313],[36.2233,-0.1429,2654.4536],[36.2291,-0.14,2664.5447],[36.2316,-0.1479,2676.3379],[36.2363,-0.1496,2696.1514],[36.2357,-0.1517,2688.4915],[36.2382,-0.1538,2715.4763],[36.2376,-0.1572,2684.9639],[36.2413,-0.16,2692.1069],[36.2442,-0.166,2705.9971],[36.2537,-0.1623,2800.1553],[36.2521,-0.1671,2733.1003],[36.2551,-0.1779,2744.2251],[36.2542,-0.1872,2777.6624],[36.2561,-0.1966,2763.8965],[36.266,-0.1941,2726.2441],[36.2717,-0.2045,2698.7668],[36.2825,-0.2083,2635.071],[36.2892,-0.214,2718.833],[36.2919,-0.2122,2721.7371],[36.2944,-0.2208,2692.5466],[36.3083,-0.2064,2625.8906],[36.3104,-0.2,2622.4668],[36.3102,-0.1935,2663.1704],[36.3048,-0.1823,2718.7998],[36.3013,-0.1804,2682.9338],[36.3045,-0.1754,2724.2153],[36.3062,-0.1776,2721.8464],[36.3086,-0.1761,2709.5439],[36.3075,-0.1743,2705.312],[36.3133,-0.166,2685.8501],[36.32,-0.1699,2669.8218],[36.321,-0.1685,2661.0835],[36.3242,-0.1718,2660.4788],[36.3259,-0.1693,2630.5369],[36.3278,-0.1709,2643.0088],[36.3316,-0.1699,2623.1743],[36.3289,-0.1729,2604.1426],[36.3331,-0.1796,2635.7959],[36.3361,-0.1792,2615.0503],[36.3403,-0.1738,2639.8298],[36.344,-0.1782,2595.3652],[36.3451,-0.177,2564.2061],[36.3429,-0.1666,2592.1589],[36.3448,-0.1603,2569.4185],[36.3484,-0.1606,2531.5168],[36.3482,-0.1553,2531.1868],[36.3339,-0.1561,2631.7979],[36.3302,-0.1522,2569.5977],[36.3271,-0.1364,2585.2905],[36.3117,-0.1381,2592.1968],[36.3139,-0.1349,2657.7583],[36.312,-0.1285,2642.3564],[36.3138,-0.1206,2612.6487],[36.3322,-0.1079,2497.4099],[36.3358,-0.1034,2535.9675],[36.344,-0.086,2476.3135],[36.3486,-0.083,2455.3921],[36.3535,-0.0732,2418.791],[36.318,-0.0791,2528.4695],[36.3186,-0.0756,2530.6101],[36.313,-0.0731,2543.6392],[36.3134,-0.0707,2513.1592],[36.3183,-0.0662,2513.2324],[36.3213,-0.0428,2455.3289],[36.3176,-0.0451,2458.6978],[36.3091,-0.041,2503.5703],[36.2975,-0.0405,2531.9258],[36.2944,-0.0462,2537.353],[36.2921,-0.0467,2529.3406],[36.2885,-0.0636,2584.3108],[36.2851,-0.0653,2560.0261],[36.2832,-0.0884,2662.3115],[36.2678,-0.0875,2674.1846],[36.2622,-0.1066,2702.7065],[36.2572,-0.112,2725.8174],[36.2571,-0.1144,2746.4404],[36.2277,-0.1084,2459.5862],[36.2285,-0.1005,2446.0635],[36.2207,-0.0992,2458.1831],[36.2194,-0.1069,2486.6147],[36.2124,-0.1155,2467.9165]]]]}
,"properties": {"GID_3": "KEN.35.4.1_1","GID_0": "KEN","country": "Kenya","GID_1": "KEN.35_1","province": "Nyandarua","NL_NAME_1": "NA","GID_2": "KEN.35.4_1","county": "OlJorok","NL_NAME_2": "NA","city": "Charagita","VARNAME_3": "NA","NL_NAME_3": "NA","TYPE_3": "Ward","ENGTYPE_3": "Ward","CC_3": "461","HASC_3": "NA","name": "Charagita.city","area_km2": 140.5066,"hist_schema_id": "Elevation0-9000","hist_area_km2": {"2425": 0.2332,"2450": 2.6715,"2475": 5.6186,"2500": 6.1062,"2525": 5.979,"2550": 5.3642,"2575": 6.7635,"2600": 10.0498,"2625": 12.9333,"2650": 11.8732,"2675": 11.0675,"2700": 11.746,"2725": 14.3962,"2750": 14.7567,"2775": 11.3855,"2800": 5.8942,"2825": 2.6079,"2850": 1.0389,"2875": 0.0212}}}