{"type": "Feature","bbox": [37.3316,-0.7317,37.4964,-0.6171],"geometry": {"type": "MultiPolygon","coordinates": [[[[37.4964,-0.73,1062.9602],[37.4933,-0.7262,1067.8636],[37.4925,-0.7221,1074.8621],[37.489,-0.7209,1072.1099],[37.4897,-0.719,1080.3607],[37.4876,-0.7166,1088.0139],[37.4848,-0.718,1081.9591],[37.484,-0.7144,1090.045],[37.4791,-0.7142,1082.6458],[37.4788,-0.7108,1082.5778],[37.4758,-0.7067,1088.8621],[37.4739,-0.7061,1081.8362],[37.4734,-0.7077,1081.326],[37.4728,-0.703,1092.0841],[37.4707,-0.7044,1094.5129],[37.4662,-0.7019,1081.5653],[37.4657,-0.7037,1079.0183],[37.4634,-0.7036,1083.0459],[37.463,-0.7056,1081.6493],[37.4645,-0.7071,1079.0515],[37.4613,-0.7096,1086.6887],[37.4572,-0.7094,1100.7319],[37.4484,-0.7144,1093.0667],[37.4482,-0.7085,1103.772],[37.4453,-0.71,1095.0194],[37.4442,-0.7052,1108.2761],[37.4416,-0.704,1108.7776],[37.4405,-0.7064,1101.2839],[37.4397,-0.7038,1108.7776],[37.4409,-0.7031,1108.7776],[37.4379,-0.7026,1107.4668],[37.4361,-0.6985,1109.4299],[37.4341,-0.6977,1105.2733],[37.4337,-0.694,1113.9646],[37.4305,-0.6926,1114.6055],[37.4309,-0.6899,1116.1499],[37.4362,-0.6893,1118.0486],[37.4324,-0.6865,1116.2065],[37.436,-0.6819,1110.5637],[37.4315,-0.6812,1109.6674],[37.4291,-0.676,1118.1375],[37.4277,-0.6775,1114.0594],[37.4249,-0.6755,1127.0046],[37.4212,-0.6784,1125.0726],[37.4221,-0.6841,1122.4923],[37.4199,-0.6878,1121.6619],[37.416,-0.6877,1116.699],[37.4139,-0.6818,1126.7065],[37.4107,-0.6814,1125.9854],[37.4013,-0.693,1129.5624],[37.3958,-0.6924,1133.1897],[37.3954,-0.6873,1129.9485],[37.3901,-0.6846,1132.8815],[37.3895,-0.681,1135.4081],[37.3814,-0.6774,1139.2014],[37.3794,-0.6732,1145.7344],[37.3745,-0.6721,1147.2592],[37.3659,-0.6637,1162.5819],[37.3675,-0.6573,1166.2178],[37.3653,-0.6532,1175.5947],[37.3659,-0.6449,1173.6283],[37.3565,-0.6388,1182.2413],[37.3563,-0.6364,1186.6655],[37.3611,-0.6275,1198.8226],[37.3574,-0.6267,1197.6428],[37.3584,-0.6241,1197.4011],[37.3557,-0.6205,1199.2832],[37.3561,-0.6179,1202.2875],[37.3538,-0.6171,1199.4274],[37.3523,-0.6186,1204.0522],[37.3519,-0.6276,1200.8237],[37.35,-0.6268,1198.3643],[37.3493,-0.6326,1194.1235],[37.3401,-0.6326,1191.5394],[37.3326,-0.6362,1182.9686],[37.3316,-0.6442,1182.6069],[37.3364,-0.6478,1182.0632],[37.3405,-0.6476,1181.1372],[37.343,-0.6507,1182.7225],[37.3422,-0.6553,1178.9473],[37.3474,-0.6551,1180.192],[37.3524,-0.6623,1173.734],[37.3503,-0.6677,1174.2924],[37.3525,-0.6704,1150.9513],[37.3504,-0.672,1155.7878],[37.3518,-0.677,1142.3474],[37.3509,-0.6801,1139.8124],[37.3483,-0.6795,1143.54],[37.3479,-0.6855,1138.1538],[37.3521,-0.6866,1145.4231],[37.3532,-0.6903,1135.1248],[37.3571,-0.6893,1144.2963],[37.3621,-0.6962,1136.8435],[37.3716,-0.6993,1140.0024],[37.3711,-0.7033,1130.0112],[37.3674,-0.7019,1130.6897],[37.3684,-0.7081,1128.6609],[37.371,-0.7112,1129.0116],[37.3706,-0.715,1126.4839],[37.3747,-0.7164,1126.2238],[37.3763,-0.7212,1123.8103],[37.3835,-0.7235,1120.6639],[37.3851,-0.7228,1120.1417],[37.3836,-0.7221,1121.0248],[37.385,-0.7207,1120.9667],[37.3887,-0.7225,1119.2472],[37.3904,-0.7202,1119.5054],[37.3936,-0.7215,1117.976],[37.4055,-0.7183,1116.293],[37.4078,-0.7206,1114.8143],[37.4098,-0.7195,1117.8663],[37.4214,-0.7229,1115.4006],[37.4206,-0.726,1110.8427],[37.4256,-0.7246,1111.4521],[37.4303,-0.7275,1107.5748],[37.4362,-0.7258,1101.1895],[37.4416,-0.7217,1107.2992],[37.4519,-0.7265,1092.5239],[37.4544,-0.723,1095.5183],[37.4569,-0.723,1089.7604],[37.4646,-0.7176,1095.0574],[37.4663,-0.7189,1087.8452],[37.4663,-0.7219,1080.9323],[37.471,-0.7228,1087.209],[37.4717,-0.7256,1076.6344],[37.4741,-0.7241,1084.8094],[37.4804,-0.7281,1070.6296],[37.4854,-0.7283,1076.8092],[37.4925,-0.7317,1069.2714],[37.4964,-0.73,1062.9602]]]]}
,"properties": {"GID_3": "KEN.15.3.6_1","GID_0": "KEN","country": "Kenya","GID_1": "KEN.15_1","province": "Kirinyaga","NL_NAME_1": "NA","GID_2": "KEN.15.3_1","county": "Mwea","NL_NAME_2": "NA","city": "Tebere","VARNAME_3": "NA","NL_NAME_3": "NA","TYPE_3": "Ward","ENGTYPE_3": "Ward","CC_3": "503","HASC_3": "NA","name": "Tebere.city","area_km2": 59.89186,"hist_schema_id": "Elevation0-9000","hist_area_km2": {"1050": 0.0212,"1075": 4.47331,"1100": 9.37065,"1125": 24.5715,"1150": 9.54031,"1175": 9.05275,"1200": 2.86212}}}