{"type": "Feature","bbox": [37.7855,-1.361,37.9946,-1.2281],"geometry": {"type": "MultiPolygon","coordinates": [[[[37.9127,-1.3465,1099.3763],[37.9118,-1.3452,1100.6591],[37.9148,-1.3435,1101.7371],[37.9136,-1.3379,1096.0035],[37.916,-1.3364,1089.8284],[37.9135,-1.334,1122.1285],[37.9148,-1.3326,1110.7109],[37.9165,-1.3341,1109.6646],[37.9211,-1.3324,1110.3542],[37.9182,-1.3306,1098.8206],[37.9191,-1.329,1099.7051],[37.9176,-1.3259,1120.3765],[37.9217,-1.3281,1114.3188],[37.9268,-1.3264,1136.929],[37.9276,-1.3302,1115.5112],[37.9294,-1.3272,1114.0642],[37.9323,-1.3263,1114.7544],[37.9282,-1.3244,1129.0282],[37.9287,-1.3221,1114.5358],[37.9309,-1.3237,1113.5508],[37.9323,-1.3221,1127.946],[37.9279,-1.3199,1124.4568],[37.9308,-1.3178,1129.2423],[37.9283,-1.3127,1126.0179],[37.9257,-1.3113,1128.3816],[37.9275,-1.3102,1135.6288],[37.9309,-1.3111,1149.3348],[37.9317,-1.315,1123.1139],[37.9344,-1.3165,1123.7886],[37.9312,-1.3077,1159.6748],[37.9329,-1.3065,1145.636],[37.9357,-1.3084,1131.2367],[37.9368,-1.3075,1140.0237],[37.9358,-1.3049,1165.6343],[37.9314,-1.3032,1147.103],[37.9375,-1.2964,1161.7947],[37.94,-1.2978,1153.1584],[37.941,-1.2955,1159.7703],[37.9426,-1.2971,1146.1135],[37.9448,-1.2968,1149.6127],[37.9459,-1.2936,1165.9785],[37.9524,-1.2949,1163.2742],[37.9614,-1.2867,1196.9568],[37.9733,-1.2814,1209.6885],[37.9764,-1.2833,1205.7216],[37.973,-1.2946,1176.8948],[37.9798,-1.2923,1189.7356],[37.9833,-1.2936,1192.7823],[37.992,-1.2855,1192.2623],[37.9915,-1.2829,1211.5942],[37.9946,-1.2787,1222.3831],[37.9943,-1.2734,1249.9462],[37.9864,-1.2682,1203.0972],[37.9837,-1.2601,1217.5513],[37.9813,-1.261,1217.3468],[37.9819,-1.2647,1200.3488],[37.9792,-1.27,1197.7119],[37.9764,-1.2642,1225.5474],[37.9767,-1.2561,1219.8478],[37.9857,-1.2469,1244.6536],[37.9811,-1.2426,1242.7361],[37.9811,-1.2311,1237.1072],[37.979,-1.2281,1239.278],[37.9757,-1.2322,1230.3765],[37.9733,-1.2307,1247.4646],[37.9702,-1.235,1224.259],[37.9697,-1.2334,1233.9796],[37.9687,-1.2344,1233.9796],[37.9672,-1.233,1232.5963],[37.9587,-1.2396,1217.3594],[37.9534,-1.2379,1230.6757],[37.9488,-1.2387,1214.6057],[37.9436,-1.2351,1220.293],[37.9404,-1.2374,1204.1052],[37.9389,-1.2346,1211.6605],[37.9388,-1.2358,1211.6605],[37.9339,-1.2364,1211.6078],[37.9316,-1.2387,1209.7104],[37.9324,-1.2396,1198.4607],[37.9291,-1.2418,1200.3979],[37.9245,-1.24,1198.037],[37.9189,-1.2417,1200.1221],[37.9205,-1.2449,1185.4481],[37.9175,-1.2458,1191.7952],[37.9161,-1.2448,1199.2955],[37.9131,-1.2469,1189.7559],[37.9101,-1.2451,1193.5303],[37.9094,-1.2482,1178.6249],[37.903,-1.252,1179.9691],[37.904,-1.2534,1175.597],[37.9067,-1.2529,1173.5522],[37.9069,-1.2554,1173.8015],[37.9025,-1.2554,1176.0803],[37.9011,-1.254,1182.2662],[37.9011,-1.2562,1176.0803],[37.8957,-1.2611,1192.5483],[37.895,-1.2669,1158.4165],[37.8972,-1.2687,1158.0848],[37.8681,-1.2643,1182.969],[37.8599,-1.2657,1146.9834],[37.8476,-1.2639,1149.2535],[37.8327,-1.2641,1198.6481],[37.7934,-1.2703,1167.7767],[37.7855,-1.2738,1142.7517],[37.7856,-1.28,1137.1602],[37.7931,-1.2867,1150.4542],[37.8202,-1.3192,1137.5966],[37.8293,-1.3471,1137.1846],[37.8289,-1.3532,1134.1024],[37.8608,-1.3517,1056.9055],[37.864,-1.354,1044.7983],[37.8613,-1.3574,1075.359],[37.8646,-1.3604,1030.0098],[37.8702,-1.3589,1055.2898],[37.8707,-1.3605,1039.1482],[37.8737,-1.361,1040.9949],[37.8723,-1.358,1045.5295],[37.8733,-1.3544,1031.788],[37.8711,-1.3525,1051.9578],[37.876,-1.3504,1096.5706],[37.8801,-1.3516,1059.8167],[37.881,-1.3505,1083.8777],[37.8839,-1.3523,1058.3127],[37.8853,-1.3513,1076.6727],[37.8867,-1.3528,1065.0281],[37.8974,-1.3522,1075.8077],[37.8999,-1.3492,1117.1744],[37.902,-1.3551,1068.7986],[37.903,-1.3539,1071.6516],[37.9018,-1.3515,1081.8112],[37.9046,-1.3504,1072.0769],[37.9024,-1.3485,1097.1128],[37.906,-1.3478,1092.0212],[37.906,-1.3448,1094.6703],[37.9088,-1.3457,1110.113],[37.9073,-1.348,1076.6353],[37.9095,-1.349,1098.9149],[37.9117,-1.3491,1094.7949],[37.9127,-1.3465,1099.3763]]]]}
,"properties": {"GID_3": "KEN.18.5.2_1","GID_0": "KEN","country": "Kenya","GID_1": "KEN.18_1","province": "Kitui","NL_NAME_1": "NA","GID_2": "KEN.18.5_1","county": "KituiWest","NL_NAME_2": "NA","city": "KwaMutonga/Kithumula","VARNAME_3": "NA","NL_NAME_3": "NA","TYPE_3": "Ward","ENGTYPE_3": "Ward","CC_3": "349","HASC_3": "NA","name": "Kwa_Mutonga_Kithumula.city","area_km2": 170.7402,"hist_schema_id": "Elevation0-9000","hist_area_km2": {"1025": 0.4663,"1050": 2.2468,"1075": 7.3552,"1100": 13.7141,"1125": 27.5556,"1150": 38.6841,"1175": 35.0596,"1200": 24.9489,"1225": 16.3006,"1250": 4.409}}}