{"type": "Feature","bbox": [35.2756,0.5064,35.5074,0.9502],"geometry": {"type": "MultiPolygon","coordinates": [[[[35.3019,0.5287,2143.3618],[35.3132,0.5251,2167.9854],[35.3237,0.563,2148.3008],[35.3277,0.5572,2145.7664],[35.3486,0.5428,2168.7559],[35.3538,0.5274,2177.625],[35.3676,0.5222,2203.2581],[35.372,0.518,2208.4746],[35.3794,0.5175,2219.229],[35.3821,0.5142,2221.7156],[35.3852,0.5154,2231.4692],[35.3908,0.5129,2236.042],[35.3928,0.508,2238.2551],[35.3967,0.5076,2253.0461],[35.4016,0.5112,2261.0288],[35.4071,0.509,2268.1309],[35.4133,0.5115,2274.9885],[35.421,0.5079,2288.1147],[35.4252,0.5097,2292.6731],[35.4264,0.5069,2287.7983],[35.4302,0.5095,2298.1638],[35.4388,0.5094,2311.9619],[35.4462,0.5064,2315.9517],[35.4529,0.5132,2344.3833],[35.4551,0.5126,2341.8608],[35.4546,0.5114,2328.9148],[35.4582,0.5083,2331.5894],[35.4635,0.5112,2369.1191],[35.4754,0.5598,2381.6663],[35.4813,0.5949,2371.575],[35.4609,0.6282,2254.6104],[35.4319,0.6696,2201.9292],[35.413,0.7015,2146.9883],[35.4118,0.7071,2154.0972],[35.4092,0.7084,2144.7886],[35.505,0.7078,2270.6772],[35.5053,0.7163,2291.0632],[35.4985,0.7202,2272.3237],[35.4934,0.7325,2270.8494],[35.4976,0.7525,2271.8784],[35.4914,0.7529,2251.2158],[35.4909,0.7554,2252.9043],[35.4946,0.7577,2261.0769],[35.4984,0.7539,2266.8499],[35.5007,0.7647,2279.0574],[35.5035,0.7658,2286.5295],[35.5042,0.7684,2297.3779],[35.5074,0.771,2349.1802],[35.5054,0.7793,2365.1692],[35.502,0.7788,2335.7239],[35.4993,0.8254,2371.7646],[35.4965,0.8246,2370.8335],[35.4931,0.8284,2355.3188],[35.4812,0.8274,2345.6152],[35.4901,0.8467,2291.3813],[35.49,0.8533,2310.5996],[35.4932,0.8592,2301.2188],[35.4911,0.8606,2276.9788],[35.4917,0.8668,2301.6052],[35.4898,0.8697,2312.8647],[35.4913,0.871,2360.8577],[35.4878,0.8736,2320.5601],[35.487,0.8799,2323.9417],[35.4885,0.882,2332.3511],[35.4562,0.8823,2225.7993],[35.4584,0.8883,2227.2686],[35.4632,0.8934,2223.2341],[35.4653,0.9032,2334.0269],[35.4689,0.906,2282.739],[35.4151,0.9135,2340.7485],[35.4146,0.9199,2355.8887],[35.4206,0.9435,2619.7312],[35.3854,0.9502,2124.5508],[35.3811,0.9437,2080.2998],[35.3778,0.9422,2081.6448],[35.3784,0.9388,2058.8999],[35.3762,0.9325,2058.363],[35.3766,0.9212,2015.9526],[35.3733,0.9165,2041.3049],[35.3678,0.9197,2030.4028],[35.3587,0.9004,1950.5645],[35.3539,0.898,1933.1725],[35.3523,0.9016,1931.2123],[35.3487,0.8819,1961.9075],[35.3346,0.8713,1928.8635],[35.3376,0.8667,1968.3622],[35.3358,0.8578,2065.7427],[35.359,0.8564,1992.495],[35.3551,0.8371,2089.5574],[35.3441,0.8356,2074.5674],[35.355,0.8151,2092.6626],[35.3235,0.8088,2056.3379],[35.3235,0.8132,2061.5298],[35.3141,0.8136,2049.4209],[35.3125,0.8082,2042.6345],[35.2986,0.7858,2054.5747],[35.2961,0.7824,2053.7307],[35.2942,0.7844,2049.9163],[35.2949,0.7724,2050.8674],[35.298,0.7606,2055.6799],[35.3028,0.7604,2058.9414],[35.2998,0.7356,2058.7329],[35.302,0.7178,2073.8677],[35.308,0.7038,2086.4146],[35.3092,0.6956,2088.6831],[35.3032,0.6742,2064.6914],[35.3121,0.6704,2076.6096],[35.3175,0.6749,2088.0696],[35.3221,0.6731,2088.564],[35.3268,0.6739,2098.6782],[35.3312,0.6658,2094.6328],[35.3287,0.6596,2096.1436],[35.3301,0.6509,2102.1362],[35.3323,0.6482,2103.4685],[35.3319,0.6426,2103.343],[35.3253,0.6366,2116.3647],[35.3205,0.6286,2114.2161],[35.3204,0.6242,2111.6416],[35.3134,0.6052,2120.696],[35.315,0.5933,2122.8701],[35.2938,0.5904,2129.5847],[35.2976,0.5806,2143.5312],[35.28,0.573,2140.3762],[35.2901,0.5604,2148.2412],[35.2849,0.5428,2149.7202],[35.2781,0.5316,2140.5105],[35.2756,0.5191,2088.3706],[35.2785,0.5134,2074.9207],[35.2822,0.5152,2093.9692],[35.2846,0.5253,2108.1306],[35.2883,0.524,2111.1865],[35.2912,0.5334,2152.1912],[35.3019,0.5287,2143.3618]]]]}
,"properties": {"GID_2": "KEN.44.4_1","GID_0": "KEN","country": "Kenya","GID_1": "KEN.44_1","province": "UasinGishu","NL_NAME_1": "NA","county": "Moiben","VARNAME_2": "NA","NL_NAME_2": "NA","TYPE_2": "Constituency","ENGTYPE_2": "Constituency","CC_2": "143","HASC_2": "NA","name": "Moiben.county","area_km2": 779.564,"hist_schema_id": "Elevation0-9000","hist_area_km2": {"1925": 1.908,"1950": 6.4871,"1975": 11.9991,"2000": 18.7618,"2025": 24.083,"2050": 35.5524,"2075": 56.2017,"2100": 73.4166,"2125": 93.176,"2150": 108.187,"2175": 68.9236,"2200": 52.1328,"2225": 53.2352,"2250": 49.186,"2275": 39.1367,"2300": 28.7059,"2325": 24.19,"2350": 16.9182,"2375": 7.611,"2400": 2.6712,"2425": 1.696,"2450": 1.4204,"2475": 1.378,"2500": 0.848,"2525": 0.6996,"2550": 0.6996,"2575": 0.2544,"2600": 0.0636,"2625": 0.0212}}}