{"type": "Feature","bbox": [34.6747,0.0862,34.7589,0.121],"geometry": {"type": "MultiPolygon","coordinates": [[[[34.6747,0.0909,1487.4365],[34.6875,0.0896,1526.0906],[34.6991,0.0862,1554.2831],[34.7155,0.0894,1583.9009],[34.7324,0.0884,1586.134],[34.742,0.0896,1566.3142],[34.7392,0.096,1590.8185],[34.7431,0.0995,1601.454],[34.7532,0.1009,1600.9714],[34.7578,0.1085,1562.9701],[34.7589,0.1148,1594.1832],[34.7552,0.1152,1577.2533],[34.75,0.121,1592.4564],[34.7375,0.1176,1602.9078],[34.7318,0.1132,1585.9563],[34.7261,0.1123,1582.2257],[34.7209,0.1094,1565.9286],[34.7181,0.1089,1565.5693],[34.7111,0.1119,1562.6797],[34.7074,0.1095,1543.2991],[34.6998,0.1091,1548.6505],[34.6968,0.1053,1544.4019],[34.6902,0.1017,1529.2039],[34.6816,0.1018,1480.7876],[34.6762,0.1048,1481.1382],[34.6778,0.1016,1474.2064],[34.6747,0.0909,1487.4365]]]]}
,"properties": {"GID_3": "KEN.45.4.3_1","GID_0": "KEN","country": "Kenya","GID_1": "KEN.45_1","province": "Vihiga","NL_NAME_1": "NA","GID_2": "KEN.45.4_1","county": "Sabatia","NL_NAME_2": "NA","city": "Lyaduywa/Izava","VARNAME_3": "NA","NL_NAME_3": "NA","TYPE_3": "Ward","ENGTYPE_3": "Ward","CC_3": "1055","HASC_3": "NA","name": "Lyaduywa_Izava.city","area_km2": 19.56961,"hist_schema_id": "Elevation0-9000","hist_area_km2": {"1475": 1.39934,"1500": 2.12022,"1525": 3.47716,"1550": 5.21573,"1575": 5.66098,"1600": 1.63257,"1625": 0.06361}}}