{"type": "Feature","bbox": [34.7208,-0.9519,34.7966,-0.8456],"geometry": {"type": "MultiPolygon","coordinates": [[[[34.7488,-0.85,1695.0789],[34.748,-0.8456,1682.6432],[34.7446,-0.8469,1684.498],[34.7398,-0.8458,1682.8342],[34.7328,-0.858,1702.4115],[34.7269,-0.8629,1747.5168],[34.7244,-0.8705,1767.5844],[34.7277,-0.8755,1761.0514],[34.7272,-0.8815,1723.1542],[34.7245,-0.8863,1745.0024],[34.7258,-0.8879,1714.0125],[34.7208,-0.8922,1732.1721],[34.7254,-0.8983,1683.0282],[34.725,-0.9025,1678.2711],[34.7281,-0.906,1706.3271],[34.7286,-0.9128,1710.3492],[34.7308,-0.9135,1730.0488],[34.7329,-0.9172,1762.3223],[34.7393,-0.9396,1796.7],[34.7421,-0.9416,1800.8634],[34.7403,-0.9472,1816.09],[34.7418,-0.9519,1817.5961],[34.7966,-0.9381,1843.5227],[34.7928,-0.9354,1851.8081],[34.783,-0.919,1766.8118],[34.7676,-0.9047,1759.4696],[34.7589,-0.8882,1782.5393],[34.7529,-0.8824,1797.9615],[34.756,-0.8788,1759.6575],[34.7543,-0.8769,1743.7725],[34.7551,-0.8697,1732.6489],[34.7528,-0.8609,1728.0928],[34.7481,-0.8526,1693.8282],[34.7488,-0.85,1695.0789]]]]}
,"properties": {"GID_3": "KEN.16.2.1_1","GID_0": "KEN","country": "Kenya","GID_1": "KEN.16_1","province": "Kisii","NL_NAME_1": "NA","GID_2": "KEN.16.2_1","county": "BomachogeBorabu","NL_NAME_2": "NA","city": "Bokimonge","VARNAME_3": "NA","NL_NAME_3": "NA","TYPE_3": "Ward","ENGTYPE_3": "Ward","CC_3": "1313","HASC_3": "NA","name": "Bokimonge.city","area_km2": 45.36704,"hist_schema_id": "Elevation0-9000","hist_area_km2": {"1675": 0.6996,"1700": 3.58276,"1725": 4.28233,"1750": 5.06671,"1775": 12.61372,"1800": 12.0625,"1825": 5.19387,"1850": 1.71715,"1875": 0.1484}}}