{"type": "Feature","bbox": [34.494,0.0692,34.5583,0.1429],"geometry": {"type": "MultiPolygon","coordinates": [[[[34.5337,0.1405,1457.9763],[34.5297,0.1321,1449.6372],[34.5269,0.1298,1444.3148],[34.5225,0.1291,1419.1807],[34.5129,0.1322,1402.6906],[34.5123,0.1261,1392.2639],[34.5081,0.1216,1418.3296],[34.5002,0.1304,1429.4907],[34.4994,0.1298,1429.4907],[34.5003,0.1265,1421.3051],[34.4977,0.1274,1429.6422],[34.4963,0.1258,1430.042],[34.5033,0.1199,1439.0172],[34.5019,0.1171,1439.887],[34.4957,0.1153,1412.5082],[34.4964,0.1111,1419.7782],[34.494,0.1056,1441.9081],[34.5034,0.1,1455.8518],[34.5058,0.095,1431.4741],[34.5107,0.0914,1420.0396],[34.5187,0.0886,1374.7734],[34.5185,0.0797,1348.1777],[34.5223,0.0782,1355.3181],[34.5211,0.0733,1335.5276],[34.5229,0.0742,1340.1511],[34.5269,0.0702,1361.4684],[34.531,0.0692,1391.0917],[34.5431,0.0756,1429.2847],[34.5455,0.0816,1402.1233],[34.5489,0.0828,1415.8499],[34.5545,0.0913,1416.6768],[34.5538,0.0937,1425.1946],[34.5569,0.0965,1433.3342],[34.555,0.1061,1413.245],[34.5574,0.108,1423.0266],[34.5583,0.1121,1415.2352],[34.5537,0.113,1405.7749],[34.5508,0.1177,1401.1659],[34.5438,0.1184,1428.8152],[34.5472,0.1205,1422.6504],[34.5469,0.1218,1422.6504],[34.5525,0.1225,1406.0187],[34.5516,0.1269,1400.1616],[34.5539,0.1283,1398.5106],[34.5543,0.1331,1420.0248],[34.5489,0.1361,1434.3364],[34.5452,0.1429,1442.5231],[34.5337,0.1405,1457.9763]]]]}
,"properties": {"GID_3": "KEN.38.3.6_1","GID_0": "KEN","country": "Kenya","GID_1": "KEN.38_1","province": "Siaya","NL_NAME_1": "NA","GID_2": "KEN.38.3_1","county": "Gem","NL_NAME_2": "NA","city": "YalaTownship","VARNAME_3": "NA","NL_NAME_3": "NA","TYPE_3": "Ward","ENGTYPE_3": "Ward","CC_3": "1172","HASC_3": "NA","name": "Yala_Township.city","area_km2": 34.64434,"hist_schema_id": "Elevation0-9000","hist_area_km2": {"1350": 1.08131,"1375": 1.9294,"1400": 9.54098,"1425": 12.23365,"1450": 9.28655,"1475": 0.57246}}}