{"type": "Feature","bbox": [36.7013,-1.2393,36.7525,-1.209],"geometry": {"type": "MultiPolygon","coordinates": [[[[36.7249,-1.2393,1847.0408],[36.7277,-1.2391,1828.9684],[36.7292,-1.2278,1849.6365],[36.7467,-1.2307,1815.3137],[36.7525,-1.22,1777.2932],[36.7394,-1.2192,1833.8837],[36.73,-1.2133,1851.5071],[36.711,-1.209,1915.5773],[36.7107,-1.215,1890.7925],[36.7013,-1.2201,1907.5752],[36.7016,-1.2214,1911.8434],[36.7081,-1.2289,1899.038],[36.7236,-1.2344,1851.8309],[36.7252,-1.2361,1849.3396],[36.7249,-1.2393,1847.0408]]]]}
,"properties": {"GID_3": "KEN.13.5.2_1","GID_0": "KEN","country": "Kenya","GID_1": "KEN.13_1","province": "Kiambu","NL_NAME_1": "NA","GID_2": "KEN.13.5_1","county": "Kabete","NL_NAME_2": "NA","city": "Kabete","VARNAME_3": "NA","NL_NAME_3": "NA","TYPE_3": "Ward","ENGTYPE_3": "Ward","CC_3": "594","HASC_3": "NA","name": "Kabete.city","area_km2": 9.030084,"hist_schema_id": "Elevation0-9000","hist_area_km2": {"1775": 0.042395,"1800": 0.614724,"1825": 2.098539,"1850": 2.18333,"1875": 1.971357,"1900": 1.780581,"1925": 0.339158}}}