{"type": "Feature","bbox": [34.6258,0.6031,34.7155,0.7426],"geometry": {"type": "MultiPolygon","coordinates": [[[[34.6745,0.6471,1461.4506],[34.6791,0.6404,1455.816],[34.6818,0.6252,1445.3462],[34.68,0.6132,1443.7454],[34.6821,0.6076,1437.6633],[34.6818,0.6031,1437.4612],[34.684,0.605,1440.6128],[34.6833,0.6083,1440.6536],[34.6856,0.608,1441.3154],[34.6898,0.6115,1442.374],[34.6917,0.611,1443.5269],[34.6919,0.6131,1445.5518],[34.6932,0.6125,1445.59],[34.6921,0.615,1450.3066],[34.6966,0.616,1451.9838],[34.6976,0.6182,1453.0328],[34.6999,0.6188,1444.4785],[34.7003,0.6221,1450.3757],[34.6978,0.6225,1465.6837],[34.7026,0.6337,1466.293],[34.7132,0.6379,1450.1775],[34.7115,0.64,1452.6429],[34.7138,0.6415,1452.873],[34.7122,0.6459,1452.9003],[34.7141,0.6472,1453.826],[34.7137,0.6509,1454.465],[34.7115,0.6505,1456.5552],[34.7107,0.6527,1459.7219],[34.7132,0.6535,1455.8678],[34.7122,0.6566,1455.1211],[34.7135,0.6588,1464.7227],[34.7107,0.6635,1457.2816],[34.7097,0.6705,1473.4734],[34.7104,0.6729,1477.1537],[34.7118,0.6722,1467.1416],[34.7139,0.6749,1464.703],[34.7145,0.6803,1466.0575],[34.713,0.6858,1471.2825],[34.7155,0.6866,1476.108],[34.714,0.688,1477.1636],[34.7151,0.689,1486.6571],[34.7117,0.6903,1476.2561],[34.711,0.6928,1493.5099],[34.7098,0.6923,1493.5099],[34.7115,0.6946,1507.0442],[34.7091,0.6968,1507.4397],[34.708,0.6947,1497.6016],[34.7052,0.6976,1489.9211],[34.7041,0.696,1484.0298],[34.7002,0.7013,1492.0453],[34.7007,0.7038,1500.0647],[34.6987,0.7041,1500.0647],[34.6986,0.7068,1490.6345],[34.6976,0.7058,1490.6345],[34.6951,0.7112,1512.7854],[34.6837,0.7123,1495.0813],[34.6797,0.7185,1507.1854],[34.6781,0.7187,1496.9753],[34.6785,0.7215,1510.7418],[34.6765,0.722,1502.0034],[34.674,0.727,1514.3142],[34.6733,0.7256,1514.3142],[34.6717,0.727,1511.3474],[34.6712,0.7246,1507.7585],[34.6665,0.7267,1513.6495],[34.6657,0.7292,1517.6589],[34.6609,0.7291,1502.4496],[34.6555,0.7337,1517.7866],[34.652,0.7395,1520.8574],[34.6477,0.7404,1518.0989],[34.6465,0.7426,1518.2637],[34.6327,0.7205,1556.2578],[34.6258,0.716,1567.105],[34.6266,0.7105,1551.083],[34.6368,0.6955,1530.4027],[34.6444,0.6885,1518.604],[34.6463,0.679,1511.6202],[34.6553,0.6805,1533.4243],[34.657,0.6776,1531.0026],[34.6673,0.6722,1494.3701],[34.6681,0.6668,1475.5245],[34.6737,0.659,1478.2983],[34.6728,0.6524,1462.9998],[34.6745,0.6471,1461.4506]]]]}
,"properties": {"GID_3": "KEN.3.10.1_1","GID_0": "KEN","country": "Kenya","GID_1": "KEN.3_1","province": "Bungoma","NL_NAME_1": "NA","GID_2": "KEN.3.10_1","county": "WebuteWest","NL_NAME_2": "NA","city": "Bokoli","VARNAME_3": "NA","NL_NAME_3": "NA","TYPE_3": "Ward","ENGTYPE_3": "Ward","CC_3": "1110","HASC_3": "NA","name": "Bokoli.city","area_km2": 66.90942,"hist_schema_id": "Elevation0-9000","hist_area_km2": {"1450": 6.19067,"1475": 14.90416,"1500": 20.20426,"1525": 14.67084,"1550": 10.11267,"1575": 0.82682}}}