{"type":"Feature","properties":{"GID_3":"KEN.9.1.5_1","GID_0":"KEN","country":"Kenya","GID_1":"KEN.9_1","province":"Isiolo","NL_NAME_1":"NA","GID_2":"KEN.9.1_1","county":"IsioloNorth","NL_NAME_2":"NA","city":"NgareMara","VARNAME_3":"NA","NL_NAME_3":"NA","TYPE_3":"Ward","ENGTYPE_3":"Ward","CC_3":"245","HASC_3":"NA","name":"Ngare_Mara.city"},
"geometry":{"type": "MultiPolygon","coordinates": [[[[37.5867,0.4804,959.2],[37.8263,0.5631,1510.2189],[37.9017,0.5965,870.434],[37.9025,0.5921,872.4823],[37.9017,0.5967,870.434],[38.0625,0.6711,766.2913],[38.0667,0.6575,771.4078],[38.0631,0.6723,766.1016],[38.0657,0.6783,773.4156],[38.0643,0.6888,761.5594],[38.0655,0.7034,714.4667],[38.0707,0.7163,701.4684],[38.0779,0.7251,693.6335],[38.0815,0.7401,683.6761],[38.0847,0.7457,677.1113],[38.0805,0.7625,667.0544],[38.0822,0.7751,654.5137],[38.0785,0.7805,638.5741],[38.0807,0.7872,635.1898],[38.0705,0.7877,680.7184],[38.0599,0.7834,698.46],[38.0533,0.7833,695.9692],[38.0466,0.788,663.9481],[38.0455,0.7918,685.8794],[38.0311,0.7963,720.4065],[38.0226,0.8034,685.2628],[38.0154,0.8013,670.3807],[38.0162,0.8085,669.5549],[38.0139,0.81,676.4138],[38.0081,0.8062,674.7784],[38.0085,0.797,663.9248],[38.0052,0.7933,677.6267],[37.9999,0.7927,680.9118],[37.9945,0.7833,687.6431],[37.9859,0.7822,694.444],[37.9853,0.7794,687.8027],[37.9731,0.7642,700.6268],[37.9722,0.7595,690.7771],[37.9595,0.7561,703.2321],[37.9553,0.7498,706.8232],[37.9459,0.7491,715.5803],[37.9296,0.7272,839.957],[37.9248,0.724,820.0012],[37.9191,0.7241,797.0275],[37.9149,0.7178,741.908],[37.9115,0.7189,733.0684],[37.9114,0.723,751.5845],[37.9092,0.7264,772.8729],[37.9053,0.7251,734.4619],[37.9018,0.7268,726.5566],[37.9035,0.7314,742.717],[37.9023,0.7336,749.7739],[37.896,0.7323,733.4233],[37.8935,0.7347,732.2243],[37.8909,0.7422,757.5023],[37.8783,0.7486,741.4291],[37.874,0.7412,731.0377],[37.8765,0.7377,729.0669],[37.8743,0.7338,729.0224],[37.8673,0.7317,741.9989],[37.8595,0.7245,739.2955],[37.8571,0.7246,743.5143],[37.8482,0.7192,750.2205],[37.844,0.7108,759.3631],[37.8426,0.7027,759.3024],[37.8447,0.6957,745.3847],[37.8366,0.6857,774.8898],[37.8336,0.684,771.8007],[37.823,0.6843,783.3306],[37.8165,0.6808,781.3832],[37.8029,0.6806,867.4055],[37.7928,0.676,831.6157],[37.7845,0.6818,972.7471],[37.7767,0.6822,871.2375],[37.7688,0.6784,799.5586],[37.7595,0.6768,788.04],[37.7501,0.6815,876.4676],[37.7446,0.6792,796.6178],[37.741,0.6718,784.9744],[37.7377,0.6706,789.5637],[37.7359,0.6665,790.612],[37.7304,0.6664,798.4745],[37.7259,0.6595,796.1289],[37.7145,0.6648,801.4866],[37.7125,0.67,806.5784],[37.7094,0.6723,807.6321],[37.7047,0.6724,801.4296],[37.6974,0.6683,809.3909],[37.692,0.669,819.5382],[37.6851,0.6618,818.0088],[37.6826,0.6556,819.8743],[37.6833,0.6508,812.0795],[37.6818,0.6474,819.3735],[37.678,0.6471,836.3531],[37.6764,0.644,840.4532],[37.6747,0.6463,841.5389],[37.6662,0.6386,838.5831],[37.6611,0.6388,845.6454],[37.6566,0.6364,842.0969],[37.6507,0.6367,852.5417],[37.6464,0.6327,842.9556],[37.6442,0.6271,844.2445],[37.6393,0.6268,842.789],[37.6379,0.6194,839.3961],[37.6421,0.6195,840.7578],[37.6428,0.6182,841.9487],[37.6369,0.6131,844.3047],[37.6367,0.6063,850.0281],[37.6339,0.6025,856.2585],[37.6305,0.6017,897.9117],[37.6269,0.6055,895.278],[37.623,0.6031,846.3987],[37.618,0.6051,848.5228],[37.6042,0.5956,850.6893],[37.5963,0.5967,854.1285],[37.5899,0.5928,857.4078],[37.5817,0.5923,862.0342],[37.5825,0.5815,854.6331],[37.5811,0.5785,857.5386],[37.5793,0.5782,857.7363],[37.5792,0.5739,859.2968],[37.5842,0.568,869.5008],[37.5933,0.5639,885.6667],[37.5974,0.5504,886.7878],[37.5972,0.5462,891.0567],[37.5955,0.5447,897.0164],[37.5965,0.5333,909.3907],[37.5889,0.5117,932.3499],[37.5881,0.5005,940.7821],[37.5849,0.4957,946.6213],[37.5867,0.4804,959.2]]]]}}