{"type":"Feature","properties":{"GID_3":"KEN.17.7.1_1","GID_0":"KEN","country":"Kenya","GID_1":"KEN.17_1","province":"Kisumu","NL_NAME_1":"NA","GID_2":"KEN.17.7_1","county":"Seme","NL_NAME_2":"NA","city":"CentralSeme","VARNAME_3":"NA","NL_NAME_3":"NA","TYPE_3":"Ward","ENGTYPE_3":"Ward","CC_3":"1203","HASC_3":"NA","name":"Central_Seme.city"},
"geometry":{"type": "MultiPolygon","coordinates": [[[[34.5813,-0.1861,1133.0],[34.5503,-0.1512,1147.1312],[34.5497,-0.1483,1148.6958],[34.5417,-0.1464,1177.3325],[34.5388,-0.1265,1192.1362],[34.5433,-0.1229,1184.7601],[34.5433,-0.1201,1186.0852],[34.5458,-0.1171,1196.6362],[34.5419,-0.1164,1203.4552],[34.5408,-0.1181,1207.0146],[34.5376,-0.1176,1179.6628],[34.5363,-0.119,1179.3641],[34.5346,-0.1168,1177.7556],[34.5333,-0.118,1174.8872],[34.5313,-0.1127,1177.677],[34.5265,-0.1113,1179.8613],[34.5281,-0.106,1224.6427],[34.5347,-0.104,1192.3372],[34.5389,-0.0973,1218.2788],[34.5237,-0.0774,1330.0525],[34.5208,-0.0758,1330.6367],[34.5098,-0.0771,1339.8466],[34.506,-0.0733,1323.7122],[34.4947,-0.0716,1290.9847],[34.4858,-0.0838,1260.681],[34.4797,-0.083,1208.2059],[34.4724,-0.0852,1216.6711],[34.4688,-0.0883,1236.8126],[34.4627,-0.0864,1230.4963],[34.4674,-0.0921,1219.4214],[34.4651,-0.0964,1210.9751],[34.467,-0.099,1204.97],[34.4629,-0.1051,1243.1177],[34.4631,-0.112,1215.7297],[34.4671,-0.1148,1213.7885],[34.4701,-0.1136,1197.5021],[34.4766,-0.1146,1200.4493],[34.4806,-0.1101,1221.8582],[34.4925,-0.1091,1239.2751],[34.493899999999996,-0.1053,1251.2922],[34.4957,-0.1072,1255.376],[34.5032,-0.108,1245.2891],[34.5082,-0.1105,1195.0304],[34.513,-0.1234,1161.6062],[34.5071,-0.1298,1152.6754],[34.5086,-0.1446,1145.6953],[34.5058,-0.151,1143.3594],[34.4948,-0.1618,1136.3984],[34.4948,-0.1634,1135.9653],[34.499,-0.1648,1136.8484],[34.5025,-0.1699,1151.5178],[34.5091,-0.1709,1188.5044],[34.5139,-0.1751,1173.6382],[34.572,-0.2419,1133.0],[34.6676,-0.1853,1133.0],[34.5813,-0.1861,1133.0]]]]}}