{"type":"Feature","properties":{"GID_3":"KEN.32.2.5_1","GID_0":"KEN","country":"Kenya","GID_1":"KEN.32_1","province":"Nandi","NL_NAME_1":"NA","GID_2":"KEN.32.2_1","county":"Chesumei","NL_NAME_2":"NA","city":"Lelmokwo/Ngechek","VARNAME_3":"NA","NL_NAME_3":"NA","TYPE_3":"Ward","ENGTYPE_3":"Ward","CC_3":"767","HASC_3":"NA","name":"Lelmokwo_Ngechek.city"},
"geometry":{"type": "MultiPolygon","coordinates": [[[[35.1339,0.3432,2043.1143],[35.1561,0.3365,2053.5972],[35.1762,0.3133,2102.3091],[35.1825,0.312,2093.0525],[35.187,0.3086,2104.4844],[35.1879,0.3031,2106.7649],[35.1837,0.3015,2102.3127],[35.1841,0.2845,1999.3848],[35.1816,0.2801,1968.5005],[35.1824,0.2762,1951.6832],[35.1868,0.2774,1954.4758],[35.1893,0.2763,1952.8431],[35.1911,0.2784,1955.6162],[35.1951,0.278,1956.1401],[35.2008,0.2821,1965.7885],[35.2043,0.2824,1964.7772],[35.2115,0.2775,1962.2126],[35.2145,0.2883,1964.3162],[35.214,0.2959,2008.3123],[35.2162,0.2986,2032.5353],[35.2164,0.3019,2059.6284],[35.2184,0.3028,2087.8052],[35.2179,0.3053,2111.2441],[35.2196,0.308,2129.9487],[35.2225,0.31,2128.3076],[35.2252,0.3082,2129.238],[35.2326,0.3109,2143.1094],[35.241,0.3084,2154.3726],[35.1948,0.3842,2044.8303],[35.1823,0.4124,2012.1255],[35.1807,0.4125,1980.0469],[35.1763,0.4185,1999.7152],[35.1713,0.4147,1916.4375],[35.1593,0.4153,1916.5448],[35.1579,0.4169,1915.4213],[35.1503,0.4142,1988.8145],[35.1381,0.414,1922.9614],[35.1372,0.4023,1926.9543],[35.1339,0.3995,1968.2512],[35.1306,0.3924,1969.7467],[35.1243,0.3848,1952.2715],[35.1238,0.3796,1955.3722],[35.1271,0.3749,1982.1063],[35.1262,0.3688,1970.3119],[35.1285,0.3638,1972.7804],[35.1218,0.3567,2019.6115],[35.1202,0.3484,2023.5157],[35.1258,0.3481,2023.2292],[35.1339,0.3432,2043.1143]]]]}}