{"type":"Feature","properties":{"GID_3":"KEN.37.2.5_1","GID_0":"KEN","country":"Kenya","GID_1":"KEN.37_1","province":"Samburu","NL_NAME_1":"NA","GID_2":"KEN.37.2_1","county":"SamburuNorth","NL_NAME_2":"NA","city":"Ndoto","VARNAME_3":"NA","NL_NAME_3":"NA","TYPE_3":"Ward","ENGTYPE_3":"Ward","CC_3":"668","HASC_3":"NA","name":"Ndoto.city"},
"geometry":{"type": "MultiPolygon","coordinates": [[[[37.0023,1.9931,970.9001],[36.9914,1.9873,991.7377],[36.9863,1.9827,1006.8378],[36.9786,1.9681,1040.4438],[36.9694,1.965,1043.3423],[36.9681,1.9542,1063.7175],[36.9697,1.948,1072.7297],[36.9658,1.9344,1185.5656],[36.9595,1.9279,1211.3339],[36.9551,1.9201,1146.5627],[36.9496,1.9161,1188.5049],[36.9428,1.9011,1222.8827],[36.9426,1.8938,1302.79],[36.9374,1.8925,1418.9407],[36.9322,1.8873,1406.7693],[36.917,1.8886,1425.0483],[36.9096,1.8785,1431.2847],[36.9008,1.8703,1422.8202],[36.8969,1.8695,1449.0798],[36.8893,1.8717,1406.7433],[36.8677,1.8848,1390.4816],[36.8527,1.8868,1359.6467],[36.8427,1.8842,1355.4486],[36.8369,1.8725,1356.7008],[36.8207,1.8594,1364.5291],[36.8229,1.8515,1387.4016],[36.8177,1.8476,1391.9376],[36.8178,1.8241,1332.3907],[36.8142,1.8122,1312.592],[36.8126,1.8099,1308.1349],[36.806,1.8078,1294.2306],[36.8031,1.8051,1286.5237],[36.7987,1.7961,1256.8762],[36.8067,1.7959,1259.432],[36.8172,1.7998,1277.4353],[36.8253,1.8056,1283.186],[36.8266,1.8093,1282.0762],[36.8379,1.8038,1289.3441],[36.8421,1.8072,1312.3309],[36.849,1.8054,1302.5264],[36.8507,1.807,1310.0975],[36.8521,1.806,1308.4188],[36.855,1.8094,1317.12],[36.8641,1.8098,1311.6846],[36.8673,1.8057,1312.0878],[36.8722,1.8042,1319.9426],[36.8733,1.8055,1320.3699],[36.8748,1.8031,1321.8336],[36.8784,1.8026,1329.63],[36.8815,1.8034,1330.8038],[36.8826,1.8065,1336.8705],[36.8852,1.8076,1341.4526],[36.8927,1.8085,1344.9442],[36.8949,1.807,1339.9163],[36.8971,1.8083,1346.625],[36.9001,1.8046,1342.8459],[36.9011,1.8052,1347.2526],[36.901,1.802,1347.1012],[36.9054,1.7971,1353.6505],[36.9072,1.7914,1360.6111],[36.9131,1.7861,1372.1829],[36.9161,1.7745,1381.4995],[36.932,1.7596,1421.7223],[36.9342,1.7553,1422.0205],[36.9403,1.7516,1439.5756],[36.9503,1.7486,1460.3838],[36.9544,1.7455,1467.045],[36.9546,1.7381,1454.8278],[36.9492,1.7269,1430.489],[36.9527,1.7201,1411.7188],[36.9508,1.6954,1358.1526],[36.9549,1.676,1307.634],[36.9573,1.6721,1318.4082],[36.9599,1.671,1308.1484],[36.9616,1.662,1268.1284],[36.9595,1.6553,1280.3088],[36.9611,1.6509,1252.7893],[36.959,1.6503,1263.7848],[36.9575,1.6395,1231.4227],[36.9477,1.6251,1220.4052],[36.9485,1.6094,1172.4006],[36.9497,1.6075,1164.3579],[36.9525,1.6055,1201.5715],[36.9593,1.6046,1222.1121],[36.9758,1.6048,1200.9474],[36.9809,1.6022,1199.1638],[36.9906,1.6048,1243.6362],[37.0101,1.6009,1174.3944],[37.032,1.6006,1156.9963],[37.0418,1.6036,1148.4265],[37.0483,1.6018,1094.4064],[37.0498,1.5975,1075.5471],[37.0573,1.5939,1104.8594],[37.0661,1.5753,998.9912],[37.0701,1.5726,987.5859],[37.0742,1.564,964.2306],[37.0768,1.5624,953.7031],[37.081,1.5521,925.2493],[37.0807,1.5427,898.2496],[37.0822,1.5402,910.5708],[37.082,1.5352,873.0148],[37.0846,1.5312,879.5253],[37.0845,1.5259,861.9886],[37.0865,1.5242,886.8024],[37.0894,1.5132,815.5253],[37.0953,1.5013,792.1801],[37.0934,1.5015,795.2554],[37.0953,1.4973,792.6755],[37.1052,1.502,784.2943],[37.1131,1.5005,778.7602],[37.12,1.5024,778.4067],[37.1234,1.5006,774.3144],[37.1302,1.5009,771.0808],[37.1472,1.5151,794.328],[37.1609,1.5161,760.1585],[37.164,1.5205,800.7661],[37.1708,1.5245,774.3424],[37.1727,1.5315,753.4152],[37.1854,1.5362,779.1337],[37.1922,1.5375,767.5535],[37.209,1.5355,765.3506],[37.2154,1.5308,727.2222],[37.2248,1.5368,717.6823],[37.2341,1.5342,721.5944],[37.2405,1.5357,719.446],[37.2581,1.5453,709.2164],[37.2732,1.5501,697.7952],[37.2808,1.5558,698.3359],[37.2914,1.5596,699.1328],[37.2967,1.5636,698.5219],[37.3103,1.5671,684.0327],[37.3149,1.5733,686.0189],[37.3295,1.5774,671.8501],[37.3476,1.585,667.9247],[37.3595,1.5985,661.2722],[37.3645,1.601,660.884],[37.371,1.6019,661.9819],[37.3837,1.6171,646.0973],[37.3818,1.6226,648.3649],[37.3826,1.6357,645.0159],[37.39,1.6369,640.5969],[37.3986,1.6473,637.7327],[37.4068,1.6544,741.4594],[37.3589,1.7296,1458.9209],[37.3053,1.7517,1057.6255],[37.2739,1.8697,721.4517],[37.2343,1.8719,923.4736],[37.2195,1.8915,779.3052],[37.1811,1.9181,871.2271],[37.1715,1.9273,879.6166],[37.1637,1.9411,862.5057],[37.1613,1.9643,823.0797],[37.1223,1.9673,835.9698],[37.0931,1.9747,844.775],[37.0753,1.9825,871.5974],[37.0115,1.9845,966.4456],[37.0023,1.9931,970.9001]]]]}}