{"type":"Feature","properties":{"GID_3":"KEN.26.6.5_1","GID_0":"KEN","country":"Kenya","GID_1":"KEN.26_1","province":"Meru","NL_NAME_1":"NA","GID_2":"KEN.26.6_1","county":"NorthImenti","NL_NAME_2":"NA","city":"NyakiWest","VARNAME_3":"NA","NL_NAME_3":"NA","TYPE_3":"Ward","ENGTYPE_3":"Ward","CC_3":"279","HASC_3":"NA","name":"Nyaki_West.city"},
"geometry":{"type": "MultiPolygon","coordinates": [[[[37.6169,0.1317,1693.84],[37.6393,0.0863,1651.0339],[37.6421,0.0773,1642.9867],[37.6465,0.0711,1640.2214],[37.6457,0.0665,1658.948],[37.6485,0.0613,1644.9399],[37.6525,0.0635,1609.0483],[37.6591,0.0603,1562.3569],[37.6579,0.0592,1562.3569],[37.6651,0.0575,1501.6433],[37.6693,0.0493,1487.7678],[37.6775,0.0399,1416.6724],[37.6852,0.0405,1379.094],[37.6884,0.042,1372.8221],[37.6897,0.0451,1339.015],[37.6981,0.0469,1327.0586],[37.6966,0.0577,1325.9564],[37.7027,0.0633,1298.9503],[37.7063,0.0701,1257.2966],[37.7063,0.0759,1268.5015],[37.6995,0.0863,1297.5955],[37.6993,0.0891,1312.8002],[37.7015,0.0999,1328.589],[37.7047,0.1049,1340.6113],[37.7049,0.1107,1370.2366],[37.7075,0.1147,1361.3823],[37.7035,0.1309,1395.6313],[37.7007,0.1357,1425.776],[37.6965,0.1359,1421.3586],[37.6883,0.1471,1443.4457],[37.6853,0.1489,1434.6887],[37.6754,0.1501,1454.5989],[37.6695,0.148,1477.8901],[37.6579,0.1478,1509.3855],[37.6501,0.145,1535.6495],[37.6453,0.1427,1558.1248],[37.6378,0.1339,1594.8235],[37.6169,0.1317,1693.84]]]]}}