{"type": "Feature","bbox": [37.3163,-0.42,37.6255,-0.1535],"geometry": {"type": "MultiPolygon","coordinates": [[[[37.3163,-0.1535,4872.9702],[37.5025,-0.3271,1972.3696],[37.5351,-0.3594,1761.6725],[37.5426,-0.3718,1714.411],[37.547,-0.3731,1701.8225],[37.5536,-0.3803,1647.1021],[37.5639,-0.3847,1593.2806],[37.5685,-0.3898,1575.4177],[37.5669,-0.3984,1564.6982],[37.5712,-0.4067,1534.8774],[37.5737,-0.4059,1531.0232],[37.5796,-0.408,1494.4158],[37.5857,-0.4127,1496.7441],[37.5881,-0.42,1460.3763],[37.5953,-0.4096,1446.6221],[37.6003,-0.4065,1474.7241],[37.6044,-0.4079,1432.1793],[37.6214,-0.406,1442.3362],[37.6245,-0.3906,1443.6886],[37.6255,-0.3907,1431.8164],[37.6245,-0.3866,1446.7056],[37.6145,-0.3842,1464.9482],[37.612,-0.3806,1453.0669],[37.6,-0.3801,1496.7065],[37.5863,-0.3704,1571.4614],[37.5842,-0.3659,1582.1569],[37.5794,-0.3672,1583.9092],[37.5709,-0.3605,1596.1569],[37.5674,-0.3594,1587.366],[37.5625,-0.362,1635.0105],[37.5535,-0.3572,1707.583],[37.5008,-0.3119,2007.2158],[37.4989,-0.3086,2009.5178],[37.3163,-0.1535,4872.9702]]]]}
,"properties": {"GID_3": "KEN.6.4.4_1","GID_0": "KEN","country": "Kenya","GID_1": "KEN.6_1","province": "Embu","NL_NAME_1": "NA","GID_2": "KEN.6.4_1","county": "Runyenjes","NL_NAME_2": "NA","city": "KyeniNorth","VARNAME_3": "NA","NL_NAME_3": "NA","TYPE_3": "Ward","ENGTYPE_3": "Ward","CC_3": "321","HASC_3": "NA","name": "Kyeni_North.city","area_km2": 56.63006,"hist_schema_id": "Elevation0-9000","hist_area_km2": {"1350": 0.08481,"1375": 0.12721,"1400": 0.29682,"1425": 0.91167,"1450": 3.03184,"1475": 5.17321,"1500": 4.17674,"1525": 3.6891,"1550": 3.28627,"1575": 2.86224,"1600": 1.67494,"1625": 1.59013,"1650": 1.08129,"1675": 1.35691,"1700": 1.61134,"1725": 0.82687,"1750": 0.46644,"1775": 0.84807,"1800": 1.01769,"1825": 1.27211,"1850": 1.1237,"1875": 0.57245,"1900": 1.1661,"1925": 0.67846,"1950": 0.69966,"1975": 0.69966,"2000": 0.86928,"2025": 0.61486,"2050": 0.69966,"2075": 0.72087,"2100": 0.63606,"2125": 0.50885,"2150": 0.67846,"2175": 0.59365,"2200": 0.42404,"2225": 0.50885,"2250": 0.63606,"2275": 0.63606,"2300": 0.53005,"2325": 0.50885,"2350": 0.36043,"2375": 0.19082,"2400": 0.16962,"2425": 0.36043,"2450": 0.23322,"2475": 0.36043,"2500": 0.25442,"2525": 0.23322,"2550": 0.25442,"2575": 0.23322,"2600": 0.29683,"2625": 0.36043,"2650": 0.29683,"2675": 0.10601,"2700": 0.23322,"2725": 0.06361,"2750": 0.12721,"2775": 0.06361,"2800": 0.06361,"2825": 0.08481,"2850": 0.12721,"2875": 0.10601,"2900": 0.14841,"2925": 0.10601,"2950": 0.12721,"2975": 0.08481,"3000": 0.08481,"3025": 0.08481,"3050": 0.06361,"3075": 0.06361,"3100": 0.06361,"3125": 0.10601,"3150": 0.0212,"3175": 0.10601,"3200": 0.10601,"3225": 0.06361,"3250": 0.08481,"3275": 0.06361,"3300": 0.0424,"3325": 0.06361,"3350": 0.0212,"3375": 0.0212,"3400": 0.0424,"3425": 0.0212,"3450": 0.0424,"3475": 0.0212,"3500": 0.0212,"3525": 0.0424,"3575": 0.0424,"3600": 0.0424,"3625": 0.06361,"3650": 0.06361,"3675": 0.0424,"3700": 0.0424,"3725": 0.10601,"3775": 0.0212,"3800": 0.0424,"3825": 0.0424,"3875": 0.06361,"3900": 0.0212,"3925": 0.12721,"3950": 0.10601,"3975": 0.21202,"4000": 0.0212,"4050": 0.0424,"4075": 0.0212,"4100": 0.06361,"4225": 0.06361,"4250": 0.0212,"4400": 0.0424,"4500": 0.06361,"4600": 0.0424,"4675": 0.0212}}}