{"type":"Feature","properties":{"GID_2":"KEN.24.2_1","GID_0":"KEN","country":"Kenya","GID_1":"KEN.24_1","province":"Mandera","NL_NAME_1":"NA","county":"Lafey","VARNAME_2":"NA","NL_NAME_2":"NA","TYPE_2":"Constituency","ENGTYPE_2":"Constituency","CC_2":"44","HASC_2":"NA","name":"Lafey.county"},
"geometry":{"type": "MultiPolygon","coordinates": [[[[40.9852,3.0904,436.8101],[41.1458,3.0287,380.845],[41.1469,3.0243,380.2938],[41.1772,3.0127,373.2334],[41.2857,3.1153,391.5249],[41.3281,3.1586,396.5791],[41.3919,3.2507,465.449],[41.3829,3.2545,460.9785],[41.3757,3.2547,456.0156],[41.3613,3.2583,440.9456],[41.3501,3.2629,434.5976],[41.2595,3.2689,436.3653],[41.2403,3.2727,442.2211],[41.2269,3.2715,444.222],[41.2049,3.2659,449.5606],[41.2013,3.2663,449.6503],[41.1877,3.2733,455.7433],[41.1671,3.2735,458.8395],[41.1555,3.2897,469.1208],[41.1485,3.2961,473.3084],[41.1441,3.3153,486.4555],[41.1405,3.3203,492.2986],[41.1319,3.3267,492.0417],[41.123,3.3305,496.1987],[41.1181,3.3395,501.6459],[41.1053,3.3539,515.0181],[41.1053,3.3587,517.2253],[41.1101,3.3717,533.8082],[41.1115,3.3816,549.1529],[41.1107,3.3976,574.3874],[41.1043,3.409,612.1416],[41.0845,3.4203,605.3474],[41.0828,3.4258,614.6918],[41.0849,3.4331,643.5933],[41.0915,3.4401,665.4829],[41.0933,3.4463,692.3843],[41.1009,3.4559,773.7646],[41.1021,3.4601,739.025],[41.0945,3.4877,644.7301],[41.0787,3.5201,823.8131],[41.0769,3.5291,675.8336],[41.0795,3.5332,682.1556],[41.0804,3.5381,648.1503],[41.095,3.5449,702.0276],[41.1061,3.5461,622.8209],[41.1172,3.5557,604.6688],[41.1289,3.5584,589.2186],[41.1355,3.5661,576.7903],[41.1401,3.5681,575.936],[41.1425,3.5775,564.1899],[41.1447,3.5787,566.1094],[41.1529,3.5732,673.702],[41.1727,3.5526,530.7281],[41.1917,3.5452,510.9972],[41.2207,3.5468,483.1304],[41.2336,3.5555,471.9324],[41.2385,3.5607,469.8863],[41.242,3.5607,467.949],[41.2465,3.5574,465.9191],[41.26,3.5607,458.5854],[41.2695,3.5578,454.4438],[41.2745,3.5586,453.388],[41.2675,3.5657,457.3102],[41.2595,3.5841,465.3605],[41.2535,3.5915,467.1325],[41.2527,3.5975,471.3883],[41.2561,3.6113,485.7187],[41.2895,3.6651,616.9],[41.3503,3.6181,465.6118],[41.3583,3.6149,452.226],[41.3771,3.6133,433.7339],[41.3765,3.6195,440.9282],[41.3821,3.6289,436.635],[41.3877,3.6357,432.7579],[41.4033,3.6475,423.6079],[41.4149,3.6667,414.5619],[41.4303,3.6783,403.9352],[41.4721,3.7009,373.6802],[41.4767,3.7071,364.8247],[41.4783,3.7121,360.4794],[41.4941,3.7277,348.0808],[41.5035,3.7409,338.2241],[41.5189,3.7726,315.9315],[41.5181,3.7883,309.7625],[41.5201,3.8053,302.3409],[41.5103,3.8175,296.3281],[41.5099,3.8311,285.5363],[41.5199,3.8407,281.2347],[41.5197,3.8455,280.3957],[41.5229,3.8525,273.9941],[41.5287,3.8577,272.5352],[41.5315,3.8683,271.1606],[41.5401,3.8838,261.7716],[41.5403,3.8909,261.6983],[41.5541,3.9055,252.986],[41.5675,3.9235,249.8104],[41.5781,3.9483,236.7771],[41.5769,3.9606,230.2645],[41.5558,3.9557,243.2161],[41.4972,3.9611,233.8781],[41.4721,3.9561,236.2798],[41.433,3.9597,295.0084],[41.3786,3.9573,242.7525],[41.332,3.9592,252.5969],[41.2793,3.9646,269.7079],[41.2648,3.9494,256.4388],[41.2619,3.9379,273.4319],[41.2685,3.9359,264.5875],[41.2599,3.9347,274.7826],[41.2517,3.9313,275.3719],[41.2461,3.9217,281.1773],[41.2463,3.9077,280.2043],[41.2503,3.8965,291.6208],[41.2461,3.8789,308.8702],[41.2421,3.8753,310.9462],[41.2375,3.8751,317.0849],[41.2355,3.8765,320.6043],[41.2333,3.8755,320.31],[41.2239,3.8513,347.3161],[41.2193,3.8503,349.8476],[41.2161,3.8415,355.7734],[41.2077,3.8315,364.5293],[41.2035,3.8199,371.2186],[41.1923,3.8001,383.7401],[41.1923,3.7963,385.0019],[41.1811,3.7829,394.6466],[41.1765,3.7801,399.0135],[41.1619,3.7649,422.2535],[41.1487,3.7551,422.2135],[41.1449,3.7441,426.3061],[41.1299,3.7307,433.7495],[41.1201,3.7161,440.3265],[41.1183,3.7193,440.648],[41.1157,3.7353,438.3383],[41.0813,3.7321,466.0263],[41.0557,3.7203,500.2287],[41.0417,3.7079,503.284],[40.9887,3.6399,531.5712],[40.9987,3.6063,556.1541],[40.9933,3.6013,567.0688],[40.9897,3.5911,567.4177],[40.9965,3.5777,581.8251],[40.9959,3.5641,593.4797],[40.9891,3.5531,609.5785],[40.9849,3.5345,623.2601],[40.9759,3.5275,624.9946],[40.9707,3.5195,625.9464],[40.9541,3.4735,607.3729],[40.9577,3.4519,594.7936],[40.9651,3.4429,591.1786],[40.9667,3.4319,589.2581],[40.9507,3.4171,624.6701],[40.9429,3.4127,637.8242],[40.9379,3.4077,649.6635],[40.9271,3.4033,648.9816],[40.9141,3.3923,638.6288],[40.9107,3.3835,636.2822],[40.9099,3.3739,638.4156],[40.9073,3.3713,628.8104],[40.9067,3.3657,613.6548],[40.8921,3.3303,573.1336],[40.9113,3.3327,592.3239],[40.9305,3.3321,605.676],[40.9427,3.3289,614.4121],[40.9435,3.3157,633.6433],[40.9403,3.3061,646.0483],[40.9423,3.3003,673.948],[40.9521,3.2893,725.8055],[40.9547,3.2805,703.0693],[40.9537,3.2759,678.6534],[40.9667,3.2657,660.2695],[40.9779,3.2521,617.6495],[40.9835,3.2485,600.1068],[40.9867,3.2443,596.4905],[40.9883,3.2299,585.702],[40.9867,3.2253,596.8846],[40.9785,3.2167,576.4916],[40.9651,3.2137,555.9454],[40.9611,3.2091,550.3226],[40.9509,3.2057,538.1312],[40.9397,3.1975,534.9772],[40.9367,3.1869,520.8642],[40.9217,3.1715,498.0909],[40.9207,3.1621,488.9374],[40.9277,3.1403,467.7159],[40.9281,3.1333,462.0025],[40.9323,3.1295,460.494],[40.9348,3.1297,460.4648],[40.9395,3.1183,453.2858],[40.9507,3.1016,444.3037],[40.9626,3.0959,443.0038],[40.9852,3.0904,436.8101]]]]}}