{"type":"Feature","properties":{"GID_3":"KEN.7.3.2_1","GID_0":"KEN","country":"Kenya","GID_1":"KEN.7_1","province":"Garissa","NL_NAME_1":"NA","GID_2":"KEN.7.3_1","county":"Fafi","NL_NAME_2":"NA","city":"Dekaharia","VARNAME_3":"NA","NL_NAME_3":"NA","TYPE_3":"Ward","ENGTYPE_3":"Ward","CC_3":"153","HASC_3":"NA","name":"Dekaharia.city"},
"geometry":{"type": "MultiPolygon","coordinates": [[[[40.7403,-1.302,67.8522],[40.7415,-1.2989,65.9945],[40.7465,-1.2988,66.5772],[40.7559,-1.3029,64.7647],[40.7657,-1.3039,64.0696],[40.7787,-1.3021,62.3522],[40.7883,-1.298,62.118899999999996],[40.7959,-1.2984,60.6659],[40.7899,-1.2907,61.8249],[40.7829,-1.271,65.1561],[40.7757,-1.2575,66.594],[40.7747,-1.2465,66.8764],[40.7789,-1.2343,68.3462],[40.7957,-1.2133,71.112],[40.8021,-1.1997,72.5772],[40.8035,-1.1929,73.0522],[40.9137,-1.2442,69.5316],[40.9231,-1.2535,66.685],[40.9271,-1.2614,64.9371],[40.9285,-1.2347,67.8156],[40.9861,-1.2237,69.0227],[41.0045,-1.0732,78.9525],[40.9777,-1.0401,80.1369],[40.9653,-1.017,86.5183],[40.9569,-1.0071,88.5482],[40.9487,-0.9883,86.2683],[40.9429,-0.9693,86.8926],[40.9345,-0.9194,92.5007],[40.9313,-0.9103,93.5877],[40.9225,-0.8951,95.4602],[40.9021,-0.8703,98.5442],[40.8881,-0.8476,101.1606],[40.6603,-0.8857,107.5332],[40.6495,-0.9801,94.3376],[40.6595,-0.9987,93.8668],[40.6635,-1.0032,94.1112],[40.6705,-1.0185,93.107],[40.6729,-1.0286,90.7776],[40.6773,-1.0337,90.8287],[40.6777,-1.0417,91.0221],[40.6719,-1.0606,87.8902],[40.6763,-1.1043,84.3472],[40.6777,-1.1078,83.6269],[40.6903,-1.1199,81.6602],[40.6951,-1.1287,80.0559],[40.6955,-1.1458,80.2636],[40.6973,-1.1544,77.5779],[40.6925,-1.1816,74.9867],[40.6953,-1.1855,74.737],[40.6983,-1.1985,73.5021],[40.7031,-1.2104,72.4082],[40.7025,-1.2247,72.2585],[40.7073,-1.2565,70.1836],[40.7237,-1.2764,68.3598],[40.7325,-1.2927,67.456],[40.7409,-1.2984,65.9945],[40.7403,-1.302,67.8522]]]]}}