{"type":"Feature","properties":{"GID_3":"KEN.30.16.3_1","GID_0":"KEN","country":"Kenya","GID_1":"KEN.30_1","province":"Nairobi","NL_NAME_1":"NA","GID_2":"KEN.30.16_1","county":"Starehe","NL_NAME_2":"NA","city":"NairobiSouth","VARNAME_3":"NA","NL_NAME_3":"NA","TYPE_3":"Ward","ENGTYPE_3":"Ward","CC_3":"1444","HASC_3":"NA","name":"Nairobi_South.city"},
"geometry":{"type": "MultiPolygon","coordinates": [[[[36.8521,-1.3138,1635.3882],[36.8404,-1.3075,1642.2157],[36.8398,-1.3041,1653.7073],[36.8362,-1.3057,1650.561],[36.8345,-1.3039,1655.2043],[36.8301,-1.3041,1654.2744],[36.8281,-1.3076,1659.7461],[36.8316,-1.3134,1659.4006],[36.84,-1.3185,1651.5917],[36.8473,-1.3169,1640.2391],[36.8521,-1.3138,1635.3882]]]]}}