{"type":"Feature","properties":{"GID_3":"KEN.13.10.5_1","GID_0":"KEN","country":"Kenya","GID_1":"KEN.13_1","province":"Kiambu","NL_NAME_1":"NA","GID_2":"KEN.13.10_1","county":"Limuru","NL_NAME_2":"NA","city":"NgechaTigoni","VARNAME_3":"NA","NL_NAME_3":"NA","TYPE_3":"Ward","ENGTYPE_3":"Ward","CC_3":"605","HASC_3":"NA","name":"Ngecha_Tigoni.city"},
"geometry":{"type": "MultiPolygon","coordinates": [[[[36.667,-1.1835,2097.2437],[36.6688,-1.1786,2100.2139],[36.6647,-1.1774,2104.1826],[36.6637,-1.1749,2104.4619],[36.6735,-1.1745,2093.8523],[36.6821,-1.176,2045.3511],[36.6838,-1.1736,2022.7],[36.6798,-1.1701,2074.739],[36.6834,-1.1675,2065.918],[36.6852,-1.1718,2042.6714],[36.6917,-1.1748,2043.4801],[36.6895,-1.1779,2021.8184],[36.6937,-1.1836,2023.3723],[36.6988,-1.1859,2005.4081],[36.7057,-1.186,1959.0468],[36.7284,-1.1656,1890.149],[36.7302,-1.1503,1938.5566],[36.7324,-1.1503,1932.5598],[36.7362,-1.1461,1963.2749],[36.7258,-1.1444,1977.0273],[36.7189,-1.139,2012.1511],[36.7132,-1.1395,2014.5088],[36.7044,-1.1287,2080.8447],[36.6996,-1.1258,2072.7495],[36.6951,-1.1259,2092.9509],[36.6927,-1.123,2104.0034],[36.6806,-1.1191,2139.7029],[36.678,-1.117,2222.4058],[36.6675,-1.1208,2197.4146],[36.6502,-1.1165,2268.0903],[36.6447,-1.1171,2249.4133],[36.6426,-1.112,2245.833],[36.6407,-1.1169,2269.2324],[36.6439,-1.1235,2232.2705],[36.64,-1.1278,2270.2485],[36.6424,-1.1344,2270.9067],[36.6408,-1.1411,2288.9529],[36.6381,-1.1446,2266.7466],[36.648,-1.1506,2272.1641],[36.6523,-1.143,2252.5142],[36.6563,-1.1465,2174.6106],[36.6544,-1.161,2230.4253],[36.6494,-1.1649,2231.8516],[36.6501,-1.1706,2174.6812],[36.6529,-1.1776,2121.9795],[36.6584,-1.179,2094.5212],[36.6604,-1.1835,2080.6841],[36.667,-1.1835,2097.2437]]]]}}