{"type":"Feature","properties":{"GID_3":"KEN.19.1.3_1","GID_0":"KEN","country":"Kenya","GID_1":"KEN.19_1","province":"Kwale","NL_NAME_1":"NA","GID_2":"KEN.19.1_1","county":"Kinango","NL_NAME_2":"NA","city":"MackinnonRoad","VARNAME_3":"NA","NL_NAME_3":"NA","TYPE_3":"Ward","ENGTYPE_3":"Ward","CC_3":"47","HASC_3":"NA","name":"Mackinnon_Road.city"},
"geometry":{"type": "MultiPolygon","coordinates": [[[[39.0873,-3.5696,369.0495],[39.0561,-3.6845,380.2025],[38.9685,-3.6336,423.2684],[38.9305,-3.6958,409.6035],[39.0353,-3.7582,360.0426],[38.9461,-3.9595,749.2744],[38.9501,-3.9795,399.3716],[38.9531,-3.9818,388.0204],[38.9679,-3.9821,365.6629],[38.9767,-3.9718,365.6709],[38.9903,-3.9679,363.138],[39.0131,-3.9728,340.2084],[39.0303,-3.9674,325.7738],[39.0487,-3.9655,314.9141],[39.0555,-3.9669,312.9385],[39.0585,-3.9651,308.2955],[39.0843,-3.9599,286.391],[39.0933,-3.9608,288.6773],[39.1067,-3.9754,294.9322],[39.1203,-3.987,268.131],[39.1339,-3.9958,284.5112],[39.1523,-4.0017,288.1613],[39.1739,-4.0031,241.9123],[39.1789,-4.0066,246.6269],[39.1869,-4.0161,247.4076],[39.2289,-4.0375,259.7008],[39.2433,-4.0405,238.5437],[39.2527,-4.0395,228.008],[39.2599,-4.0425,223.0517],[39.2649,-4.0428,222.4452],[39.2773,-4.0376,214.5734],[39.2843,-4.0327,212.7474],[39.2891,-4.0323,205.8264],[39.2975,-4.027,189.1736],[39.2991,-4.0224,185.1178],[39.2993,-4.0124,185.4375],[39.3051,-4.0028,176.4416],[39.3071,-3.9909,175.2451],[39.3109,-3.9826,172.5017],[39.3183,-3.9739,168.5309],[39.3257,-3.96,163.0857],[39.3337,-3.9517,161.787],[39.3321,-3.9486,162.2236],[39.3271,-3.9491,163.4337],[39.3257,-3.9518,163.8972],[39.3233,-3.9523,164.3734],[39.3215,-3.9479,163.9462],[39.3091,-3.9397,184.7363],[39.3021,-3.9329,205.2583],[39.2977,-3.9309,190.9545],[39.2899,-3.9305,206.1852],[39.2843,-3.924,202.0405],[39.2701,-3.9208,208.342],[39.2607,-3.9117,215.5047],[39.2499,-3.8974,231.2251],[39.2337,-3.8898,255.1608],[39.1855,-3.8912,261.7704],[39.1599,-3.8985,246.6904],[39.1557,-3.9025,254.2165],[39.1555,-3.913,248.0291],[39.1529,-3.9177,252.9463],[39.1461,-3.923,254.5999],[39.1319,-3.9262,282.3426],[39.1369,-3.8457,295.3716],[39.1523,-3.8326,278.675],[39.1603,-3.8035,297.1077],[39.1765,-3.7733,321.0391],[39.1841,-3.7638,319.8471],[39.2053,-3.7452,294.4097],[39.2383,-3.7096,317.0683],[39.2649,-3.6899,285.0049],[39.2601,-3.6875,282.1999],[39.2571,-3.6828,278.6241],[39.2509,-3.6558,275.8924],[39.2483,-3.5694,333.3144],[39.0873,-3.5696,369.0495]]]]}}