{"type":"Feature","properties":{"GID_3":"KEN.46.6.2_1","GID_0":"KEN","country":"Kenya","GID_1":"KEN.46_1","province":"Wajir","NL_NAME_1":"NA","GID_2":"KEN.46.6_1","county":"WajirWest","NL_NAME_2":"NA","city":"Arbajahan","VARNAME_3":"NA","NL_NAME_3":"NA","TYPE_3":"Ward","ENGTYPE_3":"Ward","CC_3":"176","HASC_3":"NA","name":"Arbajahan.city"},
"geometry":{"type": "MultiPolygon","coordinates": [[[[39.1705,1.7914,301.6025],[39.1929,1.846,307.0931],[39.2047,1.8823,309.4262],[39.2221,1.9251,316.9954],[39.2451,1.9959,328.1208],[39.5601,1.9113,303.3141],[39.5921,1.9096,302.6983],[39.806,1.885,285.64],[39.8306,1.8933,287.6316],[39.8273,1.8935,286.8787],[39.8217,1.8984,286.9297],[39.8156,1.9305,293.8871],[39.8115,1.9346,293.9901],[39.8007,1.9403,294.3617],[39.7883,1.9577,299.083],[39.7656,1.9718,302.4529],[39.7535,1.9878,305.8071],[39.7509,1.9977,309.2919],[39.7511,2.003,312.4919],[39.7478,2.0046,312.0097],[39.7391,2.0335,315.0102],[39.7305,2.053,317.2769],[39.7165,2.0775,322.4027],[39.7062,2.0905,325.6505],[39.6935,2.1204,331.4471],[39.6767,2.1522,338.3918],[39.6538,2.1831,345.2827],[39.6475,2.1707,344.649],[39.6267,2.185,348.7269],[39.6175,2.1855,350.8293],[39.6068,2.1919,352.8457],[39.498,2.2663,373.6159],[39.4891,2.2646,373.9789],[39.4757,2.2685,373.4323],[39.4659,2.2646,373.427],[39.4462,2.2713,377.4869],[39.4323,2.2819,380.1733],[39.4222,2.2753,379.734],[39.4055,2.2707,379.0087],[39.3775,2.2533,375.5283],[39.3665,2.2537,376.1764],[39.3489,2.1999,365.2474],[39.2942,2.159,356.7189],[39.289,2.1423,353.881],[39.2523,2.1242,348.524],[39.2175,2.1154,345.9453],[39.1695,2.0949,340.225],[39.1481,2.0907,341.4288],[39.1292,2.085,340.6078],[39.0545,2.0557,341.2306],[38.9869,2.0485,341.7097],[38.9917,2.0433,340.7742],[38.9927,2.0397,340.5348],[38.9897,2.0297,339.4507],[38.9945,2.0067,336.4465],[39.0041,2.0029,335.3511],[39.0131,1.9917,333.1749],[39.0248,1.9837,331.469],[39.0305,1.9776,330.6347],[39.0336,1.9696,329.3301],[39.0437,1.9569,327.2316],[39.0469,1.9485,326.4786],[39.0577,1.9407,325.1601],[39.0599,1.9273,323.7227],[39.0732,1.9148,321.824],[39.0821,1.9105,320.8712],[39.0879,1.9039,320.626],[39.0955,1.9018,318.9198],[39.1029,1.8931,317.4124],[39.1181,1.886,315.0993],[39.1293,1.8737,313.9984],[39.1391,1.8555,309.8682],[39.1433,1.8533,309.7596],[39.1417,1.8376,307.1476],[39.1479,1.8313,306.7864],[39.1515,1.8223,305.8716],[39.1603,1.8133,304.4513],[39.1618,1.8067,303.5083],[39.1649,1.8005,302.5677],[39.1679,1.7981,302.2221],[39.1705,1.7914,301.6025]]]]}}