{"type":"Feature","properties":{"GID_3":"KEN.25.4.2_1","GID_0":"KEN","country":"Kenya","GID_1":"KEN.25_1","province":"Marsabit","NL_NAME_1":"NA","GID_2":"KEN.25.4_1","county":"Saku","NL_NAME_2":"NA","city":"MarsabitCentral","VARNAME_3":"NA","NL_NAME_3":"NA","TYPE_3":"Ward","ENGTYPE_3":"Ward","CC_3":"235","HASC_3":"NA","name":"Marsabit_Central.city"},
"geometry":{"type": "MultiPolygon","coordinates": [[[[37.7855,2.4225,673.745],[37.7921,2.4165,692.8816],[37.8011,2.4137,725.1522],[37.8009,2.4069,723.428],[37.8023,2.4055,724.3369],[37.8403,2.3861,770.0405],[37.8463,2.3873,778.6441],[37.8613,2.3779,812.3096],[37.8687,2.3759,822.315],[37.8737,2.3767,823.0598],[37.8797,2.3805,838.1392],[37.8839,2.3801,854.703],[37.8979,2.3739,899.0491],[37.9199,2.3561,1021.6376],[37.9299,2.3513,1100.2736],[37.9417,2.3473,1162.8693],[37.9515,2.3463,1191.715],[37.9619,2.3519,1363.9685],[37.9791,2.3389,1348.8784],[37.9809,2.3327,1361.7765],[37.9805,2.3273,1426.7458],[37.9715,2.3213,1476.8885],[37.9671,2.3157,1546.8981],[37.9659,2.3109,1525.3596],[37.9667,2.3045,1538.4519],[37.9651,2.3029,1523.2642],[37.9555,2.3015,1492.0475],[37.9483,2.2961,1461.8273],[37.9297,2.2709,1429.2098],[37.9303,2.2583,1373.3719],[37.9411,2.2497,1303.5936],[37.9443,2.2225,1038.9215],[37.9551,2.2217,1031.1941],[37.9709,2.2261,1021.8098],[37.9895,2.2269,968.0293],[37.9965,2.2323,994.4393],[38.0023,2.2439,1008.2243],[38.0255,2.2593,1025.0341],[38.0295,2.2665,1020.0337],[38.0349,2.2827,1041.9935],[38.0319,2.3055,1165.1135],[38.0323,2.3103,1155.7317],[38.0385,2.3177,1153.8611],[38.037,2.3352,1180.1766],[38.0151,2.356,1315.5664],[37.9971,2.3681,1306.3888],[37.9989,2.3763,1292.8738],[37.9969,2.3833,1216.9878],[37.9829,2.4151,1029.9814],[37.9765,2.4221,977.8076],[37.9731,2.4293,962.6674],[37.9669,2.4565,856.3978],[37.9585,2.4733,789.5105],[37.9557,2.4899,765.7203],[37.9593,2.5081,738.6798],[37.9579,2.5163,716.9348],[37.9617,2.5255,700.8284],[37.9609,2.5351,686.2736],[37.9636,2.5452,678.9931],[37.9549,2.5573,665.738],[37.9541,2.5673,656.7827],[37.9492,2.5753,647.1298],[37.9433,2.5797,641.8098],[37.9409,2.5865,637.3677],[37.7971,2.6423,493.2167],[37.7809,2.4267,668.7899],[37.7855,2.4225,673.745]]]]}}