{"type":"Feature","properties":{"GID_3":"KEN.35.5.3_1","GID_0":"KEN","country":"Kenya","GID_1":"KEN.35_1","province":"Nyandarua","NL_NAME_1":"NA","GID_2":"KEN.35.5_1","county":"OlKalou","NL_NAME_2":"NA","city":"Karau","VARNAME_3":"NA","NL_NAME_3":"NA","TYPE_3":"Ward","ENGTYPE_3":"Ward","CC_3":"453","HASC_3":"NA","name":"Karau.city"},
"geometry":{"type": "MultiPolygon","coordinates": [[[[36.3646,-0.388,2255.6904],[36.3679,-0.3832,2253.1426],[36.3668,-0.3666,2253.4492],[36.3746,-0.2917,2328.9663],[36.374,-0.277,2348.8198],[36.3771,-0.2674,2363.9141],[36.3759,-0.2499,2377.3984],[36.36,-0.2533,2446.0391],[36.3136,-0.2579,2595.1025],[36.3143,-0.2611,2585.5508],[36.313,-0.2633,2586.7712],[36.3191,-0.2692,2655.2554],[36.2988,-0.2625,2566.0879],[36.2907,-0.2654,2553.5315],[36.2906,-0.2723,2527.6262],[36.2984,-0.2887,2501.8733],[36.2972,-0.2941,2501.8384],[36.3011,-0.3105,2525.1187],[36.3052,-0.3159,2497.0061],[36.307,-0.3258,2483.7795],[36.3131,-0.337,2501.9028],[36.3121,-0.3454,2501.4663],[36.3131,-0.3533,2360.0898],[36.3105,-0.3612,2369.355],[36.3139,-0.3798,2384.3862],[36.3343,-0.3827,2387.6865],[36.3601,-0.372,2282.9521],[36.3646,-0.388,2255.6904]]]]}}