{"type":"Feature","properties":{"GID_3":"KEN.4.1.2_1","GID_0":"KEN","country":"Kenya","GID_1":"KEN.4_1","province":"Busia","NL_NAME_1":"NA","GID_2":"KEN.4.1_1","county":"Budalangi","NL_NAME_2":"NA","city":"BunyalaNorth","VARNAME_3":"NA","NL_NAME_3":"NA","TYPE_3":"Ward","ENGTYPE_3":"Ward","CC_3":"1153","HASC_3":"NA","name":"Bunyala_North.city"},
"geometry":{"type": "MultiPolygon","coordinates": [[[[34.0719,0.1244,1144.4453],[34.0751,0.1243,1144.5123],[34.0809,0.1271,1145.4202],[34.0842,0.1267,1143.5826],[34.0859,0.1308,1144.7473],[34.09,0.1293,1147.5798],[34.0951,0.1367,1145.9968],[34.0862,0.1492,1253.7856],[34.085,0.1549,1250.1365],[34.0652,0.1652,1236.6387],[34.0598,0.1666,1236.2025],[34.0308,0.1671,1295.3966],[34.023,0.1707,1199.2871],[34.0115,0.1691,1173.8745],[33.9938,0.1694,1134.2417],[33.9667,0.1844,1133.0],[33.9559,0.1696,1133.0],[33.9983,0.1409,1175.2979],[34.0069,0.1223,1137.9811],[33.9983,0.1012,1137.6985],[34.0004,0.0981,1138.084],[34.0021,0.1017,1137.9543],[34.0063,0.1021,1137.9819],[34.0067,0.0975,1137.8823],[34.0138,0.0952,1139.5964],[34.0144,0.0985,1139.1969],[34.0192,0.1015,1138.714],[34.0255,0.1003,1138.8486],[34.0276,0.1028,1138.905],[34.0297,0.1005,1139.0449],[34.0351,0.1014,1139.8992],[34.0365,0.1044,1139.048],[34.0424,0.1071,1140.7722],[34.0435,0.1147,1141.6672],[34.0465,0.1137,1140.571],[34.0511,0.116,1141.7087],[34.0526,0.1218,1143.1479],[34.0633,0.1249,1144.0729],[34.0719,0.1244,1144.4453]]]]}}