{"type": "Feature","bbox": [36.0404,-0.3221,36.0729,-0.286],"geometry": {"type": "MultiPolygon","coordinates": [[[[36.066,-0.2979,1817.0914],[36.0635,-0.286,1849.6685],[36.0526,-0.2898,1842.6611],[36.0433,-0.2862,1852.7975],[36.0404,-0.2989,1825.6718],[36.0451,-0.3007,1815.5896],[36.0434,-0.3034,1815.9524],[36.051,-0.3069,1793.2084],[36.051,-0.312,1794.4486],[36.0489,-0.3139,1789.0721],[36.0538,-0.3138,1796.1455],[36.0553,-0.3168,1792.1461],[36.0544,-0.3177,1793.6572],[36.059,-0.3221,1779.3236],[36.0729,-0.3171,1786.3652],[36.0647,-0.2985,1815.6649],[36.066,-0.2979,1817.0914]]]]}
,"properties": {"GID_3": "KEN.31.8.5_1","GID_0": "KEN","country": "Kenya","GID_1": "KEN.31_1","province": "Nakuru","NL_NAME_1": "NA","GID_2": "KEN.31.8_1","county": "NakuruTownWest","NL_NAME_2": "NA","city": "Shaabab","VARNAME_3": "NA","NL_NAME_3": "NA","TYPE_3": "Ward","ENGTYPE_3": "Ward","CC_3": "875","HASC_3": "NA","name": "Shaabab.city","area_km2": 8.268745,"hist_schema_id": "Elevation0-9000","hist_area_km2": {"1775": 0.572451,"1800": 3.922351,"1825": 2.925865,"1850": 0.848077}}}