{"type":"Feature","properties":{"GID_3":"KEN.6.3.5_1","GID_0":"KEN","country":"Kenya","GID_1":"KEN.6_1","province":"Embu","NL_NAME_1":"NA","GID_2":"KEN.6.3_1","county":"MbeereSouth","NL_NAME_2":"NA","city":"Mwea","VARNAME_3":"NA","NL_NAME_3":"NA","TYPE_3":"Ward","ENGTYPE_3":"Ward","CC_3":"323","HASC_3":"NA","name":"Mwea.city"},
"geometry":{"type": "MultiPolygon","coordinates": [[[[37.4639,-0.7336,1082.4456],[37.4444,-0.7306,1101.1838],[37.4213,-0.7473,1111.8303],[37.4063,-0.7476,1123.5504],[37.3876,-0.7529,1134.8214],[37.3711,-0.764,1135.0654],[37.3671,-0.762,1132.764],[37.3589,-0.7616,1131.9991],[37.3586,-0.7697,1146.8541],[37.3481,-0.7722,1146.8239],[37.326,-0.7646,1156.9977],[37.3183,-0.7579,1163.7529],[37.3155,-0.7483,1158.6555],[37.3052,-0.749,1160.4033],[37.2976,-0.7531,1158.4768],[37.2894,-0.7545,1144.5076],[37.2764,-0.7537,1130.4733],[37.2669,-0.7775,1120.2347],[37.2674,-0.7852,1070.3904],[37.2717,-0.7853,1056.5],[37.2769,-0.7823,1088.2273],[37.2816,-0.7828,1071.1656],[37.2841,-0.781,1101.9255],[37.2876,-0.7825,1056.4214],[37.2939,-0.7919,1056.1722],[37.2989,-0.7934,1054.5],[37.3009,-0.7974,1054.5],[37.3037,-0.7978,1054.5],[37.3063,-0.8007,1054.5],[37.3048,-0.8046,1054.5],[37.306,-0.8063,1054.5],[37.3051,-0.8118,1054.5],[37.3103,-0.8138,1058.1615],[37.3132,-0.817,1061.1407],[37.3123,-0.821,1054.5],[37.3155,-0.8234,1054.5],[37.3199,-0.8345,1054.5],[37.3263,-0.8338,1065.9434],[37.3235,-0.8383,1054.5],[37.3273,-0.8417,1054.5],[37.3341,-0.8422,1054.5],[37.3368,-0.8449,1054.5],[37.3433,-0.8404,1054.5],[37.3466,-0.8429,1054.5],[37.3499,-0.8407,1054.5],[37.351,-0.844,1054.5],[37.3578,-0.8419,1054.5],[37.3638,-0.8429,1054.5],[37.3704,-0.8475,1054.5],[37.3769,-0.8488,1054.5],[37.3765,-0.8532,1054.5],[37.3801,-0.8557,1054.5],[37.3857,-0.8501,1059.2485],[37.3884,-0.853,1054.5],[37.394,-0.8527,1059.1029],[37.3979,-0.8546,1054.5],[37.4037,-0.8498,1054.5],[37.4125,-0.8484,1054.5],[37.4149,-0.8518,1054.5],[37.4111,-0.857,1054.5],[37.4132,-0.8598,1054.5],[37.4188,-0.86,1058.5518],[37.4269,-0.8648,1054.5],[37.4325,-0.8605,1058.7417],[37.4429,-0.8611,1054.5],[37.4472,-0.869,1054.5],[37.4537,-0.8703,1054.5],[37.4591,-0.8693,1054.5],[37.4595,-0.8673,1054.5],[37.4564,-0.8641,1054.5],[37.4581,-0.8595,1054.5],[37.4528,-0.8538,1054.5],[37.4522,-0.8483,1054.5],[37.4476,-0.8465,1054.5],[37.4457,-0.843,1054.9561],[37.4437,-0.8416,1054.5],[37.4425,-0.8424,1054.5],[37.4414,-0.8407,1054.5],[37.4418,-0.8317,1059.5394],[37.4402,-0.8294,1066.0397],[37.4423,-0.8264,1074.6664],[37.4465,-0.8259,1069.4972],[37.4477,-0.8219,1069.2301],[37.4458,-0.8189,1071.1428],[37.4461,-0.8142,1079.2686],[37.4432,-0.8116,1082.5935],[37.4404,-0.8007,1095.1801],[37.4379,-0.7989,1096.2238],[37.436,-0.7942,1099.3937],[37.4373,-0.7874,1107.948],[37.4354,-0.7845,1126.6904],[37.4389,-0.7704,1123.281],[37.4421,-0.7683,1113.7463],[37.4463,-0.7557,1108.3093],[37.4565,-0.7477,1095.7358],[37.4615,-0.7408,1092.1682],[37.4609,-0.7367,1088.0698],[37.4639,-0.7336,1082.4456]]]]}}