{"type":"Feature","properties":{"GID_2":"KEN.22.7_1","GID_0":"KEN","country":"Kenya","GID_1":"KEN.22_1","province":"Machakos","NL_NAME_1":"NA","county":"Mwala","VARNAME_2":"NA","NL_NAME_2":"NA","TYPE_2":"Constituency","ENGTYPE_2":"Constituency","CC_2":"82","HASC_2":"NA","name":"Mwala.county"},
"geometry":{"type": "MultiPolygon","coordinates": [[[[37.6955,-1.4986,991.4575],[37.6941,-1.4961,1002.2896],[37.6959,-1.4868,994.9462],[37.6885,-1.4724,1011.1174],[37.681,-1.4646,1030.0555],[37.6726,-1.4639,1013.931],[37.6728,-1.457,1030.6313],[37.6681,-1.455,1015.5996],[37.6666,-1.452,1023.022],[37.6594,-1.4512,1045.6245],[37.6522,-1.4475,1033.6887],[37.6522,-1.4374,1054.2261],[37.6451,-1.4244,1072.3269],[37.6457,-1.4113,1068.8087],[37.6427,-1.4058,1074.4547],[37.6374,-1.4007,1074.0334],[37.6301,-1.3981,1063.5107],[37.6276,-1.3949,1063.2797],[37.6271,-1.383,1071.7938],[37.6216,-1.3818,1079.3033],[37.6249,-1.3764,1069.0208],[37.6154,-1.372,1063.9617],[37.6151,-1.3612,1089.1633],[37.6101,-1.3565,1091.7264],[37.6053,-1.3426,1076.7697],[37.599,-1.3367,1066.2212],[37.5962,-1.3311,1102.7942],[37.5877,-1.3297,1073.8506],[37.5803,-1.3175,1112.5614],[37.5748,-1.318,1077.1744],[37.5713,-1.3155,1094.1842],[37.5626,-1.3156,1098.9578],[37.5552,-1.3052,1098.0179],[37.5468,-1.3046,1124.0966],[37.5404,-1.3063,1115.7885],[37.5274,-1.2836,1114.6104],[37.5139,-1.2641,1149.9214],[37.5059,-1.2605,1151.7469],[37.5014,-1.2526,1260.8663],[37.487,-1.251,1167.0708],[37.4747,-1.2312,1174.9774],[37.4674,-1.23,1171.1646],[37.4613,-1.2308,1170.283],[37.4554,-1.2225,1187.1461],[37.4508,-1.2225,1180.9852],[37.4508,-1.2171,1189.8101],[37.4458,-1.2211,1193.5215],[37.4358,-1.2088,1192.6991],[37.4302,-1.207,1181.209],[37.4313,-1.1983,1198.2778],[37.4272,-1.1979,1187.6151],[37.4252,-1.1936,1195.7488],[37.4191,-1.1931,1187.4075],[37.4198,-1.1856,1221.9821],[37.4178,-1.1834,1223.3502],[37.4139,-1.1839,1190.3517],[37.4112,-1.1823,1185.1516],[37.4112,-1.1784,1189.7842],[37.4079,-1.1748,1190.4045],[37.4091,-1.169,1228.6118],[37.4066,-1.1687,1195.0682],[37.4027,-1.1718,1192.7773],[37.3981,-1.1691,1226.5056],[37.3926,-1.1709,1204.0674],[37.3877,-1.1673,1198.1542],[37.3862,-1.1616,1214.2987],[37.3825,-1.1611,1222.5283],[37.3804,-1.1581,1203.8779],[37.3731,-1.1652,1223.8395],[37.3662,-1.1756,1259.0813],[37.3627,-1.1755,1257.3528],[37.3571,-1.1726,1259.1848],[37.35,-1.1725,1272.953],[37.3469,-1.167,1236.3635],[37.344,-1.1711,1258.4595],[37.3454,-1.1755,1263.9427],[37.3426,-1.184,1345.3038],[37.3438,-1.192,1594.572],[37.364,-1.2252,1673.3502],[37.369,-1.2424,1713.3672],[37.3749,-1.2485,1586.0038],[37.3738,-1.266,1729.4836],[37.3788,-1.2651,1566.0402],[37.3853,-1.2701,1458.8964],[37.3925,-1.2686,1321.8635],[37.3935,-1.2717,1415.3315],[37.3917,-1.2774,1438.0216],[37.3989,-1.2872,1391.6401],[37.3998,-1.2955,1588.7904],[37.4055,-1.299,1516.9594],[37.412,-1.3139,1598.2157],[37.4196,-1.3224,1462.4392],[37.4206,-1.3317,1508.999],[37.4241,-1.3428,1484.238],[37.4238,-1.3462,1483.0254],[37.4181,-1.3493,1348.9778],[37.4169,-1.3525,1322.4321],[37.4102,-1.3545,1376.3567],[37.4082,-1.3608,1346.1697],[37.4104,-1.3647,1307.6594],[37.4076,-1.3655,1326.2692],[37.4039,-1.3711,1355.7615],[37.4037,-1.3738,1384.1418],[37.4075,-1.3776,1442.2314],[37.4059,-1.3816,1530.3835],[37.4037,-1.3829,1483.4865],[37.4067,-1.3857,1445.4901],[37.4046,-1.3878,1568.0242],[37.4075,-1.3924,1452.0891],[37.4063,-1.4008,1579.3307],[37.4077,-1.4054,1544.3573],[37.4052,-1.4051,1574.9331],[37.4036,-1.4001999999999999,1588.7958],[37.3993,-1.3991,1487.7903],[37.3937,-1.3989,1450.2969],[37.3914,-1.4014,1449.2502],[37.3839,-1.4014,1390.9329],[37.3793,-1.4056,1380.2021],[37.3771,-1.4106,1354.512],[37.375,-1.4083,1351.3359],[37.3714,-1.4102,1412.954],[37.3651,-1.4096,1514.4224],[37.3651,-1.414,1500.0789],[37.3609,-1.4143,1435.65],[37.3603,-1.4211,1410.5404],[37.3574,-1.4249,1368.4026],[37.3575,-1.4272,1352.8378],[37.3595,-1.4277,1362.7869],[37.359,-1.4321,1339.804],[37.3615,-1.4335,1332.5394],[37.359,-1.4343,1336.6213],[37.3591,-1.4357,1347.7177],[37.366,-1.4361,1330.0397],[37.3644,-1.438,1345.1033],[37.3643,-1.4466,1335.7505],[37.3621,-1.451,1323.4169],[37.3685,-1.4541,1321.875],[37.3674,-1.4603,1326.7075],[37.364,-1.4605,1348.8972],[37.3666,-1.4631,1317.8684],[37.3659,-1.4671,1312.0035],[37.368,-1.4688,1316.5947],[37.3675,-1.4708,1316.6163],[37.3701,-1.4714,1318.8247],[37.3683,-1.473,1314.6862],[37.3698,-1.4744,1304.9388],[37.3678,-1.4783,1312.8807],[37.3695,-1.4811,1307.826],[37.3648,-1.484,1313.8486],[37.3663,-1.4854,1300.3121],[37.3657,-1.4875,1303.1154],[37.3688,-1.4878,1312.5482],[37.3674,-1.4923,1318.8672],[37.3692,-1.4942,1300.5364],[37.367,-1.4953,1319.6332],[37.3682,-1.4967,1298.6747],[37.3708,-1.4959,1304.6616],[37.3716,-1.5,1312.0848],[37.3781,-1.5041,1317.2708],[37.3786,-1.5089,1290.8916],[37.3844,-1.5162,1300.9436],[37.387,-1.517,1288.739],[37.3871,-1.5201,1272.0266],[37.394,-1.5212,1309.6278],[37.3991,-1.5202,1342.1467],[37.4215,-1.53,1262.6399],[37.427,-1.5314,1244.017],[37.429,-1.5301,1253.1846],[37.4313,-1.5315,1238.5554],[37.4331,-1.5302,1259.3923],[37.4353,-1.5318,1232.4823],[37.4377,-1.531,1226.2997],[37.4388,-1.5278,1262.7097],[37.4413,-1.5309,1229.3297],[37.4484,-1.5291,1247.0579],[37.4519,-1.5236,1238.1377],[37.4553,-1.5212,1223.6177],[37.4587,-1.5209,1222.7456],[37.4594,-1.5187,1231.6987],[37.4663,-1.5172,1226.3007],[37.4724,-1.5183,1216.8126],[37.4745,-1.5208,1212.1472],[37.4756,-1.5165,1221.3776],[37.4824,-1.5174,1216.8076],[37.4866,-1.5152,1205.4202],[37.4979,-1.5242,1204.2676],[37.5008,-1.524,1205.059],[37.5053,-1.5275,1197.7502],[37.5081,-1.5277,1210.8667],[37.5122,-1.5247,1198.9497],[37.5162,-1.5262,1203.3719],[37.518,-1.5279,1204.0764],[37.5178,-1.5321,1190.0946],[37.5212,-1.5325,1194.9027],[37.5202,-1.5362,1192.5811],[37.5221,-1.5382,1188.1604],[37.5258,-1.5367,1195.8801],[37.535,-1.5401,1186.6608],[37.5443,-1.5408,1186.624],[37.5451,-1.537,1182.0337],[37.5505,-1.5369,1184.14],[37.5552,-1.5409,1182.2263],[37.5499,-1.5451,1189.7126],[37.5508,-1.5481,1176.2158],[37.5633,-1.5517,1172.7312],[37.5627,-1.5533,1173.6791],[37.5568,-1.5545,1191.0017],[37.5567,-1.5577,1188.1713],[37.5602,-1.5578,1174.4985],[37.5623,-1.56,1168.7081],[37.5686,-1.5575,1187.4022],[37.5761,-1.5578,1184.8551],[37.5731,-1.564,1182.2849],[37.574,-1.5651,1163.0613],[37.5787,-1.565,1169.3237],[37.5821,-1.5608,1179.1287],[37.5906,-1.5575,1151.4922],[37.5981,-1.5511,1166.5537],[37.598,-1.5546,1143.4346],[37.6007,-1.5578,1139.9583],[37.5993,-1.5612,1150.6875],[37.6067,-1.5609,1138.5121],[37.6082,-1.5661,1133.3502],[37.6137,-1.5639,1130.8059],[37.6175,-1.5657,1134.1292],[37.6234,-1.5811,1118.0535],[37.6314,-1.5893,1127.4973],[37.635,-1.5895,1123.4459],[37.6415,-1.5865,1101.6854],[37.6396,-1.5901,1096.6981],[37.6433,-1.593,1091.7759],[37.6415,-1.5954,1099.5389],[37.6436,-1.5999,1083.6707],[37.6424,-1.603,1096.8087],[37.6445,-1.6146,1077.9683],[37.6466,-1.62,1063.4028],[37.65,-1.6219,1076.6067],[37.6492,-1.6285,1071.2261],[37.6557,-1.6304,1084.861],[37.6564,-1.6373,1053.698],[37.661,-1.6449,1053.5625],[37.6684,-1.6416,1073.4395],[37.6748,-1.6296,1097.3499],[37.6812,-1.6264,1122.7673],[37.6833,-1.6192,1142.0502],[37.687,-1.6193,1169.808],[37.6883,-1.617,1175.198],[37.6871,-1.6073,1325.0214],[37.6905,-1.5995,1244.7784],[37.6846,-1.5885,1327.8002],[37.6841,-1.5863,1377.8552],[37.6858,-1.5843,1271.2053],[37.6898,-1.5879,1251.9248],[37.6923,-1.5859,1235.4594],[37.6939,-1.5867,1251.9468],[37.6936,-1.5835,1226.2654],[37.696,-1.5871,1264.7301],[37.7011,-1.584,1207.2583],[37.7113,-1.6046,1105.548],[37.719,-1.6085,1102.6342],[37.7279,-1.6033,1068.652],[37.729,-1.6003,1070.4805],[37.7281,-1.5969,1079.4827],[37.735,-1.5925,1032.6333],[37.7363,-1.5845,1043.4724],[37.7322,-1.581,1052.963],[37.7351,-1.5788,1031.9165],[37.7362,-1.5749,1039.8663],[37.7453,-1.5688,998.9583],[37.7502,-1.5685,986.5454],[37.7538,-1.5662,950.3127],[37.7501,-1.5541,969.8505],[37.7423,-1.5531,972.6553],[37.7346,-1.5444,972.2574],[37.7245,-1.5284,960.7823],[37.7241,-1.524,994.4977],[37.7205,-1.5227,962.8478],[37.7141,-1.5099,967.2853],[37.7054,-1.5066,982.4124],[37.7015,-1.508,987.5212],[37.6955,-1.4986,991.4575]]]]}}