{"type":"Feature","properties":{"GID_3":"KEN.35.5.1_1","GID_0":"KEN","country":"Kenya","GID_1":"KEN.35_1","province":"Nyandarua","NL_NAME_1":"NA","GID_2":"KEN.35.5_1","county":"OlKalou","NL_NAME_2":"NA","city":"Kaimbaga","VARNAME_3":"NA","NL_NAME_3":"NA","TYPE_3":"Ward","ENGTYPE_3":"Ward","CC_3":"456","HASC_3":"NA","name":"Kaimbaga.city"},
"geometry":{"type": "MultiPolygon","coordinates": [[[[36.3871,-0.4541,2031.6686],[36.3882,-0.4523,2010.676],[36.3905,-0.4543,2023.7261],[36.3918,-0.452,2019.54],[36.3934,-0.452,2110.1545],[36.3962,-0.4478,2096.8208],[36.3956,-0.4412,2142.6279],[36.3981,-0.4374,2136.6641],[36.4023,-0.4368,2188.9097],[36.4059,-0.4304,2149.0642],[36.4094,-0.4299,2099.842],[36.4098,-0.4235,2192.0198],[36.4148,-0.4177,2175.9551],[36.4133,-0.4156,2186.1724],[36.4211,-0.413,2144.3613],[36.4225,-0.4076,2192.0837],[36.4274,-0.4055,2160.3809],[36.4289,-0.4025,2191.9583],[36.4267,-0.3996,2230.6621],[36.4263,-0.3946,2229.7002],[36.4279,-0.3913,2243.2507],[36.4233,-0.3824,2196.6936],[36.4242,-0.3794,2239.5459],[36.4223,-0.378,2203.4348],[36.4189,-0.366,2240.7383],[36.4209,-0.3628,2264.9807],[36.4198,-0.36,2257.4165],[36.4177,-0.3594,2251.3401],[36.4171,-0.3553,2248.5654],[36.4177,-0.3526,2260.2644],[36.4194,-0.3528,2279.8208],[36.4156,-0.3426,2271.8369],[36.4188,-0.3427,2263.312],[36.4198,-0.3388,2283.3982],[36.4158,-0.333,2274.0408],[36.4176,-0.3312,2282.9199],[36.4154,-0.3269,2266.0244],[36.4168,-0.3256,2265.3447],[36.4126,-0.3141,2290.4365],[36.4152,-0.309,2274.0667],[36.4149,-0.3059,2275.4849],[36.4117,-0.3012,2283.1719],[36.4156,-0.2945,2276.7002],[36.4142,-0.2864,2303.8882],[36.415,-0.2784,2302.1021],[36.4115,-0.2735,2299.0786],[36.4128,-0.2721,2329.9319],[36.41,-0.2681,2304.1978],[36.4101,-0.2559,2309.1313],[36.408,-0.2544,2339.813],[36.414,-0.2516,2296.6306],[36.4174,-0.2589,2303.1682],[36.4226,-0.2602,2325.0273],[36.4265,-0.2589,2335.1677],[36.435,-0.2601,2346.5483],[36.4353,-0.2577,2344.7798],[36.4368,-0.2592,2337.2246],[36.439,-0.2578,2331.7832],[36.4391,-0.2541,2331.8936],[36.4412,-0.2535,2324.2065],[36.4413,-0.2479,2338.0271],[36.439,-0.2415,2347.0071],[36.4309,-0.2325,2354.1252],[36.4299,-0.221,2349.5889],[36.4178,-0.2234,2335.7676],[36.402,-0.219,2362.2905],[36.4019,-0.23,2370.4673],[36.4121,-0.2301,2338.9688],[36.4143,-0.2327,2334.8059],[36.4117,-0.238,2332.9951],[36.4118,-0.2434,2308.1147],[36.3759,-0.2499,2377.3984],[36.3771,-0.2674,2363.9141],[36.374,-0.277,2348.8198],[36.3746,-0.2917,2328.9663],[36.3668,-0.3666,2253.4492],[36.3679,-0.3832,2253.1426],[36.3646,-0.388,2255.6904],[36.3675,-0.3922,2251.7285],[36.378,-0.398,2207.397],[36.3808,-0.4047,2183.6243],[36.3792,-0.4164,2174.1648],[36.3812,-0.4201,2116.3481],[36.3861,-0.4211,2140.9712],[36.3868,-0.4336,2043.8875],[36.3892,-0.4372,2041.948],[36.3878,-0.4466,2043.7604],[36.389,-0.4484,2019.9812],[36.3856,-0.4503,2074.1519],[36.3871,-0.4541,2031.6686]]]]}}