{"type":"Feature","properties":{"GID_3":"KEN.4.7.6_1","GID_0":"KEN","country":"Kenya","GID_1":"KEN.4_1","province":"Busia","NL_NAME_1":"NA","GID_2":"KEN.4.7_1","county":"TesoSouth","NL_NAME_2":"NA","city":"ChakolSouth","VARNAME_3":"NA","NL_NAME_3":"NA","TYPE_3":"Ward","ENGTYPE_3":"Ward","CC_3":"1128","HASC_3":"NA","name":"Chakol_South.city"},
"geometry":{"type": "MultiPolygon","coordinates": [[[[34.1977,0.4726,1218.4614],[34.2053,0.4758,1222.488],[34.2131,0.486,1217.7312],[34.2168,0.4946,1217.8154],[34.2061,0.4997,1195.7217],[34.2052,0.5171,1168.3959],[34.2008,0.5219,1189.3013],[34.1962,0.5219,1188.9817],[34.1885,0.5302,1171.0284],[34.1722,0.5397,1148.8502],[34.1669,0.5487,1137.2463],[34.1628,0.5511,1127.3794],[34.1582,0.5571,1122.943],[34.1569,0.5625,1113.6006],[34.1509,0.5689,1108.7877],[34.1507,0.5732,1112.491],[34.1432,0.5805,1100.1399],[34.1416,0.584,1099.8431],[34.14,0.5833,1098.598],[34.1376,0.5857,1099.4215],[34.1274,0.5586,1155.7844],[34.1261,0.5393,1192.915],[34.116,0.5231,1125.4352],[34.1224,0.521,1133.7505],[34.1286,0.5151,1144.7407],[34.1366,0.5128,1155.0098],[34.1395,0.5083,1147.257],[34.143,0.5063,1151.012],[34.1471,0.4823,1153.5706],[34.1509,0.4766,1165.6024],[34.1561,0.4746,1180.635],[34.164,0.4749,1180.2554],[34.1692,0.4702,1187.8817],[34.1798,0.4675,1216.6605],[34.1851,0.4678,1221.5701],[34.1937,0.4745,1216.6544],[34.1977,0.4726,1218.4614]]]]}}