{"type": "Feature","bbox": [35.4138,0.0707,35.5907,0.347],"geometry": {"type": "MultiPolygon","coordinates": [[[[35.5881,0.1745,2598.7744],[35.5878,0.1762,2612.4351],[35.5854,0.1767,2571.3721],[35.5786,0.1834,2571.4961],[35.5752,0.1892,2541.1533],[35.5675,0.1913,2557.0999],[35.5679,0.203,2581.5566],[35.5551,0.1949,2506.606],[35.5127,0.1932,2487.29],[35.5197,0.2021,2560.1958],[35.5197,0.2074,2535.6914],[35.5272,0.2167,2546.1902],[35.5261,0.2183,2518.4272],[35.5307,0.2249,2528.895],[35.5347,0.2273,2540.3384],[35.537,0.2267,2551.3765],[35.5401,0.2302,2534.564],[35.5345,0.2339,2467.6702],[35.5293,0.2326,2519.53],[35.5281,0.235,2508.4961],[35.5124,0.2331,2542.2986],[35.5049,0.2296,2524.3735],[35.4954,0.2371,2536.1536],[35.4855,0.255,2468.5933],[35.4946,0.2624,2502.9199],[35.491,0.2681,2504.7375],[35.4947,0.279,2487.032],[35.4973,0.2787,2502.2756],[35.4997,0.2829,2503.4897],[35.5004,0.2926,2497.7986],[35.4987,0.2959,2500.5854],[35.5042,0.2988,2499.3215],[35.4986,0.3091,2494.207],[35.4976,0.3146,2464.3911],[35.4949,0.3175,2475.1257],[35.4974,0.3281,2480.9771],[35.4844,0.3394,2427.5186],[35.4738,0.3427,2401.4709],[35.4696,0.3461,2392.8972],[35.4634,0.347,2372.6086],[35.4474,0.3285,2370.5425],[35.4464,0.3294,2365.8457],[35.4434,0.3273,2364.2573],[35.4312,0.3169,2264.8545],[35.4336,0.3137,2280.5933],[35.4424,0.3124,2322.176],[35.4422,0.304,2336.0649],[35.4325,0.2968,2307.3003],[35.4378,0.2899,2329.9502],[35.441,0.2889,2340.1655],[35.4362,0.2857,2310.9072],[35.4375,0.2843,2310.8252],[35.4359,0.2715,2330.252],[35.428,0.2795,2300.8765],[35.4138,0.2645,2287.4141],[35.4215,0.2574,2356.9402],[35.4228,0.2526,2289.3777],[35.4243,0.2529,2301.6089],[35.4238,0.2504,2286.875],[35.4274,0.247,2316.3389],[35.428,0.2431,2332.8013],[35.4291,0.2438,2332.9365],[35.4308,0.2415,2323.8921],[35.4317,0.236,2322.2966],[35.4335,0.235,2335.3474],[35.4332,0.2314,2321.9324],[35.4349,0.2298,2319.9568],[35.42,0.2239,2384.0586],[35.4242,0.2201,2381.2678],[35.428,0.2115,2384.8738],[35.4416,0.2205,2412.501],[35.4505,0.2134,2429.0398],[35.452,0.2104,2424.4238],[35.4547,0.2099,2436.438],[35.4563,0.2068,2437.2515],[35.4637,0.2057,2437.5737],[35.4682,0.1972,2420.5254],[35.4686,0.1877,2428.739],[35.4772,0.1633,2450.7847],[35.4694,0.1536,2517.6377],[35.4636,0.1394,2519.7002],[35.4598,0.1372,2534.6863],[35.4622,0.1213,2595.3296],[35.4658,0.1258,2578.0366],[35.4751,0.1213,2584.5215],[35.4745,0.1156,2617.1465],[35.4781,0.1153,2599.4297],[35.4806,0.1124,2603.2244],[35.5048,0.1157,2614.9639],[35.509,0.1212,2658.3667],[35.5217,0.1316,2602.6453],[35.5223,0.1281,2611.7139],[35.5194,0.1187,2633.9827],[35.5207,0.1139,2633.2378],[35.5271,0.1116,2673.708],[35.5283,0.1082,2696.7078],[35.5316,0.1065,2720.3586],[35.5368,0.1082,2680.2751],[35.5406,0.1135,2698.4968],[35.5425,0.1136,2674.1965],[35.5444,0.1066,2746.4771],[35.5414,0.0989,2804.2139],[35.5418,0.0935,2748.5417],[35.5735,0.0707,2713.2368],[35.5752,0.1193,2588.3716],[35.5907,0.1532,2554.3577],[35.5881,0.1745,2598.7744]]]]}
,"properties": {"GID_3": "KEN.44.1.1_1","GID_0": "KEN","country": "Kenya","GID_1": "KEN.44_1","province": "UasinGishu","NL_NAME_1": "NA","GID_2": "KEN.44.1_1","county": "Ainabkoi","NL_NAME_2": "NA","city": "Ainabkoi/Olare","VARNAME_3": "NA","NL_NAME_3": "NA","TYPE_3": "Ward","ENGTYPE_3": "Ward","CC_3": "721","HASC_3": "NA","name": "Ainabkoi_Olare.city","area_km2": 245.1594,"hist_schema_id": "Elevation0-9000","hist_area_km2": {"2275": 0.106,"2300": 2.3322,"2325": 5.7669,"2350": 8.7988,"2375": 11.7883,"2400": 14.3961,"2425": 19.209,"2450": 26.9902,"2475": 27.0962,"2500": 16.1559,"2525": 17.5129,"2550": 20.5873,"2575": 18.7215,"2600": 19.9724,"2625": 13.5694,"2650": 10.3042,"2675": 6.3394,"2700": 2.6927,"2725": 1.1237,"2750": 1.2085,"2775": 0.4664,"2800": 0.0212}}}