{"type": "Feature","bbox": [34.9699,-0.1564,35.1396,-0.0667],"geometry": {"type": "MultiPolygon","coordinates": [[[[35.0599,-0.072,1191.5369],[35.0598,-0.0765,1196.8673],[35.0532,-0.0785,1189.6995],[35.0406,-0.0719,1196.0686],[35.0404,-0.0677,1197.718],[34.9761,-0.0667,1199.1254],[34.9766,-0.0718,1192.5266],[34.9751,-0.0756,1189.2294],[34.9773,-0.0776,1187.4816],[34.9845,-0.0785,1184.0222],[34.9851,-0.0842,1178.7981],[34.9827,-0.0891,1176.6547],[34.9791,-0.0916,1176.1831],[34.9743,-0.1019,1168.3434],[34.9769,-0.1044,1168.3419],[34.9709,-0.115,1166.057],[34.9699,-0.1272,1166.0872],[34.9764,-0.1356,1165.1364],[34.9793,-0.1357,1165.0068],[34.9766,-0.1339,1165.5077],[34.9797,-0.1339,1165.8572],[34.9789,-0.1302,1166.8911],[34.9817,-0.1322,1167.0991],[34.9811,-0.1337,1163.5791],[34.9866,-0.1358,1163.5535],[34.9883,-0.1385,1167.3777],[34.995,-0.1371,1170.2286],[34.9987,-0.1389,1171.2388],[35.0096,-0.1464,1178.7278],[35.0146,-0.1564,1184.238],[35.0368,-0.1447,1198.2369],[35.0442,-0.1427,1200.5166],[35.0526,-0.1457,1213.2855],[35.0539,-0.1434,1211.48],[35.065,-0.144,1206.9705],[35.0702,-0.1522,1232.0172],[35.0776,-0.1513,1237.3729],[35.0775,-0.1536,1243.2694],[35.0806,-0.1535,1246.386],[35.0842,-0.1517,1248.5974],[35.0874,-0.1553,1269.4004],[35.0907,-0.1554,1266.3484],[35.1029,-0.1519,1286.4941],[35.1025,-0.1472,1271.5239],[35.109,-0.1425,1228.4592],[35.114,-0.1419,1251.8081],[35.1192,-0.1378,1208.1714],[35.1225,-0.1379,1217.2031],[35.124,-0.1398,1227.7927],[35.1245,-0.1376,1219.3007],[35.1259,-0.141,1229.7651],[35.1396,-0.1136,1255.0522],[35.0599,-0.072,1191.5369]]]]}
,"properties": {"GID_3": "KEN.17.4.2_1","GID_0": "KEN","country": "Kenya","GID_1": "KEN.17_1","province": "Kisumu","NL_NAME_1": "NA","GID_2": "KEN.17.4_1","county": "Muhoroni","NL_NAME_2": "NA","city": "Masogo/Nyang'Oma","VARNAME_3": "NA","NL_NAME_3": "NA","TYPE_3": "Ward","ENGTYPE_3": "Ward","CC_3": "1213","HASC_3": "NA","name": "Masogo_Nyang'Oma.city","area_km2": 128.10348,"hist_schema_id": "Elevation0-9000","hist_area_km2": {"1175": 51.16082,"1200": 55.78291,"1225": 18.38227,"1250": 1.9294,"1275": 0.84809}}}