{"type":"Feature","properties":{"GID_2":"KEN.19.4_1","GID_0":"KEN","country":"Kenya","GID_1":"KEN.19_1","province":"Kwale","NL_NAME_1":"NA","county":"Msambweni","VARNAME_2":"NA","NL_NAME_2":"NA","TYPE_2":"Constituency","ENGTYPE_2":"Constituency","CC_2":"7","HASC_2":"NA","name":"Msambweni.county"},
"geometry":{"type": "MultiPolygon","coordinates": [[[[39.4279,-4.5621,0.5],[39.4263,-4.5624,1.3579],[39.4285,-4.5696,0.0],[39.4329,-4.5737,0.0],[39.4301,-4.5671,2.1148],[39.431,-4.5654,0.0],[39.4279,-4.5621,0.5]]],
[[[39.3935,-4.5799,3.6111],[39.3943,-4.5774,2.0308],[39.3971,-4.5782,1.1202],[39.3999,-4.5871,0.697],[39.4024,-4.5901,0.0],[39.4057,-4.5893,0.0],[39.4049,-4.5874,0.0],[39.4093,-4.5849,0.0],[39.4101,-4.5818,0.0],[39.4143,-4.5796,0.4103],[39.4174,-4.5807,0.0],[39.4224,-4.5729,0.5793],[39.4221,-4.5707,0.0],[39.4179,-4.5674,2.833],[39.424,-4.5696,0.0],[39.4246,-4.5651,1.1624],[39.4171,-4.5568,4.3951],[39.4168,-4.5557,3.9714],[39.419,-4.556,2.3902],[39.4182,-4.5532,1.2607],[39.414,-4.5526,0.5],[39.4113,-4.5546,2.5124],[39.4129,-4.5504,2.2781],[39.4182,-4.5524,3.0688],[39.4224,-4.5585,0.5],[39.4232,-4.5546,3.4406],[39.4265,-4.5521,1.0],[39.4263,-4.5493,1.7519],[39.4418,-4.5385,1.5],[39.4399,-4.5354,2.4306],[39.4354,-4.534,1.5],[39.4299,-4.5351,2.1035],[39.4285,-4.5329,2.7939],[39.4301,-4.534,1.5],[39.4393,-4.5332,2.7238],[39.4435,-4.5357,2.3234],[39.449,-4.5259,2.8931],[39.4474,-4.5332,3.9199],[39.4368,-4.5474,1.9579],[39.4401,-4.5507,1.937],[39.4346,-4.549,1.0],[39.4315,-4.551,1.0],[39.4271,-4.5571,0.7906],[39.4271,-4.5599,0.5],[39.4329,-4.566,0.0],[39.4354,-4.5718,3.4937],[39.4349,-4.5835,0.0],[39.4362,-4.5846,1.6506],[39.4362,-4.5901,1.4495],[39.439,-4.5924,0.0],[39.4426,-4.5921,1.2302],[39.4446,-4.5857,2.3572],[39.4488,-4.5854,4.7033],[39.4507,-4.5868,0.0],[39.4532,-4.5838,0.0],[39.4562,-4.5735,0.0],[39.4565,-4.5621,0.0],[39.4621,-4.5546,0.0],[39.4626,-4.5474,0.0],[39.466,-4.5446,0.0],[39.4629,-4.5429,0.0],[39.464,-4.539,0.0],[39.4624,-4.5376,0.0],[39.4624,-4.5338,0.0],[39.4649,-4.531,0.0],[39.4654,-4.5221,4.5974],[39.4696,-4.5132,4.1959],[39.4724,-4.5013,4.7216],[39.4787,-4.4893,5.1701],[39.4787,-4.4868,12.5704],[39.481,-4.4857,0.0],[39.481,-4.4829,1.2042],[39.4846,-4.4818,0.0],[39.4857,-4.4799,0.0],[39.4882,-4.4801,0.0],[39.4885,-4.4763,0.0],[39.4926,-4.4724,2.0837],[39.4946,-4.4726,3.2935],[39.4979,-4.4687,0.0],[39.4982,-4.4657,1.1156],[39.5001,-4.4654,0.0],[39.4985,-4.4582,0.0],[39.5018,-4.4493,0.0],[39.5004,-4.4446,0.8469],[39.5026,-4.4443,2.5424],[39.5029,-4.4476,0.0],[39.5071,-4.4468,0.0],[39.5032,-4.4437,2.5424],[39.5096,-4.4412,0.505],[39.5124,-4.4296,1.0704],[39.516,-4.4293,0.0],[39.5151,-4.4221,0.8559],[39.5168,-4.4243,0.0],[39.5168,-4.421,1.653],[39.5179,-4.4226,0.0],[39.5218,-4.4218,0.0],[39.5246,-4.419,2.124],[39.5293,-4.4299,0.0],[39.5335,-4.4287,3.1945],[39.5337,-4.4387,0.6082],[39.5374,-4.4396,0.0],[39.541,-4.4351,0.0],[39.5407,-4.4329,0.0],[39.544,-4.4268,1.0834],[39.546,-4.4068,4.3416],[39.5482,-4.4026,5.2005],[39.5496,-4.3921,0.0],[39.5582,-4.3738,0.0],[39.5643,-4.3507,7.7415],[39.5701,-4.3382,0.0],[39.5715,-4.3293,5.4515],[39.599,-4.2701,0.0],[39.5988,-4.2596,1.1198],[39.5971,-4.2585,1.688],[39.5996,-4.2579,1.2532],[39.6004,-4.2548,0.0],[39.5953,-4.2541,12.3896],[39.5895,-4.2555,15.5569],[39.5837,-4.2542,19.4608],[39.5823,-4.2592,17.0678],[39.5761,-4.2602,22.1041],[39.5693,-4.2555,20.9331],[39.5675,-4.2578,12.0259],[39.5627,-4.2515,26.9206],[39.5635,-4.2478,29.8086],[39.5595,-4.2476,15.4764],[39.5523,-4.2551,18.3707],[39.5485,-4.2562,25.6242],[39.5417,-4.2631,30.7615],[39.5353,-4.2662,38.0445],[39.5347,-4.2699,27.9083],[39.5297,-4.2754,44.7339],[39.5303,-4.2788,37.01],[39.5279,-4.2814,35.7121],[39.5243,-4.2831,34.8022],[39.5157,-4.2826,60.384],[39.5039,-4.2877,64.168],[39.4899,-4.3001,74.5897],[39.4893,-4.3049,58.4681],[39.4865,-4.3074,114.0802],[39.4809,-4.3034,126.2873],[39.4677,-4.3334,76.4918],[39.4643,-4.3347,83.5165],[39.4613,-4.3388,86.5602],[39.4543,-4.3407,141.0324],[39.4249,-4.3676,79.2285],[39.4247,-4.3698,79.5751],[39.4247,-4.3683,77.9756],[39.3935,-4.3958,125.5262],[39.3275,-4.3844,44.9826],[39.3283,-4.3862,44.7498],[39.3257,-4.3899,50.1919],[39.3219,-4.3914,50.7376],[39.3209,-4.4045,32.1765],[39.3229,-4.4059,42.8009],[39.3245,-4.4154,30.0669],[39.3265,-4.4165,28.5389],[39.3393,-4.4146,34.6525],[39.3377,-4.4219,36.2416],[39.3397,-4.4269,26.9351],[39.3475,-4.4336,26.517],[39.3461,-4.4367,25.1402],[39.3483,-4.4422,27.6378],[39.3479,-4.4474,24.8708],[39.3513,-4.4491,30.6844],[39.3607,-4.4471,26.2785],[39.3673,-4.45,19.0686],[39.3697,-4.453,18.6297],[39.3685,-4.4602,23.225],[39.3725,-4.4637,18.4384],[39.3769,-4.4779,17.4189],[39.3825,-4.4877,13.0136],[39.3877,-4.4918,11.9776],[39.3895,-4.4975,10.8832],[39.3857,-4.5032,14.3745],[39.3861,-4.5058,11.4792],[39.39,-4.5092,18.4626],[39.3885,-4.5152,17.278],[39.3917,-4.519,25.2896],[39.3921,-4.5248,7.8202],[39.3771,-4.5379,6.6342],[39.3755,-4.5429,7.3037],[39.3755,-4.5519,4.532],[39.3739,-4.5544,8.4714],[39.3811,-4.5562,6.8069],[39.3855,-4.5627,3.4586],[39.3883,-4.5703,3.0465],[39.3881,-4.5799,7.928],[39.3863,-4.5844,9.1821],[39.3873,-4.5886,11.2369],[39.3889,-4.5888,3.6125],[39.3935,-4.5799,3.6111]]],
[[[39.5385,-4.4418,2.3789],[39.5335,-4.4421,0.9623],[39.5313,-4.4485,0.0],[39.5346,-4.4488,0.0],[39.5385,-4.4418,2.3789]]]]}}