{"type":"Feature","properties":{"GID_3":"KEN.41.3.3_1","GID_0":"KEN","country":"Kenya","GID_1":"KEN.41_1","province":"Tharaka-Nithi","NL_NAME_1":"NA","GID_2":"KEN.41.3_1","county":"Maara","NL_NAME_2":"NA","city":"Mitheru","VARNAME_3":"NA","NL_NAME_3":"NA","TYPE_3":"Ward","ENGTYPE_3":"Ward","CC_3":"296","HASC_3":"NA","name":"Mitheru.city"},
"geometry":{"type": "MultiPolygon","coordinates": [[[[37.3181,-0.1543,4872.9702],[37.6201,-0.3077,1482.4958],[37.6249,-0.3056,1458.3884],[37.6281,-0.3064,1460.4722],[37.6355,-0.3123,1428.7439],[37.6407,-0.3085,1424.4368],[37.6509,-0.3072,1396.7791],[37.6545,-0.3049,1373.7816],[37.6609,-0.3054,1341.2524],[37.6614,-0.3014,1345.0702],[37.667,-0.2992,1325.1158],[37.6805,-0.3056,1302.1201],[37.6881,-0.3055,1271.3477],[37.6965,-0.3091,1211.317],[37.6981,-0.3069,1211.3496],[37.7035,-0.3048,1154.0869],[37.7083,-0.3051,1172.228],[37.7145,-0.3105,1137.4841],[37.7185,-0.3182,1122.215],[37.7215,-0.3178,1131.9189],[37.7239,-0.3133,1131.3593],[37.7229,-0.3079,1154.3081],[37.7277,-0.3079,1134.2021],[37.7299,-0.3052,1084.3743],[37.7303,-0.3009,1084.7347],[37.7349,-0.2962,1099.8521],[37.7482,-0.2974,1081.9529],[37.7555,-0.2941,1065.6565],[37.7681,-0.2934,1000.5361],[37.7827,-0.2948,915.8903],[37.7803,-0.2937,919.6022],[37.7757,-0.2873,953.8079],[37.7701,-0.2849,990.6946],[37.7455,-0.2896,1082.994],[37.7308,-0.2902,1097.5546],[37.7175,-0.2973,1142.4387],[37.7115,-0.2962,1183.5654],[37.7051,-0.2894,1187.2428],[37.6887,-0.2831,1242.6394],[37.6625,-0.2851,1257.9977],[37.6519,-0.2822,1358.4878],[37.6447,-0.2845,1416.2466],[37.6125,-0.2831,1509.7627],[37.6039,-0.2763,1523.937],[37.5967,-0.2733,1658.8544],[37.5881,-0.2725,1773.9185],[37.4895,-0.2342,2331.5659],[37.3181,-0.1543,4872.9702]]]]}}