{"type":"Feature","properties":{"GID_3":"KEN.18.6.2_1","GID_0":"KEN","country":"Kenya","GID_1":"KEN.18_1","province":"Kitui","NL_NAME_1":"NA","GID_2":"KEN.18.6_1","county":"MwingiCentral","NL_NAME_2":"NA","city":"Kiomo/Kyethani","VARNAME_3":"NA","NL_NAME_3":"NA","TYPE_3":"Ward","ENGTYPE_3":"Ward","CC_3":"339","HASC_3":"NA","name":"Kiomo_Kyethani.city"},
"geometry":{"type": "MultiPolygon","coordinates": [[[[37.8704,-0.8107,732.676],[37.8698,-0.8141,727.5531],[37.8662,-0.8184,738.8349],[37.8689,-0.8244,736.1319],[37.8673,-0.8272,756.3337],[37.8703,-0.8297,748.0035],[37.8701,-0.8338,751.9642],[37.8682,-0.8344,758.0256],[37.8693,-0.8356,763.9943],[37.8746,-0.8352,782.8881],[37.8823,-0.8385,813.4109],[37.8817,-0.8413,801.8791],[37.883,-0.8411,801.4629],[37.8837,-0.8463,815.1869],[37.8801,-0.8497,836.5731],[37.8817,-0.8534,843.498],[37.8848,-0.8544,843.9622],[37.8825,-0.8556,835.0377],[37.885,-0.8565,840.9642],[37.8838,-0.8574,838.2505],[37.885,-0.861,853.9518],[37.8886,-0.8623,873.8935],[37.8934,-0.8605,911.11],[37.8963,-0.8632,887.1156],[37.8948,-0.8646,894.585],[37.8953,-0.8684,906.2475],[37.8976,-0.8673,898.027],[37.8977,-0.87,904.4089],[37.8996,-0.8692,912.3519],[37.8993,-0.8705,908.4642],[37.9017,-0.8704,922.2158],[37.9045,-0.8729,927.696],[37.9025,-0.8757,937.5162],[37.9038,-0.8762,933.4614],[37.9026,-0.88,953.4068],[37.9043,-0.8792,937.5417],[37.904,-0.8823,943.5991],[37.9059,-0.8844,950.8421],[37.9085,-0.8825,957.0027],[37.9102,-0.8851,955.3724],[37.9183,-0.8891,976.9529],[37.9249,-0.8879,989.7406],[37.9275,-0.8921,982.0568],[37.9252,-0.8954,1006.8417],[37.9258,-0.9,994.1022],[37.9285,-0.9011,1005.1411],[37.9295,-0.9037,1001.2374],[37.9378,-0.9031,1013.2432],[37.9434,-0.9125,1026.0922],[37.9477,-0.9168,1031.9144],[37.9504,-0.9384,1087.3447],[37.9525,-0.9444,1091.881],[37.9497,-0.9492,1113.3715],[37.9503,-0.9553,1118.9897],[37.9454,-0.9682,1149.4058],[37.9518,-0.9907,1121.6021],[37.9573,-0.999,1138.0614],[37.977,-0.9911,1178.91],[37.9814,-0.9844,1211.2495],[37.9904,-0.9769,1171.2814],[37.9911,-0.9821,1174.8926],[38.0035,-0.9959,1187.5739],[38.006,-1.0052,1200.0397],[38.0094,-1.0009,1175.7539],[38.0131,-0.9996,1157.6987],[38.0164,-1.0037,1165.2354],[38.0252,-1.0024,1157.3438],[38.0302,-1.0042,1170.0697],[38.0337,-1.0034,1118.8185],[38.0343,-1.0019,1112.7963],[38.049,-0.9986,999.1222],[38.0519,-0.9958,992.9171],[38.0549,-0.9962,983.0577],[38.0571,-0.9915,977.9059],[38.0544,-0.9889,984.8428],[38.0578,-0.9886,974.5945],[38.0586,-0.9849,978.9733],[38.0608,-0.9833,969.9924],[38.0593,-0.9765,967.27],[38.0597,-0.9645,973.5383],[38.0578,-0.9654,967.3356],[38.0549,-0.9635,957.3676],[38.0558,-0.9573,959.3221],[38.0458,-0.945,953.2926],[38.0443,-0.9398,945.562],[38.0454,-0.9373,947.8324],[38.0423,-0.9361,952.5329],[38.042,-0.9374,940.2864],[38.0411,-0.9346,952.5329],[38.0397,-0.9356,937.2286],[38.0378,-0.9323,935.1706],[38.0354,-0.9317,935.8009],[38.0339,-0.9222,949.5467],[38.0371,-0.9197,930.0718],[38.0371,-0.9154,924.3323],[38.0354,-0.9148,930.8326],[38.0368,-0.9113,923.767],[38.0341,-0.9096,920.1757],[38.034,-0.9074,918.3286],[38.0317,-0.9077,919.4574],[38.0316,-0.9026,922.8788],[38.0298,-0.9002,916.384],[38.0285,-0.9053,912.8793],[38.0273,-0.9051,916.5869],[38.0279,-0.9003,908.5406],[38.0246,-0.8948,913.4747],[38.0292,-0.8921,906.3616],[38.025,-0.8892,899.1954],[38.0248,-0.8835,905.1111],[38.0213,-0.8769,899.7628],[38.0174,-0.8762,889.2684],[38.0186,-0.874,898.0408],[38.0154,-0.8702,896.6505],[38.0206,-0.8666,910.5619],[38.0409,-0.8652,985.5158],[38.0608,-0.8576,931.8137],[38.0599,-0.8539,929.1439],[38.0621,-0.8467,917.9006],[38.0663,-0.8435,910.4808],[38.0664,-0.8418,911.2836],[38.059,-0.8367,905.1216],[38.0577,-0.8307,903.881],[38.0535,-0.8248,897.6606],[38.0491,-0.8253,894.2518],[38.0455,-0.8156,898.2257],[38.0421,-0.8174,895.324],[38.0416,-0.8192,889.5529],[38.0397,-0.817,878.8177],[38.0373,-0.8175,888.3772],[38.0379,-0.8116,875.2721],[38.0365,-0.81,884.6768],[38.0344,-0.8103,876.566],[38.0335,-0.8074,874.5591],[38.0265,-0.8033,855.7183],[38.0254,-0.8006,848.8],[38.0268,-0.7993,856.0413],[38.0258,-0.7977,843.7341],[38.0239,-0.7987,845.0641],[38.023,-0.7967,840.7692],[38.0244,-0.793,851.4927],[38.0223,-0.7939,847.3893],[38.0201,-0.791,849.5901],[38.0183,-0.7954,840.4231],[38.0055,-0.7875,817.0927],[38.0005,-0.7742,807.4026],[37.997,-0.7718,809.3567],[37.996,-0.7677,800.8027],[37.9935,-0.7679,801.3629],[37.9929,-0.7628,798.0562],[37.9899,-0.7623,800.4627],[37.9892,-0.7565,798.6658],[37.9853,-0.7555,795.24],[37.9824,-0.7575,788.5528],[37.9803,-0.7563,787.4097],[37.9809,-0.7535,796.7838],[37.9772,-0.7547,810.8158],[37.9786,-0.7525,785.8933],[37.9777,-0.7503,796.0334],[37.9768,-0.7526,785.8933],[37.9738,-0.7503,794.3738],[37.9718,-0.7549,780.1408],[37.9704,-0.7536,778.4431],[37.967,-0.7544,781.4084],[37.9694,-0.7573,771.685],[37.9654,-0.7594,779.6656],[37.9603,-0.7592,757.8847],[37.958,-0.7564,765.9846],[37.9545,-0.7589,753.1138],[37.9529,-0.7555,759.3934],[37.9478,-0.7516,745.6281],[37.9434,-0.7522,745.7687],[37.942,-0.7506,754.5441],[37.9368,-0.7519,727.9203],[37.9352,-0.7472,730.4149],[37.9361,-0.7461,731.1545],[37.9322,-0.7396,725.8221],[37.9273,-0.7387,729.4763],[37.9257,-0.7413,720.2405],[37.9274,-0.7442,718.4535],[37.9264,-0.7476,714.4392],[37.9238,-0.745,719.49],[37.9175,-0.746,703.5631],[37.9121,-0.7413,702.06],[37.9092,-0.748,700.9267],[37.9037,-0.7538,713.3726],[37.9015,-0.7597,709.0796],[37.8908,-0.7671,709.7938],[37.8929,-0.7795,704.6832],[37.8833,-0.783,716.5004],[37.8833,-0.7883,718.084],[37.8795,-0.7927,737.0176],[37.8799,-0.7977,730.1121],[37.8835,-0.8014,717.2115],[37.8844,-0.8069,719.5725],[37.8808,-0.8076,721.0502],[37.8773,-0.8063,726.0708],[37.8704,-0.8107,732.676]]]]}}