{"type":"Feature","properties":{"GID_3":"KEN.14.1.1_1","GID_0":"KEN","country":"Kenya","GID_1":"KEN.14_1","province":"Kilifi","NL_NAME_1":"NA","GID_2":"KEN.14.1_1","county":"Ganze","NL_NAME_2":"NA","city":"Bamba","VARNAME_3":"NA","NL_NAME_3":"NA","TYPE_3":"Ward","ENGTYPE_3":"Ward","CC_3":"72","HASC_3":"NA","name":"Bamba.city"},
"geometry":{"type": "MultiPolygon","coordinates": [[[[39.4003,-3.3489,193.7144],[39.1465,-3.3418,304.147],[39.0873,-3.5696,369.0495],[39.2827,-3.5696,279.711],[39.3035,-3.5685,266.9409],[39.3065,-3.5666,265.6523],[39.3183,-3.5645,263.4403],[39.3203,-3.568,259.861],[39.3183,-3.5754,259.2528],[39.3217,-3.578,253.887],[39.3251,-3.5843,250.9049],[39.3299,-3.5885,249.3281],[39.3359,-3.5899,246.9294],[39.3455,-3.5955,242.6211],[39.3473,-3.5986,245.3772],[39.3471,-3.6199,232.4764],[39.3439,-3.6331,227.5057],[39.3451,-3.6365,226.7964],[39.3503,-3.6376,226.3349],[39.3579,-3.6444,232.2135],[39.3671,-3.6494,248.0991],[39.3839,-3.6556,232.5884],[39.3949,-3.6572,223.3374],[39.4049,-3.6627,228.149],[39.4139,-3.665,219.0899],[39.4171,-3.6691,216.1525],[39.4389,-3.6853,206.7786],[39.4407,-3.682,206.0014],[39.4391,-3.6811,206.9069],[39.4395,-3.6793,208.5007],[39.4437,-3.6699,215.8853],[39.4485,-3.6658,222.2899],[39.4593,-3.6666,215.6475],[39.4701,-3.6648,231.3685],[39.4915,-3.6728,224.8088],[39.5067,-3.6756,253.6361],[39.5239,-3.6765,266.4263],[39.5265,-3.6339,210.2989],[39.5269,-3.6315,207.4932],[39.5311,-3.6298,208.2722],[39.5425,-3.639,212.0429],[39.5499,-3.637,206.6271],[39.5528,-3.6395,210.1893],[39.5535,-3.6428,203.8507],[39.5485,-3.6494,208.348],[39.5493,-3.6543,205.2851],[39.5581,-3.6537,206.2263],[39.5631,-3.6508,204.5391],[39.5689,-3.6511,206.6886],[39.5707,-3.6524,203.2989],[39.5689,-3.6572,202.822],[39.5721,-3.6613,200.9767],[39.5781,-3.6642,205.6563],[39.5841,-3.6635,194.3209],[39.5837,-3.6583,203.7645],[39.5923,-3.6559,191.1538],[39.5936,-3.6533,190.5972],[39.5897,-3.6489,202.7687],[39.5825,-3.6528,206.4909],[39.5769,-3.6496,200.8966],[39.5703,-3.6347,210.6676],[39.5643,-3.6259,222.2675],[39.5643,-3.6225,233.4455],[39.5685,-3.6101,253.9163],[39.5979,-3.5591,251.1561],[39.5989,-3.5508,246.8984],[39.5945,-3.55,252.2408],[39.5933,-3.5461,238.3816],[39.6039,-3.5418,217.6898],[39.6031,-3.5271,256.3541],[39.5973,-3.4929,185.7054],[39.5991,-3.4851,169.1938],[39.5981,-3.4829,178.8863],[39.5815,-3.4832,208.1276],[39.5753,-3.4862,218.0326],[39.5729,-3.4847,212.0638],[39.5631,-3.4703,259.0348],[39.5425,-3.4521,253.6417],[39.5003,-3.4283,178.1805],[39.4653,-3.4118,175.6399],[39.4426,-3.4125,182.8808],[39.4409,-3.4067,177.292],[39.4397,-3.4094,179.745],[39.4309,-3.4138,183.291],[39.4067,-3.4137,185.5962],[39.4003,-3.3489,193.7144]]]]}}