{"type":"Feature","properties":{"GID_3":"KEN.1.6.3_1","GID_0":"KEN","country":"Kenya","GID_1":"KEN.1_1","province":"Baringo","NL_NAME_1":"NA","GID_2":"KEN.1.6_1","county":"Mogotio","NL_NAME_2":"NA","city":"Mogotio","VARNAME_3":"NA","NL_NAME_3":"NA","TYPE_3":"Ward","ENGTYPE_3":"Ward","CC_3":"802","HASC_3":"NA","name":"Mogotio.city"},
"geometry":{"type": "MultiPolygon","coordinates": [[[[35.9315,0.0736,1607.8464],[35.9302,0.075,1618.0312],[35.9437,0.1092,1577.1086],[35.9092,0.1249,1582.2668],[35.9049,0.1289,1586.3162],[35.8975,0.1265,1585.8251],[35.8776,0.1275,1587.356],[35.8723,0.1315,1596.7883],[35.8538,0.1513,1599.804],[35.8484,0.1694,1675.4951],[35.8349,0.1876,1562.2152],[35.8287,0.1872,1563.7999],[35.8286,0.1896,1569.6388],[35.8253,0.1911,1565.6823],[35.8247,0.1937,1578.6792],[35.8197,0.1966,1644.386],[35.8168,0.2047,1663.2118],[35.8093,0.2134,1835.9597],[35.8068,0.2137,1902.7201],[35.8054,0.2164,1937.8066],[35.8066,0.2246,1844.2986],[35.8034,0.2291,2102.9707],[35.7972,0.2517,2256.9443],[35.7953,0.2537,2042.7839],[35.7961,0.2665,2171.2854],[35.7793,0.2663,1845.4395],[35.7775,0.2485,1901.8225],[35.7839,0.248,2128.4365],[35.784,0.2386,2144.5642],[35.7818,0.2336,2212.2917],[35.7767,0.233,2001.9481],[35.7777,0.2289,2208.855],[35.7573,0.2254,1871.7969],[35.7552,0.2223,1929.9199],[35.7512,0.2208,1992.3857],[35.7404,0.2276,1959.741],[35.722,0.2168,1734.7052],[35.7192,0.2168,1901.3413],[35.7164,0.211,1847.8799],[35.7128,0.2111,1989.4353],[35.7056,0.2078,2267.936],[35.701,0.199,2200.5601],[35.6927,0.1916,2473.877],[35.6914,0.192,2355.4377],[35.6953,0.1827,2564.6519],[35.7045,0.1866,2282.5],[35.7146,0.1948,2301.8008],[35.7187,0.1907,2174.3501],[35.7226,0.1904,2043.2374],[35.7234,0.1916,2003.2695],[35.7256,0.1899,2147.1858],[35.728,0.1913,2080.6211],[35.753,0.1644,2322.3264],[35.7526,0.1618,2362.9231],[35.7566,0.1605,2249.5767],[35.7565,0.1584,2147.9429],[35.7604,0.1565,2080.7153],[35.7633,0.1525,2034.1494],[35.7668,0.157,2013.8115],[35.7727,0.1556,2027.8872],[35.7771,0.1569,1934.5587],[35.7795,0.1632,1886.165],[35.7922,0.1661,1803.0659],[35.7953,0.1638,1821.0898],[35.7987,0.1642,1709.9269],[35.8103,0.1533,1576.5319],[35.812,0.1542,1629.5759],[35.8153,0.1481,1651.6096],[35.8252,0.1372,1714.1951],[35.8326,0.132,1673.6628],[35.844,0.1097,1642.9786],[35.8575,0.0946,1624.8838],[35.8562,0.092,1631.2142],[35.8576,0.0904,1626.8947],[35.8829,0.0819,1617.5996],[35.8982,0.0723,1596.0992],[35.9148,0.0694,1586.4812],[35.9203,0.0667,1582.2659],[35.925,0.0661,1579.6366],[35.9248,0.0672,1580.4604],[35.9306,0.0704,1596.4025],[35.9315,0.0736,1607.8464]]]]}}