{"type":"Feature","properties":{"GID_3":"KEN.31.1.3_1","GID_0":"KEN","country":"Kenya","GID_1":"KEN.31_1","province":"Nakuru","NL_NAME_1":"NA","GID_2":"KEN.31.1_1","county":"Bahati","NL_NAME_2":"NA","city":"Kabatini","VARNAME_3":"NA","NL_NAME_3":"NA","TYPE_3":"Ward","ENGTYPE_3":"Ward","CC_3":"866","HASC_3":"NA","name":"Kabatini.city"},
"geometry":{"type": "MultiPolygon","coordinates": [[[[36.1141,-0.1968,1816.8367],[36.1052,-0.2133,1772.3179],[36.142,-0.2496,1920.0166],[36.1431,-0.2456,1926.2416],[36.1486,-0.2411,1941.1493],[36.1495,-0.2373,1949.8973],[36.1638,-0.2252,2012.3757],[36.166,-0.22,2036.7052],[36.1687,-0.2186,2042.9767],[36.1776,-0.2063,2122.4316],[36.1863,-0.2063,2180.3486],[36.1959,-0.2099,2355.9033],[36.1992,-0.2093,2374.6167],[36.2034,-0.2053,2378.9189],[36.2202,-0.2052,2562.6914],[36.2118,-0.1972,2587.9297],[36.2115,-0.1815,2595.9429],[36.2078,-0.1654,2559.5449],[36.2036,-0.1622,2549.9937],[36.1978,-0.1605,2380.9492],[36.1909,-0.1497,2342.0527],[36.1905,-0.153,2245.7803],[36.1884,-0.152,2241.9836],[36.1809,-0.1556,2210.6003],[36.1756,-0.1553,2192.9558],[36.1625,-0.1711,2119.3328],[36.1309,-0.1957,1976.7863],[36.121,-0.2059,1963.1659],[36.1141,-0.1968,1816.8367]]]]}}