{"type": "Feature","bbox": [37.3428,-1.4978,37.8198,-0.9861],"geometry": {"type": "MultiPolygon","coordinates": [[[[37.7327,-1.3413,1091.3706],[37.7326,-1.336,1092.9579],[37.7261,-1.3236,1101.2749],[37.7241,-1.3223,1097.0847],[37.7257,-1.3197,1097.028],[37.7239,-1.3169,1096.2214],[37.7251,-1.3135,1108.8102],[37.7217,-1.3121,1102.8888],[37.7172,-1.3031,1106.2397],[37.7174,-1.2992,1116.9801],[37.7136,-1.2985,1112.9022],[37.7139,-1.2904,1122.4991],[37.7085,-1.2891,1112.4374],[37.7067,-1.2792,1117.4404],[37.7027,-1.2751999999999999,1125.1295],[37.7026,-1.2717,1129.25],[37.6986,-1.2709,1127.6318],[37.6966,-1.268,1134.7915],[37.6979,-1.2655,1132.4103],[37.6938,-1.2574,1135.8563],[37.6936,-1.2493,1154.022],[37.6891,-1.2484,1139.2971],[37.6909,-1.2469,1151.6335],[37.688,-1.2454,1149.5493],[37.6897,-1.2417,1143.6025],[37.6886,-1.2395,1145.8262],[37.6844,-1.2341,1161.1665],[37.6781,-1.2332,1151.6848],[37.6756,-1.2314,1151.7339],[37.6754,-1.2291,1155.4236],[37.6729,-1.2262,1164.1707],[37.6716,-1.2267,1159.6633],[37.6715,-1.2245,1165.0918],[37.6652,-1.2188,1163.2487],[37.6668,-1.2164,1172.9071],[37.6637,-1.2158,1169.7571],[37.6615,-1.2104,1171.9639],[37.6561,-1.2057,1174.4921],[37.6548,-1.2002,1182.184],[37.6497,-1.1969,1179.748],[37.6475,-1.1886,1189.4702],[37.6438,-1.1835,1187.1707],[37.6384,-1.1685,1195.7485],[37.6347,-1.1615,1198.5975],[37.6261,-1.152,1204.9648],[37.6243,-1.1472,1210.8176],[37.6177,-1.1426,1218.491],[37.6125,-1.1422,1217.4763],[37.6111,-1.1403,1220.7898],[37.6056,-1.1423,1222.2046],[37.6031,-1.1341,1235.85],[37.6006,-1.1311,1243.8977],[37.5977,-1.1312,1245.4011],[37.5957,-1.0868,1195.8677],[37.5264,-1.0764,1219.443],[37.5199,-1.0659,1209.3599],[37.5203,-1.0566,1211.8451],[37.5126,-1.0421,1193.8636],[37.5431,-0.9938,1122.6201],[37.4728,-0.9861,1259.1627],[37.4703,-0.9972,1204.8369],[37.4512,-1.0016,1056.4125],[37.4525,-1.0023,1068.53],[37.452,-1.0049,1058.2549],[37.4466,-1.0078,1074.8628],[37.4477,-1.0105,1057.814],[37.4211,-1.0339,1267.6896],[37.3877,-1.0573,1282.2371],[37.3626,-1.0935,1286.3518],[37.3428,-1.1164,1291.09],[37.3458,-1.1224,1286.796],[37.3532,-1.1289,1271.2661],[37.357,-1.1302,1252.1183],[37.3621,-1.1284,1262.0566],[37.3657,-1.1361,1245.2852],[37.3635,-1.1401,1244.4136],[37.3817,-1.1605,1208.974],[37.3862,-1.1616,1214.2987],[37.3877,-1.1673,1198.1542],[37.3914,-1.1703,1199.6486],[37.3947,-1.1713,1194.6556],[37.3981,-1.1691,1226.5056],[37.4027,-1.1718,1192.7773],[37.4066,-1.1687,1195.0682],[37.4091,-1.169,1228.6118],[37.4079,-1.1748,1190.4045],[37.4112,-1.1784,1189.7842],[37.4112,-1.1823,1185.1516],[37.4187,-1.184,1223.3502],[37.4203,-1.1876,1189.541],[37.4191,-1.1931,1187.4075],[37.4252,-1.1936,1195.7488],[37.4272,-1.1979,1187.6151],[37.4311,-1.198,1198.2778],[37.4298,-1.2064,1181.209],[37.4358,-1.2088,1192.6991],[37.4453,-1.2208,1186.1039],[37.4471,-1.2209,1193.5215],[37.4508,-1.2171,1189.8101],[37.4508,-1.2225,1180.9852],[37.4554,-1.2225,1187.1461],[37.4613,-1.2308,1170.283],[37.4674,-1.23,1171.1646],[37.4747,-1.2312,1174.9774],[37.487,-1.251,1167.0708],[37.5008,-1.2523,1228.5909],[37.5059,-1.2605,1151.7469],[37.5134,-1.2636,1121.1881],[37.5274,-1.2836,1114.6104],[37.5404,-1.3063,1115.7885],[37.5468,-1.3046,1124.0966],[37.5552,-1.3052,1098.0179],[37.5626,-1.3156,1098.9578],[37.5713,-1.3155,1094.1842],[37.5748,-1.318,1077.1744],[37.5803,-1.3175,1112.5614],[37.5877,-1.3297,1073.8506],[37.5965,-1.3314,1085.4739],[37.599,-1.3367,1066.2212],[37.6053,-1.3426,1076.7697],[37.6101,-1.3565,1091.7264],[37.6151,-1.3612,1089.1633],[37.6154,-1.372,1063.9617],[37.6249,-1.3764,1069.0208],[37.6216,-1.3818,1079.3033],[37.6271,-1.383,1071.7938],[37.6276,-1.3949,1063.2797],[37.6301,-1.3981,1063.5107],[37.6374,-1.4007,1074.0334],[37.6427,-1.4058,1074.4547],[37.6457,-1.4113,1068.8087],[37.6451,-1.4244,1072.3269],[37.6522,-1.4374,1054.2261],[37.6522,-1.4475,1033.6887],[37.6594,-1.4512,1045.6245],[37.6666,-1.452,1023.022],[37.6681,-1.455,1015.5996],[37.6728,-1.457,1030.6313],[37.6726,-1.4639,1013.931],[37.681,-1.4646,1030.0555],[37.6885,-1.4724,1011.1174],[37.6959,-1.4868,994.9462],[37.6948,-1.4978,992.5308],[37.7016,-1.4909,1028.7552],[37.7072,-1.4888,1064.3894],[37.7127,-1.4884,1060.903],[37.7184,-1.4927,1110.132],[37.7269,-1.4933,1213.0388],[37.7326,-1.4961,1219.4091],[37.7613,-1.4881,1195.1145],[37.7739,-1.4864,1182.6526],[37.7796,-1.4783,1137.3755],[37.7812,-1.4706,1095.4037],[37.7888,-1.4653,1064.7886],[37.7977,-1.4556,1053.5679],[37.8086,-1.448,1027.4464],[37.8198,-1.4463,1008.8703],[37.8162,-1.444,1011.4106],[37.8181,-1.4417,1015.6298],[37.8128,-1.4388,1016.6338],[37.8137,-1.4339,1015.2838],[37.8117,-1.4293,1032.0001],[37.8128,-1.4266,1027.1965],[37.8101,-1.4238,1021.7312],[37.8102,-1.4199,1028.4965],[37.8077,-1.4181,1031.5824],[37.8085,-1.4164,1022.9519],[37.8049,-1.4028,1027.5712],[37.8047,-1.3935,1034.5944],[37.7987,-1.3961,1040.8806],[37.7992,-1.392,1036.6145],[37.7931,-1.3818,1041.345],[37.7913,-1.3816,1045.1375],[37.7899,-1.3751,1069.3701],[37.7853,-1.3754,1053.9657],[37.7842,-1.3707,1074.4335],[37.7813,-1.3717,1064.0715],[37.776,-1.36,1070.4268],[37.7734,-1.3605,1080.0576],[37.7676,-1.3566,1067.0889],[37.7657,-1.3574,1068.3422],[37.7659,-1.3546,1083.2632],[37.7595,-1.3549,1088.9735],[37.7555,-1.3573,1075.2365],[37.7543,-1.3547,1084.5786],[37.7489,-1.3577,1091.542],[37.7448,-1.3565,1081.1123],[37.7453,-1.3512,1085.801],[37.7398,-1.3476,1087.0254],[37.7381,-1.3418,1091.2345],[37.7327,-1.3413,1091.3706]]]]}
,"properties": {"GID_2": "KEN.22.9_1","GID_0": "KEN","country": "Kenya","GID_1": "KEN.22_1","province": "Machakos","NL_NAME_1": "NA","county": "Yatta","VARNAME_2": "NA","NL_NAME_2": "NA","TYPE_2": "Constituency","ENGTYPE_2": "Constituency","CC_2": "76","HASC_2": "NA","name": "Yatta.county","area_km2": 1065.4151,"hist_schema_id": "Elevation0-9000","hist_area_km2": {"1000": 0.9326,"1025": 7.4396,"1050": 18.822,"1075": 42.4991,"1100": 59.52,"1125": 69.7803,"1150": 79.0234,"1175": 93.3532,"1200": 117.1376,"1225": 126.0604,"1250": 110.3525,"1275": 120.2097,"1300": 159.5316,"1325": 52.1255,"1350": 6.5926,"1375": 0.9963,"1400": 0.3392,"1425": 0.1484,"1450": 0.2968,"1475": 0.2332,"1500": 0.0212}}}