{"type": "Feature","bbox": [37.2252,-0.9577,37.4784,-0.781],"geometry": {"type": "MultiPolygon","coordinates": [[[[37.4591,-0.8693,1054.5],[37.4537,-0.8703,1054.5],[37.4472,-0.869,1054.5],[37.4429,-0.8611,1054.5],[37.4325,-0.8605,1058.7417],[37.4269,-0.8648,1054.5],[37.4188,-0.86,1058.5518],[37.4132,-0.8598,1054.5],[37.4111,-0.857,1054.5],[37.4149,-0.8518,1054.5],[37.4125,-0.8484,1054.5],[37.4037,-0.8498,1054.5],[37.3979,-0.8546,1054.5],[37.394,-0.8527,1059.1029],[37.3884,-0.853,1054.5],[37.3857,-0.8501,1059.2485],[37.3801,-0.8557,1054.5],[37.3765,-0.8532,1054.5],[37.3769,-0.8488,1054.5],[37.3704,-0.8475,1054.5],[37.3638,-0.8429,1054.5],[37.3578,-0.8419,1054.5],[37.351,-0.844,1054.5],[37.3499,-0.8407,1054.5],[37.3466,-0.8429,1054.5],[37.3433,-0.8404,1054.5],[37.3368,-0.8449,1054.5],[37.3341,-0.8422,1054.5],[37.3273,-0.8417,1054.5],[37.3235,-0.8383,1054.5],[37.3263,-0.8338,1065.9434],[37.3199,-0.8345,1054.5],[37.3155,-0.8234,1054.5],[37.3123,-0.821,1054.5],[37.3132,-0.817,1061.1407],[37.3103,-0.8138,1058.1615],[37.3051,-0.8118,1054.5],[37.306,-0.8063,1054.5],[37.3048,-0.8046,1054.5],[37.3063,-0.8007,1054.5],[37.3037,-0.7978,1054.5],[37.3009,-0.7974,1054.5],[37.2989,-0.7934,1054.5],[37.2939,-0.7919,1056.1722],[37.2881,-0.783,1055.375],[37.2851,-0.781,1101.9255],[37.2816,-0.7828,1071.1656],[37.2769,-0.7823,1088.2273],[37.2714,-0.7854,1056.5],[37.2674,-0.7852,1070.3904],[37.263,-0.79,1116.8502],[37.2584,-0.8374,1145.1991],[37.2332,-0.8371,1224.0021],[37.2252,-0.8521,1317.6552],[37.2407,-0.8578,1294.0094],[37.2416,-0.8615,1330.6448],[37.2484,-0.8613,1365.0034],[37.2527,-0.8572,1302.3558],[37.2562,-0.864,1360.9425],[37.2822,-0.8928,1314.1099],[37.3009,-0.9028,1233.7336],[37.3197,-0.9157,1142.4924],[37.3175,-0.9181,1138.0674],[37.3186,-0.9209,1133.3867],[37.3234,-0.926,1224.8223],[37.3249,-0.9257,1246.1107],[37.3241,-0.929,1187.7402],[37.3256,-0.9301,1203.4344],[37.3146,-0.9361,1224.9673],[37.3168,-0.944,1243.8402],[37.3277,-0.9404,1190.2076],[37.3306,-0.9438,1247.6862],[37.3283,-0.9462,1236.7241],[37.3339,-0.9515,1236.3442],[37.3351,-0.9557,1249.4877],[37.3369,-0.9545,1265.0533],[37.3426,-0.9577,1279.3947],[37.3546,-0.9434,1600.3398],[37.356,-0.9456,1490.0234],[37.3612,-0.939,1654.9817],[37.3731,-0.9479,1461.7509],[37.4017,-0.9135,1090.1281],[37.4017,-0.9085,1082.7389],[37.4171,-0.9083,1071.5],[37.4422,-0.9014,1054.5],[37.4462,-0.9017,1058.8885],[37.4517,-0.9069,1054.5],[37.4572,-0.9071,1054.5],[37.4596,-0.9052,1054.5],[37.4568,-0.9016,1054.5],[37.4757,-0.8969,1054.5],[37.4784,-0.8945,1054.5],[37.4782,-0.8922,1054.5],[37.476,-0.8874,1054.5],[37.4715,-0.884,1054.5],[37.4745,-0.8745,1054.5],[37.4702,-0.8746,1054.5],[37.4673,-0.8715,1054.5],[37.4622,-0.874,1054.5],[37.4591,-0.8693,1054.5]]]]}
,"properties": {"GID_3": "KEN.22.4.5_1","GID_0": "KEN","country": "Kenya","GID_1": "KEN.22_1","province": "Machakos","NL_NAME_1": "NA","GID_2": "KEN.22.4_1","county": "Masinga","NL_NAME_2": "NA","city": "Ndithini","VARNAME_3": "NA","NL_NAME_3": "NA","TYPE_3": "Ward","ENGTYPE_3": "Ward","CC_3": "375","HASC_3": "NA","name": "Ndithini.city","area_km2": 215.7073,"hist_schema_id": "Elevation0-9000","hist_area_km2": {"1050": 36.8453,"1075": 41.806,"1100": 33.7924,"1125": 24.7401,"1150": 20.9029,"1175": 13.4618,"1200": 9.5823,"1225": 6.9747,"1250": 4.8335,"1275": 4.4731,"1300": 3.5191,"1325": 2.4591,"1350": 2.1412,"1375": 1.166,"1400": 0.954,"1425": 0.8056,"1450": 0.8904,"1475": 1.0176,"1500": 0.8268,"1525": 0.954,"1550": 0.8692,"1575": 0.7844,"1600": 0.6572,"1625": 0.53,"1650": 0.4028,"1675": 0.2544,"1700": 0.0636}}}