{"type":"Feature","properties":{"GID_3":"KEN.6.1.4_1","GID_0":"KEN","country":"Kenya","GID_1":"KEN.6_1","province":"Embu","NL_NAME_1":"NA","GID_2":"KEN.6.1_1","county":"Manyatta","NL_NAME_2":"NA","city":"Kithimu","VARNAME_3":"NA","NL_NAME_3":"NA","TYPE_3":"Ward","ENGTYPE_3":"Ward","CC_3":"312","HASC_3":"NA","name":"Kithimu.city"},
"geometry":{"type": "MultiPolygon","coordinates": [[[[37.4895,-0.5043,1454.1453],[37.4899,-0.5078,1425.3347],[37.4881,-0.5108,1424.1743],[37.4907,-0.5162,1400.2667],[37.4951,-0.5219,1366.6149],[37.5015,-0.5241,1331.5342],[37.5076,-0.5357,1266.2034],[37.5131,-0.5393,1261.9659],[37.5139,-0.5284,1289.4426],[37.5126,-0.5213,1299.6697],[37.5169,-0.5171,1401.3833],[37.5202,-0.5202,1396.2485],[37.5213,-0.53,1322.9562],[37.5297,-0.5297,1321.4011],[37.5304,-0.5312,1297.6807],[37.538,-0.5292,1404.5475],[37.5505,-0.5223,1403.7518],[37.5552,-0.5239,1484.3752],[37.563,-0.5196,1294.2914],[37.5693,-0.5198,1265.7488],[37.5737,-0.5224,1258.2716],[37.5821,-0.5198,1241.4072],[37.5852,-0.521,1238.3755],[37.5872,-0.519,1236.364],[37.591,-0.5203,1223.5082],[37.5998,-0.5157,1152.7061],[37.5989,-0.5127,1184.067],[37.5819,-0.5077,1230.9266],[37.5771,-0.5078,1255.8345],[37.5708,-0.5049,1244.634],[37.569,-0.5014,1287.3525],[37.5578,-0.5005,1283.717],[37.5575,-0.4955,1348.4589],[37.5537,-0.4929,1325.7537],[37.5531,-0.4878,1369.5197],[37.5466,-0.4823,1383.6345],[37.551,-0.4783,1363.9515],[37.5493,-0.4751,1364.9395],[37.5503,-0.4742,1368.3157],[37.5478,-0.4729,1365.5146],[37.5334,-0.4784,1402.6335],[37.5082,-0.494,1467.7278],[37.4945,-0.4978,1496.8767],[37.4895,-0.5043,1454.1453]]]]}}