{"type":"Feature","properties":{"GID_3":"KEN.28.3.2_1","GID_0":"KEN","country":"Kenya","GID_1":"KEN.28_1","province":"Mombasa","NL_NAME_1":"NA","GID_2":"KEN.28.3_1","county":"Kisauni","NL_NAME_2":"NA","city":"Junda","VARNAME_3":"NA","NL_NAME_3":"NA","TYPE_3":"Ward","ENGTYPE_3":"Ward","CC_3":"10","HASC_3":"NA","name":"Junda.city"},
"geometry":{"type": "MultiPolygon","coordinates": [[[[39.6774,-4.0376,0.0],[39.6789,-4.0362,18.7238],[39.6766,-4.0233,26.0706],[39.6794,-4.0215,26.8903],[39.6833,-4.0149,22.8218],[39.6829,-4.01,24.3015],[39.6848,-4.0028,52.8602],[39.6848,-3.9995,47.8976],[39.6815,-3.9933,48.201],[39.6825,-3.9893,43.4958],[39.6815,-3.9836,53.8315],[39.6766,-3.9893,17.6202],[39.6675,-3.988,0.8434],[39.6691,-3.9901,1.8886],[39.6652,-3.9911,0.7113],[39.6643,-3.9938,2.4349],[39.6715,-4.0047,1.122],[39.6656,-4.0109,0.5046],[39.6604,-4.0113,0.5136],[39.6596,-4.0127,1.0361],[39.6616,-4.0206,0.6655],[39.6635,-4.0217,13.9095],[39.6731,-4.0206,9.9712],[39.6731,-4.0181,3.5931],[39.6746,-4.0178,15.7876],[39.6747,-4.0214,3.7717],[39.6702,-4.0227,14.3413],[39.6699,-4.0243,5.486],[39.6721,-4.0324,0.0],[39.6765,-4.0321,11.0839],[39.6774,-4.0376,0.0]]]]}}