{"type":"Feature","properties":{"GID_3":"KEN.34.1.1_1","GID_0":"KEN","country":"Kenya","GID_1":"KEN.34_1","province":"Nyamira","NL_NAME_1":"NA","GID_2":"KEN.34.1_1","county":"Borabu","NL_NAME_2":"NA","city":"Esise","VARNAME_3":"NA","NL_NAME_3":"NA","TYPE_3":"Ward","ENGTYPE_3":"Ward","CC_3":"1365","HASC_3":"NA","name":"Esise.city"},
"geometry":{"type": "MultiPolygon","coordinates": [[[[35.0913,-0.7969,1802.574],[35.061,-0.7308,1836.0264],[35.0295,-0.7507,1914.9182],[35.0307,-0.7531,1928.2955],[35.021,-0.7621,1869.26],[35.0252,-0.766,1875.1068],[35.027,-0.7658,1880.2834],[35.0326,-0.774,1885.8157],[35.0276,-0.7768,1859.7095],[35.0273,-0.7974,1826.9531],[35.0111,-0.7982,1892.8986],[35.012,-0.8011,1878.7174],[35.0053,-0.7999,1953.2976],[35.0049,-0.8042,1952.8505],[35.0013,-0.8,1994.057],[34.9987,-0.8032,1935.9264],[34.9996,-0.8095,1909.4122],[34.9922,-0.8074,1928.3384],[34.9892,-0.805,1915.2139],[34.9697,-0.8111,1962.2535],[35.0127,-0.8839,2062.1208],[35.0136,-0.881,2072.698],[35.012,-0.8755,2021.2385],[35.0179,-0.867,2071.4131],[35.0204,-0.8654,2023.417],[35.0239,-0.8702,2141.3154],[35.0254,-0.8688,2132.9934],[35.0255,-0.8567,2029.6892],[35.0215,-0.8458,1999.2607],[35.0219,-0.8425,1961.1755],[35.0319,-0.8406,1898.7599],[35.0444,-0.8485,1838.5991],[35.0913,-0.7969,1802.574]]]]}}