{"type": "Feature","bbox": [37.6445,0.1297,37.8435,0.2763],"geometry": {"type": "MultiPolygon","coordinates": [[[[37.825,0.1679,1536.3633],[37.8221,0.1735,1588.5934],[37.8131,0.1799,1670.4158],[37.8005,0.1923,1585.9119],[37.7841,0.2037,1463.1248],[37.7819,0.2047,1461.1625],[37.7685,0.1965,1413.7469],[37.7649,0.1973,1412.631],[37.7573,0.2029,1391.7609],[37.7479,0.2027,1370.7264],[37.7435,0.2093,1343.153],[37.7339,0.2147,1327.6953],[37.7223,0.2173,1340.2606],[37.7127,0.2215,1308.4467],[37.6943,0.2431,1280.1591],[37.6765,0.2693,1236.8778],[37.6699,0.2753,1235.194],[37.6662,0.2763,1229.9027],[37.6445,0.2645,1244.2155],[37.6467,0.2573,1261.7952],[37.6453,0.2523,1279.8405],[37.6513,0.2455,1301.8085],[37.6529,0.2359,1330.3],[37.6563,0.2313,1318.6981],[37.6565,0.2251,1328.8708],[37.6591,0.2211,1340.0852],[37.6665,0.2157,1363.8794],[37.6821,0.2059,1373.6537],[37.7055,0.1961,1352.6802],[37.7295,0.1913,1389.6337],[37.7435,0.1867,1390.5344],[37.7643,0.1851,1403.052],[37.7741,0.1781,1459.0546],[37.7967,0.1545,1460.7754],[37.794,0.1502,1415.2534],[37.7977,0.1443,1408.7528],[37.8037,0.1413,1374.0372],[37.8161,0.1385,1387.1086],[37.8237,0.1387,1340.7732],[37.8323,0.1367,1352.5164],[37.8343,0.1309,1349.7762],[37.8419,0.1297,1348.6145],[37.8435,0.1307,1376.3732],[37.8435,0.1467,1455.755],[37.8313,0.1483,1443.0389],[37.8265,0.1519,1434.3262],[37.8241,0.1581,1478.882],[37.825,0.1679,1536.3633]]]]}
,"properties": {"GID_3": "KEN.26.9.1_1","GID_0": "KEN","country": "Kenya","GID_1": "KEN.26_1","province": "Meru","NL_NAME_1": "NA","GID_2": "KEN.26.9_1","county": "TiganiaWest","NL_NAME_2": "NA","city": "Akithii","VARNAME_3": "NA","NL_NAME_3": "NA","TYPE_3": "Ward","ENGTYPE_3": "Ward","CC_3": "267","HASC_3": "NA","name": "Akithii.city","area_km2": 80.37704,"hist_schema_id": "Elevation0-9000","hist_area_km2": {"1225": 0.48765,"1250": 5.3429,"1275": 6.69983,"1300": 8.28999,"1325": 9.03207,"1350": 11.2795,"1375": 5.72456,"1400": 6.27582,"1425": 4.15561,"1450": 5.42774,"1475": 3.79518,"1500": 2.71387,"1525": 1.86579,"1550": 1.73857,"1575": 2.18382,"1600": 2.09901,"1625": 1.48415,"1650": 0.93289,"1675": 0.40284,"1700": 0.12721,"1725": 0.31803}}}