{"type": "Feature","bbox": [37.0627,-0.636,37.1657,-0.5418],"geometry": {"type": "MultiPolygon","coordinates": [[[[37.1657,-0.6304,1251.4268],[37.1608,-0.6156,1365.0599],[37.1504,-0.6032,1370.2852],[37.1478,-0.5969,1430.8635],[37.1445,-0.5953,1438.7737],[37.1406,-0.5906,1437.8982],[37.1307,-0.5887,1467.948],[37.1288,-0.5856,1526.9463],[37.1233,-0.5836,1470.2078],[37.1221,-0.5755,1475.7498],[37.1169,-0.5727,1481.9116],[37.1162,-0.5677,1549.0759],[37.1083,-0.5654,1561.4784],[37.1045,-0.5617,1591.2029],[37.1045,-0.5596,1570.4469],[37.0996,-0.556,1606.5651],[37.0918,-0.5544,1596.5073],[37.09,-0.5484,1678.4668],[37.084,-0.5439,1669.7448],[37.0786,-0.5418,1633.444],[37.0692,-0.5458,1670.0443],[37.068,-0.548,1705.0935],[37.0694,-0.5515,1651.2426],[37.0683,-0.5554,1662.2593],[37.0654,-0.5577,1678.1115],[37.0666,-0.561,1725.1375],[37.0627,-0.5668,1682.705],[37.0633,-0.5702,1645.6912],[37.0666,-0.57,1673.558],[37.0691,-0.572,1638.2031],[37.0713,-0.5701,1660.9746],[37.0733,-0.5758,1580.8517],[37.0757,-0.5776,1644.6272],[37.0756,-0.5818,1584.0876],[37.0852,-0.5887,1535.8647],[37.088,-0.5991,1501.6874],[37.0932,-0.6028,1555.6614],[37.0895,-0.6084,1508.0863],[37.0901,-0.6099,1505.7703],[37.0943,-0.6109,1489.0964],[37.0964,-0.6145,1484.9473],[37.1003,-0.6156,1506.2156],[37.1036,-0.6134,1530.6433],[37.1067,-0.6143,1488.3865],[37.1072,-0.6162,1489.8494],[37.1183,-0.6186,1472.8344],[37.1206,-0.6204,1443.1338],[37.1207,-0.6247,1422.0447],[37.1262,-0.6258,1425.9467],[37.1333,-0.6314,1413.9202],[37.1436,-0.6334,1405.1313],[37.1449,-0.6325,1425.6788],[37.1529,-0.636,1352.7858],[37.1547,-0.6312,1291.301],[37.1595,-0.6322,1326.1532],[37.1657,-0.6304,1251.4268]]]]}
,"properties": {"GID_3": "KEN.36.3.4_1","GID_0": "KEN","country": "Kenya","GID_1": "KEN.36_1","province": "Nyeri","NL_NAME_1": "NA","GID_2": "KEN.36.3_1","county": "Mukurweini","NL_NAME_2": "NA","city": "Rugi","VARNAME_3": "NA","NL_NAME_3": "NA","TYPE_3": "Ward","ENGTYPE_3": "Ward","CC_3": "488","HASC_3": "NA","name": "Rugi.city","area_km2": 49.71652,"hist_schema_id": "Elevation0-9000","hist_area_km2": {"1225": 0.0212,"1250": 0.106,"1275": 0.16961,"1300": 0.76323,"1325": 1.35686,"1350": 1.95049,"1375": 1.88689,"1400": 1.95049,"1425": 2.73493,"1450": 5.51227,"1475": 6.1059,"1500": 4.19781,"1525": 3.43458,"1550": 3.32858,"1575": 2.52294,"1600": 2.54414,"1625": 3.6678,"1650": 3.6042,"1675": 2.33213,"1700": 1.18727,"1725": 0.31802,"1750": 0.0212}}}