{"type":"Feature","properties":{"GID_3":"KEN.41.1.4_1","GID_0":"KEN","country":"Kenya","GID_1":"KEN.41_1","province":"Tharaka-Nithi","NL_NAME_1":"NA","GID_2":"KEN.41.1_1","county":"Chuka/Igambang'Ombe","NL_NAME_2":"NA","city":"Mariani","VARNAME_3":"NA","NL_NAME_3":"NA","TYPE_3":"Ward","ENGTYPE_3":"Ward","CC_3":"301","HASC_3":"NA","name":"Mariani.city"},
"geometry":{"type": "MultiPolygon","coordinates": [[[[37.7827,-0.2948,915.8903],[37.7681,-0.2934,1000.5361],[37.7555,-0.2941,1065.6565],[37.7482,-0.2974,1081.9529],[37.7349,-0.2962,1099.8521],[37.7303,-0.3009,1084.7347],[37.7299,-0.3052,1084.3743],[37.7277,-0.3079,1134.2021],[37.7229,-0.3079,1154.3081],[37.7239,-0.3133,1131.3593],[37.7215,-0.3178,1131.9189],[37.7185,-0.3182,1122.215],[37.7143,-0.3114,1130.3293],[37.7079,-0.312,1160.083],[37.7003,-0.3168,1173.0759],[37.6979,-0.322,1174.3132],[37.6841,-0.3286,1295.2629],[37.6783,-0.3355,1309.8765],[37.6691,-0.3397,1338.6547],[37.6745,-0.3425,1355.9194],[37.6919,-0.3416,1267.4261],[37.7053,-0.3479,1225.5415],[37.7033,-0.3551,1215.7844],[37.7038,-0.3592,1197.0251],[37.7107,-0.3628,1206.6136],[37.7201,-0.3768,1136.231],[37.7267,-0.3832,1071.6429],[37.7303,-0.395,1008.411],[37.7356,-0.3971,1060.5835],[37.7465,-0.3969,993.3408],[37.7549,-0.4045,917.4675],[37.7571,-0.4049,895.1768],[37.7609,-0.4022,884.1093],[37.7663,-0.4026,872.899],[37.7749,-0.3954,837.0612],[37.7729,-0.3891,837.5371],[37.7746,-0.3878,867.8147],[37.7825,-0.386,826.4597],[37.7857,-0.3884,812.9001],[37.7983,-0.3839,796.0606],[37.7943,-0.3788,804.4892],[37.7869,-0.376,832.9512],[37.7807,-0.3702,851.7483],[37.7787,-0.3615,1007.5969],[37.7805,-0.3549,923.9179],[37.7851,-0.3483,936.0471],[37.7905,-0.3455,855.6387],[37.7915,-0.3428,898.9793],[37.7989,-0.3417,841.6638],[37.7953,-0.3329,832.6998],[37.7885,-0.3256,861.8322],[37.7869,-0.3179,870.3613],[37.7907,-0.313,911.3629],[37.8029,-0.3072,846.7051],[37.7931,-0.3035,860.1897],[37.7827,-0.2948,915.8903]]]]}}