{"type":"Feature","properties":{"GID_3":"KEN.28.5.5_1","GID_0":"KEN","country":"Kenya","GID_1":"KEN.28_1","province":"Mombasa","NL_NAME_1":"NA","GID_2":"KEN.28.5_1","county":"Mvita","NL_NAME_2":"NA","city":"Tudor","VARNAME_3":"NA","NL_NAME_3":"NA","TYPE_3":"Ward","ENGTYPE_3":"Ward","CC_3":"27","HASC_3":"NA","name":"Tudor.city"},
"geometry":{"type": "MultiPolygon","coordinates": [[[[39.6603,-4.0433,24.9897],[39.6661,-4.039,24.4068],[39.6664,-4.0359,26.0215],[39.6709,-4.0381,8.3519],[39.6735,-4.0357,3.3063],[39.6699,-4.0346,23.0556],[39.6668,-4.0299,2.0418],[39.6579,-4.0299,0.7618],[39.6529,-4.0339,0.0],[39.6603,-4.0433,24.9897]]]]}}