{"type": "Feature","bbox": [34.8803,-0.4572,35.0216,-0.3797],"geometry": {"type": "MultiPolygon","coordinates": [[[[34.9426,-0.4572,1540.4849],[34.9667,-0.4366,1580.781],[34.9996,-0.4232,1589.9897],[35.0197,-0.4065,1510.488],[35.0216,-0.3999,1512.7218],[35.0176,-0.3964,1500.0621],[35.0178,-0.3913,1529.3865],[35.0103,-0.3855,1521.734],[35.007,-0.3894,1558.8523],[35.0072,-0.3932,1514.7974],[35.0046,-0.3945,1540.8073],[35.003,-0.3993,1505.7142],[34.9979,-0.3993,1532.4521],[34.9881,-0.4034,1530.5],[34.9867,-0.4083,1502.2928],[34.9837,-0.4071,1520.7988],[34.9813,-0.4085,1501.4194],[34.9752,-0.4039,1522.3809],[34.9682,-0.4077,1471.6949],[34.9668,-0.406,1481.0715],[34.9638,-0.406,1496.7494],[34.9646,-0.4083,1466.6718],[34.9595,-0.4102,1495.726],[34.9574,-0.4088,1501.3044],[34.9507,-0.4103,1461.8848],[34.9453,-0.4076,1495.6222],[34.9386,-0.4073,1478.0548],[34.9359,-0.405,1482.0859],[34.9296,-0.4059,1421.7067],[34.9299,-0.3968,1447.6034],[34.9141,-0.3974,1414.0504],[34.9132,-0.3905,1425.1896],[34.9154,-0.3892,1410.4128],[34.9145,-0.3861,1416.0111],[34.9162,-0.3843,1422.6384],[34.9151,-0.3797,1448.645],[34.9007,-0.3855,1427.228],[34.8975,-0.3886,1451.2247],[34.8942,-0.3879,1458.6814],[34.89,-0.3933,1447.7054],[34.8921,-0.3984,1405.7043],[34.8916,-0.4018,1402.0],[34.8963,-0.4091,1444.3029],[34.9016,-0.4124,1513.9456],[34.8929,-0.4161,1460.9729],[34.8878,-0.4133,1460.0892],[34.8805,-0.4241,1476.3076],[34.8803,-0.4295,1509.2026],[34.8838,-0.4316,1531.9978],[34.8892,-0.4404,1526.9766],[34.9032,-0.437,1521.0353],[34.9129,-0.4367,1538.7079],[34.9136,-0.439,1535.7322],[34.9086,-0.4461,1512.5751],[34.909,-0.4481,1503.1719],[34.9141,-0.4507,1511.8638],[34.9242,-0.4523,1548.1538],[34.9296,-0.4513,1550.3859],[34.9361,-0.4536,1575.6764],[34.9391,-0.4526,1586.829],[34.9426,-0.4572,1540.4849]]]]}
,"properties": {"GID_3": "KEN.8.2.1_1","GID_0": "KEN","country": "Kenya","GID_1": "KEN.8_1","province": "HomaBay","NL_NAME_1": "NA","GID_2": "KEN.8.2_1","county": "KabondoKasipul","NL_NAME_2": "NA","city": "KabondoEast","VARNAME_3": "NA","NL_NAME_3": "NA","TYPE_3": "Ward","ENGTYPE_3": "Ward","CC_3": "1226","HASC_3": "NA","name": "Kabondo_East.city","area_km2": 62.35401,"hist_schema_id": "Elevation0-9000","hist_area_km2": {"1400": 0.97528,"1425": 4.77038,"1450": 7.5902,"1475": 8.67148,"1500": 11.38528,"1525": 11.8093,"1550": 8.94708,"1575": 5.3004,"1600": 2.54419,"1625": 0.36043}}}