{"type":"Feature","properties":{"GID_3":"KEN.11.7.3_1","GID_0":"KEN","country":"Kenya","GID_1":"KEN.11_1","province":"Kakamega","NL_NAME_1":"NA","GID_2":"KEN.11.7_1","county":"Matungu","NL_NAME_2":"NA","city":"Koyonzo","VARNAME_3":"NA","NL_NAME_3":"NA","TYPE_3":"Ward","ENGTYPE_3":"Ward","CC_3":"1027","HASC_3":"NA","name":"Koyonzo.city"},
"geometry":{"type": "MultiPolygon","coordinates": [[[[34.3731,0.3122,1264.882],[34.3796,0.3097,1250.6412],[34.3822,0.304,1276.9579],[34.3944,0.293,1269.1154],[34.3957,0.2862,1244.8118],[34.4019,0.2891,1253.3335],[34.4057,0.2882,1248.2876],[34.4141,0.2922,1237.3762],[34.414,0.2971,1245.3386],[34.419,0.308,1250.5244],[34.4153,0.3146,1257.0265],[34.4077,0.3205,1258.197],[34.4191,0.3365,1261.3463],[34.4163,0.3614,1286.494],[34.429,0.378,1303.1017],[34.4317,0.3785,1296.0236],[34.4402,0.3875,1290.5845],[34.4495,0.3914,1313.7642],[34.455,0.3967,1305.3998],[34.4569,0.4063,1314.7177],[34.4612,0.4121,1323.1201],[34.4633,0.4254,1329.5942],[34.4633,0.4292,1337.4574],[34.4602,0.4343,1320.6893],[34.4544,0.4247,1340.6472],[34.451,0.4276,1314.729],[34.4442,0.4271,1313.3147],[34.4363,0.4293,1302.114],[34.4291,0.4368,1282.9236],[34.4096,0.4435,1248.2471],[34.4105,0.4366,1250.1877],[34.4084,0.4321,1261.1918],[34.4099,0.4277,1272.3008],[34.409,0.4262,1277.6736],[34.3965,0.4238,1279.0602],[34.3921,0.4182,1263.8832],[34.3781,0.4096,1257.922],[34.3847,0.4013,1247.6248],[34.3922,0.3996,1264.145],[34.4078,0.3895,1267.2798],[34.4129,0.3833,1276.4164],[34.4225,0.3756,1285.9565],[34.4153,0.3703,1291.1162],[34.4,0.3659,1281.9211],[34.3858,0.3565,1298.0581],[34.3856,0.3391,1269.9937],[34.3832,0.3227,1267.9523],[34.3794,0.3164,1270.6769],[34.3731,0.3122,1264.882]]]]}}