{"type": "Feature","bbox": [34.7644,0.7536,34.8191,0.8617],"geometry": {"type": "MultiPolygon","coordinates": [[[[34.7721,0.7536,1612.7131],[34.7844,0.7621,1687.762],[34.7877,0.7616,1700.9996],[34.7895,0.7643,1715.4225],[34.7952,0.7648,1705.7288],[34.7971,0.7701,1673.884],[34.804,0.7679,1633.4802],[34.8052,0.7628,1661.4238],[34.8191,0.7654,1615.3396],[34.818,0.7688,1626.354],[34.8041,0.7815,1647.4104],[34.8011,0.8009,1672.239],[34.8075,0.8065,1664.9287],[34.811,0.8172,1660.4192],[34.8116,0.8262,1664.3689],[34.8051,0.8441,1682.9038],[34.805,0.8494,1710.8164],[34.7993,0.8534,1705.3568],[34.7964,0.8617,1810.8284],[34.7929,0.8536,1815.459],[34.7888,0.8506,1856.4043],[34.7874,0.8541,1859.2985],[34.7795,0.8606,1897.4305],[34.7763,0.8593,1884.0228],[34.7734,0.8549,1768.1366],[34.7689,0.8519,1703.208],[34.7678,0.8493,1744.5867],[34.7696,0.8469,1691.3258],[34.7672,0.8436,1706.5612],[34.7684,0.8424,1706.5612],[34.7673,0.8387,1696.0757],[34.7644,0.8361,1696.4535],[34.7666,0.833,1688.2556],[34.7654,0.8287,1679.6034],[34.7672,0.828,1677.5732],[34.766,0.8261,1681.7993],[34.7682,0.8229,1675.1709],[34.7679,0.819,1670.1812],[34.7709,0.8168,1678.8102],[34.7686,0.8107,1681.688],[34.7699,0.8096,1666.6346],[34.7679,0.8098,1682.6379],[34.7681,0.8074,1683.0645],[34.7673,0.8081,1683.0645],[34.7675,0.8071,1683.0645],[34.769,0.8063,1666.526],[34.7681,0.8035,1672.0211],[34.7691,0.8009,1666.0547],[34.7682,0.8005,1667.7955],[34.768,0.8019,1667.7955],[34.7668,0.8004,1664.3666],[34.7693,0.7983,1662.3069],[34.7686,0.7964,1662.312],[34.7701,0.7946,1658.7843],[34.769,0.7922,1657.8506],[34.7678,0.7939,1659.1113],[34.7659,0.7916,1661.0906],[34.7681,0.7884,1652.5851],[34.7679,0.7861,1651.516],[34.7653,0.7845,1659.2139],[34.7666,0.7844,1659.2139],[34.7651,0.7788,1653.7451],[34.7703,0.7704,1650.1818],[34.7721,0.7536,1612.7131]]]]}
,"properties": {"GID_3": "KEN.3.4.1_1","GID_0": "KEN","country": "Kenya","GID_1": "KEN.3_1","province": "Bungoma","NL_NAME_1": "NA","GID_2": "KEN.3.4_1","county": "Kimilili","NL_NAME_2": "NA","city": "Kamukuywa","VARNAME_3": "NA","NL_NAME_3": "NA","TYPE_3": "Ward","ENGTYPE_3": "Ward","CC_3": "1114","HASC_3": "NA","name": "Kamukuywa.city","area_km2": 45.5802,"hist_schema_id": "Elevation0-9000","hist_area_km2": {"1600": 0.0848,"1625": 1.88683,"1650": 5.61806,"1675": 12.93207,"1700": 15.70926,"1725": 6.12679,"1750": 1.95039,"1775": 0.3816,"1800": 0.318,"1825": 0.1484,"1850": 0.2332,"1875": 0.1908}}}