{"type": "Feature","bbox": [34.6727,0.1016,34.7651,0.1319],"geometry": {"type": "MultiPolygon","coordinates": [[[[34.6804,0.13,1532.8851],[34.6778,0.1263,1543.4619],[34.6807,0.1235,1563.967],[34.6781,0.1129,1530.152],[34.6727,0.1077,1518.347],[34.6826,0.1016,1514.5314],[34.6902,0.1017,1529.2039],[34.6968,0.1053,1544.4019],[34.6998,0.1091,1548.6505],[34.7074,0.1095,1543.2991],[34.711,0.1119,1548.0793],[34.7181,0.1089,1565.5693],[34.7217,0.1096,1562.0918],[34.7261,0.1123,1582.2257],[34.7318,0.1132,1585.9563],[34.7375,0.1176,1602.9078],[34.75,0.121,1592.4564],[34.7552,0.1152,1577.2533],[34.7593,0.1147,1594.1832],[34.7599,0.1187,1591.9569],[34.7645,0.1225,1601.2175],[34.7651,0.1255,1611.5959],[34.7651,0.1272,1605.3413],[34.7611,0.1277,1602.4147],[34.7536,0.1319,1568.4067],[34.751,0.1293,1554.7178],[34.731,0.1232,1570.6078],[34.7269,0.1244,1555.5032],[34.7221,0.123,1528.2646],[34.7191,0.1262,1556.54],[34.7085,0.1277,1523.5664],[34.7068,0.1246,1492.1438],[34.7033,0.1242,1500.149],[34.6996,0.1199,1524.3669],[34.696,0.1186,1545.1389],[34.6804,0.13,1532.8851]]]]}
,"properties": {"GID_3": "KEN.45.4.2_1","GID_0": "KEN","country": "Kenya","GID_1": "KEN.45_1","province": "Vihiga","NL_NAME_1": "NA","GID_2": "KEN.45.4_1","county": "Sabatia","NL_NAME_2": "NA","city": "Chavakali","VARNAME_3": "NA","NL_NAME_3": "NA","TYPE_3": "Ward","ENGTYPE_3": "Ward","CC_3": "1057","HASC_3": "NA","name": "Chavakali.city","area_km2": 15.22315,"hist_schema_id": "Elevation0-9000","hist_area_km2": {"1475": 0.19082,"1500": 1.46295,"1525": 2.75628,"1550": 4.49486,"1575": 4.21923,"1600": 2.05661,"1625": 0.0424}}}