{"type": "Feature","id": "1195","bbox": [36.20004,-1.29822,37.49247,0.11849],"geometry": {"type": "Polygon","coordinates": [[[36.59992,0.00832,2101.0889],[36.59356,0.00904,2081.8416],[36.58875,0.01132,2086.356],[36.56576,0.03659,2051.04],[36.55925,0.04041,2040.8164],[36.54995,0.04449,2076.0583],[36.53041,0.05018,2123.3901],[36.52168,0.05514,2131.7153],[36.51687,0.06113,2129.0571],[36.51284,0.07741,2113.4287],[36.51067,0.08242,2124.2134],[36.50757,0.08645,2118.2605],[36.48323,0.111,2106.2864],[36.47842,0.11467,2094.5537],[36.47129,0.11849,2067.2461],[36.46659,0.11746,2061.8813],[36.46334,0.11436,2077.6064],[36.46008,0.10413,2112.2004],[36.45791,0.09943,2162.3818],[36.45419,0.09633,2174.6089],[36.40174,0.06423,2354.9775],[36.39259,0.06134,2256.3882],[36.37616,0.05855,2360.0999],[36.35378,0.06,2358.574],[36.34231,0.05907,2392.6819],[36.33626,0.05638,2401.6746],[36.33394,0.05194,2417.8823],[36.33115,0.04201,2407.4675],[36.32851,0.03767,2389.644],[36.3251,0.03504,2388.8059],[36.28428,0.01866,2507.9343],[36.27482,0.01287,2413.3254],[36.26149,0.00052,2325.936],[36.25653,-0.00904,2217.1743],[36.2433,-0.04961,2397.8486],[36.24097,-0.05431,2368.9778],[36.2264,-0.07829,2363.1477],[36.2219,-0.09762,2435.929],[36.21896,-0.10459,2502.8347],[36.21555,-0.11694,2473.5352],[36.2126,-0.14108,2500.9756],[36.21462,-0.19182,2571.8384],[36.21276,-0.20314,2596.1406],[36.20221,-0.23187,2271.2166],[36.20066,-0.23812,2153.6147],[36.20004,-0.24464,2138.9409],[36.20097,-0.2573,2107.855],[36.20299,-0.26903,2072.3108],[36.2064,-0.27957,2064.7515],[36.25591,-0.38819,1987.6138],[36.2587,-0.39042,2007.9368],[36.26133,-0.39207,2060.928],[36.26552,-0.39377,2109.0098],[36.27048,-0.39517,2179.5413],[36.27637,-0.39579,2194.1235],[36.28815,-0.39429,2345.5828],[36.31022,-0.38871,2315.238],[36.3158,-0.38809,2369.0813],[36.32107,-0.38819,2342.0637],[36.32495,-0.39036,2452.668],[36.32774,-0.39424,2451.4524],[36.32975,-0.39899,2399.3882],[36.33223,-0.40277,2353.6191],[36.33549,-0.4055,2321.7974],[36.34014,-0.40556,2380.1812],[36.37011,-0.39977,2211.1792],[36.37399,-0.39977,2208.6248],[36.3774,-0.40147,2188.5],[36.38003,-0.40504,2183.6243],[36.38205,-0.40969,2215.5474],[36.38654,-0.4255,2121.5442],[36.38701,-0.43139,2041.1912],[36.38499,-0.44504,2078.7705],[36.38267,-0.45439,2093.4131],[36.38127,-0.46912,2061.6643],[36.38902,-0.51738,2037.0768],[36.3898,-0.54343,2060.6362],[36.39244,-0.55459,2045.6765],[36.39647,-0.56462,2042.0518],[36.40003,-0.58089,1987.9788],[36.40158,-0.58503,2003.9341],[36.40375,-0.58632,1999.541],[36.40639,-0.58642,2003.0419],[36.42706,-0.58244,2004.1167],[36.43962,-0.58115,2310.5442],[36.45186,-0.58105,2362.4958],[36.45667,-0.58244,2420.688],[36.46054,-0.58524,2428.9414],[36.46334,-0.58963,2438.1631],[36.46783,-0.59908,2430.8347],[36.4714,-0.60234,2441.8823],[36.47563,-0.60482,2450.4951],[36.4854,-0.6089,2435.8538],[36.49501,-0.61185,2434.7068],[36.49935,-0.61257,2439.4524],[36.50261,-0.61355,2429.9133],[36.50649,-0.61526,2440.2363],[36.5085,-0.61981,2443.6172],[36.51501,-0.64983,2463.9109],[36.51656,-0.66895,2471.4573],[36.52948,-0.72523,2464.1711],[36.52958,-0.73308,2333.7771],[36.52834,-0.74269,2320.4509],[36.51982,-0.76889,2343.9299],[36.51873,-0.77742,2331.3704],[36.52617,-0.81855,2427.4258],[36.56095,-0.91374,2356.0103],[36.56204,-0.91839,2233.2095],[36.56219,-0.92361,2139.02],[36.56018,-0.94113,1929.6748],[36.56033,-0.94837,1896.5979],[36.56142,-0.95348,1881.2017],[36.56855,-0.97457,1822.1173],[36.57103,-0.97916,1816.489],[36.58488,-0.99741,1810.3229],[36.5856,-0.99947,1805.9857],[36.58581,-1.00118,1805.4445],[36.5855,-1.00438,1792.0925],[36.57832,-1.0295,1738.7979],[36.57677,-1.04743,1712.986],[36.57739,-1.05358,1708.793],[36.58374,-1.08319,2260.6157],[36.58426,-1.09094,2303.3772],[36.58302,-1.10174,2247.7598],[36.58033,-1.10779,2178.6177],[36.57599,-1.11146,2020.256],[36.57118,-1.11306,1903.8229],[36.56545,-1.11414,1877.6085],[36.54731,-1.11399,1739.7834],[36.54219,-1.11507,1738.3885],[36.53909,-1.11926,1692.5936],[36.50106,-1.23129,1420.611],[36.50276,-1.24468,1424.4664],[36.50788,-1.25186,1486.9395],[36.62488,-1.26943,2023.7072],[36.63154,-1.27129,2031.5737],[36.63573,-1.27351,2067.2566],[36.65097,-1.28468,1990.0009],[36.66787,-1.29449,1979.8071],[36.67624,-1.29822,1930.7959],[36.70296,-1.26928,1873.162],[36.71986,-1.24468,1852.4863],[36.72559,-1.23899,1832.5483],[36.73241,-1.23512,1807.2058],[36.74001,-1.23321,1810.3804],[36.75241,-1.22726,1789.9154],[36.75851,-1.2223,1763.2086],[36.79045,-1.1822,1758.3337],[36.80052,-1.17435,1745.6257],[36.80864,-1.17026,1717.3087],[36.81406,-1.17109,1739.4196],[36.85453,-1.18422,1654.9253],[36.85995,-1.18479,1637.939],[36.866,-1.18344,1637.5673],[36.8752,-1.17988,1590.0225],[36.88295,-1.17786,1561.8483],[36.90016,-1.17543,1565.6705],[36.90558,-1.17274,1562.7648],[36.91008,-1.16949,1559.7467],[36.93726,-1.14014,1536.8424],[36.94253,-1.13936,1542.748],[36.94749,-1.14014,1544.3618],[36.95478,-1.14448,1526.7917],[36.9571,-1.14556,1530.973],[36.96687,-1.14861,1507.1267],[36.97028,-1.15063,1508.947],[36.97199,-1.15383,1520.8466],[36.97152,-1.15817,1517.6068],[36.96191,-1.17466,1524.5511],[36.96067,-1.17998,1522.8112],[36.96036,-1.18541,1513.615],[36.96206,-1.19021,1508.3711],[36.96579,-1.19362,1505.6383],[36.98274,-1.20406,1498.7147],[36.99948,-1.21176,1491.0703],[37.00707,-1.21403,1489.4668],[37.02227,-1.2161,1485.4761],[37.03653,-1.21641,1480.4169],[37.04495,-1.21558,1480.6267],[37.05177,-1.21403,1478.6743],[37.06464,-1.20928,1476.1964],[37.09368,-1.2036,1461.9036],[37.10671,-1.21124,1476.552],[37.11678,-1.21936,1476.5424],[37.13151,-1.23713,1462.043],[37.14505,-1.22303,1470.6427],[37.16567,-1.1806,1469.6025],[37.17745,-1.14753,1469.7327],[37.17745,-1.1404,1470.0951],[37.17404,-1.12567,1468.1073],[37.17342,-1.11275,1461.9098],[37.17575,-1.10495,1474.5457],[37.17993,-1.09859,1482.8517],[37.18675,-1.09213,1474.9919],[37.20556,-1.07988,1457.2817],[37.21021,-1.07776,1454.2678],[37.2158,-1.07709,1418.8002],[37.22153,-1.0774,1407.332],[37.22696,-1.07849,1406.9055],[37.23874,-1.079,1405.7327],[37.24851,-1.07714,1409.395],[37.25523,-1.07446,1388.0757],[37.26406,-1.06981,1362.4424],[37.26887,-1.06794,1357.2607],[37.27956,-1.06583,1363.2732],[37.28468,-1.06608,1383.8251],[37.28964,-1.06738,1377.9579],[37.32116,-1.08949,1383.6766],[37.32333,-1.08965,1383.7363],[37.32566,-1.0881,1379.2231],[37.33682,-1.07725,1314.8168],[37.36426,-1.0388,1292.0942],[37.36364,-1.01906,1307.7922],[37.36819,-0.99725,1360.0172],[37.37201,-0.98738,1300.1625],[37.37356,-0.97978,1311.5016],[37.37356,-0.97296,1326.2107],[37.37191,-0.968,1345.3026],[37.36891,-0.96418,1398.0065],[37.36535,-0.96154,1495.7263],[37.36132,-0.9617,1466.6121],[37.35698,-0.96351,1329.9205],[37.34023,-0.97389,1265.9886],[37.33543,-0.97606,1270.8726],[37.33031,-0.97782,1314.0081],[37.32457,-0.97875,1305.2953],[37.31915,-0.97808,1263.2156],[37.31445,-0.97606,1277.9592],[37.31104,-0.97265,1299.895],[37.30809,-0.96862,1315.0671],[37.29894,-0.95054,1267.6938],[37.28825,-0.91261,1272.1252],[37.28592,-0.90801,1310.5991],[37.28313,-0.90392,1333.0737],[37.28003,-0.90041,1349.4839],[37.24277,-0.86961,1324.8292],[37.2406,-0.86248,1330.6448],[37.2406,-0.85178,1276.8541],[37.25037,-0.77975,1127.2097],[37.253,-0.77086,1131.6195],[37.25554,-0.76533,1147.0648],[37.25802,-0.76347,1130.4604],[37.26654,-0.75959,1128.7266],[37.27135,-0.75809,1141.6152],[37.27584,-0.75742,1144.1555],[37.27941,-0.75742,1146.3932],[37.28406,-0.75835,1147.9852],[37.2884,-0.76021,1153.696],[37.29615,-0.76579,1128.7887],[37.3098,-0.77954,1095.4431],[37.32954,-0.79396,1113.5422],[37.33403,-0.79613,1107.3755],[37.34008,-0.79701,1095.6501],[37.34783,-0.79613,1138.3856],[37.48022,-0.74662,1088.5333],[37.49077,-0.74026,1067.9353],[37.49247,-0.73572,1070.5406],[37.49077,-0.732,1067.6147],[37.48767,-0.72822,1075.0613],[37.4855,-0.72373,1075.8914],[37.48053,-0.70755,1080.9648],[37.47831,-0.69582,1091.6724],[37.47645,-0.62415,1202.8915],[37.47723,-0.61614,1205.1931],[37.47692,-0.59014,1225.2839],[37.4687,-0.57573,1266.7559],[37.43676,-0.53769,1374.2568],[37.43351,-0.5287,1427.2445],[37.43242,-0.52002,1420.5476],[37.43273,-0.44333,1633.1488],[37.42917,-0.42731,1708.0881],[37.32364,-0.16986,4267.728],[37.31651,-0.15937,4744.0977],[37.10965,-0.00408,1988.5664],[37.08619,0.01922,1935.0562],[37.05131,-0.04113,1925.9711],[37.03875,-0.0586,1900.4103],[37.01235,-0.0833,1863.6011],[37.00692,-0.09188,1866.069],[37.00382,-0.09948,1866.6101],[37.00444,-0.11203,1904.1511],[37.00568,-0.11741,1917.6643],[37.00754,-0.12232,1925.7274],[37.03126,-0.15999,1989.903],[37.0325,-0.16888,2000.3972],[37.02878,-0.20872,1991.9799],[37.02614,-0.22185,1983.2471],[37.02335,-0.23156,1961.5533],[37.02056,-0.23575,1946.558],[37.01746,-0.23921,1937.2026],[37.00087,-0.25445,1911.6042],[36.99281,-0.26438,1914.7128],[36.98909,-0.27047,1923.2729],[36.9771,-0.28587,2002.2765],[36.9692,-0.29363,1868.957],[36.96315,-0.296,1878.3608],[36.9571,-0.29611,1870.0033],[36.95214,-0.29425,1849.041],[36.93897,-0.28763,1904.7727],[36.93478,-0.28732,1920.4165],[36.93075,-0.2899,1928.4045],[36.92579,-0.29487,1908.4932],[36.92098,-0.29859,1925.9237],[36.91473,-0.30138,1944.709],[36.91054,-0.30127,1972.8578],[36.9076,-0.30076,1989.4944],[36.90419,-0.29926,1962.3751],[36.89194,-0.29135,1970.2012],[36.8814,-0.28174,2035.9563],[36.84135,-0.23239,2057.7427],[36.83902,-0.22774,2054.0557],[36.83375,-0.21244,2051.3442],[36.83344,-0.20841,2043.9102],[36.83561,-0.20603,2033.1368],[36.84367,-0.202,1984.9419],[36.84724,-0.19875,1944.8569],[36.85003,-0.19492,1963.8295],[36.85205,-0.19074,1936.0273],[36.85422,-0.18376,1927.5566],[36.85763,-0.16356,1908.493],[36.85763,-0.15126,1867.3553],[36.85964,-0.14542,1864.0586],[36.85902,-0.14366,1865.869],[36.85515,-0.14159,1874.366],[36.80781,-0.12485,1979.188],[36.79897,-0.12371,2012.4989],[36.78704,-0.12511,2024.3634],[36.71521,-0.14289,2194.2583],[36.66834,-0.14955,2307.1323],[36.65051,-0.14433,2345.9595],[36.60519,-0.14123,2326.5039],[36.58839,-0.13844,2324.2964],[36.5749,-0.12914,2457.1812],[36.54436,-0.10175,2496.4409],[36.54188,-0.09731,2429.6814],[36.54018,-0.09229,2477.7131],[36.5377,-0.08108,2330.6489],[36.53739,-0.07529,2290.2224],[36.53847,-0.06961,2297.8845],[36.54049,-0.0646,2275.8044],[36.54312,-0.06031,2258.3787],[36.54824,-0.0541,2216.1641],[36.55599,-0.04821,2213.0481],[36.644,0.00543,2058.394],[36.64725,0.00796,2045.7693],[36.64849,0.01059,2043.8263],[36.6488,0.01473,2026.6572],[36.64663,0.01928,1993.126],[36.64152,0.02356,1992.8927],[36.63619,0.02434,2009.6392],[36.63123,0.02325,1999.187],[36.61697,0.01488,2029.7109],[36.6103,0.01183,2087.8691],[36.59992,0.00832,2101.0889]]]}
,"properties": {"ISO3166-1-Alpha-3": "KEN","country": "Kenya","fill": "#F0F","name": "Central","area_km2": 13047.95,"hist_schema_id": "Elevation0-9000","hist_area_km2": {"1075": 11.17,"1100": 44.39,"1125": 141.22,"1150": 188.62,"1175": 105.79,"1200": 94.68,"1225": 83.17,"1250": 70.26,"1275": 71.85,"1300": 79.93,"1325": 94.15,"1350": 114.48,"1375": 138.63,"1400": 136.34,"1425": 205.55,"1450": 211.68,"1475": 362.58,"1500": 261.53,"1525": 212.48,"1550": 181.81,"1575": 162.94,"1600": 152.79,"1625": 157.43,"1650": 153.83,"1675": 157.05,"1700": 159.89,"1725": 184.13,"1750": 194.43,"1775": 187.65,"1800": 174.82,"1825": 173.63,"1850": 169.77,"1875": 172.78,"1900": 177.41,"1925": 179.34,"1950": 181.56,"1975": 197.52,"2000": 199.43,"2025": 203.38,"2050": 200.01,"2075": 195.02,"2100": 186.86,"2125": 180.97,"2150": 178.45,"2175": 169.12,"2200": 170.31,"2225": 179.42,"2250": 183.39,"2275": 194.58,"2300": 194.52,"2325": 311.62,"2350": 376.71,"2375": 258.74,"2400": 244.11,"2425": 252.85,"2450": 216.53,"2475": 203.13,"2500": 208.94,"2525": 218.12,"2550": 212.94,"2575": 180.42,"2600": 167.66,"2625": 163.46,"2650": 130.98,"2675": 130.94,"2700": 99.35,"2725": 86.12,"2750": 75.18,"2775": 68.44,"2800": 58.24,"2825": 53.81,"2850": 50.59,"2875": 46.09,"2900": 46.05,"2925": 45.37,"2950": 45.75,"2975": 47.09,"3000": 49.4,"3025": 49.44,"3050": 59.58,"3075": 51.35,"3100": 48.7,"3125": 43.15,"3150": 35.07,"3175": 35.34,"3200": 32.65,"3225": 28.73,"3250": 24.38,"3275": 20.8,"3300": 20.88,"3325": 19.74,"3350": 17.24,"3375": 18.53,"3400": 16.79,"3425": 17.62,"3450": 15.01,"3475": 14.74,"3500": 13.48,"3525": 14.23,"3550": 12.89,"3575": 13.06,"3600": 12.68,"3625": 13.08,"3650": 12.81,"3675": 11.98,"3700": 12.53,"3725": 11.85,"3750": 12.15,"3775": 11.51,"3800": 10.92,"3825": 9.43,"3850": 6.11,"3875": 4.79,"3900": 4.07,"3925": 4.01,"3950": 3.77,"3975": 3.27,"4000": 2.88,"4025": 2.99,"4050": 2.99,"4075": 3.07,"4100": 3.18,"4125": 2.86,"4150": 2.93,"4175": 2.93,"4200": 2.61,"4225": 2.06,"4250": 2.08,"4275": 2.35,"4300": 1.87,"4325": 1.55,"4350": 1.48,"4375": 1.42,"4400": 1.1,"4425": 0.93,"4450": 1.04,"4475": 0.98,"4500": 1.12,"4525": 0.59,"4550": 0.66,"4575": 0.4,"4600": 0.36,"4625": 0.36,"4650": 0.3,"4675": 0.17,"4700": 0.19,"4725": 0.13,"4750": 0.19,"4775": 0.19,"4800": 0.11}}}