{"type":"Feature","properties":{"featurecla":"River","scalerank":7,"rivernum":401,"dissolve":"401River","name":"Tana5","name_alt":null,"note":null,"min_zoom":6.0,"strokeweig":0.2,"name_en":"Tana","min_label":7.0},
"geometry":{"type": "LineString","coordinates": [[36.703515625000023,-0.350127862505886,3019.5647],[36.712011718750006,-0.33782317500588,2955.3335],[36.731835937500023,-0.32903411250588,2849.6265],[36.771679687500011,-0.31853606563088,2537.6504],[36.80126953125,-0.307159112505886,2375.5151],[36.812109375,-0.305498956255889,2259.5918],[36.82470703125,-0.30706145625588,2228.084],[36.840039062500011,-0.31633880000588,2138.563],[36.8505859375,-0.31853606563088,2054.2861],[36.871679687500006,-0.316241143755889,2058.3909],[36.906835937500006,-0.306963800005889,1951.4762],[36.929443359375,-0.305498956255889,1896.4327],[36.946533203125,-0.30779387813088,1818.9365],[36.96435546875,-0.313506768755886,1866.4929],[36.978271484375,-0.322784112505886,1862.6821],[36.983984375,-0.33587005000588,1771.1494],[36.985449218750006,-0.358428643755886,1759.1488],[36.989990234375,-0.382159112505889,1750.2656],[36.99853515625,-0.40422942500588,1666.7588],[37.011328125,-0.422198175005889,1643.2422],[37.019140625,-0.42717864375588,1735.0618],[37.0390625,-0.43621184688088,1717.127],[37.046142578125,-0.441924737505886,1640.2402],[37.049707031250023,-0.45232512813088,1683.234],[37.050195312500023,-0.475127862505886,1628.6509],[37.056396484375,-0.48674895625588,1644.6298],[37.075292968750006,-0.506182550005889,1712.4263],[37.083251953125,-0.517120050005886,1550.5883],[37.08642578125,-0.528643487505889,1548.3552]]}}