{"type":"Feature","properties":{"featurecla":"River","scalerank":7,"rivernum":401,"dissolve":"401River","name":"Tana6","name_alt":null,"note":null,"min_zoom":6.0,"strokeweig":0.2,"name_en":"Tana","min_label":7.0},
"geometry":{"type": "LineString","coordinates": [[37.08642578125,-0.528643487505889,1548.3552],[37.12060546875,-0.53826262813088,1516.0703],[37.136474609375,-0.553741143755886,1443.0775],[37.1474609375,-0.574053643755889,1349.5565],[37.162207031250006,-0.61394622188088,1347.4216],[37.1728515625,-0.635577081255889,1217.3923],[37.185302734375,-0.65325286250588,1218.4902],[37.199804687500006,-0.66692473750588,1207.2596],[37.216796875,-0.676104425005889,1192.24],[37.225488281250023,-0.67571380000588,1183.9595],[37.234765625000023,-0.673858331255886,1167.741],[37.242285156250006,-0.677276300005886,1162.8016],[37.246826171875,-0.706573175005886,1137.5421],[37.250390625000023,-0.714873956255886,1134.7507],[37.25439453125,-0.721709893755886,1116.9006],[37.2578125,-0.73064544063088,1116.0294],[37.259521484375,-0.74089934688088,1124.4446],[37.2578125,-0.767901300005889,1146.0712],[37.263427734375,-0.778350518755886,1096.1484],[37.276269531250023,-0.784991143755889,1059.333],[37.29248046875,-0.79143645625588,1054.6733]]}}