{"type":"Feature","properties":{"GID_3":"KEN.7.3.1_1","GID_0":"KEN","country":"Kenya","GID_1":"KEN.7_1","province":"Garissa","NL_NAME_1":"NA","GID_2":"KEN.7.3_1","county":"Fafi","NL_NAME_2":"NA","city":"Bura","VARNAME_3":"NA","NL_NAME_3":"NA","TYPE_3":"Ward","ENGTYPE_3":"Ward","CC_3":"152","HASC_3":"NA","name":"Bura.city"},
"geometry":{"type": "MultiPolygon","coordinates": [[[[40.6492,-1.4595,64.5701],[40.6601,-1.4516,63.2475],[40.6699,-1.4386,61.9],[40.6735,-1.43,63.7201],[40.6869,-1.4109,66.0375],[40.6895,-1.4019,68.0833],[40.7163,-1.3795,70.0563],[40.7197,-1.364,72.0733],[40.7193,-1.343,74.4126],[40.7217,-1.338,73.7238],[40.7287,-1.3301,72.0432],[40.7309,-1.3161,74.434],[40.7403,-1.302,67.8522],[40.7409,-1.2984,65.9945],[40.7325,-1.2927,67.456],[40.7237,-1.2764,68.3598],[40.7073,-1.2565,70.1836],[40.7025,-1.2247,72.2585],[40.7031,-1.2104,72.4082],[40.6983,-1.1985,73.5021],[40.6953,-1.1855,74.737],[40.6925,-1.1816,74.9867],[40.6973,-1.1544,77.5779],[40.6955,-1.1458,80.2636],[40.6951,-1.1287,80.0559],[40.6903,-1.1199,81.6602],[40.6777,-1.1078,83.6269],[40.6763,-1.1043,84.3472],[40.6719,-1.0606,87.8902],[40.6777,-1.0417,91.0221],[40.6773,-1.0337,90.8287],[40.6729,-1.0286,90.7776],[40.6705,-1.0185,93.107],[40.6635,-1.0032,94.1112],[40.6595,-0.9987,93.8668],[40.6495,-0.9801,94.3376],[40.6603,-0.8857,107.5332],[40.6019,-0.8984,109.1113],[40.5827,-0.897,108.5836],[40.5796,-0.9007,108.4358],[40.5773,-0.8976,110.0468],[40.5725,-0.8953,108.9747],[40.5583,-0.8955,110.5804],[40.5513,-0.8893,111.2191],[40.5312,-0.8916,109.5268],[40.5267,-0.8902,109.6622],[40.5223,-0.8864,110.7049],[40.5105,-0.884,109.3895],[40.5037,-0.8765,110.0751],[40.4949,-0.8589,109.917],[40.4755,-0.8465,111.1172],[40.4675,-0.8371,114.0419],[40.4583,-0.8147,115.2157],[40.4527,-0.8088,117.1156],[40.4337,-0.7807,115.6778],[40.4313,-0.7706,115.0648],[40.4319,-0.7572,116.5004],[40.424,-0.7379,115.5136],[40.4237,-0.7234,122.8225],[40.41,-0.7125,122.5199],[40.3837,-0.6782,119.8338],[40.3481,-0.7169,115.7701],[40.1447,-0.949,105.9208],[40.0533,-0.8774,140.1917],[40.0219,-0.8453,140.8067],[39.9249,-0.936,121.1485],[39.9377,-0.9652,112.6925],[39.9389,-0.978,104.5505],[39.9345,-1.0003,101.8182],[39.9353,-1.0051,101.0526],[39.9465,-1.0216,100.0603],[39.9699,-1.0718,96.0958],[39.9965,-1.1203,93.0647],[40.0106,-1.1604,90.3975],[40.0389,-1.1997,90.6447],[40.0509,-1.2371,91.5282],[40.0567,-1.2486,94.4823],[40.0569,-1.2703,99.6559],[40.0499,-1.2981,97.0461],[40.0497,-1.316,84.4649],[40.0609,-1.3391,93.6114],[40.0629,-1.3545,95.4472],[40.0845,-1.4475,89.8727],[40.0877,-1.4764,66.2171],[40.0939,-1.4902,65.8049],[40.1039,-1.5048,76.6479],[40.1157,-1.5025,85.2589],[40.1213,-1.5039,85.1103],[40.1321,-1.5024,83.1123],[40.1775,-1.4774,87.7691],[40.1545,-1.4253,91.0086],[40.1559,-1.4204,91.1621],[40.2021,-1.3516,89.0175],[40.3281,-1.443,78.6863],[40.3601,-1.495,72.2083],[40.3741,-1.5137,70.7609],[40.4293,-1.5298,68.7921],[40.4471,-1.5447,65.4055],[40.4555,-1.5591,65.1203],[40.4693,-1.5678,65.0792],[40.5005,-1.5802,61.5571],[40.5053,-1.5901,62.5118],[40.5118,-1.5939,61.6548],[40.5715,-1.5197,61.4389],[40.5805,-1.5148,61.9965],[40.5885,-1.5067,62.9444],[40.6037,-1.4986,62.4659],[40.6373,-1.4734,61.3884],[40.6492,-1.4595,64.5701]]]]}}