{"type": "Feature","bbox": [34.6575,-0.4967,34.7509,-0.3975],"geometry": {"type": "MultiPolygon","coordinates": [[[[34.6701,-0.4281,1230.1423],[34.6723,-0.431,1264.6116],[34.6723,-0.4339,1248.9929],[34.6692,-0.4367,1251.9136],[34.6575,-0.46,1306.4657],[34.6596,-0.4655,1291.5508],[34.6671,-0.4772,1285.5323],[34.6907,-0.4884,1350.1956],[34.6989,-0.4967,1347.7086],[34.702,-0.4934,1370.1381],[34.7032,-0.4874,1349.4084],[34.7095,-0.4891,1366.8988],[34.7188,-0.4827,1498.2333],[34.7195,-0.4805,1503.4017],[34.7146,-0.4762,1613.8904],[34.7159,-0.4738,1638.0254],[34.7206,-0.4732,1632.7678],[34.7244,-0.4699,1570.1844],[34.7292,-0.4722,1443.6562],[34.7358,-0.4651,1374.3167],[34.7415,-0.4646,1356.226],[34.7431,-0.4629,1358.0791],[34.7406,-0.4519,1352.2628],[34.7419,-0.4457,1342.5723],[34.7449,-0.4391,1359.1265],[34.7504,-0.4356,1319.2976],[34.7509,-0.4297,1314.8429],[34.7502,-0.4262,1334.7538],[34.7421,-0.4178,1304.5237],[34.7384,-0.4115,1302.3807],[34.7279,-0.4088,1328.6763],[34.7234,-0.4099,1285.8788],[34.7213,-0.4088,1280.9766],[34.72,-0.4052,1304.7997],[34.7132,-0.4072,1297.614],[34.7044,-0.404,1293.7751],[34.6975,-0.4047,1259.3687],[34.6963,-0.4019,1272.1328],[34.6943,-0.4026,1261.0353],[34.6913,-0.3975,1324.0613],[34.6831,-0.4168,1276.6187],[34.6755,-0.4261,1268.1891],[34.6701,-0.4281,1230.1423]]],
[[[34.6702,-0.4271,1226.6567],[34.67,-0.4263,1226.6567],[34.6694,-0.4259,1220.1528],[34.6695,-0.4262,1220.1528],[34.67,-0.4265,1226.6567],[34.6702,-0.4271,1226.6567]]],
[[[34.6693,-0.4258,1220.1528],[34.6693,-0.4256,1220.1528],[34.6688,-0.4252,1220.1528],[34.6688,-0.4255,1220.1528],[34.6693,-0.4258,1220.1528]]]]}
,"properties": {"GID_3": "KEN.8.4.1_1","GID_0": "KEN","country": "Kenya","GID_1": "KEN.8_1","province": "HomaBay","NL_NAME_1": "NA","GID_2": "KEN.8.4_1","county": "Kasipul","NL_NAME_2": "NA","city": "CentralKasipul","VARNAME_3": "NA","NL_NAME_3": "NA","TYPE_3": "Ward","ENGTYPE_3": "Ward","CC_3": "1223","HASC_3": "NA","name": "Central_Kasipul.city","area_km2": 68.35384,"hist_schema_id": "Elevation0-9000","hist_area_km2": {"1225": 0.0636,"1250": 3.11664,"1275": 8.86228,"1300": 15.90118,"1325": 14.52306,"1350": 9.51949,"1375": 5.78802,"1400": 3.66787,"1425": 2.24736,"1450": 1.54771,"1475": 0.91166,"1500": 0.55124,"1525": 0.40283,"1550": 0.36043,"1575": 0.12721,"1600": 0.29682,"1625": 0.16961,"1650": 0.29682}}}