{"type": "Feature","bbox": [34.8086,0.3956,34.952,0.4907],"geometry": {"type": "MultiPolygon","coordinates": [[[[34.8548,0.4559,1623.7302],[34.8507,0.4496,1639.4374],[34.8513,0.4447,1621.595],[34.8559,0.4359,1619.119],[34.8565,0.4286,1625.9253],[34.8521,0.4334,1628.6666],[34.8385,0.4241,1550.6818],[34.8352,0.4241,1557.6155],[34.8327,0.427,1570.4905],[34.8247,0.4273,1550.3303],[34.8235,0.4291,1562.6067],[34.8204,0.4272,1559.3279],[34.8111,0.4301,1527.1898],[34.8086,0.4294,1527.4225],[34.8121,0.4233,1517.9067],[34.8145,0.4116,1542.615],[34.8238,0.4059,1568.7202],[34.8342,0.4046,1577.1825],[34.8374,0.4023,1585.1066],[34.8465,0.4024,1595.8461],[34.8546,0.3956,1624.6807],[34.8544,0.3988,1636.7972],[34.8511,0.4025,1633.3306],[34.8542,0.4087,1683.8362],[34.8574,0.4114,1618.4316],[34.8566,0.4255,1625.697],[34.8628,0.4233,1642.2114],[34.8645,0.4242,1641.5466],[34.8657,0.4222,1628.4011],[34.8704,0.4239,1627.7269],[34.8734,0.4238,1620.5375],[34.8741,0.4224,1598.6584],[34.8762,0.4248,1603.8402],[34.8752,0.4265,1614.1782],[34.8848,0.4306,1584.7988],[34.8915,0.4284,1584.4581],[34.8941,0.4291,1589.957],[34.9076,0.4241,1622.4688],[34.9302,0.4283,1657.2437],[34.9386,0.4262,1663.4661],[34.9437,0.4294,1720.2368],[34.952,0.4298,1913.0162],[34.9241,0.4813,1839.1554],[34.9154,0.4893,1739.1152],[34.9117,0.4907,1704.6028],[34.9075,0.4886,1644.9379],[34.9077,0.4835,1627.407],[34.9055,0.4832,1626.5232],[34.902,0.4856,1617.6896],[34.902,0.4839,1616.0348],[34.9003,0.4842,1604.5696],[34.8982,0.4805,1620.8867],[34.8963,0.4811,1620.8867],[34.8944,0.4775,1602.8962],[34.8893,0.4767,1596.1855],[34.8825,0.4719,1602.3673],[34.8799,0.4738,1603.4788],[34.8752,0.4713,1609.6438],[34.871,0.4587,1638.2876],[34.869,0.4598,1625.5181],[34.8593,0.4568,1658.7505],[34.8563,0.4575,1618.3959],[34.8548,0.4559,1623.7302]]]]}
,"properties": {"GID_3": "KEN.11.6.2_1","GID_0": "KEN","country": "Kenya","GID_1": "KEN.11_1","province": "Kakamega","NL_NAME_1": "NA","GID_2": "KEN.11.6_1","county": "Malava","NL_NAME_2": "NA","city": "Chemuche","VARNAME_3": "NA","NL_NAME_3": "NA","TYPE_3": "Ward","ENGTYPE_3": "Ward","CC_3": "1003","HASC_3": "NA","name": "Chemuche.city","area_km2": 63.98634,"hist_schema_id": "Elevation0-9000","hist_area_km2": {"1525": 1.3569,"1550": 3.68909,"1575": 4.47355,"1600": 14.31106,"1625": 21.92241,"1650": 10.02833,"1675": 2.65019,"1700": 1.06008,"1725": 0.53004,"1750": 0.53004,"1775": 0.50884,"1800": 0.33922,"1825": 0.33922,"1850": 0.42403,"1875": 0.36043,"1900": 0.36043,"1925": 0.44523,"1950": 0.31802,"1975": 0.19081,"2000": 0.14841}}}