{"type": "Feature","bbox": [35.2978,0.2693,35.441,0.4959],"geometry": {"type": "MultiPolygon","coordinates": [[[[35.4325,0.2968,2307.3003],[35.4303,0.2984,2299.696],[35.4252,0.3077,2264.7969],[35.4234,0.3137,2259.1252],[35.4185,0.3167,2252.7695],[35.4158,0.3166,2250.3335],[35.4136,0.3212,2252.9316],[35.4101,0.3233,2247.1362],[35.4078,0.3272,2237.5029],[35.4066,0.3346,2248.8037],[35.4007,0.3387,2246.4614],[35.4138,0.3567,2261.7817],[35.3998,0.3678,2242.5042],[35.4024,0.3991,2271.2681],[35.3904,0.402,2257.0283],[35.3935,0.4297,2255.5669],[35.3831,0.429,2236.7283],[35.3779,0.432,2230.9087],[35.3769,0.4357,2228.6797],[35.374,0.4357,2225.04],[35.3736,0.4382,2215.1519],[35.3722,0.4376,2215.1519],[35.3695,0.4423,2214.3503],[35.3703,0.4438,2218.3352],[35.3626,0.449,2204.5122],[35.3571,0.456,2180.3125],[35.3551,0.4595,2185.5835],[35.3534,0.4727,2167.7175],[35.3475,0.4779,2183.5435],[35.34,0.479,2163.8867],[35.3384,0.4823,2167.7617],[35.3366,0.4821,2167.7617],[35.3327,0.4857,2162.6265],[35.3304,0.4839,2156.1011],[35.3272,0.4839,2150.1858],[35.3226,0.4903,2150.9473],[35.317,0.49,2125.6643],[35.3145,0.4959,2148.8481],[35.2978,0.4599,2155.3955],[35.3173,0.4515,2171.3103],[35.3103,0.4365,2171.4419],[35.3194,0.42,2175.9583],[35.3271,0.4198,2184.0776],[35.321,0.3955,2165.2246],[35.3239,0.3962,2164.2256],[35.328,0.3936,2162.9622],[35.3326,0.3933,2167.6294],[35.3372,0.3966,2176.2388],[35.3425,0.3971,2181.4551],[35.3327,0.3847,2157.4341],[35.3464,0.3768,2187.1316],[35.3417,0.3618,2180.342],[35.341,0.3527,2181.3025],[35.3435,0.3552,2183.4004],[35.3489,0.3557,2180.4348],[35.3469,0.352,2181.9001],[35.3494,0.3509,2182.3853],[35.3409,0.3413,2175.8135],[35.3404,0.3373,2177.1086],[35.3425,0.3381,2178.8481],[35.3436,0.336,2179.5742],[35.3456,0.3367,2181.3555],[35.3491,0.3338,2186.4731],[35.3519,0.3347,2189.3184],[35.3596,0.3322,2198.3389],[35.3689,0.3223,2192.5371],[35.3723,0.3161,2199.2998],[35.3808,0.3118,2207.7815],[35.3856,0.3117,2218.3408],[35.3893,0.3098,2242.3979],[35.3895,0.3072,2249.7258],[35.3915,0.306,2252.8259],[35.3911,0.3017,2209.1614],[35.3982,0.2984,2228.8494],[35.3985,0.2936,2246.4888],[35.4023,0.2909,2255.4497],[35.4023,0.2869,2252.3364],[35.4062,0.2842,2262.0562],[35.4066,0.2816,2273.6482],[35.4106,0.284,2275.4846],[35.4185,0.2693,2328.061],[35.428,0.2795,2300.8765],[35.4359,0.2715,2330.252],[35.4375,0.2843,2310.8252],[35.4362,0.2857,2310.9072],[35.441,0.2889,2340.1655],[35.4378,0.2899,2329.9502],[35.4325,0.2968,2307.3003]]]]}
,"properties": {"GID_3": "KEN.44.3.1_1","GID_0": "KEN","country": "Kenya","GID_1": "KEN.44_1","province": "UasinGishu","NL_NAME_1": "NA","GID_2": "KEN.44.3_1","county": "Kesses","NL_NAME_2": "NA","city": "Cheptiret/Kipchamo","VARNAME_3": "NA","NL_NAME_3": "NA","TYPE_3": "Ward","ENGTYPE_3": "Ward","CC_3": "728","HASC_3": "NA","name": "Cheptiret_Kipchamo.city","area_km2": 140.3553,"hist_schema_id": "Elevation0-9000","hist_area_km2": {"2125": 1.7385,"2150": 5.8092,"2175": 27.7317,"2200": 38.3751,"2225": 31.7178,"2250": 24.8273,"2275": 5.8093,"2300": 3.0743,"2325": 1.2721}}}