{"type":"Feature","properties":{"GID_3":"KEN.46.5.4_1","GID_0":"KEN","country":"Kenya","GID_1":"KEN.46_1","province":"Wajir","NL_NAME_1":"NA","GID_2":"KEN.46.5_1","county":"WajirSouth","NL_NAME_2":"NA","city":"Diif","VARNAME_3":"NA","NL_NAME_3":"NA","TYPE_3":"Ward","ENGTYPE_3":"Ward","CC_3":"190","HASC_3":"NA","name":"Diif.city"},
"geometry":{"type": "MultiPolygon","coordinates": [[[[40.9401,1.6919,180.2571],[40.9423,1.6843,183.1279],[40.9429,1.6677,180.2258],[40.9489,1.6557,179.1148],[40.9469,1.6459,174.1364],[40.9485,1.6427,173.7597],[40.9485,1.6357,173.0738],[40.9565,1.6157,172.1578],[40.9583,1.6031,168.4193],[40.9623,1.5949,166.9824],[40.9643,1.5759,164.5295],[40.9543,1.4875,157.2222],[40.9399,1.4671,155.2162],[40.9393,1.4561,153.0598],[40.9417,1.4419,150.3022],[40.9327,1.4127,146.3379],[40.9276,1.4053,145.3368],[40.8891,1.4127,149.4182],[40.8459,1.4151,153.5734],[40.8093,1.4119,154.5081],[40.7848,1.4035,149.8242],[40.7855,1.3875,147.3598],[40.7817,1.3491,142.3802],[40.7879,1.3217,139.7163],[40.7861,1.3097,137.4446],[40.7901,1.2983,138.5105],[40.7861,1.2509,131.3694],[40.7845,1.2471,129.6077],[40.7801,1.2445,128.0316],[40.7751,1.2377,130.5145],[40.7685,1.2079,126.7698],[40.7623,1.1963,124.2927],[40.7505,1.1815,128.9028],[40.7425,1.1647,130.4187],[40.7411,1.1569,130.3084],[40.7425,1.1481,129.344],[40.7473,1.1405,128.5368],[40.7483,1.1281,127.7345],[40.7521,1.1203,126.2273],[40.7581,1.1137,124.8079],[40.7593,1.1083,124.0323],[40.7725,1.0997,121.9298],[40.7837,1.0997,120.908],[40.7747,1.0947,121.9142],[40.7679,1.0963,122.2849],[40.7533,1.1057,124.1944],[40.7291,1.1173,127.5307],[40.7113,1.1287,129.7298],[40.6913,1.1343,131.8278],[40.6677,1.1507,136.3671],[40.6437,1.1521,138.8152],[40.6205,1.1489,141.6006],[40.6185,1.1351,140.1321],[40.6159,1.1305,140.2209],[40.6093,1.1251,142.5036],[40.5899,1.1195,144.8624],[40.5821,1.1155,145.7246],[40.5747,1.1151,146.5551],[40.5597,1.1083,146.9498],[40.5449,1.1075,148.2743],[40.5265,1.1095,150.9956],[40.5161,1.1067,150.7712],[40.5071,1.1013,151.2879],[40.5029,1.0921,151.988],[40.5035,1.0843,152.005],[40.5069,1.0731,152.6774],[40.5065,1.0661,153.1417],[40.5005,1.0521,153.6987],[40.5025,1.0477,150.0853],[40.5105,1.0403,150.1002],[40.5293,1.0309,148.229],[40.5465,1.0119,146.9051],[40.5669,1.0017,143.6001],[40.5701,0.9979,143.9329],[40.5715,0.9897,138.6209],[40.5739,0.9853,139.1503],[40.5839,0.9801,136.1369],[40.5935,0.9699,136.28],[40.5997,0.9583,136.1457],[40.6047,0.9533,133.9228],[40.6059,0.9447,134.0161],[40.5999,0.9365,133.298],[40.6067,0.9253,131.7769],[40.6097,0.9231,131.0456],[40.6069,0.9193,130.6031],[40.6073,0.9163,130.3147],[40.6153,0.9097,128.2722],[40.6341,0.8993,125.0588],[40.6409,0.8995,124.3305],[40.6485,0.8929,123.088],[40.6527,0.8911,123.0458],[40.6591,0.8915,123.9381],[40.6691,0.8835,120.896],[40.6739,0.8841,121.4103],[40.6843,0.8715,118.8162],[40.6877,0.8695,117.8913],[40.6895,0.8673,117.3547],[40.6875,0.8573,119.3806],[40.6921,0.8511,116.5426],[40.6921,0.8427,114.8264],[40.7029,0.8351,113.6321],[40.7021,0.8281,113.9359],[40.7041,0.8213,111.8709],[40.7199,0.8169,110.4102],[40.7229,0.8149,109.9384],[40.7273,0.8067,109.252],[40.7327,0.8053,108.6618],[40.7391,0.7999,108.1938],[40.7485,0.7979,107.5183],[40.7495,0.7911,106.8956],[40.7671,0.7789,105.1833],[40.7811,0.7787,104.0325],[40.7853,0.7735,103.5468],[40.7937,0.7717,102.6328],[40.8027,0.7641,102.0278],[40.8115,0.7669,100.9831],[40.8215,0.7631,99.9283],[40.8231,0.7645,99.7086],[40.8251,0.7639,100.0752],[40.8301,0.7595,99.313],[40.8361,0.7505,98.2488],[40.8367,0.7541,98.2199],[40.8391,0.7533,97.9429],[40.843,0.7562,98.2593],[40.8453,0.7559,98.1127],[40.849,0.7533,97.5856],[40.855,0.7413,96.5351],[40.8586,0.7396,96.2321],[40.8591,0.7309,95.9058],[40.8611,0.7289,95.6022],[40.8657,0.7285,95.0068],[40.8733,0.7211,94.0179],[40.8829,0.7175,92.9231],[40.8897,0.7129,92.2022],[40.9201,0.7083,89.7242],[40.9255,0.7033,89.1261],[40.9469,0.6955,87.4897],[40.9793,0.7079,84.3011],[40.9909,0.7107,83.456],[40.9915,0.7146,83.6754],[40.9922,0.6132,79.957],[40.9943,0.6712,82.3493],[40.9905,0.8233,91.4297],[40.991,0.978,97.259],[40.9947,1.231,116.922],[40.9907,1.2308,117.0005],[40.9914,1.6968,183.9346],[40.9401,1.6919,180.2571]]]]}}