{"type": "Feature","bbox": [34.9113,-0.2796,35.0595,-0.1665],"geometry": {"type": "MultiPolygon","coordinates": [[[[35.0595,-0.2238,1316.364],[35.0536,-0.2183,1314.8821],[35.044,-0.214,1294.1481],[35.04,-0.2042,1213.406],[35.0296,-0.1971,1185.5264],[35.0273,-0.189,1180.1294],[35.0146,-0.1828,1171.2943],[35.0072,-0.1706,1174.5918],[35.0006,-0.1696,1164.4675],[34.9983,-0.1677,1163.6862],[34.9968,-0.1695,1160.7839],[34.9944,-0.1665,1161.0728],[34.9843,-0.1667,1163.1866],[34.9807,-0.1685,1161.0857],[34.9851,-0.1861,1155.5304],[34.9707,-0.1926,1148.7231],[34.9212,-0.2019,1145.2382],[34.9204,-0.2055,1144.9288],[34.9241,-0.2098,1145.9329],[34.9246,-0.2131,1145.0702],[34.9197,-0.215,1143.7854],[34.9157,-0.2139,1144.7384],[34.9113,-0.2169,1143.5333],[34.9123,-0.2272,1141.8524],[34.917,-0.2323,1141.287],[34.9188,-0.2307,1141.064],[34.9268,-0.2313,1142.368],[34.9337,-0.2286,1142.2025],[34.9371,-0.2231,1142.3623],[34.9393,-0.2225,1142.3708],[34.9401,-0.2191,1142.6272],[34.9418,-0.2189,1142.178],[34.9574,-0.2278,1146.0283],[34.9603,-0.2318,1147.9301],[34.9622,-0.2311,1148.1223],[34.9659,-0.2348,1150.6198],[34.967,-0.2339,1149.7253],[34.9691,-0.2356,1150.8943],[34.9696,-0.2331,1150.2543],[34.9742,-0.2326,1152.1418],[34.9793,-0.2415,1157.3607],[34.9807,-0.2488,1160.7736],[34.9842,-0.2484,1161.4467],[34.9905,-0.2519,1167.3669],[34.9954,-0.2526,1169.371],[34.9937,-0.2539,1169.5049],[34.9965,-0.259,1172.3281],[35.0,-0.26,1177.9067],[35.0,-0.2635,1179.4451],[35.0026,-0.2656,1181.9865],[35.0033,-0.2647,1182.8706],[35.0048,-0.2683,1184.7114],[35.0065,-0.2678,1185.8989],[35.0077,-0.2707,1188.9775],[35.0151,-0.2718,1194.7312],[35.016,-0.2734,1199.4312],[35.0145,-0.2742,1195.1611],[35.0159,-0.2756,1199.5312],[35.0235,-0.275,1211.3245],[35.0294,-0.2796,1224.8445],[35.0399,-0.2756,1243.3872],[35.042,-0.2774,1250.5176],[35.0463,-0.2758,1258.7522],[35.0518,-0.2772,1277.9578],[35.0522,-0.2709,1279.1982],[35.055,-0.2647,1283.9869],[35.0573,-0.2313,1315.6887],[35.0595,-0.2238,1316.364]]]]}
,"properties": {"GID_3": "KEN.17.6.3_1","GID_0": "KEN","country": "Kenya","GID_1": "KEN.17_1","province": "Kisumu","NL_NAME_1": "NA","GID_2": "KEN.17.6_1","county": "Nyando","NL_NAME_2": "NA","city": "EastKano/Wawidhi","VARNAME_3": "NA","NL_NAME_3": "NA","TYPE_3": "Ward","ENGTYPE_3": "Ward","CC_3": "1206","HASC_3": "NA","name": "East_Kano_Wawidhi.city","area_km2": 101.49418,"hist_schema_id": "Elevation0-9000","hist_area_km2": {"1150": 42.1921,"1175": 26.05732,"1200": 8.60802,"1225": 9.30768,"1250": 6.72104,"1275": 3.85877,"1300": 3.01069,"1325": 1.73857}}}