{"type":"Feature","properties":{"GID_3":"KEN.13.12.5_1","GID_0":"KEN","country":"Kenya","GID_1":"KEN.13_1","province":"Kiambu","NL_NAME_1":"NA","GID_2":"KEN.13.12_1","county":"ThikaTown","NL_NAME_2":"NA","city":"Township","VARNAME_3":"NA","NL_NAME_3":"NA","TYPE_3":"Ward","ENGTYPE_3":"Ward","CC_3":"564","HASC_3":"NA","name":"Township.city"},
"geometry":{"type": "MultiPolygon","coordinates": [[[[36.9752,-0.9832,1613.4095],[36.9818,-0.9886,1585.6191],[36.9755,-0.9986,1587.5312],[36.9798,-1.0023,1562.3994],[36.9865,-1.0045,1575.7534],[36.9892,-1.014,1567.5098],[36.9924,-1.0188,1574.1306],[37.0083,-1.0267,1553.2041],[37.026,-1.0389,1536.4292],[37.0388,-1.0399,1524.2424],[37.0461,-1.0424,1519.2499],[37.0497,-1.0463,1511.0996],[37.0536,-1.055,1510.8892],[37.062,-1.0338,1495.9845],[37.0703,-1.0369,1506.954],[37.0723,-1.0307,1506.3247],[37.0774,-1.0314,1477.9441],[37.0786,-1.0244,1501.3953],[37.0723,-1.0197,1505.3436],[37.0681,-1.0193,1508.6367],[37.0678,-1.0157,1518.4597],[37.0704,-1.0131,1519.3735],[37.0663,-1.0125,1522.3323],[37.063,-1.0086,1488.4944],[37.063,-1.0064,1513.3658],[37.0612,-1.0064,1513.3658],[37.0603,-1.0099,1514.0321],[37.0626,-1.0142,1485.6726],[37.0621,-1.0207,1517.6183],[37.0594,-1.023,1512.8593],[37.0556,-1.0235,1513.9856],[37.0511,-1.0279,1514.7725],[37.0461,-1.0277,1527.9094],[37.0324,-1.0226,1538.239],[37.0274,-1.0117,1547.0411],[37.024,-1.0098,1543.3926],[37.023,-1.0061,1549.6895],[37.0172,-1.0038,1551.4886],[36.9963,-0.9861,1576.9218],[36.9914,-0.9842,1578.912],[36.9819,-0.9734,1617.5219],[36.9752,-0.9832,1613.4095]]]]}}