{"type":"Feature","properties":{"GID_3":"KEN.17.1.6_1","GID_0":"KEN","country":"Kenya","GID_1":"KEN.17_1","province":"Kisumu","NL_NAME_1":"NA","GID_2":"KEN.17.1_1","county":"KisumuCentral","NL_NAME_2":"NA","city":"Railways","VARNAME_3":"NA","NL_NAME_3":"NA","TYPE_3":"Ward","ENGTYPE_3":"Ward","CC_3":"1196","HASC_3":"NA","name":"Railways.city"},
"geometry":{"type": "MultiPolygon","coordinates": [[[[34.7544,-0.0917,1148.1937],[34.7652,-0.0816,1158.1382],[34.7687,-0.0829,1174.4768],[34.7741,-0.0762,1164.6196],[34.7747,-0.0639,1192.151],[34.7817,-0.063,1181.7904],[34.7828,-0.0612,1193.0245],[34.7832,-0.0566,1204.891],[34.7735,-0.0496,1315.7971],[34.7709,-0.0444,1358.1553],[34.768,-0.0422,1391.858],[34.7631,-0.0435,1371.7347],[34.7611,-0.0493,1340.2467],[34.759,-0.0481,1362.8716],[34.7497,-0.0546,1375.1963],[34.7521,-0.0596,1294.5282],[34.7506,-0.0695,1174.2235],[34.7524,-0.0737,1153.4985],[34.7511,-0.0768,1144.7986],[34.7386,-0.0721,1172.9227],[34.723,-0.0697,1189.2261],[34.7216,-0.0803,1160.6223],[34.7382,-0.0838,1150.6841],[34.7495,-0.0913,1133.0],[34.7519,-0.0889,1133.8885],[34.7544,-0.0917,1148.1937]]]]}}