{"type":"Feature","properties":{"GID_3":"KEN.11.10.2_1","GID_0":"KEN","country":"Kenya","GID_1":"KEN.11_1","province":"Kakamega","NL_NAME_1":"NA","GID_2":"KEN.11.10_1","county":"Navakholo","NL_NAME_2":"NA","city":"BunyalaEast","VARNAME_3":"NA","NL_NAME_3":"NA","TYPE_3":"Ward","ENGTYPE_3":"Ward","CC_3":"1018","HASC_3":"NA","name":"Bunyala_East.city"},
"geometry":{"type": "MultiPolygon","coordinates": [[[[34.6665,0.4654,1389.7522],[34.6692,0.4631,1376.7961],[34.6713,0.4638,1374.782],[34.6742,0.4597,1396.1716],[34.6771,0.4445,1398.0981],[34.69,0.4322,1461.3469],[34.6916,0.4291,1462.075],[34.6914,0.4239,1467.2736],[34.7008,0.4206,1475.1058],[34.7055,0.4118,1451.7881],[34.7077,0.4109,1443.4712],[34.7094,0.42,1462.7689],[34.7119,0.4213,1458.0863],[34.7126,0.4242,1455.7157],[34.7138,0.4229,1451.7476],[34.715,0.4241,1449.8337],[34.7154,0.4282,1460.5542],[34.7179,0.43,1466.4365],[34.7193,0.429,1467.0164],[34.7239,0.4327,1457.9814],[34.7242,0.4401,1484.9557],[34.7375,0.458,1501.4989],[34.7483,0.4692,1516.2007],[34.7456,0.4715,1496.5797],[34.745,0.4784,1472.0406],[34.7415,0.4835,1478.5291],[34.7386,0.484,1464.5151],[34.7342,0.4812,1464.5872],[34.7304,0.4844,1474.0677],[34.7234,0.4861,1450.636],[34.7207,0.4886,1455.1317],[34.7169,0.4883,1443.481],[34.7154,0.4909,1450.3494],[34.7128,0.4915,1450.0857],[34.7085,0.4914,1455.0743],[34.7041,0.4872,1447.6522],[34.6931,0.4862,1422.2327],[34.6887,0.4891,1398.6357],[34.6884,0.4909,1403.6025],[34.6846,0.4913,1409.5527],[34.6832,0.4907,1412.6742],[34.6836,0.4888,1407.6019],[34.6791,0.4902,1415.2979],[34.676,0.4893,1413.2581],[34.6786,0.4781,1390.4233],[34.6738,0.4765,1409.7249],[34.6665,0.4654,1389.7522]]]]}}