{"type":"Feature","properties":{"GID_3":"KEN.13.2.1_1","GID_0":"KEN","country":"Kenya","GID_1":"KEN.13_1","province":"Kiambu","NL_NAME_1":"NA","GID_2":"KEN.13.2_1","county":"GatunduSouth","NL_NAME_2":"NA","city":"Kiamwangi","VARNAME_3":"NA","NL_NAME_3":"NA","TYPE_3":"Ward","ENGTYPE_3":"Ward","CC_3":"551","HASC_3":"NA","name":"Kiamwangi.city"},
"geometry":{"type": "MultiPolygon","coordinates": [[[[36.8316,-1.0179,1819.9033],[36.8358,-1.0226,1803.3613],[36.8451,-1.028,1782.526],[36.8495,-1.0353,1761.0834],[36.854,-1.0372,1732.5583],[36.8586,-1.0361,1730.6534],[36.8614,-1.0397,1712.0835],[36.8655,-1.0404,1731.8234],[36.8754,-1.0466,1695.142],[36.883,-1.0477,1692.5476],[36.8872,-1.0514,1663.9529],[36.8919,-1.0522,1681.681],[36.8969,-1.0562,1660.7677],[36.9067,-1.0493,1628.5546],[36.911,-1.0512,1643.5337],[36.9128,-1.0505,1643.5337],[36.9095,-1.0451,1631.9762],[36.8967,-1.0336,1667.8936],[36.8961,-1.0278,1655.1328],[36.8982,-1.0212,1697.1189],[36.8926,-1.0197,1693.8889],[36.8882,-1.014,1717.1106],[36.8878,-1.011,1668.4897],[36.8798,-1.004,1747.9792],[36.8755,-1.0046,1732.1357],[36.8628,-0.9984,1783.2991],[36.8569,-1.0008,1767.5312],[36.8415,-1.0019,1805.2301],[36.8442,-1.0064,1820.4144],[36.8491,-1.0088,1797.8323],[36.848,-1.0111,1787.4489],[36.8423,-1.0154,1803.1956],[36.8386,-1.0124,1820.1097],[36.8343,-1.0141,1819.1294],[36.8316,-1.0179,1819.9033]]]]}}