{"type": "Feature","bbox": [34.5799,-0.4819,34.6723,-0.4018],"geometry": {"type": "MultiPolygon","coordinates": [[[[34.5853,-0.409,1167.4224],[34.5874,-0.4223,1182.3058],[34.5854,-0.4292,1205.156],[34.5883,-0.4368,1197.3152],[34.5858,-0.4402,1180.0625],[34.5866,-0.4431,1176.13],[34.5825,-0.4457,1169.4609],[34.5799,-0.4555,1159.7935],[34.5852,-0.4579,1168.0255],[34.5912,-0.4522,1173.4189],[34.591,-0.4556,1164.8286],[34.594,-0.4592,1163.2673],[34.5939,-0.4625,1166.1589],[34.6009,-0.4644,1172.2397],[34.6014,-0.4671,1179.5063],[34.6055,-0.469,1193.3379],[34.6061,-0.4718,1197.9972],[34.6081,-0.472,1197.9972],[34.6082,-0.4744,1198.2655],[34.6103,-0.4726,1207.5458],[34.6151,-0.4744,1225.5366],[34.62,-0.4734,1234.0144],[34.6202,-0.4719,1230.2231],[34.6232,-0.4754,1237.5076],[34.6252,-0.4748,1236.6929],[34.6252,-0.4781,1218.4716],[34.6303,-0.4787,1230.8279],[34.631,-0.481,1243.3182],[34.6372,-0.4819,1268.549],[34.65,-0.4723,1287.6401],[34.656,-0.4643,1299.6233],[34.6692,-0.4367,1251.9136],[34.6723,-0.4339,1248.9929],[34.6723,-0.431,1264.6116],[34.67,-0.4282,1230.1423],[34.6648,-0.4309,1245.6863],[34.6606,-0.4249,1220.093],[34.6567,-0.4244,1232.5605],[34.6537,-0.4186,1214.7906],[34.6416,-0.407,1210.0815],[34.6349,-0.4049,1207.8507],[34.6313,-0.4018,1210.0349],[34.627,-0.4035,1209.4604],[34.623,-0.4028,1212.9175],[34.6182,-0.4096,1164.4365],[34.6149,-0.4114,1162.391],[34.6085,-0.4095,1154.9529],[34.5993,-0.4109,1163.1064],[34.5853,-0.409,1167.4224]]]]}
,"properties": {"GID_3": "KEN.8.3.2_1","GID_0": "KEN","country": "Kenya","GID_1": "KEN.8_1","province": "HomaBay","NL_NAME_1": "NA","GID_2": "KEN.8.3_1","county": "Karachuonyo","NL_NAME_2": "NA","city": "Kanyaluo","VARNAME_3": "NA","NL_NAME_3": "NA","TYPE_3": "Ward","ENGTYPE_3": "Ward","CC_3": "1233","HASC_3": "NA","name": "Kanyaluo.city","area_km2": 58.49515,"hist_schema_id": "Elevation0-9000","hist_area_km2": {"1150": 0.53004,"1175": 10.81281,"1200": 16.94007,"1225": 12.0001,"1250": 7.48415,"1275": 6.48768,"1300": 4.19791,"1325": 0.0424}}}