{"type":"Feature","properties":{"GID_3":"KEN.47.2.1_1","GID_0":"KEN","country":"Kenya","GID_1":"KEN.47_1","province":"WestPokot","NL_NAME_1":"NA","GID_2":"KEN.47.2_1","county":"Kapenguria","NL_NAME_2":"NA","city":"Endugh","VARNAME_3":"NA","NL_NAME_3":"NA","TYPE_3":"Ward","ENGTYPE_3":"Ward","CC_3":"645","HASC_3":"NA","name":"Endugh.city"},
"geometry":{"type": "MultiPolygon","coordinates": [[[[35.3694,1.9343,769.1014],[35.3593,1.9304,780.5627],[35.354,1.9312,811.6024],[35.3527,1.927,809.8555],[35.3471,1.9233,838.8348],[35.3392,1.9235,1263.7688],[35.3342,1.9163,1196.9443],[35.3345,1.9058,1022.0337],[35.3324,1.9,1193.5298],[35.3287,1.8977,1134.5],[35.3295,1.8949,1134.5],[35.32,1.8862,1134.5],[35.3102,1.8808,1134.5],[35.3057,1.8711,1134.5],[35.3046,1.8603,1134.5],[35.3044,1.8573,1134.5],[35.3076,1.8561,1134.5],[35.3072,1.8426,1134.5],[35.305,1.8338,1134.5],[35.3005,1.8284,1134.5],[35.2914,1.8284,1151.7889],[35.288,1.8318,1134.5],[35.2794,1.8318,1134.5],[35.2644,1.841,1134.5],[35.2618,1.8461,1134.5],[35.2626,1.8492,1138.5901],[35.2585,1.8539,1137.9617],[35.2465,1.8543,1150.4385],[35.2341,1.8465,1144.6317],[35.2317,1.839,1135.9309],[35.2277,1.839,1141.4043],[35.2215,1.835,1151.111],[35.2201,1.8284,1134.5],[35.2165,1.8265,1154.3816],[35.2125,1.8208,1134.5],[35.2127,1.8141,1135.2894],[35.2086,1.8084,1152.2301],[35.1999,1.8067,1167.8706],[35.1982,1.8044,1162.2266],[35.1946,1.8058,1173.4099],[35.1901,1.8034,1152.8477],[35.1864,1.8055,1162.4943],[35.1819,1.8033,1159.5283],[35.1751,1.8029,1154.6536],[35.1705,1.7988,1160.5165],[35.1585,1.7956,1161.2429],[35.1564,1.7839,1145.5619],[35.1536,1.7813,1159.845],[35.1534,1.7776,1156.8234],[35.1512,1.776,1159.9459],[35.1503,1.7706,1155.6283],[35.1479,1.7685,1157.2891],[35.1478,1.7596,1151.6823],[35.1451,1.7575,1162.845],[35.1451,1.7512,1159.2828],[35.1426,1.7491,1163.9998],[35.1426,1.7452,1162.7572],[35.1386,1.7404,1171.0956],[35.1404,1.7365,1163.738],[35.1388,1.731,1165.1294],[35.1352,1.7273,1169.7485],[35.1303,1.7273,1178.7263],[35.1268,1.7238,1177.3752],[35.1267,1.7213,1175.0554],[35.1222,1.72,1180.0316],[35.1192,1.7208,1191.5767],[35.1171,1.7185,1191.4088],[35.1155,1.7109,1178.3057],[35.1165,1.7091,1173.1476],[35.1155,1.7059,1185.2233],[35.1199,1.7021,1176.4248],[35.1192,1.7003,1178.8973],[35.1212,1.6963,1173.9286],[35.1216,1.6892,1175.8129],[35.1202,1.6857,1190.6627],[35.1241,1.6817,1186.6112],[35.1241,1.6782,1180.201],[35.1286,1.6699,1185.0654],[35.1326,1.6677,1193.651],[35.1274,1.6611,1188.2043],[35.1276,1.6556,1195.807],[35.1316,1.6529,1190.1262],[35.1322,1.6473,1190.4924],[35.1354,1.647,1195.2673],[35.1372,1.6448,1200.7285],[35.1399,1.6484,1205.5781],[35.1474,1.6448,1220.427],[35.1501,1.645,1223.9709],[35.1574,1.6494,1236.8118],[35.1642,1.6499,1243.7926],[35.1683,1.6497,1246.5414],[35.1725,1.6474,1257.4934],[35.1822,1.6469,1272.2815],[35.1878,1.6496,1293.3551],[35.1915,1.6485,1307.8781],[35.1996,1.6533,1336.5483],[35.2098,1.649,1421.0707],[35.2224,1.6557,1819.3282],[35.2237,1.6631,1880.3347],[35.2342,1.6581,1762.2551],[35.235,1.6513,1788.3787],[35.2321,1.6488,1784.6918],[35.2366,1.641,1802.0822],[35.2427,1.6346,1850.1637],[35.2535,1.6277,2147.0454],[35.2629,1.6268,2207.3896],[35.2719,1.6283,2024.3979],[35.2843,1.6375,1873.4808],[35.2865,1.6376,1897.6868],[35.2864,1.636,1907.2319],[35.2881,1.6379,1839.5522],[35.2901,1.6359,1773.0471],[35.2912,1.6387,1823.8546],[35.2993,1.6392,1714.2122],[35.315,1.6468,2274.7041],[35.3219,1.6471,2189.4961],[35.3535,1.6547,2190.7397],[35.3541,1.6698,1929.845],[35.3666,1.723,2288.7197],[35.3584,1.74,2072.1768],[35.3574,1.7522,1753.3535],[35.3537,1.7589,1741.0535],[35.3503,1.7592,1712.9561],[35.3485,1.7628,1707.3215],[35.3457,1.7641,1704.4373],[35.3421,1.773,1799.7395],[35.3399,1.782,1616.6304],[35.3431,1.7882,1586.8207],[35.3386,1.8045,1485.1829],[35.3408,1.8198,1450.4392],[35.34,1.8244,1580.797],[35.3368,1.8289,1456.7677],[35.3414,1.836,1656.1926],[35.3453,1.8526,1229.0215],[35.3579,1.8798,1223.3357],[35.3712,1.8963,828.637],[35.3726,1.9003,808.8275],[35.3708,1.9116,795.4381],[35.3741,1.9152,785.1078],[35.3748,1.9208,776.2395],[35.3727,1.9246,771.4756],[35.3718,1.9319,774.3716],[35.3694,1.9343,769.1014]]]]}}