{"type":"Feature","properties":{"GID_2":"KEN.45.1_1","GID_0":"KEN","country":"Kenya","GID_1":"KEN.45_1","province":"Vihiga","NL_NAME_1":"NA","county":"Emuhaya","VARNAME_2":"NA","NL_NAME_2":"NA","TYPE_2":"Constituency","ENGTYPE_2":"Constituency","CC_2":"215","HASC_2":"NA","name":"Emuhaya.county"},
"geometry":{"type": "MultiPolygon","coordinates": [[[[34.5539,0.0933,1425.1946],[34.5586,0.0783,1432.6875],[34.5569,0.0611,1438.4268],[34.5602,0.0521,1482.1843],[34.5674,0.0445,1532.7646],[34.5836,0.0332,1494.0112],[34.5876,0.0402,1469.6584],[34.585,0.0456,1488.439],[34.5861,0.0479,1460.6442],[34.5983,0.0476,1443.7845],[34.6024,0.0458,1444.5581],[34.604,0.0432,1460.2823],[34.6067,0.0444,1456.7454],[34.6068,0.0473,1466.1487],[34.6099,0.0514,1450.0397],[34.6146,0.0527,1475.9568],[34.6134,0.057,1454.7169],[34.6154,0.0641,1468.5601],[34.6129,0.0666,1482.142],[34.6182,0.0709,1510.8018],[34.6343,0.0754,1540.3489],[34.642,0.0791,1535.4781],[34.6429,0.0744,1532.1575],[34.6475,0.077,1525.343],[34.6509,0.075,1502.1479],[34.6522,0.0802,1534.5278],[34.6584,0.079,1528.9596],[34.6608,0.0816,1545.152],[34.6647,0.081,1532.3494],[34.6732,0.0855,1495.3759],[34.6778,0.1016,1474.2064],[34.6727,0.1077,1518.347],[34.6781,0.1129,1530.152],[34.6807,0.1235,1563.967],[34.6778,0.1263,1543.4619],[34.6804,0.13,1532.8851],[34.6771,0.1345,1531.0021],[34.6649,0.1323,1479.6515],[34.6636,0.1307,1473.1096],[34.6331,0.133,1471.4807],[34.6027,0.1258,1432.9353],[34.5953,0.1212,1463.4294],[34.5859,0.1192,1455.1132],[34.5847,0.1121,1478.3147],[34.5862,0.1084,1452.0483],[34.5777,0.1069,1451.9309],[34.5762,0.1026,1433.696],[34.574,0.1031,1443.7305],[34.5715,0.0998,1431.8894],[34.5711,0.1017,1436.9609],[34.5675,0.1026,1442.7736],[34.5618,0.1009,1442.5175],[34.5585,0.0959,1433.3342],[34.5539,0.0933,1425.1946]]]]}}