{"type":"Feature","properties":{"GID_3":"KEN.31.11.2_1","GID_0":"KEN","country":"Kenya","GID_1":"KEN.31_1","province":"Nakuru","NL_NAME_1":"NA","GID_2":"KEN.31.11_1","county":"Subukia","NL_NAME_2":"NA","city":"Subukia","VARNAME_3":"NA","NL_NAME_3":"NA","TYPE_3":"Ward","ENGTYPE_3":"Ward","CC_3":"857","HASC_3":"NA","name":"Subukia.city"},
"geometry":{"type": "MultiPolygon","coordinates": [[[[36.2628,0.0391,2405.9785],[36.2384,0.0335,1968.7292],[36.2386,0.018,1993.4037],[36.2339,0.0165,1988.8245],[36.229,0.0207,1991.5135],[36.2209,0.0165,2107.9126],[36.2174,0.0165,2152.4031],[36.2124,0.0233,2116.707],[36.2123,0.0263,2066.0144],[36.2039,0.0235,2066.1235],[36.2046,0.0356,2012.9596],[36.1762,0.026,1755.1959],[36.175,0.0091,1918.5294],[36.1626,-0.0033,1690.2173],[36.1601,-0.0131,1768.045],[36.1529,-0.0235,1805.7932],[36.1477,-0.0225,1730.2863],[36.1399,-0.0288,1722.8451],[36.142,-0.0401,1877.1412],[36.1987,-0.0545,2319.8025],[36.2082,-0.0543,2269.3882],[36.2117,-0.0592,2306.3555],[36.2115,-0.0626,2326.8857],[36.2174,-0.0596,2239.9062],[36.2281,-0.0604,2230.0098],[36.2274,-0.0531,2190.1362],[36.2328,-0.0478,2177.5984],[36.2312,-0.0461,2172.4285],[36.248,-0.0275,2232.6924],[36.2526,-0.0275,2314.5376],[36.2573,-0.0176,2393.5601],[36.2571,-0.0127,2279.6946],[36.2654,0.0252,2395.9729],[36.269,0.0259,2364.873],[36.2628,0.0391,2405.9785]]]]}}