{"type":"Feature","properties":{"GID_2":"KEN.27.1_1","GID_0":"KEN","country":"Kenya","GID_1":"KEN.27_1","province":"Migori","NL_NAME_1":"NA","county":"Awendo","VARNAME_2":"NA","NL_NAME_2":"NA","TYPE_2":"Constituency","ENGTYPE_2":"Constituency","CC_2":"254","HASC_2":"NA","name":"Awendo.county"},
"geometry":{"type": "MultiPolygon","coordinates": [[[[34.5751,-0.8648,1484.4563],[34.5738,-0.8597,1489.4736],[34.5755,-0.8568,1476.5142],[34.5724,-0.8551,1463.7445],[34.571,-0.852,1464.1509],[34.5732,-0.8501,1437.3718],[34.5722,-0.8414,1457.387],[34.5741,-0.8385,1468.114],[34.5799,-0.8366,1428.6445],[34.5805,-0.8338,1454.2935],[34.5865,-0.8293,1402.9492],[34.5854,-0.826,1371.9657],[34.581,-0.8238,1369.9019],[34.5828,-0.8206,1371.0348],[34.5793,-0.8218,1357.1467],[34.5766,-0.8196,1368.361],[34.5765,-0.8162,1382.4899],[34.5724,-0.8091,1339.2749],[34.5706,-0.8085,1347.0126],[34.5709,-0.8023,1378.1982],[34.5655,-0.7994,1347.6918],[34.5654,-0.7967,1364.0044],[34.5625,-0.7945,1390.9313],[34.5676,-0.7929,1429.7372],[34.5676,-0.7869,1421.8033],[34.5744,-0.7788,1408.9208],[34.5714,-0.7691,1390.1864],[34.5697,-0.7678,1411.3749],[34.5704,-0.7511,1401.3009],[34.5628,-0.75,1418.29],[34.5576,-0.7523,1410.173],[34.5508,-0.7467,1370.2847],[34.5472,-0.7474,1391.7023],[34.5453,-0.743,1385.406],[34.5409,-0.7389,1351.6731],[34.5402,-0.731,1332.1293],[34.5357,-0.7238,1325.6575],[34.5322,-0.7364,1374.178],[34.5261,-0.7408,1348.7546],[34.5184,-0.752,1323.7319],[34.4859,-0.7816,1302.0933],[34.4822,-0.7954,1287.9077],[34.4755,-0.8067,1327.0555],[34.4643,-0.8321,1424.0259],[34.4639,-0.8589,1447.917],[34.4944,-0.8892,1448.0204],[34.5109,-0.9031,1443.1609],[34.5128,-0.9107,1449.021],[34.5255,-0.9257,1465.8907],[34.5411,-0.9496,1501.3242],[34.5518,-0.9718,1464.5129],[34.5543,-0.9736,1454.4065],[34.5611,-0.9896,1480.9938],[34.5642,-1.0052,1488.7811],[34.5661,-1.0058,1494.9651],[34.5738,-1.0009,1499.5911],[34.5775,-1.0012,1494.282],[34.5885,-1.005,1502.0417],[34.5902,-1.0125,1500.0757],[34.6222,-0.982,1507.1737],[34.6179,-0.9776,1486.5789],[34.618,-0.973,1479.25],[34.6152,-0.9676,1489.5986],[34.6071,-0.965,1476.5659],[34.604,-0.9615,1483.8705],[34.6102,-0.9586,1504.2042],[34.6054,-0.9534,1502.2964],[34.6027,-0.9455,1497.5227],[34.5992,-0.9429,1489.3373],[34.5942,-0.9287,1507.5436],[34.5895,-0.9305,1484.4998],[34.5842,-0.9293,1484.1008],[34.5876,-0.9218,1504.0704],[34.5846,-0.9112,1476.376],[34.5847,-0.9004,1464.0518],[34.5798,-0.8816,1458.205],[34.5826,-0.8748,1477.5186],[34.5801,-0.8712,1470.9617],[34.5803,-0.8637,1468.2795],[34.5785,-0.8627,1447.5939],[34.5751,-0.8648,1484.4563]]]]}}