{"type": "Feature","bbox": [35.0928,-0.604,35.1642,-0.5163],"geometry": {"type": "MultiPolygon","coordinates": [[[[35.1391,-0.5196,1805.2747],[35.1344,-0.5163,1757.3813],[35.13,-0.5238,1789.0056],[35.1231,-0.5195,1717.3347],[35.1153,-0.5198,1724.1207],[35.1145,-0.5251,1736.3623],[35.1203,-0.5394,1748.0889],[35.12,-0.5418,1776.5725],[35.1127,-0.5472,1789.2251],[35.1001,-0.543,1732.4945],[35.0985,-0.5499,1706.4038],[35.0995,-0.5553,1724.626],[35.1069,-0.5652,1768.4836],[35.1053,-0.5712,1747.6438],[35.0931,-0.5861,1755.7819],[35.0928,-0.5887,1746.8392],[35.0948,-0.5937,1721.7267],[35.0974,-0.5936,1751.1738],[35.0982,-0.597,1770.0752],[35.1041,-0.6026,1821.2828],[35.1123,-0.604,1835.5714],[35.1165,-0.601,1842.0505],[35.1243,-0.5993,1861.6981],[35.1362,-0.5877,1871.6156],[35.1466,-0.5815,1864.5887],[35.1495,-0.5748,1898.1366],[35.1642,-0.5634,1904.5712],[35.1639,-0.5589,1900.1117],[35.1616,-0.557,1899.0208],[35.1585,-0.5487,1862.7506],[35.1546,-0.5513,1885.246],[35.1453,-0.5502,1855.2861],[35.1594,-0.5358,1851.2023],[35.1594,-0.5322,1845.4856],[35.1563,-0.5317,1839.2792],[35.1517,-0.5238,1835.2689],[35.1426,-0.5188,1811.7924],[35.1391,-0.5196,1805.2747]]]]}
,"properties": {"GID_3": "KEN.12.3.1_1","GID_0": "KEN","country": "Kenya","GID_1": "KEN.12_1","province": "Kericho","NL_NAME_1": "NA","GID_2": "KEN.12.3_1","county": "Bureti","NL_NAME_2": "NA","city": "Cheboin","VARNAME_3": "NA","NL_NAME_3": "NA","TYPE_3": "Ward","ENGTYPE_3": "Ward","CC_3": "952","HASC_3": "NA","name": "Cheboin.city","area_km2": 45.01013,"hist_schema_id": "Elevation0-9000","hist_area_km2": {"1675": 0.0424,"1700": 0.40282,"1725": 2.22613,"1750": 3.71021,"1775": 5.2367,"1800": 4.43105,"1825": 8.56528,"1850": 11.13062,"1875": 6.78437,"1900": 2.45934,"1925": 0.0212}}}