{"type": "Feature","bbox": [36.9571,-0.3964,37.3078,-0.1456],"geometry": {"type": "MultiPolygon","coordinates": [[[[36.9582,-0.276,1876.0854],[36.9583,-0.2811,1867.6501],[36.961,-0.2842,1862.3429],[36.9583,-0.285,1858.0222],[36.9592,-0.2871,1858.5388],[36.9571,-0.2933,1872.9816],[36.9572,-0.3031,1846.4608],[36.9598,-0.3096,1808.9705],[36.9592,-0.3162,1830.9705],[36.9624,-0.3194,1834.2092],[36.9614,-0.3209,1790.5271],[36.9634,-0.3211,1844.5038],[36.9656,-0.3253,1824.8223],[36.9699,-0.3271,1845.7465],[36.9713,-0.3294,1837.8235],[36.9814,-0.3279,1819.8984],[36.9823,-0.3321,1798.2505],[36.9843,-0.3333,1780.3264],[36.9841,-0.3361,1771.1494],[36.9874,-0.3371,1804.0986],[36.9895,-0.3453,1758.9308],[36.9931,-0.3466,1785.672],[36.9907,-0.3497,1751.0896],[36.9931,-0.3502,1758.7063],[37.005,-0.3682,1750.9625],[37.0039,-0.3706,1747.7299],[37.0067,-0.3805,1738.1567],[37.005,-0.382,1733.2776],[37.0058,-0.384,1707.3843],[37.0075,-0.3839,1741.5802],[37.0091,-0.3884,1740.3063],[37.01,-0.3874,1748.6915],[37.0115,-0.3899,1716.2323],[37.0136,-0.3891,1748.2371],[37.0125,-0.3916,1742.9016],[37.0163,-0.3926,1738.3022],[37.0173,-0.3956,1705.9573],[37.0273,-0.3964,1731.3328],[37.0311,-0.3942,1703.1422],[37.0316,-0.3897,1689.0015],[37.0302,-0.3885,1668.5659],[37.0329,-0.3848,1713.2958],[37.0277,-0.3805,1695.1914],[37.0338,-0.3756,1699.5483],[37.0356,-0.3756,1702.8857],[37.0374,-0.3717,1712.325],[37.0386,-0.3729,1758.646],[37.0424,-0.3686,1779.3929],[37.0454,-0.3696,1778.3195],[37.0469,-0.3741,1781.8495],[37.0501,-0.3717,1787.1353],[37.0523,-0.3721,1788.9861],[37.0544,-0.3668,1796.2487],[37.0574,-0.3661,1805.2882],[37.056399999999996,-0.3634,1813.9746],[37.0596,-0.3589,1827.2177],[37.063,-0.3587,1824.3405],[37.0556,-0.3519,1822.5844],[37.0662,-0.3434,1831.6552],[37.059,-0.3375,1841.8995],[37.0493,-0.3363,1864.1677],[37.0458,-0.3384,1806.7783],[37.0433,-0.3345,1879.3295],[37.0493,-0.3275,1837.2124],[37.0492,-0.322,1895.335],[37.0527,-0.3182,1900.0367],[37.0526,-0.3149,1905.4849],[37.0586,-0.3084,1934.946],[37.0586,-0.3064,1942.4379],[37.0606,-0.3051,1948.4431],[37.0604,-0.302,1956.2885],[37.0645,-0.2989,1968.2397],[37.0665,-0.2925,1982.8849],[37.0745,-0.2845,2012.012],[37.0774,-0.284,2002.0339],[37.0754,-0.2755,2014.8296],[37.0557,-0.2498,2029.0818],[37.0607,-0.247,2031.1255],[37.0669,-0.24,2046.827],[37.0761,-0.2352,2085.585],[37.0771,-0.2306,2085.0312],[37.0795,-0.2281,2090.7473],[37.0886,-0.2228,2119.6917],[37.0911,-0.2188,2129.0537],[37.1089,-0.2165,2191.3403],[37.1231,-0.2097,2249.3538],[37.1297,-0.2119,2274.1946],[37.1376,-0.2108,2314.8423],[37.143,-0.205,2350.5996],[37.1525,-0.1997,2418.9775],[37.1565,-0.1943,2471.5305],[37.167,-0.1914,2522.8118],[37.1728,-0.1864,2613.6333],[37.1815,-0.1847,2649.6606],[37.1847,-0.187,2667.6404],[37.1894,-0.1856,2664.3367],[37.1947,-0.1888,2709.293],[37.1987,-0.1856,2764.9185],[37.2032,-0.1855,2856.106],[37.2088,-0.1881,2878.1558],[37.2128,-0.1872,2865.9946],[37.2177,-0.1899,3055.9189],[37.2205,-0.1883,3081.3984],[37.2231,-0.1903,3124.7483],[37.2304,-0.1883,3320.1228],[37.3078,-0.1456,4597.0439],[37.2581,-0.1587,3948.7534],[37.1622,-0.1761,2464.1431],[37.1602,-0.178,2504.6919],[37.1539,-0.1789,2482.5708],[37.1504,-0.1821,2459.5911],[37.1384,-0.184,2414.8403],[37.1316,-0.1916,2324.9058],[37.1218,-0.1967,2273.7817],[37.1199,-0.2002,2246.0649],[37.1081,-0.2014,2196.5515],[37.1028,-0.2044,2182.5095],[37.0868,-0.2021,2121.6606],[37.0838,-0.204,2123.7473],[37.0806,-0.2029,2112.1133],[37.0796,-0.2044,2121.5986],[37.0729,-0.2017,2079.7183],[37.0705,-0.2025,2087.6436],[37.0683,-0.1993,2081.436],[37.0557,-0.1999,2046.7571],[37.0541,-0.1987,2040.6501],[37.0527,-0.2006,2029.5259],[37.0486,-0.1993,2038.3893],[37.0474,-0.2015,2023.3967],[37.0432,-0.2024,2023.8643],[37.0439,-0.204,2019.24],[37.0412,-0.2054,2017.0157],[37.0408,-0.2084,2009.3265],[37.0336,-0.2183,1993.8784],[37.0249,-0.2197,1986.965],[37.0208,-0.2244,1969.1802],[37.0134,-0.2255,1951.4542],[37.0103,-0.2362,1935.8055],[37.0081,-0.2356,1934.7994],[37.006,-0.2393,1930.5782],[37.0041,-0.2388,1928.1444],[37.0027,-0.2427,1924.6448],[36.998,-0.2469,1918.3787],[36.9886,-0.2503,1908.7207],[36.9983,-0.265,1936.8495],[36.9878,-0.2893,1902.4995],[36.9582,-0.276,1876.0854]]]]}
,"properties": {"GID_3": "KEN.36.1.8_1","GID_0": "KEN","country": "Kenya","GID_1": "KEN.36_1","province": "Nyeri","NL_NAME_1": "NA","GID_2": "KEN.36.1_1","county": "Kieni","NL_NAME_2": "NA","city": "TheguRiver","VARNAME_3": "NA","NL_NAME_3": "NA","TYPE_3": "Ward","ENGTYPE_3": "Ward","CC_3": "474","HASC_3": "NA","name": "Thegu_River.city","area_km2": 204.0264,"hist_schema_id": "Elevation0-9000","hist_area_km2": {"1675": 0.3816,"1700": 0.7209,"1725": 1.6537,"1750": 9.4348,"1775": 10.1981,"1800": 9.244,"1825": 8.0779,"1850": 12.2547,"1875": 16.5375,"1900": 15.3926,"1925": 19.6118,"1950": 14.6506,"1975": 11.7035,"2000": 12.4244,"2025": 7.8872,"2050": 3.668,"2075": 3.5407,"2100": 3.6468,"2125": 2.7139,"2150": 1.3993,"2175": 0.9541,"2200": 1.1661,"2225": 0.8269,"2250": 0.8693,"2275": 1.0601,"2300": 0.7633,"2325": 0.8905,"2350": 0.9753,"2375": 0.7421,"2400": 0.8481,"2425": 1.0389,"2450": 0.9753,"2475": 1.0177,"2500": 0.7209,"2525": 0.8269,"2550": 0.8057,"2575": 0.7209,"2600": 0.7421,"2625": 0.6361,"2650": 0.6785,"2675": 0.5725,"2700": 0.5937,"2725": 0.4452,"2750": 0.318,"2775": 0.3392,"2800": 0.2756,"2825": 0.2968,"2850": 0.3816,"2875": 0.3392,"2900": 0.4664,"2925": 0.4028,"2950": 0.2756,"2975": 0.3392,"3000": 0.5301,"3025": 0.424,"3050": 0.4876,"3075": 0.3392,"3100": 0.4664,"3125": 0.4028,"3150": 0.4664,"3175": 0.424,"3200": 0.5089,"3225": 0.2332,"3250": 0.4028,"3275": 0.212,"3300": 0.2968,"3325": 0.2756,"3350": 0.212,"3375": 0.1696,"3400": 0.212,"3425": 0.1484,"3450": 0.2756,"3475": 0.3392,"3500": 0.2332,"3525": 0.318,"3550": 0.2756,"3575": 0.3604,"3600": 0.2544,"3625": 0.318,"3650": 0.3392,"3675": 0.3604,"3700": 0.2968,"3725": 0.2544,"3750": 0.3816,"3775": 0.318,"3800": 0.2544,"3825": 0.3604,"3850": 0.3604,"3875": 0.2968,"3900": 0.3816,"3925": 0.3604,"3950": 0.2332,"3975": 0.2332,"4000": 0.1908,"4025": 0.2544,"4050": 0.2332,"4075": 0.212,"4100": 0.2756,"4125": 0.2756,"4150": 0.2332,"4175": 0.2332,"4200": 0.1696,"4225": 0.1908,"4250": 0.106,"4275": 0.0636,"4300": 0.0848,"4325": 0.1908,"4350": 0.106,"4375": 0.1696,"4400": 0.1272,"4425": 0.0848,"4450": 0.106,"4475": 0.1272,"4525": 0.0636,"4550": 0.0212,"4575": 0.0212,"4600": 0.0212}}}