{"type":"Feature","properties":{"GID_1":"KEN.3_1","GID_0":"KEN","country":"Kenya","province":"Bungoma","VARNAME_1":"NA","NL_NAME_1":"NA","TYPE_1":"County","ENGTYPE_1":"County","CC_1":"39","HASC_1":"KE.BN","ISO_1":"KE-03","name":"Bungoma.province"},
"geometry":{"type": "MultiPolygon","coordinates": [[[[34.8778,0.8339,1739.2936],[34.8705,0.8303,1766.3058],[34.809,0.8112,1660.4874],[34.8113,0.8192,1662.9332],[34.8103,0.8312,1676.9258],[34.8051,0.8441,1682.9038],[34.805,0.8494,1710.8164],[34.7993,0.8534,1705.3568],[34.7964,0.8599,1779.3064],[34.7951,0.8649,1855.3804],[34.7955,0.8745,1917.6522],[34.7929,0.8776,1914.2821],[34.7893,0.8884,1989.8604],[34.79,0.8912,1998.7607],[34.7866,0.8949,2029.4832],[34.7891,0.8993,2030.1536],[34.7925,0.9014,2034.9072],[34.7935,0.9061,2066.5037],[34.799,0.9077,2071.7715],[34.8007,0.9105,2065.3447],[34.7976,0.9198,2125.1694],[34.7851,0.9301,2185.6477],[34.7772,0.9303,2227.3335],[34.7679,0.9268,2240.5139],[34.7392,0.9441,2470.8608],[34.6562,1.0568,3081.1782],[34.6508,1.0606,3093.4302],[34.6616,1.0876,3142.2302],[34.6521,1.0884,3181.3821],[34.6414,1.0947,3322.5396],[34.6321,1.0973,3490.551],[34.6161,1.1091,3866.1062],[34.6089,1.1159,3913.6147],[34.5818,1.1512,3690.1084],[34.5793,1.1501,3723.2588],[34.5744,1.1023,4208.1055],[34.5265,1.1071,4037.9741],[34.5262,1.1042,3941.8198],[34.5223,1.1024,4066.824],[34.5204,1.0995,4016.905],[34.5175,1.0889,3875.0693],[34.5136,1.0816,3770.335],[34.5025,1.0706,3594.1567],[34.499,1.0619,3500.0298],[34.4997,1.0578,3383.4978],[34.497,1.0543,3451.0977],[34.4931,1.0427,3190.4268],[34.4886,1.0178,3074.9622],[34.487,1.0006,2903.4866],[34.4885,0.9983,2837.0281],[34.488,0.9894,2810.439],[34.4893,0.9829,2737.5225],[34.4827,0.9611,2578.7866],[34.4825,0.955,2534.3508],[34.4793,0.9449,2491.0532],[34.4799,0.9401,2475.5894],[34.4642,0.9117,2253.2527],[34.4586,0.908,2264.9856],[34.4563,0.9036,2200.6416],[34.4505,0.9004,2151.5525],[34.4517,0.8911,2140.2773],[34.4469,0.8796,2055.9487],[34.4461,0.8635,1716.5706],[34.4398,0.8566,1553.7045],[34.4298,0.8549,1522.7308],[34.4205,0.8501,1435.4824],[34.4206,0.8459,1441.1462],[34.4171,0.8423,1451.1538],[34.4141,0.8424,1458.5376],[34.4136,0.837,1421.973],[34.4152,0.8352,1409.4353],[34.4087,0.8323,1437.4539],[34.4055,0.8287,1416.002],[34.4082,0.8278,1409.376],[34.4094,0.8224,1400.3721],[34.4134,0.8202,1401.2723],[34.4132,0.8182,1386.5134],[34.4104,0.8165,1399.2295],[34.414,0.812,1364.1768],[34.4133,0.8104,1363.5781],[34.3949,0.8025,1351.5812],[34.3945,0.8049,1362.7513],[34.3913,0.8036,1341.1443],[34.3911,0.8059,1370.4592],[34.385,0.8037,1350.2615],[34.383,0.793,1334.6687],[34.3807,0.7926,1323.0304],[34.3787,0.798,1340.6359],[34.3762,0.7963,1329.4984],[34.374,0.7913,1318.9666],[34.3718,0.7907,1334.7545],[34.3727,0.7867,1300.4778],[34.3707,0.7841,1307.5498],[34.3668,0.7811,1297.8016],[34.3663,0.7824,1308.2244],[34.3637,0.7813,1298.4896],[34.3679,0.7768,1307.3889],[34.3826,0.7779,1347.4216],[34.3922,0.7644,1356.7051],[34.3984,0.7598,1369.5118],[34.4045,0.7603,1386.0258],[34.4118,0.7667,1378.3643],[34.423,0.7625,1398.1086],[34.43,0.7561,1439.3],[34.4335,0.749,1408.7375],[34.4346,0.7408,1370.3513],[34.4316,0.7306,1356.4059],[34.4272,0.7332,1368.7915],[34.423,0.7296,1387.3955],[34.4199,0.7302,1409.8997],[34.418,0.7281,1437.483],[34.4152,0.73,1444.3137],[34.4126,0.7282,1466.1002],[34.4074,0.7315,1443.3684],[34.4043,0.7307,1418.1079],[34.4154,0.6941,1356.0027],[34.409,0.6857,1432.8237],[34.4172,0.664,1330.8855],[34.4145,0.6615,1326.2291],[34.4059,0.6591,1321.6763],[34.3958,0.6537,1314.937],[34.3934,0.6547,1324.1982],[34.3926,0.6536,1320.8333],[34.3944,0.6531,1314.937],[34.3916,0.6495,1272.4187],[34.3903,0.651,1288.786],[34.3859,0.6497,1239.4158],[34.386,0.6479,1244.5488],[34.3831,0.6467,1241.4371],[34.3837,0.6381,1233.3148],[34.3787,0.6285,1290.0389],[34.3785,0.6173,1315.8947],[34.3758,0.6117,1259.6543],[34.3713,0.6118,1239.844],[34.3697,0.6105,1239.844],[34.3707,0.593,1257.6494],[34.3768,0.5831,1263.5592],[34.3682,0.5657,1254.5332],[34.379,0.5537,1259.3434],[34.382,0.5482,1256.2531],[34.3908,0.5428,1241.2404],[34.401,0.5215,1257.119],[34.4061,0.517,1263.0457],[34.4084,0.5111,1258.7271],[34.4084,0.509,1257.0851],[34.4042,0.505,1252.5212],[34.3896,0.5034,1247.6338],[34.3859,0.4989,1227.4417],[34.3859,0.4892,1253.1514],[34.3896,0.4736,1248.7225],[34.3911,0.4724,1250.1804],[34.3953,0.4733,1242.7185],[34.3981,0.4771,1254.7595],[34.4015,0.4771,1252.1261],[34.4047,0.4804,1255.8806],[34.4171,0.4803,1258.3868],[34.421,0.4787,1252.3827],[34.4298,0.4702,1249.4814],[34.4348,0.4679,1259.2891],[34.4392,0.468,1266.1063],[34.4418,0.4685,1268.0399],[34.4422,0.4703,1271.218],[34.4465,0.473,1278.41],[34.4583,0.4726,1277.209],[34.4619,0.4739,1281.1809],[34.4648,0.4783,1286.3596],[34.4678,0.4794,1288.9529],[34.4692,0.4831,1295.2701],[34.4822,0.4893,1299.0554],[34.4842,0.489,1297.7278],[34.4954,0.4709,1313.0891],[34.4954,0.4634,1307.9362],[34.5003,0.4622,1330.1538],[34.5078,0.4632,1349.8235],[34.5156,0.4549,1367.96],[34.5263,0.4522,1358.7811],[34.5313,0.4481,1334.6094],[34.5364,0.4563,1321.5441],[34.5376,0.4671,1361.4495],[34.5405,0.4675,1341.1609],[34.5444,0.4724,1358.9174],[34.5508,0.4751,1345.3396],[34.5631,0.4629,1362.0745],[34.5772,0.4621,1362.8273],[34.5799,0.4597,1351.4702],[34.5812,0.4574,1326.3759],[34.5797,0.4524,1313.4001],[34.5809,0.4497,1314.3845],[34.5797,0.4455,1310.0165],[34.5815,0.4446,1313.0151],[34.5807,0.4368,1308.292],[34.5873,0.4311,1306.0178],[34.5894,0.4252,1307.5441],[34.5901,0.4315,1302.5999],[34.5927,0.4348,1306.4603],[34.5929,0.438,1308.3143],[34.59,0.4414,1313.2502],[34.592,0.451,1323.9418],[34.5954,0.4492,1324.1501],[34.5984,0.4502,1323.6302],[34.6044,0.4561,1345.8342],[34.6129,0.4481,1319.312],[34.6164,0.4484,1323.8798],[34.6151,0.4528,1325.658],[34.6181,0.4621,1354.0316],[34.6273,0.4655,1350.7715],[34.6271,0.4687,1353.8269],[34.6315,0.4653,1345.3989],[34.6303,0.4613,1328.5831],[34.632,0.4578,1328.4458],[34.6428,0.4555,1360.0571],[34.6452,0.4558,1366.0933],[34.6504,0.4607,1384.0757],[34.6541,0.4584,1365.4225],[34.6571,0.4596,1380.7593],[34.6606,0.466,1399.116],[34.6634,0.4646,1380.975],[34.6665,0.4654,1389.7522],[34.6738,0.4765,1409.7249],[34.6786,0.4781,1390.4233],[34.676,0.4893,1413.2581],[34.6791,0.4902,1415.2979],[34.6836,0.4888,1407.6019],[34.6839,0.4912,1412.6742],[34.6891,0.4912,1400.7241],[34.6894,0.4955,1407.1178],[34.6938,0.4998,1404.9211],[34.6937,0.5033,1409.0089],[34.6958,0.5072,1419.8284],[34.7013,0.5125,1427.1898],[34.7089,0.5091,1425.5811],[34.715,0.5151,1435.6604],[34.7177,0.5157,1434.2385],[34.7209,0.5126,1426.7202],[34.7273,0.517,1430.7483],[34.7285,0.5213,1447.7056],[34.734,0.5241,1428.3345],[34.7372,0.5362,1439.4983],[34.7413,0.5394,1448.551],[34.7418,0.5421,1463.6799],[34.7453,0.5427,1454.7092],[34.7483,0.5408,1435.1367],[34.7505,0.5455,1440.0483],[34.7542,0.5463,1440.5491],[34.7545,0.5493,1443.3397],[34.7598,0.5526,1449.7188],[34.7595,0.5568,1464.0424],[34.7656,0.5624,1435.824],[34.7631,0.5657,1460.4518],[34.764,0.5689,1474.4941],[34.7702,0.5697,1458.8877],[34.7782,0.5786,1457.6023],[34.7831,0.5819,1452.4739],[34.7881,0.5813,1452.2517],[34.7913,0.5851,1457.6821],[34.8011,0.5914,1525.7252],[34.8101,0.5921,1496.1399],[34.8101,0.5943,1509.9724],[34.7993,0.6041,1525.7078],[34.8023,0.6072,1532.6876],[34.8029,0.6111,1538.4795],[34.8086,0.6115,1530.2689],[34.8147,0.6209,1559.0161],[34.8197,0.6238,1551.1146],[34.823,0.6232,1529.8126],[34.8323,0.6309,1537.4924],[34.833,0.6387,1538.1925],[34.836,0.6421,1537.177],[34.8326,0.6514,1555.5028],[34.8379,0.6548,1538.6858],[34.8415,0.6557,1540.5151],[34.8904,0.6121,1723.5731],[34.8992,0.6101,1714.754],[34.9073,0.6017,1736.5581],[34.9193,0.5965,1775.4585],[34.9356,0.6088,1757.9133],[34.9435,0.6127,1730.1526],[34.953,0.613,1673.1471],[34.9578,0.6156,1654.1254],[34.9627,0.6142,1655.1421],[34.9658,0.6152,1666.4358],[34.9686,0.6188,1686.6567],[34.9707,0.6188,1686.8484],[34.9769,0.6295,1756.8279],[34.9807,0.6322,1747.1523],[34.9859,0.6327,1764.7307],[34.9903,0.6352,1830.469],[34.9941,0.6349,1807.6189],[35.0,0.6432,1823.6632],[35.0272,0.6184,1806.3452],[35.0313,0.6214,1794.4297],[35.0351,0.629,1782.9468],[35.0352,0.6331,1798.1676],[35.041,0.6371,1809.895],[35.0393,0.6453,1856.5319],[35.0527,0.6408,1885.5253],[35.0538,0.6369,1844.3782],[35.0611,0.6364,1825.9904],[35.0613,0.6381,1844.741],[35.0629,0.6382,1844.741],[35.0685,0.6367,1822.1327],[35.0697,0.6339,1825.0785],[35.0834,0.6358,1893.5436],[35.0863,0.6343,1880.4277],[35.0918,0.6399,1846.082],[35.0963,0.6417,1849.7374],[35.1033,0.6517,1878.6586],[35.1067,0.651,1854.5767],[35.113,0.6464,1898.3226],[35.116,0.6463,1865.8694],[35.1174,0.6542,1903.6425],[35.1195,0.654,1908.0259],[35.125,0.6594,1916.1802],[35.1341,0.6603,1907.6718],[35.1414,0.6661,1931.7144],[35.1484,0.6644,1920.594],[35.155,0.6668,1930.7006],[35.1513,0.6728,1938.5596],[35.1553,0.6802,1946.2622],[35.1555,0.7453,1920.3545],[35.1439,0.7449,1920.0537],[35.1448,0.832,1849.4247],[35.1313,0.8352,1840.8671],[35.1257,0.8334,1847.4778],[35.125,0.8235,1816.9794],[35.1161,0.8563,1847.6678],[35.1138,0.8878,1800.4935],[35.1085,0.8852,1804.3772],[35.1083,0.8821,1804.5353],[35.1018,0.8792,1804.4948],[35.098,0.8815,1806.5735],[35.0976,0.8851,1809.9111],[35.0934,0.8843,1797.8726],[35.0928,0.8866,1804.856],[35.0894,0.8863,1795.5231],[35.0884,0.8876,1801.1218],[35.0886,0.8853,1787.2952],[35.0861,0.8863,1790.3698],[35.0873,0.8874,1794.5496],[35.0864,0.8892,1799.989],[35.0849,0.888,1782.769],[35.084,0.8922,1777.1864],[35.0825,0.8914,1776.3367],[35.0809,0.8929,1777.1785],[35.082,0.8949,1778.6191],[35.0805,0.8951,1776.2335],[35.0822,0.8971,1788.8694],[35.081,0.8979,1793.6093],[35.0825,0.8986,1788.8694],[35.0738,0.9047,1808.6052],[35.0688,0.9014,1794.5404],[35.0666,0.9035,1798.2419],[35.0606,0.9026,1795.7815],[35.0515,0.9076,1810.5315],[35.0476,0.9041,1781.5627],[35.0464,0.9068,1787.427],[35.0411,0.9067,1787.2643],[35.0394,0.9032,1783.7616],[35.0322,0.9011,1787.7772],[35.0319,0.8986,1780.7821],[35.0277,0.9017,1792.3849],[35.0241,0.9008,1791.3143],[35.0189,0.8946,1771.7578],[35.0191,0.8918,1770.2115],[34.9852,0.8848,1774.7668],[34.988,0.8905,1780.1466],[34.9657,0.8838,1745.3174],[34.9667,0.8789,1744.4781],[34.9511,0.8751,1711.3151],[34.9422,0.8753,1729.2673],[34.9365,0.8623,1715.1798],[34.9334,0.8603,1713.9872],[34.9339,0.8588,1713.9872],[34.9257,0.8597,1739.9005],[34.9191,0.8534,1695.408],[34.9138,0.8524,1724.6135],[34.8778,0.8339,1739.2936]]]]}}