{"type":"Feature","properties":{"GID_3":"KEN.32.5.3_1","GID_0":"KEN","country":"Kenya","GID_1":"KEN.32_1","province":"Nandi","NL_NAME_1":"NA","GID_2":"KEN.32.5_1","county":"NandiHills","NL_NAME_2":"NA","city":"NandiHills","VARNAME_3":"NA","NL_NAME_3":"NA","TYPE_3":"Ward","ENGTYPE_3":"Ward","CC_3":"761","HASC_3":"NA","name":"Nandi_Hills.city"},
"geometry":{"type": "MultiPolygon","coordinates": [[[[35.1082,0.0914,1906.2047],[35.1358,0.0851,2082.2444],[35.1427,0.0959,2043.9064],[35.1467,0.0889,2051.3276],[35.1508,0.0863,2085.679],[35.1552,0.0864,2087.532],[35.1596,0.0808,2069.8232],[35.1639,0.0791,2042.6443],[35.1662,0.0741,2025.6362],[35.1775,0.0733,1871.3506],[35.1803,0.068,1832.5211],[35.1852,0.0709,1870.2845],[35.194,0.0712,1864.4056],[35.1987,0.0695,1850.8912],[35.2009,0.0712,1906.2925],[35.2012,0.067,1805.0953],[35.205,0.0631,1822.5579],[35.2105,0.069,1933.5211],[35.2106,0.0772,1992.3218],[35.2143,0.084,2057.2837],[35.1946,0.0888,1964.9465],[35.2084,0.1537,1983.9329],[35.2026,0.1541,1954.7122],[35.1937,0.1657,1941.5366],[35.1923,0.1638,1940.8075],[35.1895,0.1652,1936.8536],[35.1806,0.1604,1960.5801],[35.1736,0.1541,1956.931],[35.1542,0.1451,1930.0088],[35.1401,0.1573,2023.4651],[35.1366,0.1468,1976.9486],[35.1301,0.1396,1924.6171],[35.1279,0.1347,1903.012],[35.1233,0.1323,1917.7374],[35.1159,0.1238,1975.0232],[35.1141,0.1168,1931.0144],[35.1172,0.1122,1935.3716],[35.117,0.1098,1911.9066],[35.115,0.1019,1909.7249],[35.1082,0.0914,1906.2047]]]]}}