{"type":"Feature","properties":{"GID_3":"KEN.3.9.5_1","GID_0":"KEN","country":"Kenya","GID_1":"KEN.3_1","province":"Bungoma","NL_NAME_1":"NA","GID_2":"KEN.3.9_1","county":"Tongaren","NL_NAME_2":"NA","city":"Soysambu/Mitua","VARNAME_3":"NA","NL_NAME_3":"NA","TYPE_3":"Ward","ENGTYPE_3":"Ward","CC_3":"1120","HASC_3":"NA","name":"Soysambu_Mitua.city"},
"geometry":{"type": "MultiPolygon","coordinates": [[[[35.0248,0.8355,1755.5994],[34.9985,0.8196,1766.9148],[35.0127,0.8089,1767.4559],[35.01,0.807,1748.0862],[35.0131,0.8039,1757.848],[35.0144,0.7994,1760.0779],[34.9885,0.7848,1734.4827],[34.9912,0.7845,1734.064],[34.9887,0.758,1669.6997],[34.9924,0.7513,1654.0629],[34.9968,0.7492,1671.9519],[35.0005,0.7485,1685.2549],[35.0014,0.7507,1696.6825],[35.0038,0.7502,1690.0848],[35.007,0.7519,1685.2452],[35.0119,0.7587,1702.9519],[35.0152,0.7557,1689.3939],[35.0181,0.7557,1695.2729],[35.0186,0.7517,1674.1241],[35.0213,0.7481,1678.6483],[35.0275,0.7494,1687.0804],[35.0283,0.7512,1699.2567],[35.0267,0.7547,1722.556],[35.0308,0.7548,1736.5565],[35.0319,0.7573,1722.5382],[35.0391,0.7529,1723.3766],[35.0411,0.7554,1726.2007],[35.0384,0.7603,1749.4272],[35.0425,0.7623,1755.5884],[35.0435,0.7653,1752.7509],[35.0536,0.7683,1770.6146],[35.0635,0.7664,1745.9573],[35.0663,0.7713,1742.3644],[35.0646,0.7732,1750.9055],[35.0665,0.7771,1747.4678],[35.0648,0.782,1754.5911],[35.0673,0.7849,1756.9878],[35.0655,0.7871,1744.6791],[35.0676,0.7882,1764.3198],[35.0633,0.7923,1750.5192],[35.0648,0.7951,1747.1515],[35.0639,0.8009,1775.5356],[35.0564,0.8064,1774.5907],[35.0542,0.8066,1767.686],[35.0537,0.8052,1764.8815],[35.0514,0.8069,1761.3369],[35.0466,0.8167,1776.6276],[35.0432,0.8194,1760.6697],[35.0412,0.8251,1786.934],[35.031,0.8266,1769.6962],[35.0274,0.8339,1765.3853],[35.0248,0.8355,1755.5994]]]]}}