{"type":"Feature","properties":{"GID_2":"KEN.13.9_1","GID_0":"KEN","country":"Kenya","GID_1":"KEN.13_1","province":"Kiambu","NL_NAME_1":"NA","county":"Lari","VARNAME_2":"NA","NL_NAME_2":"NA","TYPE_2":"Constituency","ENGTYPE_2":"Constituency","CC_2":"122","HASC_2":"NA","name":"Lari.county"},
"geometry":{"type": "MultiPolygon","coordinates": [[[[36.7403,-1.0448,2009.3856],[36.7513,-1.043,1968.6862],[36.7669,-1.0335,1918.4792],[36.7683,-1.0308,1918.1638],[36.7775,-1.0303,1936.1907],[36.7846,-1.0348,1891.1896],[36.7977,-1.0368,1851.5188],[36.7984,-1.0387,1855.5641],[36.8044,-1.0385,1848.9285],[36.8087,-1.0283,1846.0339],[36.805,-1.0248,1873.2365],[36.8056,-1.022,1874.6361],[36.8028,-1.0163,1891.2396],[36.795,-1.0113,1926.0863],[36.7887,-1.0101,1934.1501],[36.7865,-1.0027,1929.6458],[36.7833,-1.0004,1926.1619],[36.7823,-0.9969,1946.489],[36.7788,-0.9954,1943.6606],[36.7729,-0.9892,1972.8397],[36.77,-0.9847,1972.5195],[36.7746,-0.975,2010.8165],[36.7719,-0.9739,2023.8583],[36.773,-0.9718,1998.6071],[36.771,-0.9691,1984.7588],[36.7633,-0.9675,2005.6333],[36.7632,-0.9638,2025.4297],[36.7563,-0.9645,2063.3799],[36.7492,-0.9572,2101.5771],[36.7412,-0.9578,2125.2488],[36.7363,-0.9524,2179.0083],[36.7335,-0.9516,2153.3877],[36.7323,-0.9529,2153.3877],[36.7268,-0.9499,2188.1248],[36.7339,-0.9442,2205.8755],[36.7422,-0.9313,2157.1101],[36.7314,-0.9165,2227.8228],[36.7378,-0.9112,2233.7891],[36.7302,-0.9017,2230.4575],[36.725,-0.8988,2310.1204],[36.7171,-0.8894,2346.8469],[36.7061,-0.8843,2363.7817],[36.7037,-0.881,2383.2932],[36.7019,-0.8827,2352.6023],[36.6938,-0.8778,2374.8247],[36.6903,-0.8713,2437.8877],[36.6831,-0.865,2424.8848],[36.6775,-0.8643,2466.9949],[36.6727,-0.8692,2520.4023],[36.6651,-0.871,2541.5649],[36.6607,-0.8684,2567.6892],[36.6562,-0.8696,2561.3508],[36.6576,-0.8041,2525.2241],[36.6619,-0.8045,2530.0283],[36.6644,-0.8028,2517.6658],[36.6719,-0.8093,2524.7817],[36.678,-0.8122,2481.2068],[36.6888,-0.8161,2487.729],[36.6983,-0.8169,2451.4121],[36.703,-0.8206,2445.4619],[36.7094,-0.8221,2406.2581],[36.7198,-0.8343,2383.5916],[36.724,-0.8348,2383.9573],[36.7232,-0.8307,2381.2605],[36.7252,-0.8304,2371.9814],[36.7175,-0.8247,2321.5781],[36.7208,-0.8237,2304.7854],[36.7188,-0.8213,2330.7441],[36.7216,-0.8221,2343.9106],[36.7198,-0.8187,2407.2808],[36.7323,-0.8197,2381.4463],[36.7384,-0.8235,2240.4246],[36.7462,-0.8215,2203.9526],[36.7415,-0.8122,2330.4746],[36.7362,-0.8102,2317.6873],[36.7356,-0.8076,2314.3535],[36.7324,-0.806,2319.2273],[36.727,-0.8054,2318.6199],[36.7205,-0.7994,2328.6184],[36.7185,-0.797,2320.2368],[36.7193,-0.7953,2360.9963],[36.7147,-0.7908,2324.5132],[36.7153,-0.7892,2400.2468],[36.7114,-0.7867,2358.3579],[36.7119,-0.7843,2408.251],[36.7103,-0.7839,2347.6858],[36.7071,-0.7778,2424.7266],[36.7048,-0.7782,2372.3135],[36.701,-0.7754,2401.0569],[36.6872,-0.758,2504.4692],[36.6718,-0.7526,2500.3152],[36.6622,-0.762,2512.4385],[36.6576,-0.7619,2503.1428],[36.6537,-0.7586,2525.8633],[36.6446,-0.767,2533.1199],[36.6505,-0.7688,2524.0381],[36.6597,-0.7667,2519.6177],[36.6742,-0.7728,2476.1003],[36.622,-0.8215,2618.6667],[36.6226,-0.8253,2614.3679],[36.5887,-0.8218,2661.9595],[36.5913,-0.8428,2691.771],[36.6014,-0.8573,2669.1367],[36.5896,-0.883,2677.2104],[36.58,-0.8864,2680.5442],[36.5655,-0.8971,2679.9517],[36.563,-0.9007,2618.3738],[36.5705,-0.9028,2452.2439],[36.5719,-0.9045,2427.2595],[36.5543,-0.9146,2393.6433],[36.5542,-0.9202,2264.6404],[36.5676,-0.922,2139.8979],[36.5726,-0.9257,2108.0703],[36.5615,-0.9329,1981.9722],[36.5687,-0.9392,2043.7181],[36.5749,-0.938,2041.7085],[36.5788,-0.9406,2039.4521],[36.5877,-0.9587,1963.4039],[36.5873,-0.9721,1868.4893],[36.5914,-0.9793,1917.9155],[36.5964,-0.9786,2017.1299],[36.5962,-0.9857,1939.3052],[36.6001,-0.9872,2024.9338],[36.5966,-0.9913,1909.293],[36.5951,-1.0059,1826.1453],[36.5878,-1.0365,1829.9996],[36.5907,-1.0464,1781.7007],[36.5923,-1.0682,1938.9949],[36.6094,-1.0696,2275.2607],[36.6085,-1.0621,2271.2644],[36.6104,-1.0568,2306.5012],[36.6172,-1.0575,2324.9128],[36.6229,-1.0558,2413.5923],[36.6282,-1.0558,2407.9771],[36.6434,-1.0605,2379.752],[36.6477,-1.0592,2369.8242],[36.6479,-1.0612,2369.5662],[36.6453,-1.0638,2354.9365],[36.6461,-1.0662,2316.8733],[36.6502,-1.0663,2305.9136],[36.6533,-1.0684,2342.7949],[36.6576,-1.0668,2321.4983],[36.66,-1.0678,2334.812],[36.6621,-1.0642,2376.7534],[36.6608,-1.0619,2385.27],[36.6642,-1.0547,2394.5803],[36.6721,-1.0461,2315.5244],[36.6768,-1.0461,2287.3257],[36.6749,-1.0564,2360.9565],[36.6858,-1.0534,2248.7065],[36.6972,-1.0409,2195.3328],[36.7028,-1.0416,2150.6431],[36.7054,-1.0373,2150.3457],[36.7086,-1.0381,2113.5674],[36.7097,-1.0406,2124.6023],[36.7135,-1.0407,2091.1245],[36.7202,-1.0456,2069.2573],[36.7227,-1.0427,2082.8589],[36.7295,-1.0408,2050.6675],[36.7364,-1.0449,2015.3101],[36.7403,-1.0448,2009.3856]]]]}}