{"type": "Feature","bbox": [36.9919,-0.9607,37.0639,-0.8968],"geometry": {"type": "MultiPolygon","coordinates": [[[[37.0251,-0.9504,1577.2285],[37.0293,-0.9563,1571.0256],[37.0324,-0.9567,1581.6545],[37.0353,-0.9607,1564.7781],[37.0639,-0.9424,1551.8794],[37.059,-0.9371,1567.0415],[37.0477,-0.9312,1564.76],[37.0424,-0.9254,1577.1957],[37.0319,-0.9219,1591.6836],[37.0213,-0.9111,1595.3044],[37.0118,-0.9061,1590.6523],[37.0117,-0.904,1619.8068],[37.0076,-0.9033,1632.1235],[37.0053,-0.8985,1651.1792],[37.0018,-0.8968,1661.8285],[36.9921,-0.9039,1624.0277],[36.9919,-0.9072,1642.1135],[37.0134,-0.9393,1602.3281],[37.0228,-0.9464,1589.436],[37.0251,-0.9504,1577.2285]]]]}
,"properties": {"GID_3": "KEN.29.2.5_1","GID_0": "KEN","country": "Kenya","GID_1": "KEN.29_1","province": "Murang'a","NL_NAME_1": "NA","GID_2": "KEN.29.2_1","county": "Kandara","NL_NAME_2": "NA","city": "Ng'Araria","VARNAME_3": "NA","NL_NAME_3": "NA","TYPE_3": "Ward","ENGTYPE_3": "Ward","CC_3": "539","HASC_3": "NA","name": "Ng'Araria.city","area_km2": 22.36538,"hist_schema_id": "Elevation0-9000","hist_area_km2": {"1525": 0.57238,"1550": 3.2647,"1575": 8.50094,"1600": 5.53306,"1625": 3.09513,"1650": 1.31437,"1675": 0.0848}}}