{"type":"Feature","properties":{"GID_3":"KEN.36.1.1_1","GID_0":"KEN","country":"Kenya","GID_1":"KEN.36_1","province":"Nyeri","NL_NAME_1":"NA","GID_2":"KEN.36.1_1","county":"Kieni","NL_NAME_2":"NA","city":"Gakawa","VARNAME_3":"NA","NL_NAME_3":"NA","TYPE_3":"Ward","ENGTYPE_3":"Ward","CC_3":"476","HASC_3":"NA","name":"Gakawa.city"},
"geometry":{"type": "MultiPolygon","coordinates": [[[[37.0742,0.014,1936.5229],[37.0689,0.0032,1956.5237],[37.0613,0.0058,1929.9009],[37.0522,-0.0027,1921.7097],[37.0518,-0.008,1928.4667],[37.027,-0.0389,1892.0076],[37.0256,-0.0427,1892.6493],[36.9979,-0.0584,1859.2749],[36.9899,-0.0597,1851.2615],[36.986,-0.0629,1840.0134],[36.9802,-0.0627,1826.1366],[36.9778,-0.0649,1837.2645],[36.9821,-0.0892,1861.4083],[36.9856,-0.126,1893.9056],[36.9938,-0.1313,1924.4781],[36.9931,-0.133,1924.8374],[36.9985,-0.131,1924.8273],[37.0044,-0.1394,1929.7279],[37.0083,-0.1397,1930.8092],[37.0104,-0.1434,1945.7753],[37.0099,-0.1475,1936.713],[37.0117,-0.1493,1943.1166],[37.0171,-0.1496,1968.3632],[37.0197,-0.153,1973.5458],[37.026,-0.1478,1972.5662],[37.0335,-0.12,1964.2094],[37.0335,-0.106,1927.59],[37.0358,-0.1027,1917.8298],[37.0375,-0.1053,1927.9357],[37.0359,-0.1057,1920.2947],[37.0364,-0.107,1933.5516],[37.0418,-0.1056,1973.1617],[37.0436,-0.111,1966.9373],[37.0469,-0.1109,1989.4351],[37.0497,-0.1131,2006.3621],[37.0562,-0.1096,1984.3267],[37.0614,-0.1116,2018.8984],[37.0643,-0.1105,2001.067],[37.0654,-0.1126,2015.9006],[37.0673,-0.1107,2026.3589],[37.0694,-0.1141,2033.229],[37.0794,-0.1157,2080.647],[37.0884,-0.113,2152.824],[37.1028,-0.1213,2216.9514],[37.1088,-0.1221,2252.6687],[37.1268,-0.1161,2301.042],[37.1372,-0.1028,2338.2764],[37.143,-0.1005,2366.6482],[37.1518,-0.1052,2427.188],[37.1533,-0.1092,2436.4287],[37.1576,-0.1114,2431.9104],[37.1602,-0.1164,2478.4214],[37.1786,-0.1188,2682.7761],[37.1804,-0.1209,2687.1431],[37.1815,-0.127,2654.2588],[37.1894,-0.1332,2824.1028],[37.1957,-0.1329,2878.3999],[37.1983,-0.1346,2911.4365],[37.2027,-0.1343,2921.7764],[37.207,-0.1371,2989.3828],[37.2233,-0.1386,3264.3352],[37.23,-0.1382,3481.7603],[37.2338,-0.1358,3513.6094],[37.2472,-0.1352,3577.1682],[37.2529,-0.1384,3777.854],[37.2653,-0.1403,4116.7681],[37.2673,-0.1419,4154.6172],[37.3078,-0.1456,4597.0439],[37.1373,-0.0336,2119.7092],[37.1317,-0.0285,2101.0554],[37.1326,-0.0235,2122.3098],[37.1304,-0.0234,2117.3289],[37.1287,-0.0205,2083.4888],[37.1262,-0.0206,2080.5374],[37.1208,-0.0145,2084.4131],[37.1127,-0.0314,2096.0325],[37.1115,-0.0285,2082.5449],[37.1059,-0.0239,2056.6418],[37.1,-0.0214,2041.7133],[37.1003,-0.0187,2038.3188],[37.0928,-0.0109,2001.3805],[37.0882,-0.0099,2000.3336],[37.0794,0.0012,1966.335],[37.0776,0.0046,1958.3544],[37.079,0.0084,1946.6112],[37.0773,0.0125,1942.5619],[37.0789,0.0204,1928.9172],[37.0742,0.014,1936.5229]]]]}}