{"type":"Feature","properties":{"GID_3":"KEN.8.3.5_1","GID_0":"KEN","country":"Kenya","GID_1":"KEN.8_1","province":"HomaBay","NL_NAME_1":"NA","GID_2":"KEN.8.3_1","county":"Karachuonyo","NL_NAME_2":"NA","city":"NorthKarachuonyo","VARNAME_3":"NA","NL_NAME_3":"NA","TYPE_3":"Ward","ENGTYPE_3":"Ward","CC_3":"1231","HASC_3":"NA","name":"North_Karachuonyo.city"},
"geometry":{"type": "MultiPolygon","coordinates": [[[[34.6688,-0.4252,1220.1528],[34.671,-0.4274,1226.6567],[34.6755,-0.4261,1268.1891],[34.6831,-0.4168,1276.6187],[34.6875,-0.4064,1240.8569],[34.6862,-0.4036,1250.6077],[34.6875,-0.3965,1296.4304],[34.6778,-0.3835,1239.4023],[34.6626,-0.3767,1201.3098],[34.649,-0.3575,1138.5814],[34.6455,-0.3564,1138.207],[34.6439,-0.3535,1137.6531],[34.644,-0.2576,1133.0],[34.6354,-0.2583,1133.0],[34.6355,-0.3481,1135.5725],[34.6285,-0.3754,1148.8429],[34.633,-0.3845,1160.0044],[34.6392,-0.3896,1176.823],[34.6433,-0.3969,1175.2421],[34.6516,-0.4023,1180.1012],[34.6596,-0.4151,1217.1506],[34.6621,-0.4171,1222.6548],[34.6691,-0.4183,1245.8909],[34.6695,-0.4209,1237.0718],[34.6679,-0.4217,1226.4895],[34.6688,-0.4252,1220.1528]]]]}}