{"type":"Feature","properties":{"GID_2":"KEN.32.4_1","GID_0":"KEN","country":"Kenya","GID_1":"KEN.32_1","province":"Nandi","NL_NAME_1":"NA","county":"Mosop","VARNAME_2":"NA","NL_NAME_2":"NA","TYPE_2":"Constituency","ENGTYPE_2":"Constituency","CC_2":"156","HASC_2":"NA","name":"Mosop.county"},
"geometry":{"type": "MultiPolygon","coordinates": [[[[34.9492,0.4356,1983.2148],[34.9566,0.42,1999.1484],[34.9553,0.3759,1757.7709],[34.9487,0.3583,1758.9662],[34.9371,0.3648,1747.6464],[34.9373,0.362,1826.6249],[34.9421,0.3281,1795.394],[34.9655,0.2769,1765.958],[34.9964,0.3202,2019.1554],[34.9942,0.3225,2002.5985],[34.9916,0.3396,2078.8599],[35.0008,0.3472,2007.0206],[35.0009,0.3495,2019.6804],[35.0124,0.3526,2016.3553],[35.02,0.3503,1958.5386],[35.0259,0.3438,1977.2339],[35.0318,0.34,1975.1746],[35.0426,0.3456,1991.7454],[35.0443,0.3458,1991.7454],[35.046,0.3437,1978.2207],[35.0483,0.3471,1999.0078],[35.0551,0.3451,1941.8057],[35.0586,0.3537,1930.9055],[35.0701,0.3643,1951.8162],[35.074,0.3799,1946.0557],[35.0731,0.3882,1978.9438],[35.0781,0.3952,1982.6112],[35.0807,0.3964,2000.1345],[35.0846,0.3947,1974.8149],[35.0949,0.3959,2017.7224],[35.096,0.3947,2020.9572],[35.0999,0.3879,2017.1951],[35.1018,0.3652,2029.6873],[35.1128,0.3533,2039.8843],[35.1202,0.3484,2023.5157],[35.1218,0.3567,2019.6115],[35.1285,0.3638,1972.7804],[35.1262,0.3688,1970.3119],[35.1271,0.3749,1982.1063],[35.1238,0.3796,1955.3722],[35.1243,0.3848,1952.2715],[35.1306,0.3924,1969.7467],[35.1339,0.3995,1968.2512],[35.1372,0.4023,1926.9543],[35.1381,0.414,1922.9614],[35.1503,0.4142,1988.8145],[35.1579,0.4169,1915.4213],[35.1593,0.4153,1916.5448],[35.1713,0.4147,1916.4375],[35.1761,0.4185,1999.7152],[35.1807,0.4125,1980.0469],[35.1823,0.4124,2012.1255],[35.1771,0.4247,2005.8978],[35.1708,0.4297,1943.1182],[35.1502,0.4611,1973.588],[35.1418,0.4777,1970.766],[35.1515,0.4895,1967.0398],[35.1582,0.5058,1905.8087],[35.158,0.5094,1904.1926],[35.1598,0.5094,1917.9088],[35.1667,0.5517,1938.157],[35.1633,0.5506,1947.4526],[35.1634,0.5485,1942.7911],[35.1567,0.5436,1939.2109],[35.1501,0.5426,1887.5015],[35.149,0.5442,1887.4775],[35.1484,0.5429,1885.1313],[35.1449,0.5438,1937.1653],[35.1437,0.5418,1888.4958],[35.1421,0.5426,1901.2623],[35.1408,0.5411,1890.8683],[35.1359,0.5436,1876.5667],[35.1332,0.5478,1873.7969],[35.1296,0.5473,1869.0967],[35.1264,0.5504,1904.2725],[35.1221,0.5496,1892.8402],[35.1093,0.5541,1870.8159],[35.1046,0.5616,1884.3174],[35.0996,0.5446,2051.8599],[35.0454,0.5672,1990.8585],[34.8521,0.5518,1699.1522],[34.8707,0.5381,1689.1979],[34.8759,0.5326,1713.9316],[34.8883,0.526,1902.0785],[34.9065,0.5104,1919.9424],[34.9084,0.4959,1734.1519],[34.9241,0.4813,1839.1554],[34.9492,0.4356,1983.2148]]]]}}