{"type":"Feature","properties":{"GID_3":"KEN.16.6.2_1","GID_0":"KEN","country":"Kenya","GID_1":"KEN.16_1","province":"Kisii","NL_NAME_1":"NA","GID_2":"KEN.16.6_1","county":"KitutuChacheSouth","NL_NAME_2":"NA","city":"Bogusero","VARNAME_3":"NA","NL_NAME_3":"NA","TYPE_3":"Ward","ENGTYPE_3":"Ward","CC_3":"1341","HASC_3":"NA","name":"Bogusero.city"},
"geometry":{"type": "MultiPolygon","coordinates": [[[[34.7249,-0.554,1504.7546],[34.7234,-0.5553,1484.7073],[34.7182,-0.5551,1490.1045],[34.7146,-0.5529,1463.8586],[34.7113,-0.5537,1458.7847],[34.7098,-0.5636,1441.7195],[34.7015,-0.5707,1464.2351],[34.6963,-0.5851,1455.4467],[34.6888,-0.5916,1453.9919],[34.6948,-0.5949,1483.5688],[34.7057,-0.6094,1490.599],[34.7172,-0.6195,1533.8784],[34.7196,-0.6187,1528.1331],[34.7252,-0.6113,1516.163],[34.7278,-0.6039,1473.0466],[34.7274,-0.5975,1494.323],[34.7329,-0.5949,1518.0913],[34.7399,-0.5949,1527.2612],[34.7486,-0.591,1481.5308],[34.7518,-0.5877,1528.1272],[34.7454,-0.5848,1499.8258],[34.7446,-0.5795,1472.3118],[34.7468,-0.5634,1575.3802],[34.7507,-0.5574,1560.2834],[34.7517,-0.5521,1546.1968],[34.7481,-0.5536,1533.7126],[34.7384,-0.5539,1490.9475],[34.7298,-0.5511,1503.4172],[34.7249,-0.554,1504.7546]]]]}}