{"type": "Feature","bbox": [36.5513,-0.1468,36.8362,0.1473],"geometry": {"type": "MultiPolygon","coordinates": [[[[36.8081,0.1204,1832.5591],[36.8063,0.137,1816.9849],[36.7198,0.1473,1858.0945],[36.7193,0.1442,1860.2894],[36.7122,0.1361,1873.4275],[36.7085,0.1261,1879.4891],[36.7012,0.124,1897.96],[36.6971,0.1164,1888.1399],[36.6863,0.1111,1921.2135],[36.686,0.1066,1915.4717],[36.6789,0.0995,1932.0767],[36.68,0.0941,1919.9028],[36.6753,0.0847,1919.959],[36.6738,0.0738,1923.1416],[36.6654,0.0675,1968.4885],[36.6649,0.0617,1943.5206],[36.6605,0.0546,1979.8369],[36.656,0.052,1981.8574],[36.6511,0.0439,1993.1747],[36.6381,0.0441,2000.1265],[36.6326,0.0403,2001.7112],[36.6343,0.0363,2010.7264],[36.632,0.0327,2010.9803],[36.6505,-0.0097,2086.8621],[36.586,-0.0136,2124.8701],[36.5824,-0.0149,2135.2461],[36.5812,-0.0193,2136.4048],[36.5772,-0.0231,2141.2534],[36.577,-0.0261,2144.9622],[36.5657,-0.0357,2173.6372],[36.561,-0.037,2187.6255],[36.5601,-0.0441,2169.9939],[36.5557,-0.0482,2213.0481],[36.5557,-0.0531,2194.1587],[36.5513,-0.0631,2215.2351],[36.5607,-0.0697,2331.8711],[36.5551,-0.0839,2283.4844],[36.5618,-0.0825,2258.28],[36.5659,-0.0903,2266.0898],[36.5725,-0.0973,2243.4167],[36.5924,-0.0959,2189.0776],[36.635,-0.1002,2217.7969],[36.6563,-0.1468,2358.0037],[36.7115,-0.129,2197.1892],[36.7168,-0.1224,2173.0906],[36.7524,-0.114,2057.6948],[36.7654,-0.1027,2054.1204],[36.7684,-0.1078,2078.2529],[36.7915,-0.1012,2056.45],[36.831,-0.0976,1931.2946],[36.8275,-0.0781,1899.8594],[36.8362,-0.0764,1875.9264],[36.8353,-0.0402,1845.6975],[36.8301,-0.0371,1876.3669],[36.8261,-0.0409,1894.8396],[36.8218,-0.04,1911.6246],[36.8181,-0.0417,1904.5884],[36.818,-0.0442,1912.6106],[36.8167,-0.0445,1912.6106],[36.8023,0.0415,1892.2427],[36.7831,0.0457,1906.0867],[36.7746,0.0704,1890.7721],[36.766,0.0761,1886.2727],[36.77,0.0832,1870.3035],[36.7709,0.0952,1867.1252],[36.8105,0.1101,1844.5503],[36.8081,0.1204,1832.5591]]]]}
,"properties": {"GID_3": "KEN.20.1.2_1","GID_0": "KEN","country": "Kenya","GID_1": "KEN.20_1","province": "Laikipia","NL_NAME_1": "NA","GID_2": "KEN.20.1_1","county": "LaikipiaEast","NL_NAME_2": "NA","city": "Ngobit","VARNAME_3": "NA","NL_NAME_3": "NA","TYPE_3": "Ward","ENGTYPE_3": "Ward","CC_3": "817","HASC_3": "NA","name": "Ngobit.city","area_km2": 572.2047,"hist_schema_id": "Elevation0-9000","hist_area_km2": {"1800": 1.1237,"1825": 8.2476,"1850": 18.4459,"1875": 33.4146,"1900": 48.9134,"1925": 47.6625,"1950": 41.5139,"1975": 47.3233,"2000": 53.5992,"2025": 48.2986,"2050": 33.8811,"2075": 26.0151,"2100": 30.3403,"2125": 37.1038,"2150": 25.9303,"2175": 25.1882,"2200": 22.5167,"2225": 12.0852,"2250": 5.2581,"2275": 2.417,"2300": 1.3145,"2325": 1.0177,"2350": 0.5089,"2375": 0.0848}}}