{"type":"Feature","properties":{"GID_3":"KEN.47.4.1_1","GID_0":"KEN","country":"Kenya","GID_1":"KEN.47_1","province":"WestPokot","NL_NAME_1":"NA","GID_2":"KEN.47.4_1","county":"Sigor","NL_NAME_2":"NA","city":"Lomut","VARNAME_3":"NA","NL_NAME_3":"NA","TYPE_3":"Ward","ENGTYPE_3":"Ward","CC_3":"649","HASC_3":"NA","name":"Lomut.city"},
"geometry":{"type": "MultiPolygon","coordinates": [[[[35.7027,1.4009,900.636],[35.687,1.3999,937.9199],[35.6818,1.3977,960.6334],[35.6741,1.4073,971.3093],[35.6661,1.4307,954.1144],[35.6558,1.4455,971.0531],[35.6552,1.4502,964.0969],[35.6514,1.455,957.2872],[35.6406,1.4627,954.1912],[35.6323,1.4589,944.035],[35.6291,1.4554,938.7386],[35.6251,1.4563,932.1619],[35.6198,1.4706,934.947],[35.6099,1.4765,927.4318],[35.6057,1.4869,934.9326],[35.6009,1.4889,930.5992],[35.5985,1.4884,926.6467],[35.5947,1.4937,927.1473],[35.5901,1.4963,919.2957],[35.5889,1.5011,918.4232],[35.5861,1.5046,916.1212],[35.5836,1.5052,913.4482],[35.5843,1.5084,913.6559],[35.5824,1.5112,915.4722],[35.5719,1.514,908.275],[35.572,1.5168,908.5303],[35.5695,1.5206,908.33989999999994],[35.5653,1.5235,904.8651],[35.5649,1.5268,903.6054],[35.5669,1.5276,906.0341],[35.565,1.53,904.0996],[35.5506,1.5086,906.4266],[35.5452,1.4833,925.0728],[35.5537,1.4716,938.648],[35.5546,1.4651,940.7137],[35.5447,1.4579,951.9338],[35.5432,1.4528,960.0866],[35.5343,1.4415,986.3906],[35.5253,1.4367,1010.0437],[35.5196,1.4316,1041.3127],[35.5149,1.4297,1208.0328],[35.5103,1.4305,1398.1129],[35.5035,1.427,1627.6029],[35.5005,1.4193,1696.6182],[35.5007,1.3812,2282.3887],[35.5036,1.3737,2378.448],[35.5094,1.3683,2388.2136],[35.5089,1.3581,2629.1902],[35.517,1.3409,2738.6309],[35.5163,1.335,2787.2764],[35.5217,1.3227,2734.6299],[35.522,1.3133,2882.9873],[35.5183,1.3057,2865.571],[35.5205,1.2972,3237.1538],[35.5181,1.271,3510.6675],[35.5443,1.2911,2987.1001],[35.5588,1.2905,2910.9331],[35.5598,1.2936,2721.8794],[35.5681,1.2964,2602.3098],[35.5794,1.2963,2380.1477],[35.5889,1.2871,1799.822],[35.6069,1.2833,1172.4205],[35.6122,1.2854,1134.5586],[35.6165,1.2938,1079.2261],[35.624,1.2993,1038.5006],[35.6279,1.3002,1031.3116],[35.6317,1.3054,1022.1025],[35.6725,1.3201,942.0013],[35.6969,1.3241,912.7504],[35.6981,1.3256,911.8419],[35.6971,1.3286,910.7264],[35.7,1.3307,910.254],[35.7001,1.3328,911.8139],[35.6964,1.3333,912.1919],[35.6982,1.3353,912.9799],[35.695,1.3392,910.9883],[35.696,1.3432,909.0754],[35.6888,1.3458,906.4067],[35.6924,1.348,905.9172],[35.691,1.3496,905.3813],[35.6891,1.349,907.458],[35.6877,1.3514,911.7729],[35.691,1.3571,904.3477],[35.6878,1.3626,907.6744],[35.6919,1.3677,904.0194],[35.6909,1.3718,905.2115],[35.6928,1.3732,903.7418],[35.6947,1.372,901.4475],[35.6933,1.3769,909.0445],[35.6957,1.3791,910.142],[35.6955,1.3815,911.0125],[35.7027,1.3899,901.7338],[35.7024,1.3916,898.9289],[35.6994,1.3918,904.3346],[35.6991,1.3937,905.8943],[35.7027,1.4009,900.636]]]]}}