{"type":"Feature","properties":{"GID_2":"KEN.11.4_1","GID_0":"KEN","country":"Kenya","GID_1":"KEN.11_1","province":"Kakamega","NL_NAME_1":"NA","county":"Lugari","VARNAME_2":"NA","NL_NAME_2":"NA","TYPE_2":"Constituency","ENGTYPE_2":"Constituency","CC_2":"199","HASC_2":"NA","name":"Lugari.county"},
"geometry":{"type": "MultiPolygon","coordinates": [[[[34.6886,0.491,1400.7241],[34.6887,0.4891,1398.6357],[34.6931,0.4862,1422.2327],[34.7041,0.4872,1447.6522],[34.7085,0.4914,1455.0743],[34.7153,0.491,1450.3494],[34.7169,0.4883,1443.481],[34.7215,0.4883,1453.5178],[34.7232,0.4862,1451.2644],[34.7304,0.4844,1474.0677],[34.7343,0.4811,1464.5872],[34.7407,0.485,1471.2755],[34.7423,0.4838,1480.3007],[34.7439,0.4862,1473.03],[34.7457,0.4855,1469.6875],[34.7492,0.49,1467.8105],[34.7535,0.5124,1479.8003],[34.7653,0.5255,1462.3654],[34.7695,0.5278,1469.1882],[34.7744,0.5281,1472.363],[34.7741,0.5297,1473.9675],[34.7756,0.5293,1476.5205],[34.7804,0.5331,1482.5422],[34.7834,0.5317,1483.865],[34.7842,0.533,1484.913],[34.7866,0.5305,1484.4019],[34.7926,0.5285,1486.6888],[34.7951,0.5401,1491.0276],[34.8007,0.5436,1483.6808],[34.8062,0.5511,1469.6123],[34.8067,0.5696,1488.0417],[34.8192,0.5799,1554.4377],[34.8336,0.585,1558.2288],[34.8405,0.5835,1552.8049],[34.8458,0.5857,1558.8159],[34.8488,0.5841,1566.1492],[34.8531,0.5854,1575.3551],[34.8583,0.5883,1559.3356],[34.8592,0.5924,1559.1246],[34.86,0.5889,1547.5879],[34.862,0.5893,1556.1938],[34.8733,0.5951,1683.1755],[34.8737,0.5978,1637.6143],[34.8752,0.5936,1630.3645],[34.8763,0.594,1618.0326],[34.8732,0.6005,1656.6381],[34.8867,0.6086,1693.7932],[34.8889,0.6084,1701.6936],[34.8882,0.605,1713.6431],[34.8956,0.6073,1727.8136],[34.8415,0.6557,1540.5151],[34.8379,0.6548,1538.6858],[34.8326,0.6514,1555.5028],[34.836,0.6421,1537.177],[34.833,0.6387,1538.1925],[34.8323,0.6309,1537.4924],[34.823,0.6232,1529.8126],[34.8197,0.6238,1551.1146],[34.8147,0.6209,1559.0161],[34.8086,0.6115,1530.2689],[34.8029,0.6111,1538.4795],[34.8023,0.6072,1532.6876],[34.7993,0.6041,1525.7078],[34.8101,0.5943,1509.9724],[34.8101,0.5921,1496.1399],[34.8011,0.5914,1525.7252],[34.7913,0.5851,1457.6821],[34.7881,0.5813,1452.2517],[34.7831,0.5819,1452.4739],[34.7782,0.5786,1457.6023],[34.7702,0.5697,1458.8877],[34.764,0.5689,1474.4941],[34.7631,0.5657,1460.4518],[34.7656,0.5624,1435.824],[34.7595,0.5568,1464.0424],[34.7598,0.5526,1449.7188],[34.7545,0.5493,1443.3397],[34.7542,0.5463,1440.5491],[34.7505,0.5455,1440.0483],[34.7483,0.5408,1435.1367],[34.7453,0.5427,1454.7092],[34.7418,0.5421,1463.6799],[34.7413,0.5394,1448.551],[34.7372,0.5362,1439.4983],[34.734,0.5241,1428.3345],[34.7285,0.5213,1447.7056],[34.7273,0.517,1430.7483],[34.7209,0.5126,1426.7202],[34.7177,0.5157,1434.2385],[34.715,0.5151,1435.6604],[34.7089,0.5091,1425.5811],[34.701,0.5123,1427.1898],[34.6961,0.5077,1419.8284],[34.6937,0.5033,1409.0089],[34.6938,0.4998,1404.9211],[34.6894,0.4955,1407.1178],[34.6886,0.491,1400.7241]]]]}}