{"type":"Feature","properties":{"GID_3":"KEN.36.3.2_1","GID_0":"KEN","country":"Kenya","GID_1":"KEN.36_1","province":"Nyeri","NL_NAME_1":"NA","GID_2":"KEN.36.3_1","county":"Mukurweini","NL_NAME_2":"NA","city":"Mukurwe-IniCentral","VARNAME_3":"NA","NL_NAME_3":"NA","TYPE_3":"Ward","ENGTYPE_3":"Ward","CC_3":"490","HASC_3":"NA","name":"Mukurwe-Ini_Central.city"},
"geometry":{"type": "MultiPolygon","coordinates": [[[[37.145,-0.557,1480.5527],[37.1347,-0.5445,1529.7054],[37.1354,-0.5378,1547.6655],[37.1338,-0.5342,1564.8447],[37.1295,-0.5323,1627.2206],[37.1259,-0.5336,1668.012],[37.1218,-0.5327,1661.2214],[37.115,-0.5354,1630.1925],[37.11,-0.535,1629.8347],[37.1077,-0.5386,1584.3595],[37.1049,-0.5387,1613.5077],[37.1025,-0.5366,1615.0308],[37.0997,-0.5371,1606.2311],[37.0977,-0.5349,1546.1204],[37.0943,-0.5344,1549.5942],[37.0957,-0.531,1652.5099],[37.0949,-0.5287,1663.0549],[37.0893,-0.5288,1552.1812],[37.0876,-0.5275,1549.9065],[37.0877,-0.5225,1591.5291],[37.0848,-0.5207,1559.5297],[37.0841,-0.5163,1595.4133],[37.0799,-0.5153,1547.1379],[37.0812,-0.5126,1610.6794],[37.0785,-0.5121,1619.1613],[37.0751,-0.5138,1591.7125],[37.076,-0.512,1610.4739],[37.0722,-0.511,1602.5613],[37.0681,-0.5149,1621.28],[37.0664,-0.5189,1587.692],[37.0679,-0.5224,1583.8284],[37.072,-0.5206,1603.1216],[37.0712,-0.5256,1601.9067],[37.069,-0.5256,1631.1959],[37.0649,-0.5307,1683.7444],[37.0561,-0.5319,1663.8195],[37.0518,-0.5383,1713.7529],[37.0451,-0.5423,1714.0471],[37.0392,-0.5389,1735.1006],[37.0281,-0.542,1719.431],[37.024,-0.5455,1761.5532],[37.0214,-0.5541,1751.0244],[37.0176,-0.5571,1748.1063],[37.0191,-0.5603,1768.7683],[37.0278,-0.5589,1707.1702],[37.0354,-0.5629,1719.035],[37.0443,-0.5632,1732.7898],[37.0502,-0.5669,1677.2816],[37.0627,-0.5668,1682.705],[37.0666,-0.561,1725.1375],[37.0654,-0.5579,1678.1115],[37.0685,-0.5548,1662.2593],[37.0694,-0.5504,1656.1311],[37.068,-0.548,1705.0935],[37.0692,-0.5458,1670.0443],[37.0786,-0.5418,1633.444],[37.084,-0.5439,1669.7448],[37.09,-0.5484,1678.4668],[37.0918,-0.5544,1596.5073],[37.0996,-0.556,1606.5651],[37.1045,-0.5596,1570.4469],[37.1045,-0.5617,1591.2029],[37.1083,-0.5654,1561.4784],[37.1162,-0.5677,1549.0759],[37.1169,-0.5727,1481.9116],[37.1221,-0.5755,1475.7498],[37.1233,-0.5836,1470.2078],[37.1288,-0.5856,1526.9463],[37.1307,-0.5887,1467.948],[37.1406,-0.5906,1437.8982],[37.1445,-0.5953,1438.7737],[37.1476,-0.5967,1430.8635],[37.1504,-0.6032,1370.2852],[37.1608,-0.6156,1365.0599],[37.1649,-0.6298,1251.4268],[37.1694,-0.6312,1229.9612],[37.1708,-0.6263,1242.132],[37.173,-0.6276,1215.6399],[37.1751,-0.6267,1247.4308],[37.1713,-0.6228,1238.7081],[37.1733,-0.6162,1260.0271],[37.1766,-0.6148,1225.1206],[37.174,-0.6118,1276.1382],[37.1759,-0.61,1331.2653],[37.1787,-0.6101,1269.7454],[37.1799,-0.6054,1233.8002],[37.1783,-0.5956,1362.4514],[37.1697,-0.5924,1239.0646],[37.1682,-0.586,1423.1594],[37.1662,-0.5886,1343.9004],[37.1605,-0.5875,1404.7621],[37.15,-0.5757,1338.3312],[37.1494,-0.5677,1463.2769],[37.1453,-0.5663,1418.1344],[37.1442,-0.5641,1429.3469],[37.145,-0.557,1480.5527]]]]}}