{"type": "Feature","bbox": [40.2127,-2.5462,41.174,-1.7936],"geometry": {"type": "MultiPolygon","coordinates": [[[[40.8426,-2.4307,0.0],[40.8421,-2.429,0.0],[40.8401,-2.4301,0.0],[40.8404,-2.4315,0.0],[40.8426,-2.4307,0.0]]],
[[[40.8826,-2.246,0.0],[40.8682,-2.2463,2.7646],[40.8601,-2.251,1.453],[40.8474,-2.2549,3.8364],[40.8413,-2.261,1.2247],[40.8371,-2.2685,6.6554],[40.8296,-2.2718,2.2763],[40.8299,-2.2735,1.9071],[40.8265,-2.2726,0.6897],[40.8185,-2.2804,0.6739],[40.8168,-2.2915,3.9548],[40.8138,-2.2954,0.4114],[40.8146,-2.2993,3.243],[40.8129,-2.304,2.1181],[40.8132,-2.3076,0.0],[40.8151,-2.3076,3.5241],[40.814,-2.3137,0.0],[40.8154,-2.316,0.8848],[40.8151,-2.321,0.0],[40.8165,-2.3218,6.5432],[40.8154,-2.3346,0.0],[40.8171,-2.3374,1.0557],[40.8307,-2.3304,1.1044],[40.8399,-2.3193,5.0743],[40.8662,-2.3029,8.1706],[40.884,-2.2979,10.7604],[40.8996,-2.2971,6.0664],[40.9101,-2.2999,3.9778],[40.9138,-2.2993,12.2018],[40.9165,-2.2965,6.7857],[40.9143,-2.289,1.1082],[40.9049,-2.2751,5.5338],[40.8979,-2.2554,0.949],[40.8876,-2.2476,0.5129],[40.8826,-2.246,0.0]]],
[[[40.894,-2.2196,3.5315],[40.8926,-2.2185,0.8223],[40.8899,-2.2193,1.5095],[40.8907,-2.224,4.1305],[40.8885,-2.2271,2.3937],[40.8887,-2.2307,1.0218],[40.8924,-2.2362,0.6009],[40.8943,-2.236,0.0],[40.894,-2.234,1.3981],[40.8968,-2.2318,0.0],[40.8976,-2.2285,1.8793],[40.8974,-2.2237,0.6384],[40.894,-2.2196,3.5315]]],
[[[40.9029,-2.2251,0.0],[40.9026,-2.2229,1.4118],[40.9049,-2.2204,0.524],[40.9093,-2.2199,0.9975],[40.9051,-2.2224,0.0],[40.9004,-2.2324,0.0],[40.9001,-2.2368,0.0],[40.9035,-2.2424,2.8258],[40.9054,-2.2537,0.0],[40.9121,-2.2646,0.0],[40.9243,-2.2776,1.2904],[40.9271,-2.2851,0.0],[40.9351,-2.2885,0.0],[40.9399,-2.2846,0.0],[40.9454,-2.2835,0.0],[40.9518,-2.2885,0.8797],[40.9507,-2.2904,0.7998],[40.9476,-2.2868,1.6137],[40.9429,-2.2851,2.1336],[40.9385,-2.2901,1.4809],[40.9229,-2.2887,0.0],[40.924,-2.2918,0.0],[40.921,-2.3026,0.0],[40.9154,-2.3065,2.1273],[40.9129,-2.3104,0.0],[40.9129,-2.314,0.0],[40.9149,-2.3174,0.0],[40.9249,-2.3232,0.0],[40.9465,-2.319,0.0],[40.9554,-2.3126,2.1506],[40.9582,-2.3099,3.1947],[40.9576,-2.3085,8.7978],[40.9601,-2.3071,7.4908],[40.9604,-2.3004,7.2178],[40.9696,-2.2907,0.0],[40.9704,-2.2818,11.4284],[40.9904,-2.2618,0.0],[40.9865,-2.2593,9.4159],[40.9868,-2.2507,0.6093],[40.9837,-2.249,0.6729],[40.9813,-2.2432,0.0],[40.976,-2.2374,5.8096],[40.9774,-2.2282,2.6424],[40.976,-2.2262,0.757],[40.9701,-2.2232,1.3974],[40.9665,-2.2235,0.0],[40.9654,-2.2304,1.135],[40.9699,-2.234,3.2247],[40.9707,-2.236,5.0596],[40.969,-2.2368,1.3654],[40.9618,-2.2282,1.8179],[40.9632,-2.2235,0.0],[40.9579,-2.2232,0.0],[40.954,-2.2257,0.4025],[40.9482,-2.2237,0.819],[40.9454,-2.2204,0.55],[40.941,-2.2215,0.4249],[40.9382,-2.2254,1.3441],[40.9374,-2.2312,0.0],[40.9424,-2.2371,4.3995],[40.9429,-2.2404,2.2139],[40.9368,-2.2343,0.0],[40.9349,-2.2293,0.0],[40.9301,-2.2296,2.7805],[40.934,-2.2276,0.0],[40.9368,-2.2199,0.0],[40.9315,-2.2207,0.8081],[40.9268,-2.219,0.0],[40.9215,-2.2107,0.0],[40.9226,-2.2004,1.7645],[40.9204,-2.1924,0.8293],[40.9212,-2.1868,3.3828],[40.9201,-2.1835,0.0],[40.9221,-2.1729,0.0],[40.9204,-2.1565,1.3247],[40.9212,-2.1349,3.0343],[40.9176,-2.1332,2.294],[40.9162,-2.1287,4.1648],[40.9168,-2.1246,4.6904],[40.9185,-2.124,0.0],[40.9168,-2.1171,1.6716],[40.9185,-2.1063,0.0],[40.9162,-2.1021,4.3493],[40.9165,-2.0937,1.6777],[40.9113,-2.0846,0.5251],[40.9074,-2.0699,0.0],[40.9018,-2.0685,3.1861],[40.8954,-2.0712,0.0],[40.8924,-2.0687,2.8325],[40.8937,-2.0682,0.98],[40.8971,-2.0696,0.0],[40.8985,-2.0682,3.2624],[40.8951,-2.0657,0.8113],[40.8949,-2.0624,0.0],[40.8974,-2.0538,1.8548],[40.9001,-2.0512,1.8871],[40.8985,-2.0485,0.8115],[40.8954,-2.0496,4.262],[40.8971,-2.0479,9.0749],[40.899,-2.0479,8.495],[40.9012,-2.051,2.352],[40.8974,-2.056,0.4601],[40.8974,-2.0651,0.0],[40.9071,-2.0668,0.0],[40.9132,-2.0657,0.0],[40.9126,-2.0604,1.0651],[40.9068,-2.0599,7.036],[40.909,-2.054,0.0],[40.9057,-2.0501,1.9004],[40.9043,-2.0426,1.3221],[40.9068,-2.0187,2.7824],[40.906,-2.0101,2.8175],[40.9021,-2.006,0.0],[40.8982,-2.0046,4.1447],[40.8946,-2.0068,6.3404],[40.8929,-2.0143,7.0412],[40.891,-2.0162,6.6528],[40.8865,-2.0168,4.6537],[40.8815,-2.0146,3.7455],[40.8788,-2.0065,1.4547],[40.8821,-2.0126,1.6083],[40.8863,-2.0151,1.0126],[40.891,-2.0143,0.0],[40.8915,-2.0082,0.0],[40.8899,-2.0085,3.7751],[40.8882,-2.0054,1.3388],[40.8843,-2.0051,1.5546],[40.8746,-1.9996,1.2319],[40.8682,-1.9979,0.0],[40.8624,-1.9912,0.0],[40.8565,-1.989,0.4743],[40.8462,-1.9815,5.1515],[40.846,-1.9807,0.5758],[40.8338,-1.9776,1.5854],[40.8329,-1.9768,1.5854],[40.8346,-1.9763,1.5854],[40.8276,-1.9732,4.3301],[40.824,-1.9735,1.5672],[40.8171,-1.9674,1.284],[40.8085,-1.9635,3.5532],[40.8068,-1.9596,2.0389],[40.8088,-1.9569,3.9615],[40.7995,-1.9518,4.1134],[40.7957,-1.945,2.7744],[40.7839,-1.945,4.2471],[40.7799,-1.9435,3.1013],[40.7795,-1.9402,4.4249],[40.7733,-1.943,3.7234],[40.7663,-1.9394,3.6796],[40.7641,-1.942,3.6943],[40.7609,-1.9417,3.6987],[40.7593,-1.9353,3.4543],[40.7523,-1.935,18.4198],[40.7485,-1.9281,17.9765],[40.7451,-1.9263,20.9358],[40.7431,-1.9234,17.7463],[40.7477,-1.9158,10.7741],[40.7431,-1.9102,19.0736],[40.7431,-1.9068,19.4736],[40.7527,-1.8998,20.8756],[40.7559,-1.8933,22.5328],[40.7511,-1.8842,24.4807],[40.7491,-1.876,21.4389],[40.7539,-1.8631,22.6522],[40.7539,-1.8526,26.1618],[40.7513,-1.8488,28.2238],[40.7505,-1.8401,22.7863],[40.7522,-1.8365,28.0738],[40.7567,-1.8379,21.199],[40.7587,-1.8355,22.3034],[40.7589,-1.8319,23.3935],[40.7569,-1.8289,26.5302],[40.7511,-1.8259,34.8642],[40.7465,-1.8167,32.8621],[40.7429,-1.8136,33.2948],[40.7401,-1.8011,38.7868],[40.7351,-1.7936,41.0025],[40.5203,-1.8967,49.8877],[40.5169,-1.8997,51.0241],[40.4033,-1.9472,73.0607],[40.3623,-1.9663,56.8954],[40.3595,-1.968,53.5526],[40.3613,-1.9709,54.5186],[40.3595,-1.9684,53.5526],[40.3507,-1.9717,59.4907],[40.2127,-2.0375,30.6117],[40.2503,-2.2475,16.3947],[40.2509,-2.3976,7.8335],[40.2993,-2.3992,7.9435],[40.3453,-2.3986,3.9092],[40.3489,-2.401,3.4762],[40.3483,-2.405,4.1312],[40.3546,-2.4121,3.2895],[40.3577,-2.4146,3.1059],[40.3655,-2.417,3.9029],[40.3705,-2.4223,3.3141],[40.3811,-2.4218,2.2943],[40.3839,-2.4256,2.4507],[40.3969,-2.4302,1.9478],[40.4059,-2.4299,2.0365],[40.4064,-2.4338,1.8025],[40.4107,-2.4254,5.7101],[40.4249,-2.4213,7.0229],[40.4271,-2.4177,8.9011],[40.4331,-2.4166,3.2119],[40.4437,-2.4079,9.3524],[40.4457,-2.4034,3.7067],[40.4431,-2.4,4.5796],[40.4473,-2.4005,8.5015],[40.5235,-2.4237,19.107],[40.5273,-2.4246,17.2356],[40.5291,-2.4216,18.8456],[40.5285,-2.4249,16.1069],[40.5365,-2.4277,17.4191],[40.6657,-2.4666,21.0427],[40.7346,-2.4562,11.5229],[40.7379,-2.4574,13.9166],[40.751,-2.4529,9.2375],[40.7585,-2.4524,6.7856],[40.7704,-2.4543,1.7047],[40.7718,-2.444,2.516],[40.7807,-2.4282,3.43],[40.8115,-2.4024,27.5836],[40.8213,-2.3979,0.0],[40.8249,-2.3929,0.0],[40.8257,-2.3882,1.8159],[40.8243,-2.3868,11.6456],[40.8262,-2.3837,0.0],[40.8262,-2.3743,5.7633],[40.8235,-2.3696,10.273],[40.8232,-2.364,0.0],[40.8182,-2.359,3.1647],[40.8104,-2.3579,0.0],[40.8043,-2.3551,0.9986],[40.7971,-2.3424,0.0],[40.7882,-2.3396,2.303],[40.786,-2.3365,0.0],[40.7788,-2.3351,0.989],[40.7771,-2.3435,3.1818],[40.779,-2.3526,0.0],[40.7829,-2.3579,0.9825],[40.7815,-2.3576,0.9825],[40.7774,-2.3513,0.0],[40.7757,-2.344,3.1818],[40.7754,-2.3374,3.0204],[40.7776,-2.3332,0.0],[40.7735,-2.331,0.0],[40.7713,-2.326,0.0],[40.7515,-2.3143,0.0],[40.751,-2.3118,0.0],[40.7435,-2.3032,2.3895],[40.7346,-2.299,0.0],[40.7238,-2.2974,0.0],[40.7235,-2.2963,2.9603],[40.7257,-2.2971,0.0],[40.7282,-2.2957,2.0414],[40.741,-2.2993,5.5818],[40.7513,-2.3068,3.3674],[40.7568,-2.3137,0.8667],[40.7613,-2.3137,4.1275],[40.7635,-2.3171,1.3925],[40.769,-2.3196,0.0],[40.7687,-2.3171,2.0972],[40.7796,-2.3296,0.0],[40.7901,-2.3332,0.0],[40.7982,-2.3285,0.0],[40.7993,-2.3246,2.09],[40.7974,-2.3229,2.7304],[40.8007,-2.3226,1.9493],[40.8007,-2.3193,0.0],[40.7988,-2.3171,1.1451],[40.796,-2.3149,0.0],[40.7854,-2.3121,1.8102],[40.776,-2.3035,2.1589],[40.7626,-2.2985,3.0419],[40.7604,-2.2949,2.2824],[40.7613,-2.2882,0.4862],[40.7632,-2.2974,2.6036],[40.7713,-2.2982,0.0],[40.7696,-2.2821,0.0],[40.7715,-2.281,0.0],[40.7726,-2.2757,2.6386],[40.7762,-2.2721,3.1057],[40.7779,-2.2657,0.0],[40.7749,-2.2635,2.5232],[40.7713,-2.2632,1.5148],[40.7613,-2.2671,1.2807],[40.7593,-2.2654,0.0],[40.761,-2.2649,0.0],[40.7604,-2.2632,2.4284],[40.7507,-2.2587,0.0],[40.7465,-2.2515,2.0612],[40.7507,-2.2576,4.6302],[40.7596,-2.2604,3.221],[40.7629,-2.2643,3.207],[40.7671,-2.2626,0.0],[40.7663,-2.2593,1.6302],[40.7685,-2.261,0.0],[40.7749,-2.259,2.4376],[40.7818,-2.2635,1.506],[40.7846,-2.2685,0.0],[40.7818,-2.2793,0.6288],[40.7765,-2.2854,0.0],[40.7751,-2.2901,0.0],[40.7762,-2.2996,0.0],[40.7993,-2.3035,0.0],[40.804,-2.3062,3.7971],[40.8063,-2.3101,0.0],[40.8085,-2.3104,0.0],[40.809,-2.3046,2.4689],[40.806,-2.304,3.9095],[40.8021,-2.2937,0.0],[40.7949,-2.2857,0.0],[40.7932,-2.2804,2.6761],[40.7974,-2.269,3.1228],[40.8043,-2.2657,0.0],[40.8112,-2.2576,4.6934],[40.8115,-2.2537,2.9423],[40.8093,-2.2518,3.9457],[40.8088,-2.2485,1.3335],[40.8126,-2.2504,0.0],[40.821,-2.2465,2.7941],[40.8132,-2.2518,3.4181],[40.8132,-2.2574,0.0],[40.8104,-2.264,0.0],[40.8032,-2.2685,2.7258],[40.7982,-2.2754,2.1159],[40.7976,-2.2824,0.0],[40.8054,-2.2912,1.1582],[40.8093,-2.2899,1.3059],[40.8163,-2.2804,0.0],[40.8143,-2.2762,0.9947],[40.819,-2.2779,2.1296],[40.8232,-2.2735,0.0],[40.8221,-2.2707,0.8624],[40.8265,-2.2718,0.6897],[40.8357,-2.2671,1.457],[40.841,-2.2582,3.029],[40.8479,-2.2524,0.817],[40.8565,-2.2499,0.0],[40.8649,-2.244,1.0436],[40.871,-2.2421,2.7682],[40.891,-2.2426,0.0],[40.8913,-2.2401,0.0],[40.8857,-2.2287,2.7323],[40.8896,-2.2221,3.8887],[40.8887,-2.2207,0.7304],[40.8846,-2.2213,4.1174],[40.889,-2.2185,1.5095],[40.8855,-2.2156,1.4707],[40.8963,-2.219,2.1186],[40.9029,-2.2251,0.0]]],
[[[40.9138,-2.2757,0.544],[40.9124,-2.2746,0.6776],[40.9143,-2.2765,0.4518],[40.9129,-2.2801,0.0],[40.9162,-2.2854,0.0],[40.9174,-2.2829,0.0],[40.9165,-2.2785,3.415],[40.9138,-2.2757,0.544]]],
[[[40.9804,-2.2229,0.8785],[40.9804,-2.2218,0.8785],[40.979,-2.2224,0.8785],[40.9807,-2.2232,0.0],[40.9829,-2.2299,0.0],[40.9901,-2.2337,0.4781],[40.9924,-2.2329,3.9702],[40.9915,-2.2276,0.0],[40.9865,-2.2293,5.0593],[40.9824,-2.2251,6.78],[40.9826,-2.2232,2.7713],[40.9804,-2.2229,0.8785]]],
[[[40.9362,-2.2054,0.0],[40.9346,-2.2046,0.0],[40.9388,-2.2093,1.2318],[40.944,-2.2107,0.0],[40.9401,-2.2074,0.0],[40.9362,-2.2054,0.0]]],
[[[40.9201,-2.126,0.2091],[40.9185,-2.1246,0.0],[40.919,-2.1279,0.1065],[40.9207,-2.1287,0.0],[40.921,-2.1274,0.3724],[40.9201,-2.126,0.2091]]],
[[[41.0521,-2.1104,5.9452],[41.0474,-2.1266,2.962],[41.0523,-2.1399,0.0],[41.0549,-2.1393,3.5639],[41.0585,-2.1415,0.0],[41.0626,-2.1388,1.8385],[41.0649,-2.139,0.7443],[41.066,-2.1368,0.0],[41.0713,-2.134,2.9845],[41.0754,-2.1363,0.0],[41.0793,-2.1324,0.7228],[41.0782,-2.1374,2.703],[41.0799,-2.1401,0.4973],[41.0901,-2.1404,2.7373],[41.0926,-2.1437,0.0],[41.0979,-2.1429,4.3746],[41.1001,-2.144,0.7514],[41.1113,-2.1404,0.185],[41.1154,-2.1363,0.0],[41.116,-2.1287,1.095],[41.114,-2.1235,0.0],[41.119,-2.1265,0.0],[41.119,-2.1249,0.0],[41.1224,-2.1229,1.9941],[41.1229,-2.116,1.956],[41.1265,-2.1176,0.0],[41.1279,-2.1135,0.0],[41.1221,-2.1121,3.528],[41.1182,-2.1032,3.9443],[41.121,-2.1021,3.0146],[41.1213,-2.1071,2.3939],[41.1246,-2.1118,0.0],[41.1307,-2.1137,1.0616],[41.1357,-2.1168,6.454],[41.1343,-2.1196,1.8669],[41.1299,-2.1193,0.0],[41.1251,-2.1274,2.2849],[41.1268,-2.1307,0.0],[41.1321,-2.1324,0.4719],[41.146,-2.1287,0.0],[41.1485,-2.1249,0.0],[41.1551,-2.121,0.0],[41.1613,-2.1137,3.4736],[41.1676,-2.1113,0.0],[41.1732,-2.106,0.0],[41.174,-2.1032,0.3796],[41.1729,-2.1004,0.0],[41.1679,-2.0965,2.0929],[41.159,-2.0976,2.4985],[41.171,-2.0929,0.0],[41.1662,-2.081,0.0],[41.1629,-2.0765,0.0],[41.1521,-2.0718,0.285],[41.146,-2.0724,0.5027],[41.1457,-2.0693,0.0],[41.144,-2.0715,4.2929],[41.1407,-2.0671,1.3023],[41.1418,-2.0635,0.0],[41.1399,-2.0609,0.0],[41.1368,-2.061,0.0],[41.136,-2.0557,0.0],[41.1271,-2.0518,0.0],[41.1263,-2.0501,1.8132],[41.1243,-2.0507,0.8326],[41.1232,-2.0462,0.0],[41.1165,-2.0468,1.6337],[41.1129,-2.0443,0.0],[41.1037,-2.0451,1.7022],[41.0965,-2.0421,0.0],[41.0865,-2.0418,0.0],[41.0796,-2.0501,0.329],[41.076,-2.0512,0.0],[41.076,-2.0529,2.8234],[41.0718,-2.0529,0.0],[41.069,-2.0557,0.5393],[41.0643,-2.0554,0.0],[41.0635,-2.0599,0.748],[41.066,-2.0643,5.9039],[41.0649,-2.0665,1.7607],[41.0638,-2.0635,0.4238],[41.061,-2.064,0.0],[41.0546,-2.071,0.0],[41.0507,-2.0729,0.0],[41.0499,-2.0762,1.8048],[41.0468,-2.0746,0.0],[41.0409,-2.0813,2.5394],[41.0478,-2.0874,4.6036],[41.0485,-2.0902,4.9266],[41.0489,-2.0874,2.9328],[41.0534,-2.088,1.9352],[41.0605,-2.0923,2.981],[41.0592,-2.0976,5.5893],[41.0547,-2.1035,9.5538],[41.0521,-2.1104,5.9452]]],
[[[41.139,-2.0415,2.9102],[41.1351,-2.0407,0.0],[41.1282,-2.0435,1.1034],[41.1332,-2.0474,0.0],[41.1476,-2.0518,0.0],[41.1501,-2.0512,0.0],[41.1479,-2.0465,0.0],[41.139,-2.0415,2.9102]]],
[[[40.9068,-2.004,0.0],[40.9049,-2.0038,0.0],[40.9043,-2.0051,0.0],[40.906,-2.0057,0.0],[40.9068,-2.004,0.0]]],
[[[40.5546,-2.5446,0.0],[40.5532,-2.5432,1.3654],[40.5518,-2.5454,0.0],[40.5532,-2.5462,0.0],[40.5546,-2.5446,0.0]]],
[[[40.5282,-2.541,0.0],[40.5274,-2.5401,0.0],[40.5257,-2.5401,0.0],[40.5285,-2.5421,0.0],[40.5282,-2.541,0.0]]],
[[[40.8088,-2.3149,0.0],[40.8079,-2.314,1.8278],[40.8071,-2.3162,0.0],[40.8076,-2.3165,0.0],[40.8088,-2.3149,0.0]]],
[[[40.7868,-2.3029,2.6205],[40.7837,-2.3024,1.0642],[40.7882,-2.3057,1.5774],[40.7996,-2.309,1.3144],[40.8054,-2.3151,0.0],[40.8068,-2.3149,0.0],[40.8071,-2.3121,1.2942],[40.8007,-2.3049,5.2335],[40.7868,-2.3029,2.6205]]],
[[[40.8576,-1.9812,0.0],[40.8565,-1.9793,0.0],[40.8518,-1.9835,0.0],[40.8549,-1.984,0.0],[40.856,-1.9824,0.0],[40.8579,-1.9826,0.0],[40.8576,-1.9812,0.0]]],
[[[40.856,-1.9763,0.0],[40.8488,-1.9763,0.0],[40.8493,-1.9776,0.0],[40.8474,-1.9782,0.0],[40.8462,-1.981,0.5758],[40.8537,-1.979,0.0],[40.856,-1.9763,0.0]]],
[[[40.8454,-1.9754,0.0],[40.844,-1.9746,0.0],[40.8413,-1.9774,0.0],[40.8438,-1.9776,0.0],[40.8454,-1.9754,0.0]]],
[[[40.839,-1.9751,0.0],[40.8426,-1.9749,0.0],[40.8426,-1.9746,0.0],[40.8393,-1.9743,0.0],[40.839,-1.9751,0.0]]],
[[[40.8201,-1.966,0.0],[40.8171,-1.9657,0.0],[40.8168,-1.9662,0.0],[40.8196,-1.969,1.3259],[40.8201,-1.966,0.0]]]]}
,"properties": {"GID_2": "KEN.21.2_1","GID_0": "KEN","country": "Kenya","GID_1": "KEN.21_1","province": "Lamu","NL_NAME_1": "NA","county": "LamuWest","VARNAME_2": "NA","NL_NAME_2": "NA","TYPE_2": "Constituency","ENGTYPE_2": "Constituency","CC_2": "5","HASC_2": "NA","name": "Lamu_West.county","area_km2": 4216.856,"hist_schema_id": "Elevation0-9000","hist_area_km2": {"0": 1074.288,"25": 2553.466,"50": 522.948,"75": 66.153}}}