{"type":"Feature","properties":{"GID_3":"KEN.27.1.1_1","GID_0":"KEN","country":"Kenya","GID_1":"KEN.27_1","province":"Migori","NL_NAME_1":"NA","GID_2":"KEN.27.1_1","county":"Awendo","NL_NAME_2":"NA","city":"CentralSakwa","VARNAME_3":"NA","NL_NAME_3":"NA","TYPE_3":"Ward","ENGTYPE_3":"Ward","CC_3":"1268","HASC_3":"NA","name":"Central_Sakwa.city"},
"geometry":{"type": "MultiPolygon","coordinates": [[[[34.5456,-0.7896,1329.1747],[34.5423,-0.8071,1375.4233],[34.5431,-0.8123,1414.0449],[34.5393,-0.8136,1423.3389],[34.5389,-0.8174,1455.576],[34.5366,-0.8192,1456.0599],[34.5319,-0.8186,1434.8922],[34.5286,-0.8202,1455.4536],[34.5211,-0.8316,1362.2516],[34.5244,-0.8328,1361.7019],[34.5244,-0.8384,1341.3145],[34.5227,-0.84,1346.1602],[34.5246,-0.8411,1352.3831],[34.5291,-0.8514,1391.9148],[34.5259,-0.8531,1376.7158],[34.5214,-0.8591,1367.7106],[34.5203,-0.8508,1365.8518],[34.5183,-0.8478,1339.9856],[34.5088,-0.8548,1412.6084],[34.5098,-0.8647,1484.326],[34.5064,-0.8726,1476.4905],[34.5117,-0.8808,1475.9922],[34.5077,-0.88,1499.8531],[34.5,-0.8909,1451.3545],[34.5,-0.8936,1441.6504],[34.5109,-0.9031,1443.1609],[34.5128,-0.9107,1449.021],[34.5213,-0.9206,1465.064],[34.5234,-0.9134,1447.8267],[34.5301,-0.9018,1409.316],[34.5311,-0.8963,1449.0892],[34.537,-0.8875,1429.4224],[34.5457,-0.8787,1445.0299],[34.5527,-0.8747,1462.3983],[34.555,-0.8712,1482.1409],[34.5513,-0.8691,1476.0804],[34.556,-0.8662,1482.6851],[34.5535,-0.8573,1469.6807],[34.5561,-0.8568,1486.7667],[34.5571,-0.8521,1517.1919],[34.5604,-0.849,1556.4211],[34.5588,-0.8419,1560.0852],[34.5605,-0.8396,1539.5669],[34.5581,-0.836,1503.5261],[34.5585,-0.8308,1476.1467],[34.5555,-0.8244,1469.6783],[34.5565,-0.8204,1428.8225],[34.554,-0.8114,1372.9475],[34.5567,-0.8105,1382.5261],[34.5568,-0.8049,1343.9084],[34.5521,-0.8025,1333.5115],[34.5526,-0.7922,1368.897],[34.5456,-0.7896,1329.1747]]]]}}