{"type":"Feature","properties":{"GID_3":"KEN.2.4.3_1","GID_0":"KEN","country":"Kenya","GID_1":"KEN.2_1","province":"Bomet","NL_NAME_1":"NA","GID_2":"KEN.2.4_1","county":"Konoin","NL_NAME_2":"NA","city":"Embomos","VARNAME_3":"NA","NL_NAME_3":"NA","TYPE_3":"Ward","ENGTYPE_3":"Ward","CC_3":"990","HASC_3":"NA","name":"Embomos.city"},
"geometry":{"type": "MultiPolygon","coordinates": [[[[35.3168,-0.6495,2020.0981],[35.3235,-0.65,2026.6022],[35.3288,-0.6476,2007.0753],[35.3297,-0.6449,2017.3743],[35.3334,-0.6463,1984.7281],[35.3355,-0.6431,2028.4136],[35.3372,-0.6445,2008.1078],[35.3392,-0.643,1975.1785],[35.3392,-0.6457,1963.4294],[35.3412,-0.6475,1964.7024],[35.3428,-0.6453,1996.1665],[35.3528,-0.643,1989.1368],[35.3544,-0.6451,2005.5093],[35.3595,-0.6443,2060.4314],[35.3626,-0.6456,2061.9172],[35.3637,-0.6439,2081.2383],[35.3692,-0.6461,2028.9697],[35.3736,-0.6436,2056.582],[35.3755,-0.6446,2042.309],[35.3744,-0.6457,2042.309],[35.3777,-0.6502,2035.2632],[35.3812,-0.6499,2082.9221],[35.384,-0.6528,2151.0518],[35.3918,-0.6492,2144.3765],[35.3952,-0.6456,2120.0898],[35.3969,-0.6386,2114.4746],[35.5872,-0.5833,2349.2422],[35.5073,-0.4503,2453.1501],[35.5039,-0.4564,2429.583],[35.5046,-0.4621,2381.3115],[35.4984,-0.4673,2426.2405],[35.4949,-0.4758,2372.7886],[35.4886,-0.4811,2350.0752],[35.4891,-0.4831,2343.1438],[35.4822,-0.483,2324.1128],[35.4782,-0.4865,2334.2668],[35.471,-0.4873,2334.4019],[35.4647,-0.4846,2282.6143],[35.4636,-0.4826,2303.2239],[35.4588,-0.4828,2256.2361],[35.4568,-0.4805,2305.8091],[35.4495,-0.4794,2280.1482],[35.4423,-0.4816,2207.7581],[35.4363,-0.4867,2269.9395],[35.4303,-0.4862,2246.3735],[35.422,-0.49,2285.0718],[35.4153,-0.4902,2281.0098],[35.414,-0.4929,2276.7207],[35.4099,-0.4947,2269.2473],[35.407,-0.4934,2296.1536],[35.404,-0.4944,2271.4114],[35.3997,-0.4923,2271.8394],[35.3924,-0.4936,2260.4624],[35.388,-0.495,2243.3105],[35.382,-0.5024,2177.2278],[35.3752,-0.5055,2243.6387],[35.3725,-0.5097,2151.9221],[35.3731,-0.5113,2164.8152],[35.3696,-0.5128,2186.1133],[35.3682,-0.5153,2163.4727],[35.3628,-0.5153,2179.7029],[35.3622,-0.5212,2128.1841],[35.3601,-0.5226,2128.2344],[35.3599,-0.5205,2147.8711],[35.3579,-0.5248,2088.7229],[35.354,-0.527,2094.189],[35.3549,-0.5284,2060.3364],[35.3528,-0.5315,2081.2546],[35.3519,-0.5399,2056.4111],[35.3498,-0.5399,2072.3574],[35.3503,-0.5414,2052.3479],[35.3477,-0.5432,2086.4155],[35.349,-0.5471,2018.4022],[35.3447,-0.5521,2038.2401],[35.3466,-0.5552,2065.1484],[35.3421,-0.5568,2048.0142],[35.3406,-0.5606,2053.78],[35.3415,-0.5631,1997.8474],[35.3391,-0.5629,2052.4124],[35.3364,-0.5677,2031.6467],[35.3375,-0.5693,2061.5891],[35.3366,-0.5721,1995.3411],[35.3341,-0.5731,2010.6837],[35.3356,-0.5765,1992.3439],[35.3324,-0.5786,2015.6064],[35.3376,-0.5806,1986.2587],[35.3444,-0.5787,2095.5259],[35.3483,-0.5795,2053.6904],[35.3499,-0.5818,2041.7068],[35.3474,-0.5889,2043.5946],[35.3496,-0.5928,2053.0266],[35.3487,-0.597,2079.1958],[35.345,-0.6015,2134.7747],[35.3421,-0.6093,2142.9236],[35.3442,-0.6109,2126.7971],[35.3438,-0.6129,2123.708],[35.3409,-0.6119,2161.6814],[35.3376,-0.6167,2227.5774],[35.3376,-0.6206,2151.0327],[35.3326,-0.6207,2078.0579],[35.3255,-0.6242,2088.4419],[35.3206,-0.6243,2015.7888],[35.3144,-0.6197,1973.776],[35.3112,-0.6208,2015.3704],[35.3098,-0.626,1983.8949],[35.3041,-0.6278,2024.8114],[35.2941,-0.6349,1988.0709],[35.2927,-0.6398,1938.2854],[35.2876,-0.6454,1975.4861],[35.2941,-0.6445,1928.3937],[35.2961,-0.6474,1964.0132],[35.2978,-0.6454,1937.3452],[35.3051,-0.6477,1963.2311],[35.3073,-0.6449,1960.2429],[35.3079,-0.6472,1974.7515],[35.3101,-0.6463,1983.6973],[35.3101,-0.6478,1983.6973],[35.3124,-0.6473,2024.4908],[35.3168,-0.6495,2020.0981]]]]}}