{"type": "Feature","bbox": [35.1132,1.8275,35.3937,2.1727],"geometry": {"type": "MultiPolygon","coordinates": [[[[35.3432,2.1714,763.896],[35.3389,2.1727,765.6562],[35.3324,2.1662,778.5756],[35.3286,2.1672,781.133],[35.327,2.1644,785.5173],[35.3218,2.1635,788.5598],[35.32,2.1609,791.0764],[35.3165,2.1631,791.0592],[35.3122,2.1623,795.7867],[35.3017,2.1525,817.0541],[35.2776,2.1492,861.7248],[35.2721,2.1448,899.6573],[35.2685,2.136,988.6904],[35.2571,2.1483,1012.9999],[35.2527,2.1275,1035.2228],[35.2461,2.1262,1091.1],[35.2465,2.1186,1172.1571],[35.2413,2.1124,1208.6337],[35.2394,2.0897,1273.0869],[35.2365,2.0818,1342.0604],[35.2347,2.0691,1472.9508],[35.2293,2.0641,1481.2977],[35.2266,2.0537,1518.1398],[35.2152,2.0426,1677.9189],[35.2151,2.0342,1704.3569],[35.2107,2.0313,1667.2253],[35.2054,2.0447,1687.7661],[35.1974,2.0547,1900.8888],[35.1983,2.051,2020.3069],[35.1938,2.0422,1777.2672],[35.1872,2.0387,1774.8379],[35.18,2.0379,1802.4713],[35.1663,2.0294,2263.5449],[35.1665,2.0218,2208.5945],[35.1628,2.0164,2026.343],[35.1546,2.0157,2055.9463],[35.144,2.0114,2268.176],[35.1323,2.0041,1965.2413],[35.127,1.9952,2190.4604],[35.1231,1.9933,2114.4185],[35.1231,1.9666,2111.4082],[35.1194,1.9646,2049.9792],[35.1133,1.9563,1843.9003],[35.1132,1.9439,1482.1089],[35.1159,1.9368,1433.5226],[35.1192,1.9353,1404.9685],[35.1237,1.928,1379.353],[35.1233,1.9265,1370.8722],[35.1269,1.9254,1386.0181],[35.133,1.9168,1334.8506],[35.1329,1.9116,1322.6501],[35.1359,1.9113,1322.0225],[35.1413,1.9043,1298.2335],[35.1452,1.9033,1295.437],[35.1497,1.8995,1280.6974],[35.153,1.8992,1274.4099],[35.1586,1.8939,1268.193],[35.1591,1.891,1264.8198],[35.1636,1.8882,1257.6364],[35.1643,1.8832,1254.4712],[35.1677,1.8821,1255.6649],[35.1687,1.8794,1249.5396],[35.1672,1.8784,1244.6023],[35.1743,1.87,1226.1062],[35.1761,1.864,1219.9369],[35.178,1.8639,1219.9369],[35.1785,1.86,1211.2104],[35.1829,1.8569,1221.1213],[35.1885,1.8485,1198.3921],[35.196,1.8419,1196.1149],[35.1994,1.8352,1174.7865],[35.2006,1.836,1179.4835],[35.2046,1.8309,1178.6921],[35.2101,1.8275,1168.5585],[35.2202,1.8287,1134.5],[35.2212,1.8347,1153.8779],[35.2277,1.839,1141.4043],[35.2317,1.839,1135.9309],[35.2341,1.8465,1144.6317],[35.2413,1.8521,1167.7241],[35.2527,1.8549,1144.174],[35.2589,1.8537,1134.7681],[35.2626,1.8492,1138.5901],[35.2618,1.8461,1134.5],[35.2644,1.841,1134.5],[35.279,1.832,1134.5],[35.2883,1.8317,1134.5],[35.2914,1.8284,1151.7889],[35.3005,1.8284,1134.5],[35.305,1.8338,1134.5],[35.3072,1.8426,1134.5],[35.3075,1.8564,1134.5],[35.3044,1.8573,1134.5],[35.3057,1.8711,1134.5],[35.3104,1.8811,1134.5],[35.32,1.8862,1134.5],[35.3295,1.8949,1134.5],[35.3287,1.8977,1134.5],[35.3324,1.9,1193.5298],[35.3344,1.9054,1078.988],[35.3341,1.916,1196.9443],[35.3365,1.9204,1332.5281],[35.3399,1.9239,1289.49],[35.3435,1.9228,1011.4271],[35.3492,1.9241,811.9862],[35.3527,1.927,809.8555],[35.354,1.9312,811.6024],[35.3593,1.9304,780.5627],[35.3703,1.9349,767.8763],[35.3745,1.9402,770.5393],[35.3749,1.9465,769.3118],[35.3769,1.9502,771.9803],[35.3805,1.9533,765.5401],[35.3872,1.9549,766.6562],[35.3913,1.9589,758.9556],[35.3894,1.9617,759.9319],[35.3893,1.9654,768.8942],[35.3937,1.9688,761.1421],[35.3432,2.1714,763.896]]]]}
,"properties": {"GID_3": "KEN.47.1.3_1","GID_0": "KEN","country": "Kenya","GID_1": "KEN.47_1","province": "WestPokot","NL_NAME_1": "NA","GID_2": "KEN.47.1_1","county": "Kacheliba","NL_NAME_2": "NA","city": "Kasei","VARNAME_3": "NA","NL_NAME_3": "NA","TYPE_3": "Ward","ENGTYPE_3": "Ward","CC_3": "653","HASC_3": "NA","name": "Kasei.city","area_km2": 693.9121,"hist_schema_id": "Elevation0-9000","hist_area_km2": {"750": 1.0594,"775": 40.1098,"800": 52.3358,"825": 40.7456,"850": 29.9819,"875": 16.6331,"900": 7.2677,"925": 5.8693,"950": 4.8946,"975": 5.9116,"1000": 6.6744,"1025": 5.6786,"1050": 5.4879,"1075": 4.5768,"1100": 4.492,"1125": 19.9401,"1150": 17.9483,"1175": 16.2954,"1200": 14.5576,"1225": 11.9301,"1250": 12.7353,"1275": 14.367,"1300": 16.3165,"1325": 16.7403,"1350": 16.2952,"1375": 15.8926,"1400": 12.9683,"1425": 13.2013,"1450": 12.8834,"1475": 10.8915,"1500": 9.9592,"1525": 9.1539,"1550": 8.4547,"1575": 9.6201,"1600": 9.7048,"1625": 9.8531,"1650": 11.2304,"1675": 11.6542,"1700": 10.8703,"1725": 9.1116,"1750": 8.4547,"1775": 7.8402,"1800": 8.7513,"1825": 8.3275,"1850": 8.9208,"1875": 7.8825,"1900": 7.5435,"1925": 6.929,"1950": 7.0349,"1975": 6.2721,"2000": 6.5264,"2025": 5.9543,"2050": 6.7807,"2075": 8.4123,"2100": 7.035,"2125": 5.1067,"2150": 5.0643,"2175": 4.8524,"2200": 4.1532,"2225": 2.3309,"2250": 1.9495,"2275": 1.3773,"2300": 0.5509,"2325": 0.2755,"2350": 0.2966,"2375": 0.2755,"2400": 0.0848,"2425": 0.1271,"2450": 0.2755,"2475": 0.1483,"2500": 0.0848}}}