{"type": "Feature","bbox": [37.2539,-0.5414,37.3126,-0.4531],"geometry": {"type": "MultiPolygon","coordinates": [[[[37.2888,-0.4531,1714.6959],[37.2867,-0.4551,1690.051],[37.2825,-0.4537,1740.6757],[37.2794,-0.4611,1700.2965],[37.2814,-0.4645,1690.1627],[37.2771,-0.4654,1686.0229],[37.2734,-0.4625,1714.684],[37.2597,-0.4571,1750.9071],[37.2588,-0.4653,1717.7629],[37.2545,-0.4651,1720.3258],[37.2539,-0.4734,1687.7247],[37.2571,-0.4745,1681.2791],[37.2637,-0.482,1640.2311],[37.2671,-0.4926,1598.415],[37.2706,-0.494,1589.7668],[37.2747,-0.5027,1556.3282],[37.2745,-0.5053,1539.3484],[37.2757,-0.5069,1531.859],[37.2773,-0.5056,1533.5527],[37.2834,-0.5198,1473.2013],[37.2797,-0.521,1475.1104],[37.2837,-0.528,1432.3461],[37.2878,-0.5289,1424.7773],[37.2894,-0.5278,1432.5079],[37.2936,-0.5318,1415.7568],[37.2942,-0.5414,1347.4744],[37.3126,-0.5311,1374.226],[37.3117,-0.5242,1421.4474],[37.3067,-0.5246,1395.3184],[37.3079,-0.5198,1390.0229],[37.3055,-0.5167,1414.851],[37.3068,-0.5123,1454.2278],[37.3029,-0.5028,1468.7332],[37.3036,-0.4977,1485.5115],[37.2971,-0.4878,1565.4604],[37.2912,-0.4853,1592.4333],[37.2932,-0.4735,1619.2178],[37.2921,-0.4644,1646.752],[37.2904,-0.4618,1665.8037],[37.2914,-0.4571,1693.8],[37.2888,-0.4531,1714.6959]]]]}
,"properties": {"GID_3": "KEN.15.2.3_1","GID_0": "KEN","country": "Kenya","GID_1": "KEN.15_1","province": "Kirinyaga","NL_NAME_1": "NA","GID_2": "KEN.15.2_1","county": "KirinyagaCentral","NL_NAME_2": "NA","city": "Kerugoya","VARNAME_3": "NA","NL_NAME_3": "NA","TYPE_3": "Ward","ENGTYPE_3": "Ward","CC_3": "514","HASC_3": "NA","name": "Kerugoya.city","area_km2": 27.94347,"hist_schema_id": "Elevation0-9000","hist_area_km2": {"1350": 0.16961,"1375": 0.55123,"1400": 1.6325,"1425": 1.75971,"1450": 2.71377,"1475": 2.05653,"1500": 1.63251,"1525": 1.82332,"1550": 2.16254,"1575": 2.12014,"1600": 1.95053,"1625": 2.26856,"1650": 2.20495,"1675": 1.73852,"1700": 2.05655,"1725": 0.93287,"1750": 0.16961}}}