{"type": "Feature","bbox": [34.7867,0.9844,35.7905,2.6527],"geometry": {"type": "MultiPolygon","coordinates": [[[[35.4222,1.1893,3079.1572],[35.4232,1.1927,3008.6245],[35.5002,1.257,3441.6199],[35.5443,1.2911,2987.1001],[35.5588,1.2905,2910.9331],[35.5598,1.2936,2721.8794],[35.5681,1.2964,2602.3098],[35.5794,1.2963,2380.1477],[35.5889,1.2871,1799.822],[35.6065,1.2832,1172.4205],[35.6122,1.2854,1134.5586],[35.6165,1.2938,1079.2261],[35.624,1.2993,1038.5006],[35.6279,1.3002,1031.3116],[35.6317,1.3054,1022.1025],[35.6725,1.3201,942.0013],[35.698,1.3253,912.7504],[35.6971,1.3286,910.7264],[35.7,1.3307,910.254],[35.7001,1.3328,911.8139],[35.6964,1.3333,912.1919],[35.6982,1.3353,912.9799],[35.695,1.3392,910.9883],[35.696,1.3432,909.0754],[35.6888,1.3458,906.4067],[35.6924,1.348,905.9172],[35.691,1.3496,905.3813],[35.6891,1.349,907.458],[35.6877,1.3514,911.7729],[35.691,1.3571,904.3477],[35.6878,1.3626,907.6744],[35.6919,1.3677,904.0194],[35.6909,1.3718,905.2115],[35.6928,1.3732,903.7418],[35.6947,1.372,901.4475],[35.6933,1.3769,909.0445],[35.6957,1.3791,910.142],[35.6955,1.3815,911.0125],[35.7027,1.3899,901.7338],[35.7024,1.3916,898.9289],[35.6994,1.3918,904.3346],[35.6991,1.3941,903.1233],[35.7029,1.3999,896.7762],[35.7035,1.4056,899.4049],[35.7119,1.4063,894.6226],[35.7103,1.4091,900.8746],[35.7067,1.4102,896.2332],[35.7072,1.4138,894.1133],[35.7116,1.417,899.3558],[35.7067,1.4207,894.0244],[35.7065,1.424,892.7402],[35.7082,1.4255,892.374],[35.7057,1.4326,896.751],[35.709,1.4356,890.9725],[35.7065,1.4425,905.5082],[35.7122,1.4465,890.709],[35.7128,1.4519,897.1224],[35.7209,1.4564,888.6519],[35.7206,1.4611,889.2313],[35.7231,1.4621,885.5333],[35.7234,1.465,885.6907],[35.7192,1.4755,894.5031],[35.7207,1.4782,894.3514],[35.7247,1.4796,892.0857],[35.7269,1.4848,890.3895],[35.7302,1.486,888.2234],[35.7289,1.4914,896.8184],[35.7317,1.4922,892.5724],[35.7391,1.502,896.7695],[35.7416,1.5028,893.3746],[35.7425,1.5088,899.0597],[35.7524,1.5104,874.6334],[35.751,1.5142,885.1404],[35.7539,1.5157,938.1137],[35.7561,1.5211,889.0126],[35.7616,1.5233,871.5952],[35.7608,1.5266,873.4669],[35.7641,1.5315,872.1558],[35.7623,1.5335,891.8745],[35.7635,1.5367,881.1041],[35.7691,1.5381,858.7098],[35.7683,1.5471,876.1891],[35.7706,1.5543,880.9154],[35.7739,1.5568,869.0745],[35.776,1.5658,855.4005],[35.7755,1.5758,855.1224],[35.7798,1.5757,847.1732],[35.7797,1.5822,847.6797],[35.7813,1.584,846.1246],[35.7841,1.5841,850.0621],[35.7791,1.5931,844.375],[35.7824,1.5973,840.4449],[35.7805,1.6004,844.9136],[35.7818,1.6052,840.4413],[35.7791,1.6088,842.5287],[35.7833,1.6096,836.9404],[35.7867,1.6135,838.2604],[35.7845,1.6145,833.5262],[35.7841,1.6175,831.1504],[35.7806,1.6208,832.9485],[35.7802,1.6272,847.4263],[35.7809,1.629,839.5063],[35.7871,1.6286,827.1529],[35.7905,1.6307,848.3789],[35.7865,1.6365,850.1393],[35.7812,1.6375,862.6423],[35.7802,1.6432,827.4017],[35.7773,1.6462,826.8022],[35.7775,1.649,837.7333],[35.7817,1.6531,824.0797],[35.7794,1.6551,827.1894],[35.7798,1.6594,819.0242],[35.7811,1.6607,813.9989],[35.785,1.6595,816.3916],[35.786,1.6615,832.1498],[35.7817,1.6683,818.7714],[35.771,1.6705,846.8458],[35.762,1.6746,869.0703],[35.7588,1.6779,873.8986],[35.7532,1.6784,890.4336],[35.7509,1.6804,898.2944],[35.7414,1.6833,914.9456],[35.7386,1.683,918.0436],[35.7254,1.6929,965.6559],[35.7198,1.6944,961.9298],[35.7188,1.6973,975.077],[35.7021,1.711,1016.7814],[35.6851,1.72,1027.072],[35.679,1.7255,1011.239],[35.6736,1.7272,997.529],[35.6694,1.7352,992.4767],[35.6577,1.7378,975.9067],[35.6485,1.7461,965.7783],[35.6407,1.7466,954.1579],[35.6384,1.7493,951.3638],[35.6289,1.751,941.0392],[35.6203,1.7547,921.4823],[35.6185,1.7538,919.1806],[35.6135,1.7559,913.2917],[35.6084,1.7554,913.867],[35.6076,1.7574,908.7625],[35.6037,1.7586,903.7451],[35.5984,1.7666,902.4776],[35.5956,1.7666,898.9219],[35.5938,1.7685,896.6733],[35.5858,1.7643,891.0879],[35.5771,1.765,882.7141],[35.5744,1.7668,880.0739],[35.5695,1.7664,876.7292],[35.5676,1.764,876.1694],[35.5621,1.7672,869.122],[35.5596,1.7662,865.8906],[35.5493,1.7705,857.3815],[35.5453,1.7684,854.8149],[35.5373,1.7699,847.5944],[35.5327,1.7677,844.405],[35.528,1.7682,838.5217],[35.5159,1.7744,826.5217],[35.5036,1.7708,815.3007],[35.5,1.7729,819.2669],[35.498,1.7709,811.981],[35.4985,1.7733,817.1849],[35.4948,1.774,809.6361],[35.4972,1.7804,813.9979],[35.4953,1.7811,811.2124],[35.495,1.7832,808.7424],[35.4925,1.7832,806.9921],[35.4915,1.7849,806.7422],[35.4928,1.787,809.5607],[35.4897,1.7862,806.5897],[35.4879,1.7904,804.0391],[35.4853,1.7917,803.7554],[35.4858,1.7953,806.2277],[35.4827,1.7966,803.9141],[35.4825,1.8019,805.728],[35.4759,1.8043,799.5735],[35.4746,1.8085,799.3602],[35.4709,1.8083,801.1033],[35.4715,1.8102,800.3643],[35.4742,1.8108,797.8784],[35.4745,1.8145,796.8123],[35.4776,1.8179,796.9229],[35.473,1.8186,795.5965],[35.4726,1.822,795.23],[35.4769,1.8267,792.8335],[35.4747,1.8284,794.2233],[35.4767,1.8311,795.5881],[35.4743,1.8333,794.9249],[35.4732,1.8411,796.1616],[35.4691,1.8436,795.1755],[35.4675,1.8474,795.7098],[35.4608,1.8455,790.796],[35.4575,1.8516,788.1899],[35.4527,1.8506,787.4351],[35.4518,1.8554,787.3915],[35.3694,1.9343,769.1014],[35.3745,1.9402,770.5393],[35.3749,1.9465,769.3118],[35.3769,1.9502,771.9803],[35.3805,1.9533,765.5401],[35.3872,1.9549,766.6562],[35.3912,1.9585,759.2713],[35.3893,1.9654,768.8942],[35.3937,1.9688,761.1421],[35.3432,2.1714,763.896],[35.3118,2.2841,733.2894],[35.3073,2.3307,725.4355],[35.3031,2.403,696.8162],[35.3024,2.4018,696.6586],[35.2976,2.4206,689.5397],[35.2917,2.4285,699.4232],[35.2721,2.4374,707.7397],[35.2507,2.4397,718.3337],[35.2459,2.4455,729.3654],[35.2325,2.4469,738.8054],[35.2288,2.4498,744.7393],[35.2231,2.4593,756.8002],[35.2211,2.4662,768.0115],[35.2205,2.4788,778.087],[35.2153,2.4965,764.629],[35.2129,2.5425,782.1886],[35.1869,2.5716,1094.4719],[35.1858,2.5789,921.0684],[35.1784,2.598,812.849],[35.1668,2.6167,784.9636],[35.1575,2.6284,789.9794],[35.1317,2.6452,776.657],[35.1126,2.6526,771.7042],[35.1106,2.6499,775.0427],[35.1091,2.6527,775.0713],[35.0961,2.6495,785.2535],[35.0923,2.6454,791.4102],[35.0811,2.6394,801.5844],[35.0742,2.6284,806.4303],[35.0654,2.6248,813.7646],[35.0595,2.6108,821.0443],[35.0598,2.6033,827.2804],[35.0565,2.5912,834.442],[35.0583,2.5776,847.3063],[35.0555,2.5677,855.86],[35.0386,2.5379,912.1786],[35.0197,2.513,1278.3712],[35.0156,2.5018,1251.5696],[35.0204,2.4877,1352.9252],[35.0193,2.4748,1339.0262],[35.0218,2.4685,1359.6665],[35.0194,2.4607,1130.3066],[35.0228,2.4468,1569.168],[35.0256,2.4439,1549.8782],[35.0256,2.4365,1662.5635],[34.9702,2.4483,1244.9526],[34.9536,2.4579,1048.2046],[34.9461,2.4542,1133.6775],[34.9448,2.4554,1152.7764],[34.9421,2.4531,1148.3949],[34.9437,2.4494,1162.2097],[34.9398,2.4502,1208.7849],[34.9404,2.4483,1185.525],[34.9366,2.4439,1208.65],[34.9375,2.4407,1226.7136],[34.9358,2.4383,1224.5298],[34.9312,2.4387,1247.965],[34.9323,2.4311,1257.5981],[34.9298,2.429,1264.7184],[34.9255,2.4289,1281.7756],[34.926,2.4274,1275.4977],[34.9222,2.4269,1288.0325],[34.9189,2.4244,1295.3464],[34.9166,2.4249,1297.9072],[34.9171,2.4102,1314.5505],[34.9143,2.4032,1337.6636],[34.915,2.3975,1351.9773],[34.9197,2.3937,1490.5544],[34.9178,2.3903,1503.8796],[34.9202,2.3733,1587.3638],[34.9455,2.2115,1495.6173],[34.9797,2.0539,1387.2847],[34.9845,1.9854,1353.6003],[35.0002,1.9626,1275.2238],[35.0003,1.7587,1196.939],[34.9915,1.6665,1294.906],[34.9672,1.6169,1284.4259],[34.9436,1.5768,1397.7898],[34.9235,1.5627,1470.6041],[34.9066,1.5532,1437.9879],[34.8902,1.5554,1462.6099],[34.864,1.5285,1468.2501],[34.8442,1.4572,1506.3907],[34.8417,1.4546,1530.4989],[34.831,1.4519,1426.187],[34.8269,1.448,1454.0928],[34.8167,1.431,1471.3298],[34.8008,1.4233,1506.5782],[34.7942,1.4147,1540.4911],[34.7944,1.4104,1559.2333],[34.7993,1.4043,1552.0658],[34.8049,1.3924,1548.6055],[34.8065,1.384,1563.9034],[34.7867,1.3664,1967.9969],[34.829,1.3098,1633.4631],[34.83,1.3038,1581.429],[34.8282,1.2967,1664.762],[34.829,1.275,1720.1898],[34.8314,1.2712,1726.8802],[34.8248,1.2646,1757.87],[34.8196,1.2622,1786.0229],[34.9067,1.2838,1765.2751],[34.9051,1.2524,1844.5537],[34.939,1.2536,1795.4539],[34.97,1.2485,1845.6765],[34.9819,1.254,1652.3552],[34.9792,1.2567,1575.3773],[34.9939,1.2632,1802.8666],[35.0126,1.2599,1899.5896],[35.0256,1.2379,1930.085],[35.0436,1.2204,1910.8113],[35.036,1.2092,1917.2914],[35.0426,1.2002,1917.3303],[35.0468,1.1992,1898.1112],[35.0615,1.1858,1919.1012],[35.0739,1.1826,1908.3657],[35.08,1.1784,1899.7605],[35.0845,1.173,1903.6971],[35.088,1.1877,1958.4401],[35.1198,1.193,1923.3738],[35.1254,1.1887,1911.3536],[35.1515,1.2046,2217.6162],[35.2484,1.1583,2243.5791],[35.3253,1.124,2444.0427],[35.3336,1.1277,2460.3464],[35.3439,1.1088,2500.1213],[35.3451,1.1036,2468.5044],[35.3503,1.0971,2500.6899],[35.3524,1.0881,2425.3955],[35.3511,1.0837,2420.114],[35.3485,1.0832,2472.6089],[35.3498,1.0781,2401.2578],[35.3464,1.0745,2438.8362],[35.3428,1.0656,2397.7822],[35.3538,1.0643,2382.2932],[35.3712,1.065,2487.8416],[35.3715,1.0611,2456.7913],[35.3831,1.0542,2599.4482],[35.3817,1.039,2425.5728],[35.3849,1.033,2572.2117],[35.3886,1.0324,2664.3525],[35.3885,1.0231,2609.8938],[35.3735,1.0215,2432.623],[35.3716,1.0155,2518.2646],[35.3664,1.0144,2388.5273],[35.3662,1.0104,2285.8794],[35.379,1.0072,2576.4316],[35.3894,1.001,2650.6445],[35.3996,0.9894,2604.0376],[35.4036,0.9899,2559.2422],[35.4197,0.9844,2635.7295],[35.4308,0.9852,2611.0391],[35.4343,0.9968,2642.3979],[35.434,1.0089,2723.3093],[35.4355,1.0118,2794.6533],[35.4388,1.0076,2809.4321],[35.4483,1.0077,2703.4893],[35.4584,1.0056,2814.5366],[35.4676,1.0062,2719.0205],[35.4682,1.0045,2756.1389],[35.4739,1.0062,2535.251],[35.4732,1.0177,2571.1724],[35.4755,1.0234,2515.1216],[35.474,1.0318,2730.0515],[35.4714,1.0315,2752.3657],[35.467,1.0344,2625.4917],[35.4673,1.0407,2673.011],[35.4622,1.0442,2818.8599],[35.4536,1.0436,2748.6025],[35.4537,1.057,2867.4722],[35.4492,1.0613,2863.5361],[35.4477,1.0709,2872.1011],[35.448,1.0794,2783.0598],[35.4539,1.0879,2826.0315],[35.4518,1.0973,2847.5601],[35.4479,1.1032,2821.5276],[35.4488,1.1228,2878.9067],[35.4474,1.1273,2960.9426],[35.4508,1.1297,2965.8528],[35.453,1.1228,2914.4531],[35.4578,1.1247,2947.3643],[35.4685,1.1244,2901.9739],[35.4736,1.1348,2896.9067],[35.4727,1.1441,2945.1636],[35.4608,1.1647,3138.7205],[35.4583,1.165,3164.571],[35.4542,1.1625,3218.8955],[35.4483,1.1642,3130.6482],[35.4458,1.1676,3143.1897],[35.4414,1.165,3065.3291],[35.442,1.1693,3195.0073],[35.4375,1.1702,3144.9824],[35.4389,1.173,3111.8997],[35.4374,1.1765,3149.4058],[35.4329,1.1766,3027.978],[35.4326,1.179,3130.7715],[35.4294,1.1772,3054.5154],[35.4278,1.1739,3028.7676],[35.4214,1.1765,3001.2361],[35.4234,1.1795,3099.1047],[35.4222,1.1893,3079.1572]],
[[35.4677,1.0078,2681.519],[35.4669,1.0076,2681.519],[35.4688,1.0093,2608.9678],[35.4687,1.0086,2681.3276],[35.4677,1.0078,2681.519]],
[[35.4661,1.0201,2731.6575],[35.4684,1.0177,2700.3994],[35.466,1.0138,2709.1226],[35.4688,1.0128,2623.3179],[35.4639,1.0106,2712.0117],[35.4603,1.0124,2810.3911],[35.462,1.0139,2814.2747],[35.4604,1.0139,2814.2747],[35.4603,1.0168,2806.7322],[35.4632,1.0173,2772.5703],[35.4616,1.0196,2766.5278],[35.4661,1.0201,2731.6575]]]]}
,"properties": {"GID_1": "KEN.47_1","GID_0": "KEN","country": "Kenya","province": "WestPokot","VARNAME_1": "NA","NL_NAME_1": "NA","TYPE_1": "County","ENGTYPE_1": "County","CC_1": "24","HASC_1": "KE.WP","ISO_1": "KE-47","name": "West_Pokot.province","area_km2": 9550.204,"hist_schema_id": "Elevation0-9000","hist_area_km2": {"700": 13.134,"725": 63.299,"750": 89.231,"775": 139.147,"800": 195.741,"825": 181.936,"850": 176.295,"875": 183.509,"900": 226.48,"925": 275.57,"950": 276.338,"975": 184.671,"1000": 131.495,"1025": 89.767,"1050": 68.275,"1075": 57.424,"1100": 53.525,"1125": 95.207,"1150": 103.664,"1175": 177.157,"1200": 242.006,"1225": 239.636,"1250": 252.631,"1275": 279.358,"1300": 295.701,"1325": 284.894,"1350": 271.671,"1375": 244.648,"1400": 220.018,"1425": 202.341,"1450": 186.486,"1475": 179.365,"1500": 175.231,"1525": 179.044,"1550": 189.025,"1575": 197.777,"1600": 199.154,"1625": 188.775,"1650": 176.909,"1675": 156.798,"1700": 134.081,"1725": 113.887,"1750": 99.73,"1775": 91.742,"1800": 83.902,"1825": 74.535,"1850": 69.301,"1875": 65.465,"1900": 70.914,"1925": 74.073,"1950": 68.711,"1975": 63.73,"2000": 63.433,"2025": 58.411,"2050": 55.825,"2075": 51.734,"2100": 49.721,"2125": 47.39,"2150": 43.914,"2175": 39.887,"2200": 38.276,"2225": 38.893,"2250": 36.922,"2275": 37.919,"2300": 35.672,"2325": 35.651,"2350": 33.002,"2375": 30.416,"2400": 27.067,"2425": 26.792,"2450": 26.283,"2475": 22.214,"2500": 20.581,"2525": 20.115,"2550": 18.038,"2575": 18.483,"2600": 18.25,"2625": 18.908,"2650": 21.261,"2675": 20.498,"2700": 21.727,"2725": 21.685,"2750": 22.596,"2775": 25.437,"2800": 26.433,"2825": 31.563,"2850": 32.22,"2875": 34.425,"2900": 30.927,"2925": 26.412,"2950": 22.406,"2975": 18.102,"3000": 16.322,"3025": 14.35,"3050": 11.998,"3075": 11.086,"3100": 10.281,"3125": 7.885,"3150": 6.953,"3175": 6.825,"3200": 6.931,"3225": 6.974,"3250": 7.398,"3275": 7.08,"3300": 4.748,"3325": 3.095,"3350": 1.293,"3375": 0.996,"3400": 0.827,"3425": 0.911,"3450": 0.615,"3475": 0.36,"3500": 0.339}}}