{"type": "Feature","bbox": [36.7177,-2.4027,37.7244,-1.3807],"geometry": {"type": "MultiPolygon","coordinates": [[[[37.1868,-2.185,1273.1282],[37.191,-2.1864,1270.5505],[37.1956,-2.1942,1262.8706],[37.1984,-2.1932,1264.6888],[37.1988,-2.1977,1264.0779],[37.2022,-2.1983,1259.3826],[37.2076,-2.2039,1263.0502],[37.207,-2.2058,1258.4888],[37.2392,-2.2018,1262.5223],[37.2453,-2.2082,1255.8433],[37.2573,-2.2075,1259.4369],[37.2639,-2.205,1266.1011],[37.2744,-2.2062,1287.5651],[37.2851,-2.2144,1273.6062],[37.3024,-2.2205,1276.7557],[37.3065,-2.2246,1287.3608],[37.3134,-2.228,1277.6787],[37.3168,-2.2275,1276.2543],[37.3396,-2.2378,1271.2759],[37.3503,-2.2602,1278.2753],[37.3596,-2.2749,1281.3782],[37.3629,-2.2929,1260.235],[37.3776,-2.3353,1206.5317],[37.3846,-2.3391,1189.6455],[37.3926,-2.341,1181.8315],[37.4052,-2.3497,1164.7961],[37.4344,-2.3813,1120.8785],[37.4511,-2.395,1107.2922],[37.5031,-2.3977,1071.3442],[37.5087,-2.3985,1070.8058],[37.5137,-2.4027,1067.947],[37.5192,-2.4024,1066.6389],[37.5227,-2.3987,1065.069],[37.5258,-2.399,1064.2902],[37.5292,-2.3957,1062.91],[37.5298,-2.3911,1063.2826],[37.5332,-2.3883,1058.5051],[37.5364,-2.3808,1061.4033],[37.5415,-2.3782,1057.3943],[37.5527,-2.3794,1066.7244],[37.5653,-2.3843,1118.4065],[37.5709,-2.3844,1104.9309],[37.5839,-2.3814,1115.3491],[37.602,-2.3738,1203.6403],[37.6187,-2.3692,1071.1357],[37.6469,-2.37,1135.631],[37.5962,-2.312,1020.0941],[37.5983,-2.3095,1019.8196],[37.5999,-2.3112,1019.937],[37.6015,-2.3092,1019.4216],[37.6042,-2.3114,1016.1079],[37.6075,-2.3079,1013.92],[37.6066,-2.3034,1014.6783],[37.6099,-2.3022,1014.0133],[37.6124,-2.2976,1012.3843],[37.6184,-2.2978,1010.8885],[37.6218,-2.3044,1007.8296],[37.6259,-2.3012,1007.552],[37.6309,-2.3014,1005.9974],[37.6323,-2.2988,1004.283],[37.6318,-2.294,1004.3495],[37.637,-2.2977,1006.8696],[37.6425,-2.2971,1020.5216],[37.6461,-2.2993,996.3548],[37.6483,-2.2915,993.9225],[37.6552,-2.2875,990.9653],[37.658,-2.2865,992.6777],[37.6602,-2.2889,991.7802],[37.6645,-2.29,989.0035],[37.6699,-2.288,988.3711],[37.6701,-2.2851,985.4449],[37.6679,-2.2839,988.0841],[37.667,-2.2809,991.7997],[37.6722,-2.2793,980.3585],[37.6733,-2.2675,981.7036],[37.6785,-2.2643,972.6035],[37.6761,-2.2595,979.5912],[37.6783,-2.2535,967.842],[37.6787,-2.2432,963.6059],[37.6756,-2.2392,961.7102],[37.6763,-2.2325,959.8391],[37.6749,-2.228,960.496],[37.6793,-2.2278,957.8442],[37.6802,-2.2256,957.8276],[37.6837,-2.2241,952.3147],[37.688,-2.2155,938.9019],[37.6947,-2.2099,930.6047],[37.7059,-2.1947,921.4207],[37.7152,-2.1904,922.134],[37.7242,-2.1915,910.8604],[37.7244,-2.1905,912.3566],[37.7231,-2.1877,921.0107],[37.7076,-2.1816,911.8579],[37.7058,-2.1725,919.5668],[37.6991,-2.1643,930.7721],[37.6924,-2.1647,949.0304],[37.665,-2.1554,970.2318],[37.6213,-2.161,996.5046],[37.5925,-2.1528,1015.636],[37.5731,-2.1376,1044.7644],[37.5646,-2.1268,1054.6804],[37.5505,-2.1271,1060.0198],[37.5452,-2.1252,1063.7983],[37.5431,-2.122,1078.8368],[37.5438,-2.1151,1082.7675],[37.5412,-2.1123,1082.4027],[37.5372,-2.1111,1100.2532],[37.5336,-2.1058,1107.4956],[37.4786,-2.0839,1154.4049],[37.4759,-2.0908,1153.2087],[37.4624,-2.0854,1157.5547],[37.4651,-2.0788,1157.9932],[37.4518,-2.0728,1167.6077],[37.3818,-2.0223,1222.6321],[37.3646,-2.0221,1242.5293],[37.3645,-2.0138,1227.7396],[37.3589,-2.0113,1232.2185],[37.3141,-2.007,1259.5237],[37.308,-2.0018,1266.9917],[37.303,-2.0016,1268.087],[37.2991,-2.0034,1273.5022],[37.2836,-1.9943,1289.1564],[37.2806,-1.994,1289.7649],[37.2758,-1.9753,1303.1077],[37.2678,-1.9642,1321.5704],[37.2657,-1.9581,1318.8195],[37.2593,-1.9585,1322.2097],[37.2556,-1.9568,1327.0815],[37.253,-1.952,1327.9055],[37.2473,-1.9493,1335.1555],[37.2442,-1.942,1340.0242],[37.2363,-1.9353,1356.6509],[37.2234,-1.9321,1371.7314],[37.2111,-1.9314,1385.9441],[37.2059,-1.9337,1390.7441],[37.2001,-1.9318,1397.4884],[37.1922,-1.9345,1405.5588],[37.1867,-1.9332,1415.0924],[37.1823,-1.9285,1428.604],[37.183,-1.9228,1420.9752],[37.1703,-1.9161,1468.6873],[37.17,-1.9119,1459.458],[37.1574,-1.8959,1497.9473],[37.159,-1.8918,1483.0085],[37.1531,-1.8862,1495.9559],[37.1543,-1.8835,1500.6068],[37.1587,-1.8846,1513.4684],[37.1604,-1.8827,1522.5229],[37.1603,-1.8745,1532.9062],[37.1637,-1.871,1550.7268],[37.1621,-1.8669,1547.0295],[37.1624,-1.8567,1552.7362],[37.1569,-1.8504,1574.1329],[37.1556,-1.8447,1564.0878],[37.1477,-1.8397,1581.0802],[37.1431,-1.8397,1576.2659],[37.1418,-1.8382,1573.1135],[37.1434,-1.8349,1560.4636],[37.1475,-1.8335,1564.2247],[37.1488,-1.8311,1573.1406],[37.1436,-1.8276,1577.0374],[37.143,-1.8222,1574.6537],[37.1457,-1.8186,1591.0692],[37.1413,-1.8116,1593.5939],[37.1525,-1.801,1611.6285],[37.1512,-1.7942,1602.6123],[37.1604,-1.7794,1604.4679],[37.1593,-1.7769,1617.2173],[37.1536,-1.7778,1621.0774],[37.152,-1.7763,1615.973],[37.1585,-1.764,1631.2159],[37.1488,-1.7592,1641.7476],[37.147,-1.751,1649.3324],[37.1489,-1.7429,1672.0031],[37.1479,-1.7382,1665.4808],[37.145,-1.7359,1660.2789],[37.141,-1.7357,1658.7811],[37.1328,-1.74,1652.2229],[37.1322,-1.7425,1655.2883],[37.1241,-1.741,1647.0514],[37.1241,-1.7383,1646.1711],[37.118,-1.7371,1641.2517],[37.1114,-1.733,1643.6235],[37.0854,-1.6983,1630.5703],[37.0843,-1.699,1630.5703],[37.0803,-1.6937,1628.9197],[37.0814,-1.6929,1629.7203],[37.0065,-1.5927,1610.0514],[37.0004,-1.5973,1610.0049],[36.9908,-1.5849,1606.3315],[36.996,-1.581,1605.6179],[36.9776,-1.5531,1576.4788],[36.9752,-1.552,1572.7148],[36.9737,-1.5549,1573.356],[36.9662,-1.5533,1581.1434],[36.9572,-1.5423,1583.8087],[36.9573,-1.5327,1598.2584],[36.9589,-1.5296,1597.2117],[36.9613,-1.53,1595.3458],[36.963,-1.5258,1601.1866],[36.9627,-1.5108,1598.6484],[36.9743,-1.4987,1573.246],[36.9708,-1.4893,1555.1982],[36.9776,-1.4748,1553.1348],[36.9474,-1.4592,1532.0112],[36.9496,-1.4554,1528.5706],[36.943,-1.4527,1537.5944],[36.9366,-1.4531,1540.6625],[36.9309,-1.4571,1544.2903],[36.9273,-1.4556,1546.3091],[36.9224,-1.4569,1549.1509],[36.9206,-1.4617,1548.5052],[36.9119,-1.4651,1557.2313],[36.9004,-1.4723,1579.3179],[36.8887,-1.4838,1579.0317],[36.8841,-1.4847,1577.0804],[36.8783,-1.4752,1598.6094],[36.8902,-1.4105,1538.251],[36.8944,-1.411,1546.9141],[36.8951,-1.4094,1559.7241],[36.8819,-1.4037,1579.662],[36.8785,-1.4048,1562.1732],[36.8755,-1.4035,1566.323],[36.8708,-1.4052,1548.2789],[36.8695,-1.4011,1601.0044],[36.8638,-1.4017,1603.9359],[36.8573,-1.3966,1614.7734],[36.8498,-1.3943,1605.9585],[36.8449,-1.3892,1621.0031],[36.8447,-1.3851,1624.4626],[36.8432,-1.3843,1629.8599],[36.8395,-1.386,1630.1575],[36.837,-1.3846,1629.5983],[36.8363,-1.3864,1626.2617],[36.8282,-1.3855,1620.933],[36.8224,-1.3833,1627.0563],[36.8203,-1.3807,1636.4421],[36.82,-1.388,1655.9966],[36.8027,-1.3897,1671.0452],[36.7938,-1.397,1693.3005],[36.7908,-1.4015,1705.5399],[36.7854,-1.4027,1710.5581],[36.785,-1.4051,1715.1294],[36.7775,-1.4037,1716.6245],[36.7784,-1.4053,1713.1774],[36.7747,-1.4069,1710.5947],[36.7743,-1.4094,1706.5347],[36.7724,-1.4078,1712.7939],[36.773,-1.4055,1718.4115],[36.7681,-1.4075,1715.7123],[36.7661,-1.4059,1717.5325],[36.7661,-1.4104,1716.5908],[36.7611,-1.4122,1731.3809],[36.7582,-1.4113,1738.0692],[36.7508,-1.4165,1733.1887],[36.7476,-1.4158,1751.8206],[36.7477,-1.4177,1744.1489],[36.7451,-1.4196,1743.3324],[36.7395,-1.4191,1760.4747],[36.7348,-1.4215,1744.0216],[36.7329,-1.4207,1755.1655],[36.7224,-1.4228,1771.896],[36.7177,-1.43,1756.6626],[36.76,-1.5016,1738.2275],[36.7847,-1.5359,1712.6328],[36.7983,-1.5621,1718.3665],[36.7955,-1.5741,1709.3578],[36.8051,-1.5897,1709.2424],[36.8198,-1.6623,1670.2021],[36.8389,-1.7433,1702.1854],[36.8341,-1.7504,1718.5232],[36.827,-1.7726,1705.4996],[36.8282,-1.7922,1727.3383],[36.8413,-1.8149,1748.3972],[36.8442,-1.8151,1750.358],[36.8489,-1.8188,1743.6893],[36.8526,-1.8176,1730.7744],[36.8673,-1.8246,1709.0875],[36.8798,-1.828,1718.6014],[36.8878,-1.8285,1710.3596],[36.9033,-1.8259,1655.1118],[36.9084,-1.8275,1650.3628],[36.9118,-1.8295,1643.6816],[36.9097,-1.8331,1641.584],[36.9101,-1.8382,1634.4995],[36.9199,-1.843,1624.5551],[36.9206,-1.847,1626.2065],[36.9189,-1.8494,1634.9573],[36.9232,-1.8526,1626.1615],[36.932,-1.8514,1611.7908],[36.9341,-1.855,1604.7155],[36.9446,-1.8591,1606.3823],[36.9556,-1.8579,1596.0763],[36.9562,-1.856,1584.0042],[36.9615,-1.8546,1590.814],[36.9677,-1.8595,1579.089],[36.9742,-1.8595,1571.2739],[36.9743,-1.8638,1566.056],[36.9781,-1.8663,1558.0757],[36.9784,-1.874,1556.6837],[36.9804,-1.8734,1550.3303],[36.9817,-1.8755,1554.3595],[36.9861,-1.876,1548.2051],[36.9914,-1.8807,1549.9609],[36.9973,-1.8807,1545.6973],[37.0001,-1.8835,1526.1958],[37.0042,-1.8822,1531.2455],[37.0038,-1.8843,1522.0349],[37.0068,-1.8851,1514.9672],[37.0061,-1.8884,1508.3828],[37.0093,-1.8884,1524.302],[37.0092,-1.8908,1507.7898],[37.0116,-1.8886,1524.373],[37.0198,-1.8976,1495.3643],[37.0211,-1.8959,1502.1426],[37.0257,-1.8981,1486.1772],[37.0275,-1.8985,1490.1334],[37.0281,-1.8966,1499.87],[37.0299,-1.8976,1499.87],[37.0322,-1.9006,1486.932],[37.0312,-1.9044,1488.4768],[37.0293,-1.9051,1489.4067],[37.0319,-1.9091,1471.614],[37.0304,-1.9102,1480.1204],[37.0318,-1.915,1486.7255],[37.0304,-1.9188,1478.0004],[37.0317,-1.9207,1471.7338],[37.028,-1.9252,1472.5498],[37.0293,-1.925,1459.382],[37.0312,-1.9288,1451.6689],[37.03,-1.934,1467.6154],[37.0319,-1.9417,1446.209],[37.0303,-1.942,1446.209],[37.0346,-1.9464,1434.5946],[37.0311,-1.9478,1460.1255],[37.0306,-1.9497,1448.4565],[37.0343,-1.9519,1446.0938],[37.0333,-1.9567,1432.0233],[37.0401,-1.9573,1433.1056],[37.0409,-1.9623,1432.4312],[37.0486,-1.9649,1426.4333],[37.0427,-1.9721,1427.5219],[37.0427,-1.974,1415.8235],[37.0482,-1.9749,1413.0179],[37.0474,-1.9773,1413.6848],[37.0424,-1.9805,1421.8804],[37.0428,-1.9827,1406.7805],[37.0469,-1.9852,1410.7426],[37.0517,-1.9965,1398.5356],[37.0624,-1.9955,1402.441],[37.0649,-2.0012,1397.9611],[37.0676,-2.0015,1396.6056],[37.067,-2.0082,1399.5474],[37.0702,-2.0124,1384.563],[37.069,-2.0211,1390.0175],[37.0779,-2.0347,1372.5461],[37.0815,-2.037,1372.2616],[37.0798,-2.0389,1374.0254],[37.081,-2.0409,1371.3942],[37.0858,-2.0424,1375.4686],[37.0939,-2.0416,1366.5576],[37.0981,-2.0467,1361.9349],[37.1056,-2.047,1369.4114],[37.1077,-2.0445,1363.0597],[37.1088,-2.0453,1360.3818],[37.1087,-2.0551,1365.6339],[37.1128,-2.0587,1354.2416],[37.1139,-2.0661,1351.3374],[37.1098,-2.0738,1356.6541],[37.1029,-2.0778,1352.8246],[37.105,-2.0803,1339.9697],[37.1015,-2.0835,1352.0573],[37.1031,-2.0863,1338.6971],[37.106,-2.085,1339.3817],[37.1059,-2.0879,1337.9926],[37.1118,-2.0906,1337.9108],[37.1144,-2.1011,1332.5361],[37.1264,-2.1103,1323.0294],[37.1287,-2.1182,1331.0057],[37.1289,-2.1265,1312.3239],[37.1318,-2.1302,1311.1611],[37.1361,-2.1306,1315.5105],[37.1359,-2.137,1309.6243],[37.1425,-2.1385,1304.7458],[37.1407,-2.1421,1302.7249],[37.1429,-2.1425,1300.0348],[37.1455,-2.1548,1297.3101],[37.1498,-2.1602,1293.8402],[37.1513,-2.1791,1287.318],[37.1542,-2.1827,1288.1644],[37.1604,-2.1814,1282.2595],[37.1651,-2.1868,1280.1531],[37.1695,-2.1849,1278.6885],[37.1743,-2.1869,1275.2642],[37.181,-2.1837,1271.9467],[37.1868,-2.185,1273.1282]]]]}
,"properties": {"GID_2": "KEN.10.2_1","GID_0": "KEN","country": "Kenya","GID_1": "KEN.10_1","province": "Kajiado","NL_NAME_1": "NA","county": "KajiadoEast","VARNAME_2": "NA","NL_NAME_2": "NA","TYPE_2": "Constituency","ENGTYPE_2": "Constituency","CC_2": "185","HASC_2": "NA","name": "Kajiado_East.county","area_km2": 3283.92,"hist_schema_id": "Elevation0-9000","hist_area_km2": {"900": 0.064,"925": 6.441,"950": 16.335,"975": 32.034,"1000": 40.402,"1025": 51.376,"1050": 64.615,"1075": 95.756,"1100": 83.682,"1125": 128.727,"1150": 165.233,"1175": 123.601,"1200": 85.826,"1225": 77.458,"1250": 88.774,"1275": 84.516,"1300": 79.137,"1325": 76.15,"1350": 93.249,"1375": 83.271,"1400": 72.19,"1425": 64.626,"1450": 66.555,"1475": 68.526,"1500": 67.934,"1525": 68.91,"1550": 72.304,"1575": 78.391,"1600": 162.342,"1625": 370.586,"1650": 265.144,"1675": 239.9,"1700": 106.074,"1725": 62.8,"1750": 31.411,"1775": 9.453,"1800": 0.085,"1825": 0.042}}}