{"type": "Feature","bbox": [40.2681,2.8258,40.8914,3.2621],"geometry": {"type": "MultiPolygon","coordinates": [[[[40.6793,3.2621,528.3124],[40.6837,3.2585,524.5082],[40.6493,3.2567,542.7213],[40.6323,3.2513,555.9834],[40.6233,3.2381,567.5704],[40.6137,3.2329,584.9037],[40.5949,3.2171,604.691],[40.5923,3.2107,619.837],[40.5867,3.2057,614.1273],[40.5793,3.1941,605.2054],[40.5667,3.1459,645.5868],[40.5561,3.1415,619.071],[40.5491,3.1309,613.5281],[40.5459,3.1191,572.5897],[40.5349,3.1049,550.05],[40.5305,3.0937,534.9568],[40.5259,3.0711,515.0457],[40.5155,3.0433,492.9842],[40.5067,3.0283,484.8031],[40.4825,3.0227,484.636],[40.4401,3.0209,482.6291],[40.4267,3.0161,485.5331],[40.4079,3.0129,483.9692],[40.4009,3.0085,483.4048],[40.3899,3.0087,483.3638],[40.3843,3.0063,482.8813],[40.3659,3.0043,483.3939],[40.3559,2.9991,490.7996],[40.3389,2.9969,481.1865],[40.3347,2.9977,481.4138],[40.3105,2.9869,483.7664],[40.2961,2.9893,486.8536],[40.2681,2.9805,488.8261],[40.2688,2.9733,500.0711],[40.4931,2.8687,449.0211],[40.4927,2.8665,448.3792],[40.4931,2.8639,448.5592],[40.4929,2.8673,449.0211],[40.4993,2.8709,446.1006],[40.5197,2.8647,449.1743],[40.5625,2.8683,450.7765],[40.5727,2.8667,456.1217],[40.6017,2.8555,481.3511],[40.6195,2.8553,525.856],[40.6365,2.8503,499.7495],[40.6507,2.8503,490.152],[40.6697,2.8537,473.7942],[40.6733,2.8533,465.6998],[40.6837,2.8459,465.6357],[40.6891,2.8453,461.7242],[40.7887,2.8409,398.2396],[40.8055,2.8439,390.5719],[40.8133,2.8437,389.0999],[40.8373,2.8355,388.0653],[40.8661,2.8303,387.0908],[40.8773,2.8258,386.7782],[40.8748,2.8389,387.064],[40.8788,2.8539,388.2213],[40.8878,2.8592,388.222],[40.8914,2.8635,385.527],[40.8873,2.8591,388.222],[40.8849,2.8609,389.2459],[40.8719,2.8803,387.9311],[40.8517,2.8993,388.7957],[40.8419,2.9159,390.5428],[40.8365,2.9219,391.3689],[40.8087,2.9403,397.4732],[40.7945,2.9539,404.6144],[40.7867,2.9593,406.8975],[40.7853,2.9633,408.7757],[40.7863,2.9759,412.629],[40.7947,2.9851,412.0574],[40.7985,2.9921,414.2242],[40.7889,3.0109,421.6576],[40.7747,3.0189,427.1389],[40.7605,3.0309,431.8845],[40.7557,3.0379,436.8819],[40.7279,3.0563,450.8124],[40.7227,3.0647,454.715],[40.7221,3.0713,457.2938],[40.7237,3.0789,461.0469],[40.7187,3.0937,466.4983],[40.7191,3.1017,468.6838],[40.7147,3.1147,473.3929],[40.7107,3.1199,475.867],[40.6949,3.1323,488.3391],[40.6891,3.1427,489.061],[40.6925,3.1601,494.7336],[40.6941,3.1809,501.7706],[40.7027,3.1937,502.2119],[40.7067,3.2209,508.5818],[40.7085,3.2193,508.4296],[40.7086945945946,3.220701081081081,507.3409],[40.7067,3.2211,508.5818],[40.6949,3.2505,519.879],[40.6913,3.2519,520.2308],[40.6843,3.2583,524.5082],[40.6793,3.2621,528.3124]]],
[[[40.7086945945946,3.220701081081081,507.3409],[40.7087,3.2207,507.3409],[40.7095,3.2265,507.5546],[40.7086945945946,3.220701081081081,507.3409]]]]}
,"properties": {"GID_2": "KEN.24.7_1","GID_0": "KEN","country": "Kenya","GID_1": "KEN.24_1","province": "Mandera","NL_NAME_1": "NA","county": "unknown1","VARNAME_2": "NA","NL_NAME_2": "NA","TYPE_2": "Constituency","ENGTYPE_2": "Constituency","CC_2": "0","HASC_2": "NA","name": "unknown1.county","area_km2": 1380.282,"hist_schema_id": "Elevation0-9000","hist_area_km2": {"375": 5.188,"400": 139.778,"425": 153.64,"450": 254.873,"475": 405.876,"500": 163.981,"525": 122.008,"550": 61.097,"575": 32.919,"600": 19.286,"625": 10.86,"650": 7.029,"675": 2.964,"700": 0.783}}}