{"type": "Feature","bbox": [35.4613,0.1745,35.7231,0.5914],"geometry": {"type": "MultiPolygon","coordinates": [[[[35.5237,0.2123,2556.3691],[35.5197,0.2074,2535.6914],[35.5197,0.2021,2560.1958],[35.5127,0.1932,2487.29],[35.5551,0.1949,2506.606],[35.5679,0.203,2581.5566],[35.5675,0.1913,2557.0999],[35.5752,0.1892,2541.1533],[35.5786,0.1834,2571.4961],[35.5854,0.1767,2571.3721],[35.5878,0.1762,2612.4351],[35.5881,0.1745,2598.7744],[35.6692,0.1745,2652.9902],[35.6953,0.1827,2564.6519],[35.6914,0.192,2355.4377],[35.6927,0.1916,2473.877],[35.701,0.199,2200.5601],[35.7056,0.2078,2267.936],[35.7128,0.2111,1989.4353],[35.7164,0.211,1847.8799],[35.7177,0.2153,1870.4873],[35.7224,0.2173,1705.2604],[35.7227,0.2252,1615.884],[35.7204,0.2315,1607.2906],[35.7208,0.2401,1562.9561],[35.7183,0.2461,1553.1178],[35.7169,0.2464,1530.1177],[35.7148,0.2559,1543.359],[35.7131,0.2562,1506.4172],[35.7091,0.2613,1482.647],[35.7106,0.2625,1497.0601],[35.7081,0.2644,1527.954],[35.7098,0.2643,1487.3306],[35.7091,0.2671,1516.29],[35.711,0.2701,1497.9148],[35.7093,0.2729,1487.5205],[35.7136,0.2758,1441.9124],[35.7113,0.2776,1457.701],[35.7145,0.2813,1430.5364],[35.7127,0.2859,1430.2311],[35.7145,0.287,1422.4236],[35.7152,0.2911,1405.6251],[35.7136,0.301,1380.6562],[35.7151,0.3021,1377.6299],[35.714,0.3039,1370.8879],[35.7156,0.304,1384.1169],[35.7155,0.3072,1398.2161],[35.7126,0.3106,1362.7709],[35.7144,0.3152,1351.9303],[35.7129,0.3145,1359.3076],[35.7117,0.3165,1360.5336],[35.7135,0.3177,1353.0577],[35.7122,0.321,1376.8026],[35.7149,0.3253,1372.5746],[35.7179,0.327,1334.8632],[35.7165,0.328,1332.7933],[35.7167,0.3352,1331.2729],[35.7192,0.3356,1318.6359],[35.7198,0.3422,1299.2606],[35.7231,0.3439,1316.5869],[35.7186,0.3496,1344.0415],[35.7227,0.3556,1326.5706],[35.7204,0.3573,1328.9854],[35.7201,0.3617,1326.6057],[35.718,0.3607,1309.712],[35.7144,0.3631,1271.1927],[35.7129,0.3616,1268.9243],[35.71,0.3624,1266.1649],[35.7067,0.3704,1270.7567],[35.7042,0.3677,1263.306],[35.7003,0.37,1254.5811],[35.6985,0.3748,1256.7102],[35.6964,0.3739,1250.9966],[35.6982,0.3706,1252.1649],[35.6969,0.3697,1245.3358],[35.684,0.3782,1230.1499],[35.6836,0.3766,1227.5726],[35.6816,0.3773,1228.8868],[35.6805,0.3756,1227.9941],[35.6797,0.379,1219.9731],[35.6759,0.3821,1216.2772],[35.6738,0.3802,1208.7502],[35.6726,0.3842,1215.2651],[35.6699,0.3843,1194.011],[35.6674,0.3871,1214.0488],[35.6662,0.3901,1224.1254],[35.6675,0.3924,1224.9199],[35.6644,0.3915,1224.3442],[35.6636,0.3937,1209.988],[35.6601,0.3918,1185.4502],[35.661,0.3939,1206.4689],[35.6592,0.3997,1188.205],[35.6545,0.4042,1187.1129],[35.661,0.4177,1167.4575],[35.6589,0.4203,1159.0906],[35.66,0.422,1171.8949],[35.6578,0.4241,1162.543],[35.658,0.4268,1164.0209],[35.6552,0.4287,1154.0177],[35.6537,0.4334,1152.7572],[35.6549,0.4404,1143.5129],[35.653,0.4509,1159.1027],[35.6514,0.4538,1154.073],[35.6454,0.457,1122.5125],[35.6474,0.4592,1124.9935],[35.6456,0.4642,1129.2773],[35.648,0.4661,1128.5565],[35.644,0.4696,1128.2499],[35.6433,0.4737,1125.4146],[35.6401,0.4752,1121.427],[35.6392,0.4809,1122.4724],[35.632,0.4884,1113.7966],[35.6329,0.4918,1115.3973],[35.6315,0.4931,1109.9744],[35.6338,0.4952,1113.9004],[35.6331,0.5002,1110.0859],[35.6299,0.4989,1102.5248],[35.631,0.5076,1111.2134],[35.6286,0.5063,1108.468],[35.6246,0.5076,1111.3104],[35.6232,0.5102,1108.6743],[35.6212,0.5097,1108.8616],[35.6136,0.514,1096.296],[35.6135,0.5193,1096.4397],[35.6118,0.5217,1093.2794],[35.6141,0.5236,1095.2773],[35.6119,0.529,1096.6858],[35.6086,0.5335,1097.0511],[35.6036,0.5351,1089.6923],[35.6021,0.5385,1093.9224],[35.6023,0.5417,1089.0051],[35.6044,0.5441,1089.1583],[35.6037,0.5458,1085.8376],[35.6056,0.5475,1095.0065],[35.6018,0.5606,1085.2249],[35.6038,0.562,1083.9576],[35.6042,0.5659,1082.4481],[35.6083,0.5704,1081.7014],[35.6129,0.5797,1077.7307],[35.614,0.5843,1079.9181],[35.6119,0.5914,1073.6205],[35.5885,0.5834,1088.886],[35.5826,0.578,1108.0043],[35.5723,0.5782,1134.3289],[35.5654,0.5742,1153.8582],[35.5574,0.5724,1185.6111],[35.552,0.5685,1202.5979],[35.5432,0.5685,1274.2365],[35.5358,0.5724,1439.2999],[35.5299,0.5689,1659.1592],[35.5317,0.5644,1747.7003],[35.5246,0.5678,1815.6819],[35.5229,0.5588,1824.6312],[35.5195,0.5586,1930.4545],[35.5126,0.547,2070.0125],[35.5078,0.5429,2113.2886],[35.507,0.5383,2330.728],[35.5096,0.5312,2409.5618],[35.5056,0.5297,2477.1792],[35.488,0.5268,2472.0706],[35.4723,0.5468,2398.0874],[35.4635,0.5113,2369.1191],[35.4613,0.4601,2391.126],[35.4675,0.4598,2404.582],[35.4701,0.4546,2412.8237],[35.4713,0.4553,2412.4233],[35.4729,0.4537,2424.7561],[35.4762,0.4304,2416.7227],[35.4806,0.4254,2415.0576],[35.4812,0.4093,2438.7063],[35.4872,0.4093,2430.4441],[35.4796,0.3975,2444.8574],[35.4793,0.3936,2424.9634],[35.4849,0.391,2440.4585],[35.4881,0.3853,2452.2896],[35.4819,0.3838,2425.5303],[35.4788,0.3874,2415.345],[35.4705,0.3831,2399.5916],[35.4684,0.3745,2390.7793],[35.4732,0.3688,2405.2886],[35.4808,0.3643,2431.4888],[35.4827,0.3558,2429.928],[35.4878,0.3555,2445.8533],[35.4945,0.3497,2471.0349],[35.5025,0.3409,2479.9634],[35.507,0.3305,2468.96],[35.5124,0.3296,2497.6848],[35.5137,0.3273,2502.9546],[35.5095,0.3194,2506.3774],[35.4959,0.3195,2461.7524],[35.4949,0.3178,2475.1257],[35.4976,0.3146,2464.3911],[35.4986,0.3091,2494.207],[35.5042,0.2988,2499.3215],[35.4987,0.2959,2500.5854],[35.5004,0.2926,2497.7986],[35.4997,0.2829,2503.4897],[35.4973,0.2787,2502.2756],[35.4947,0.279,2487.032],[35.491,0.2681,2504.7375],[35.4946,0.2624,2502.9199],[35.4855,0.255,2468.5933],[35.4957,0.2367,2536.2905],[35.5049,0.2296,2524.3735],[35.5124,0.2331,2542.2986],[35.5281,0.235,2508.4961],[35.5293,0.2326,2519.53],[35.5345,0.2339,2467.6702],[35.5399,0.2306,2524.9731],[35.54,0.2287,2528.3408],[35.537,0.2267,2551.3765],[35.5347,0.2273,2540.3384],[35.5307,0.2249,2528.895],[35.5237,0.2123,2556.3691]]]]}
,"properties": {"GID_2": "KEN.5.2_1","GID_0": "KEN","country": "Kenya","GID_1": "KEN.5_1","province": "Elgeyo-Marakwet","NL_NAME_1": "NA","county": "KeiyoSouth","VARNAME_2": "NA","NL_NAME_2": "NA","TYPE_2": "Constituency","ENGTYPE_2": "Constituency","CC_2": "150","HASC_2": "NA","name": "Keiyo_South.county","area_km2": 890.7491,"hist_schema_id": "Elevation0-9000","hist_area_km2": {"1075": 5.2791,"1100": 14.2897,"1125": 17.4699,"1150": 16.4735,"1175": 16.3463,"1200": 15.5407,"1225": 17.8305,"1250": 22.3466,"1275": 20.6717,"1300": 20.0357,"1325": 17.5551,"1350": 14.7352,"1375": 14.5444,"1400": 12.0002,"1425": 10.6645,"1450": 8.3747,"1475": 8.7563,"1500": 8.8623,"1525": 9.9649,"1550": 9.4772,"1575": 9.8164,"1600": 7.8871,"1625": 9.1592,"1650": 8.608,"1675": 7.6963,"1700": 6.6574,"1725": 7.039,"1750": 6.9754,"1775": 7.7387,"1800": 7.7811,"1825": 7.3782,"1850": 6.8482,"1875": 6.933,"1900": 6.6574,"1925": 6.9542,"1950": 6.4454,"1975": 7.3359,"2000": 6.403,"2025": 5.7457,"2050": 5.8305,"2075": 5.3217,"2100": 5.7245,"2125": 5.7881,"2150": 5.2156,"2175": 5.4489,"2200": 5.0884,"2225": 4.3676,"2250": 5.4277,"2275": 4.516,"2300": 4.7916,"2325": 4.1768,"2350": 4.8128,"2375": 6.0637,"2400": 9.8588,"2425": 20.2687,"2450": 28.0498,"2475": 34.7708,"2500": 48.0008,"2525": 44.9054,"2550": 46.008,"2575": 44.7147,"2600": 32.9689,"2625": 24.9121,"2650": 19.9721,"2675": 19.2724,"2700": 12.8059,"2725": 8.3959,"2750": 1.993}}}