{"type": "Feature","bbox": [39.6373,-0.4593,39.6476,-0.4449],"geometry": {"type": "MultiPolygon","coordinates": [[[[39.6389,-0.4577,145.4691],[39.6398,-0.4593,148.7288],[39.6476,-0.4485,153.1547],[39.6409,-0.4449,145.7544],[39.6381,-0.446,145.0187],[39.6373,-0.449,145.3541],[39.6393,-0.4543,145.0463],[39.6389,-0.4577,145.4691]]]]}
,"properties": {"GID_3": "KEN.7.4.3_1","GID_0": "KEN","country": "Kenya","GID_1": "KEN.7_1","province": "Garissa","NL_NAME_1": "NA","GID_2": "KEN.7.4_1","county": "GarissaTownship","NL_NAME_2": "NA","city": "Township","VARNAME_3": "NA","NL_NAME_3": "NA","TYPE_3": "Ward","ENGTYPE_3": "Ward","CC_3": "133","HASC_3": "NA","name": "Township.city","area_km2": 0.9328682,"hist_schema_id": "Elevation0-9000","hist_area_km2": {"150": 0.9328682}}}