{"type":"Feature","properties":{"GID_2":"KEN.3.9_1","GID_0":"KEN","country":"Kenya","GID_1":"KEN.3_1","province":"Bungoma","NL_NAME_1":"NA","county":"Tongaren","VARNAME_2":"NA","NL_NAME_2":"NA","TYPE_2":"Constituency","ENGTYPE_2":"Constituency","CC_2":"224","HASC_2":"NA","name":"Tongaren.county"},
"geometry":{"type": "MultiPolygon","coordinates": [[[[34.8871,0.6918,1606.6873],[34.8925,0.6957,1612.6785],[34.8994,0.6907,1626.5671],[34.9097,0.691,1610.0924],[34.9127,0.6969,1631.5958],[34.9179,0.6989,1622.801],[34.9198,0.7045,1642.3538],[34.9263,0.7064,1618.746],[34.9292,0.7157,1622.8099],[34.922,0.7275,1628.7571],[34.9229,0.7341,1634.1875],[34.9295,0.7465,1652.2454],[34.934,0.7441,1633.9208],[34.9357,0.747,1631.4939],[34.9377,0.7472,1631.5377],[34.94,0.7447,1629.896],[34.9491,0.7578,1656.3992],[34.9528,0.7557,1645.7489],[34.956,0.758,1652.0977],[34.9567,0.7535,1636.5187],[34.9625,0.7585,1658.4906],[34.9685,0.7571,1668.9937],[34.9773,0.7614,1678.4988],[34.981,0.7576,1652.1426],[34.9853,0.7595,1675.4752],[34.9884,0.7582,1669.6997],[34.9924,0.7513,1654.0629],[35.0002,0.7484,1685.2549],[35.0014,0.7507,1696.6825],[35.0038,0.7502,1690.0848],[35.0074,0.7522,1688.434],[35.0119,0.7587,1702.9519],[35.0152,0.7557,1689.3939],[35.0181,0.7557,1695.2729],[35.0204,0.7485,1678.6483],[35.0241,0.7482,1692.3409],[35.0283,0.7504,1681.4725],[35.0267,0.7547,1722.556],[35.0308,0.7548,1736.5565],[35.0319,0.7573,1722.5382],[35.0365,0.7534,1743.6694],[35.0407,0.7538,1726.2007],[35.0384,0.7603,1749.4272],[35.0425,0.7623,1755.5884],[35.0438,0.7655,1758.2593],[35.0536,0.7683,1770.6146],[35.0635,0.7664,1745.9573],[35.0644,0.7675,1746.8173],[35.0664,0.7716,1742.3644],[35.0646,0.7732,1750.9055],[35.0665,0.7771,1747.4678],[35.0648,0.782,1754.5911],[35.0673,0.7849,1756.9878],[35.0655,0.7871,1744.6791],[35.0676,0.7882,1764.3198],[35.0633,0.7923,1750.5192],[35.0648,0.7951,1747.1515],[35.064,0.8008,1775.5356],[35.0564,0.8064,1774.5907],[35.0542,0.8066,1767.686],[35.0537,0.8052,1764.8815],[35.0514,0.8069,1761.3369],[35.0466,0.8167,1776.6276],[35.0432,0.8194,1760.6697],[35.0412,0.8251,1786.934],[35.031,0.8266,1769.6962],[35.0245,0.8365,1755.5994],[35.0253,0.8417,1759.2089],[35.0278,0.8451,1760.3228],[35.0251,0.8508,1760.1294],[35.0249,0.8575,1778.5575],[35.0216,0.8611,1787.2343],[35.014,0.8647,1763.9515],[35.0129,0.8672,1771.0635],[35.0154,0.8727,1768.9783],[35.0151,0.8774,1777.8665],[35.0191,0.8862,1766.822],[35.018,0.8888,1767.0983],[35.0191,0.8918,1770.2115],[34.9852,0.8848,1774.7668],[34.988,0.8905,1780.1466],[34.9657,0.8838,1745.3174],[34.9667,0.8789,1744.4781],[34.9511,0.8751,1711.3151],[34.9422,0.8753,1729.2673],[34.9337,0.8587,1710.5695],[34.9257,0.8597,1739.9005],[34.9191,0.8534,1695.408],[34.9138,0.8524,1724.6135],[34.8705,0.8303,1766.3058],[34.8087,0.8112,1660.4874],[34.8075,0.8065,1664.9287],[34.8012,0.8013,1672.239],[34.8045,0.7804,1642.6052],[34.8126,0.7744,1656.9614],[34.8193,0.7667,1626.2535],[34.8214,0.7503,1603.9895],[34.8164,0.7363,1608.5522],[34.8177,0.7319,1595.3325],[34.826,0.7277,1618.4736],[34.8296,0.7168,1580.0698],[34.8275,0.7132,1594.4639],[34.8299,0.7124,1582.0867],[34.8295,0.7098,1583.9524],[34.8259,0.7093,1599.5229],[34.828,0.7026,1573.8136],[34.8244,0.6947,1574.606],[34.8271,0.6907,1571.7617],[34.8264,0.6824,1562.7595],[34.8291,0.6805,1560.0793],[34.8282,0.6788,1563.3328],[34.8358,0.6736,1573.1365],[34.8405,0.6734,1564.3495],[34.8396,0.6713,1558.9868],[34.8434,0.6713,1554.7023],[34.8475,0.6752,1579.0452],[34.8513,0.6752,1581.3394],[34.8581,0.6791,1566.9662],[34.8578,0.6857,1596.333],[34.8623,0.6892,1617.1564],[34.8639,0.6897,1612.9424],[34.867,0.6869,1608.8528],[34.8688,0.6889,1637.9292],[34.8729,0.6895,1631.0189],[34.8796,0.6877,1622.2861],[34.8871,0.6918,1606.6873]]]]}}