{"type":"Feature","properties":{"GID_3":"KEN.30.1.3_1","GID_0":"KEN","country":"Kenya","GID_1":"KEN.30_1","province":"Nairobi","NL_NAME_1":"NA","GID_2":"KEN.30.1_1","county":"DagorettiNorth","NL_NAME_2":"NA","city":"Kilimani","VARNAME_3":"NA","NL_NAME_3":"NA","TYPE_3":"Ward","ENGTYPE_3":"Ward","CC_3":"1371","HASC_3":"NA","name":"Kilimani.city"},
"geometry":{"type": "MultiPolygon","coordinates": [[[[36.7539,-1.2861,1795.7454],[36.7514,-1.2897,1800.3331],[36.7564,-1.2953,1800.7284],[36.7684,-1.2978,1781.8287],[36.7955,-1.2969,1755.1815],[36.8197,-1.2906,1665.9048],[36.8114,-1.2721,1693.4509],[36.8101,-1.2737,1680.2584],[36.8033,-1.2737,1694.6782],[36.8015,-1.2714,1703.2346],[36.7964,-1.2744,1717.5814],[36.7954,-1.2784,1736.2583],[36.7931,-1.2803,1744.8374],[36.7872,-1.2804,1756.1604],[36.7762,-1.2899,1773.3091],[36.7737,-1.2899,1780.0953],[36.7736,-1.2862,1774.2812],[36.7762,-1.286,1769.8516],[36.7798,-1.2705,1743.8801],[36.7842,-1.2639,1738.8201],[36.7818,-1.2627,1738.9844],[36.7601,-1.2684,1784.7345],[36.7594,-1.2824,1790.5413],[36.7539,-1.2861,1795.7454]]]]}}