{"type":"Feature","properties":{"GID_3":"KEN.8.4.3_1","GID_0":"KEN","country":"Kenya","GID_1":"KEN.8_1","province":"HomaBay","NL_NAME_1":"NA","GID_2":"KEN.8.4_1","county":"Kasipul","NL_NAME_2":"NA","city":"SouthKasipul","VARNAME_3":"NA","NL_NAME_3":"NA","TYPE_3":"Ward","ENGTYPE_3":"Ward","CC_3":"1222","HASC_3":"NA","name":"South_Kasipul.city"},
"geometry":{"type": "MultiPolygon","coordinates": [[[[34.6501,-0.4722,1287.6401],[34.6604,-0.4756,1288.2697],[34.6599,-0.4816,1263.2218],[34.6627,-0.4857,1272.6511],[34.6763,-0.4907,1304.7373],[34.6803,-0.4972,1290.9148],[34.682,-0.5065,1278.3159],[34.6893,-0.5076,1296.2114],[34.6997,-0.5237,1369.5144],[34.7018,-0.5246,1367.1171],[34.7046,-0.5294,1365.3113],[34.7088,-0.5308,1366.395],[34.7162,-0.5431,1449.5825],[34.7229,-0.543,1456.8093],[34.7249,-0.554,1504.7546],[34.7298,-0.5511,1503.4172],[34.7384,-0.5539,1490.9475],[34.7485,-0.5535,1533.7126],[34.7529,-0.5514,1546.6475],[34.7611,-0.5426,1569.1807],[34.7611,-0.5388,1555.8936],[34.769,-0.528,1537.3483],[34.7668,-0.527,1515.9021],[34.7547,-0.5091,1442.6917],[34.7489,-0.508,1397.8188],[34.7395,-0.5026,1402.8372],[34.7342,-0.5054,1410.2382],[34.7243,-0.5073,1384.7422],[34.7182,-0.5061,1361.7308],[34.7145,-0.5025,1349.9706],[34.7053,-0.5017,1338.7974],[34.6997,-0.4983,1337.5339],[34.6907,-0.4884,1350.1956],[34.6671,-0.4772,1285.5323],[34.6575,-0.46,1306.4657],[34.6559,-0.4645,1299.6233],[34.6501,-0.4722,1287.6401]]]]}}