{"type":"Feature","properties":{"GID_2":"KEN.34.1_1","GID_0":"KEN","country":"Kenya","GID_1":"KEN.34_1","province":"Nyamira","NL_NAME_1":"NA","county":"Borabu","VARNAME_2":"NA","NL_NAME_2":"NA","TYPE_2":"Constituency","ENGTYPE_2":"Constituency","CC_2":"273","HASC_2":"NA","name":"Borabu.county"},
"geometry":{"type": "MultiPolygon","coordinates": [[[[35.0901,-0.7982,1803.7715],[35.0913,-0.7969,1802.574],[35.0477,-0.7021,1851.5245],[35.0502,-0.6966,1849.9087],[35.0603,-0.6906,1785.0969],[35.0676,-0.6903,1775.9321],[35.0724,-0.6871,1765.8037],[35.0693,-0.6783,1772.1409],[35.0668,-0.6773,1817.1305],[35.0623,-0.6708,1843.0189],[35.0632,-0.6659,1848.8762],[35.0572,-0.6592,1843.5454],[35.055,-0.6515,1844.8978],[35.0569,-0.6432,1824.1438],[35.0554,-0.6395,1836.9973],[35.059,-0.6312,1807.9219],[35.0641,-0.6267,1804.6272],[35.0619,-0.6193,1808.4546],[35.0568,-0.6133,1805.0702],[35.0582,-0.6104,1850.626],[35.0572,-0.6092,1881.4355],[35.0606,-0.6067,1903.5774],[35.0626,-0.6015,1821.8586],[35.0618,-0.5972,1814.1072],[35.0566,-0.5914,1864.2819],[35.0548,-0.5849,1823.6306],[35.0509,-0.5793,1930.3699],[35.0498,-0.5673,1892.1428],[35.0474,-0.5661,1862.8287],[35.0508,-0.5598,1946.842],[35.0497,-0.5504,1885.5505],[35.0513,-0.5482,1926.4882],[35.0496,-0.5411,1815.5972],[35.0528,-0.5397,1934.0085],[35.0491,-0.5325,1770.7833],[35.053,-0.53,1762.613],[35.0517,-0.5231,1732.7512],[35.048,-0.5195,1646.7039],[35.0479,-0.5166,1654.7964],[35.0506,-0.5131,1648.2943],[35.0522,-0.5136,1648.2943],[35.0529,-0.5069,1635.4878],[35.0571,-0.502,1635.7941],[35.0541,-0.4994,1581.0309],[35.0554,-0.4982,1584.6125],[35.0497,-0.4924,1697.3265],[35.0466,-0.4944,1704.9017],[35.0328,-0.4926,1578.5533],[35.0326,-0.5867,1856.5643],[35.0233,-0.5886,1865.5225],[35.0149,-0.5934,1967.0743],[35.0097,-0.5941,1999.4253],[35.001,-0.5877,2026.5872],[34.9933,-0.5769,2078.2737],[34.9877,-0.5776,2073.7366],[34.9828,-0.5689,2095.959],[34.9804,-0.56,2064.6738],[34.9769,-0.559,2035.1005],[34.9771,-0.5528,1917.8521],[34.9736,-0.5529,1944.5315],[34.9693,-0.5467,1945.907],[34.9688,-0.5411,1953.369],[34.9624,-0.5354,1847.355],[34.9614,-0.5352,1784.2504],[34.9568,-0.546,1939.9425],[34.9478,-0.5417,1807.1938],[34.9416,-0.5458,1980.8738],[34.9424,-0.5508,1877.8801],[34.9463,-0.5579,1956.9287],[34.9457,-0.5617,1903.0803],[34.9544,-0.5772,2051.1313],[34.957,-0.585,2074.0615],[34.9603,-0.5874,1988.244],[34.9614,-0.5929,2018.5431],[34.9636,-0.5925,2098.8486],[34.9678,-0.6001,2051.5828],[34.9739,-0.6045,1974.3965],[34.9748,-0.6109,1950.452],[34.981,-0.6131,1994.7738],[34.9845,-0.612,1996.3231],[34.9901,-0.6176,1967.7349],[34.9966,-0.6191,2061.5278],[34.9976,-0.6206,2144.873],[34.9988,-0.6196,2144.873],[35.0037,-0.629,1989.7079],[35.0039,-0.6405,2095.0312],[35.0103,-0.6483,2008.3918],[35.0179,-0.6521,1982.8583],[35.0198,-0.6637,2162.4854],[35.0169,-0.6676,2070.3433],[35.0199,-0.6762,2099.7976],[35.0162,-0.6846,2134.9746],[35.0139,-0.6993,2090.0374],[35.0119,-0.7031,2167.5542],[35.0064,-0.7037,2155.0022],[35.0002,-0.7145,2015.0491],[34.9938,-0.7189,2057.4822],[34.9887,-0.7275,1986.3392],[34.9752,-0.7569,2134.1155],[34.9805,-0.7592,2147.4917],[34.9503,-0.7787,2046.2888],[35.0127,-0.8839,2062.1208],[35.0136,-0.881,2072.698],[35.012,-0.8755,2021.2385],[35.0179,-0.867,2071.4131],[35.0204,-0.8654,2023.417],[35.0239,-0.8702,2141.3154],[35.0254,-0.8688,2132.9934],[35.0255,-0.8567,2029.6892],[35.0215,-0.8458,1999.2607],[35.0219,-0.8425,1961.1755],[35.0319,-0.8406,1898.7599],[35.0444,-0.8485,1838.5991],[35.0901,-0.7982,1803.7715]]]]}}