{"type":"Feature","properties":{"GID_3":"KEN.11.10.3_1","GID_0":"KEN","country":"Kenya","GID_1":"KEN.11_1","province":"Kakamega","NL_NAME_1":"NA","GID_2":"KEN.11.10_1","county":"Navakholo","NL_NAME_2":"NA","city":"BunyalaWest","VARNAME_3":"NA","NL_NAME_3":"NA","TYPE_3":"Ward","ENGTYPE_3":"Ward","CC_3":"1017","HASC_3":"NA","name":"Bunyala_West.city"},
"geometry":{"type": "MultiPolygon","coordinates": [[[[34.5896,0.4253,1307.5441],[34.5881,0.4224,1300.3728],[34.589,0.4166,1294.4673],[34.5854,0.4159,1313.6351],[34.5831,0.4131,1307.103],[34.5833,0.41,1298.922],[34.5776,0.4064,1300.1051],[34.5801,0.3997,1292.3083],[34.5794,0.3933,1301.4938],[34.582,0.3887,1324.5801],[34.5906,0.3865,1331.8889],[34.604,0.3871,1329.0748],[34.6097,0.3791,1336.4215],[34.613,0.3774,1333.6067],[34.6144,0.373,1349.579],[34.6214,0.3684,1393.8309],[34.626,0.3618,1405.6093],[34.6297,0.3601,1397.7173],[34.633,0.3536,1408.5483],[34.6446,0.3552,1415.5635],[34.6487,0.3578,1416.9401],[34.6498,0.361,1426.4344],[34.6566,0.3641,1413.8131],[34.6571,0.3727,1436.3527],[34.6552,0.3834,1414.7859],[34.6608,0.3896,1435.7358],[34.6592,0.3962,1467.2291],[34.6599,0.4128,1486.9037],[34.657,0.42,1456.3213],[34.6524,0.4235,1450.5287],[34.653,0.4283,1442.6921],[34.6454,0.4447,1358.6124],[34.6441,0.4555,1365.0499],[34.632,0.4578,1328.4458],[34.6303,0.4613,1328.5831],[34.6315,0.4653,1345.3989],[34.6276,0.4688,1357.4775],[34.6264,0.4677,1342.8895],[34.6273,0.4655,1350.7715],[34.6181,0.4621,1354.0316],[34.6151,0.4528,1325.658],[34.6164,0.4484,1323.8798],[34.6129,0.4481,1319.312],[34.6044,0.4561,1345.8342],[34.5984,0.4502,1323.6302],[34.5954,0.4492,1324.1501],[34.592,0.451,1323.9418],[34.59,0.4414,1313.2502],[34.5929,0.438,1308.3143],[34.5927,0.4348,1306.4603],[34.5901,0.4315,1302.5999],[34.5896,0.4253,1307.5441]]]]}}