{"type":"Feature","properties":{"GID_3":"KEN.45.1.3_1","GID_0":"KEN","country":"Kenya","GID_1":"KEN.45_1","province":"Vihiga","NL_NAME_1":"NA","GID_2":"KEN.45.1_1","county":"Emuhaya","NL_NAME_2":"NA","city":"WestBunyore","VARNAME_3":"NA","NL_NAME_3":"NA","TYPE_3":"Ward","ENGTYPE_3":"Ward","CC_3":"1075","HASC_3":"NA","name":"West_Bunyore.city"},
"geometry":{"type": "MultiPolygon","coordinates": [[[[34.5538,0.0933,1425.1946],[34.5568,0.0872,1390.2212],[34.5586,0.0783,1432.6875],[34.5569,0.0611,1438.4268],[34.5602,0.0521,1482.1843],[34.5674,0.0445,1532.7646],[34.5837,0.0333,1494.0112],[34.5876,0.0402,1469.6584],[34.585,0.0456,1488.439],[34.5856,0.0473,1460.6442],[34.5906,0.0477,1451.0385],[34.5872,0.0499,1477.105],[34.586,0.0542,1489.1235],[34.5891,0.0652,1486.4414],[34.5874,0.0729,1449.2631],[34.5892,0.0765,1440.9241],[34.5876,0.0785,1429.3947],[34.5919,0.0798,1440.3776],[34.5962,0.0759,1439.2073],[34.5971,0.0797,1472.8859],[34.5993,0.08,1450.7076],[34.5969,0.0854,1482.6965],[34.5979,0.0875,1457.4517],[34.596,0.0899,1475.3853],[34.5973,0.0921,1473.5212],[34.6014,0.0937,1441.7856],[34.601,0.0974,1432.2141],[34.6037,0.0988,1460.4561],[34.603,0.1003,1460.4561],[34.6055,0.1034,1426.8187],[34.6048,0.1111,1488.4578],[34.6075,0.1165,1498.0415],[34.6032,0.1193,1477.4637],[34.6035,0.1243,1446.6775],[34.6025,0.1257,1432.9353],[34.595,0.1211,1463.4294],[34.5864,0.1196,1455.1132],[34.5847,0.1124,1478.3147],[34.5862,0.1084,1452.0483],[34.5777,0.1069,1451.9309],[34.5762,0.1026,1433.696],[34.574,0.1031,1443.7305],[34.5715,0.0998,1431.8894],[34.5711,0.1017,1436.9609],[34.5675,0.1026,1442.7736],[34.5618,0.1009,1442.5175],[34.5585,0.0959,1433.3342],[34.5538,0.0933,1425.1946]]]]}}