{"type":"Feature","properties":{"GID_3":"KEN.40.2.1_1","GID_0":"KEN","country":"Kenya","GID_1":"KEN.40_1","province":"TanaRiver","NL_NAME_1":"NA","GID_2":"KEN.40.2_1","county":"Galole","NL_NAME_2":"NA","city":"Chewani","VARNAME_3":"NA","NL_NAME_3":"NA","TYPE_3":"Ward","ENGTYPE_3":"Ward","CC_3":"94","HASC_3":"NA","name":"Chewani.city"},
"geometry":{"type": "MultiPolygon","coordinates": [[[[40.0133,-1.1645,90.0622],[39.9933,-1.1865,81.7478],[39.9837,-1.1893,82.9475],[39.9801,-1.1934,83.5789],[39.9769,-1.2011,84.0768],[39.9785,-1.2049,86.7586],[39.9689,-1.2177,79.1505],[39.9667,-1.2188,78.4229],[39.9665,-1.2165,78.8352],[39.9641,-1.2231,80.3744],[39.9659,-1.2306,82.3127],[39.9645,-1.2427,81.2682],[39.9669,-1.2483,80.1073],[39.9729,-1.2549,79.3153],[39.9729,-1.2656,78.8042],[39.9815,-1.2774,81.1441],[39.9875,-1.2906,79.6273],[39.9883,-1.3014,78.4464],[39.9038,-1.3033,92.5081],[39.9119,-1.3413,88.1775],[39.9183,-1.3577,86.3573],[39.9739,-1.4442,73.8462],[39.9755,-1.4481,73.6596],[39.9717,-1.4627,72.7359],[39.9779,-1.4703,71.6716],[39.9817,-1.4831,70.0203],[39.9947,-1.5003,68.6503],[40.0015,-1.5036,67.7779],[40.0029,-1.5064,67.2084],[40.0013,-1.5176,64.794],[40.0197,-1.5188,61.1716],[40.0243,-1.5175,59.3146],[40.0291,-1.516,60.7203],[40.0371,-1.5071,58.2267],[40.1051,-1.5084,76.5785],[40.1029,-1.5026,76.6492],[40.0939,-1.4902,65.8049],[40.0877,-1.4764,66.2171],[40.0845,-1.4475,89.8727],[40.0629,-1.3545,95.4472],[40.0609,-1.3391,93.6114],[40.0497,-1.316,84.4649],[40.0499,-1.2981,97.0461],[40.0569,-1.2703,99.6559],[40.0567,-1.2486,94.4823],[40.0509,-1.2371,91.5282],[40.0389,-1.1997,90.6447],[40.0133,-1.1645,90.0622]]]]}}