{"type":"Feature","properties":{"GID_3":"KEN.12.3.2_1","GID_0":"KEN","country":"Kenya","GID_1":"KEN.12_1","province":"Kericho","NL_NAME_1":"NA","GID_2":"KEN.12.3_1","county":"Bureti","NL_NAME_2":"NA","city":"Chemosot","VARNAME_3":"NA","NL_NAME_3":"NA","TYPE_3":"Ward","ENGTYPE_3":"Ward","CC_3":"953","HASC_3":"NA","name":"Chemosot.city"},
"geometry":{"type": "MultiPolygon","coordinates": [[[[35.2021,-0.5376,1847.828],[35.1995,-0.5365,1831.7666],[35.1975,-0.5318,1843.2545],[35.1974,-0.5292,1799.8221],[35.2002,-0.5259,1850.4116],[35.1989,-0.521,1863.549],[35.1928,-0.5191,1819.8434],[35.1898,-0.5157,1817.5643],[35.1899,-0.5104,1792.593],[35.1923,-0.5076,1789.3931],[35.193,-0.5031,1820.5989],[35.1887,-0.4992,1798.6255],[35.1828,-0.4982,1794.6641],[35.178,-0.4952,1763.2183],[35.1773,-0.4906,1758.019],[35.1804,-0.4847,1722.6089],[35.1813,-0.4783,1751.2555],[35.1825,-0.4783,1785.4493],[35.1819,-0.4758,1774.616],[35.1774,-0.4772,1731.2493],[35.1785,-0.4756,1758.6685],[35.1731,-0.4686,1722.877],[35.1734,-0.4646,1721.2853],[35.17,-0.4637,1726.8964],[35.1676,-0.4663,1740.4921],[35.1583,-0.4588,1716.7206],[35.1501,-0.4611,1718.6741],[35.1502,-0.4575,1735.6089],[35.1443,-0.4549,1683.3217],[35.1465,-0.4618,1688.5115],[35.1451,-0.4689,1722.9219],[35.1466,-0.4833,1763.1919],[35.1391,-0.5196,1805.2747],[35.1426,-0.5188,1811.7924],[35.1521,-0.5242,1835.2689],[35.1563,-0.5317,1839.2792],[35.1594,-0.5322,1845.4856],[35.1594,-0.5358,1851.2023],[35.1648,-0.5383,1878.7649],[35.172,-0.5533,1905.8126],[35.1795,-0.5601,1918.5962],[35.1818,-0.5649,1889.0969],[35.1867,-0.5653,1935.1819],[35.1876,-0.5612,1913.7804],[35.1936,-0.553,1909.1495],[35.2005,-0.5507,1880.8916],[35.2054,-0.5464,1813.9448],[35.2063,-0.5432,1794.821],[35.2021,-0.5376,1847.828]]]]}}