{"type": "Feature","bbox": [37.6276,-1.4978,37.8198,-1.3405],"geometry": {"type": "MultiPolygon","coordinates": [[[[37.7324,-1.3405,1091.3271],[37.7066,-1.3407,1154.2206],[37.7005,-1.3454,1153.9034],[37.6931,-1.3463,1175.1704],[37.6898,-1.3485,1175.3324],[37.6855,-1.3448,1190.0399],[37.68,-1.3444,1160.7766],[37.6772,-1.3485,1172.9102],[37.6767,-1.3605,1201.2896],[37.6679,-1.3683,1267.3611],[37.6704,-1.3705,1249.2355],[37.6697,-1.3719,1246.2355],[37.6517,-1.3762,1272.2869],[37.6474,-1.3744,1261.3691],[37.6367,-1.3831,1093.0659],[37.6276,-1.3849,1059.4966],[37.6276,-1.3949,1063.2797],[37.6301,-1.3981,1063.5107],[37.6374,-1.4007,1074.0334],[37.6427,-1.4058,1074.4547],[37.6457,-1.4113,1068.8087],[37.6451,-1.4244,1072.3269],[37.6522,-1.4374,1054.2261],[37.6522,-1.4475,1033.6887],[37.6594,-1.4512,1045.6245],[37.6666,-1.452,1023.022],[37.6681,-1.455,1015.5996],[37.6728,-1.457,1030.6313],[37.6726,-1.4639,1013.931],[37.681,-1.4646,1030.0555],[37.6885,-1.4724,1011.1174],[37.6959,-1.4868,994.9462],[37.6948,-1.4978,992.5308],[37.7016,-1.4909,1028.7552],[37.7072,-1.4888,1064.3894],[37.7127,-1.4884,1060.903],[37.7184,-1.4927,1110.132],[37.7269,-1.4933,1213.0388],[37.7326,-1.4961,1219.4091],[37.7613,-1.4881,1195.1145],[37.7739,-1.4864,1182.6526],[37.7796,-1.4783,1137.3755],[37.7812,-1.4706,1095.4037],[37.7888,-1.4653,1064.7886],[37.7977,-1.4556,1053.5679],[37.8086,-1.448,1027.4464],[37.8198,-1.4463,1008.8703],[37.8162,-1.444,1011.4106],[37.8181,-1.4417,1015.6298],[37.8128,-1.4388,1016.6338],[37.8137,-1.4339,1015.2838],[37.8117,-1.4293,1032.0001],[37.8128,-1.4266,1027.1965],[37.8101,-1.4238,1021.7312],[37.8102,-1.4199,1028.4965],[37.8077,-1.4181,1031.5824],[37.8085,-1.4164,1022.9519],[37.8049,-1.4028,1027.5712],[37.8047,-1.3935,1034.5944],[37.7987,-1.3961,1040.8806],[37.7992,-1.392,1036.6145],[37.7931,-1.3818,1041.345],[37.7913,-1.3816,1045.1375],[37.7899,-1.3751,1069.3701],[37.7853,-1.3754,1053.9657],[37.7842,-1.3707,1074.4335],[37.7813,-1.3717,1064.0715],[37.776,-1.36,1070.4268],[37.7734,-1.3605,1080.0576],[37.7676,-1.3566,1067.0889],[37.7657,-1.3574,1068.3422],[37.7659,-1.3546,1083.2632],[37.7595,-1.3549,1088.9735],[37.7555,-1.3573,1075.2365],[37.7543,-1.3547,1084.5786],[37.7489,-1.3577,1091.542],[37.7448,-1.3565,1081.1123],[37.746,-1.3531,1082.9858],[37.7443,-1.3497,1085.801],[37.7398,-1.3476,1087.0254],[37.738,-1.3417,1091.2345],[37.7352,-1.3406,1102.8236],[37.7337,-1.3419,1091.3706],[37.7324,-1.3405,1091.3271]]]]}
,"properties": {"GID_3": "KEN.22.9.2_1","GID_0": "KEN","country": "Kenya","GID_1": "KEN.22_1","province": "Machakos","NL_NAME_1": "NA","GID_2": "KEN.22.9_1","county": "Yatta","NL_NAME_2": "NA","city": "Katangi","VARNAME_3": "NA","NL_NAME_3": "NA","TYPE_3": "Ward","ENGTYPE_3": "Ward","CC_3": "380","HASC_3": "NA","name": "Katangi.city","area_km2": 239.5964,"hist_schema_id": "Elevation0-9000","hist_area_km2": {"1000": 0.9326,"1025": 7.4396,"1050": 16.2782,"1075": 28.1903,"1100": 36.4144,"1125": 29.6741,"1150": 17.0838,"1175": 16.3208,"1200": 17.423,"1225": 30.8819,"1250": 31.6875,"1275": 7.2702}}}