{"type": "Feature","bbox": [34.3635,0.6813,34.492,0.8181],"geometry": {"type": "MultiPolygon","coordinates": [[[[34.4126,0.8179,1392.8508],[34.4104,0.8159,1399.2295],[34.414,0.812,1364.1768],[34.4133,0.8104,1363.5781],[34.3949,0.8025,1351.5812],[34.3945,0.8049,1362.7513],[34.3913,0.8036,1341.1443],[34.3911,0.8059,1370.4592],[34.385,0.8037,1350.2615],[34.383,0.793,1334.6687],[34.3807,0.7926,1323.0304],[34.3787,0.798,1340.6359],[34.3762,0.7963,1329.4984],[34.374,0.7913,1318.9666],[34.3718,0.7907,1334.7545],[34.3727,0.7867,1300.4778],[34.3707,0.7841,1307.5498],[34.3668,0.7811,1297.8016],[34.3645,0.7821,1301.0146],[34.3635,0.7802,1287.989],[34.3707,0.7763,1312.4111],[34.3732,0.7765,1320.3752],[34.3735,0.778,1308.9385],[34.3826,0.7779,1347.4216],[34.3922,0.7644,1356.7051],[34.3984,0.7598,1369.5118],[34.4045,0.7603,1386.0258],[34.4118,0.7667,1378.3643],[34.423,0.7625,1398.1086],[34.43,0.7561,1439.3],[34.4335,0.749,1408.7375],[34.4346,0.7408,1370.3513],[34.4316,0.7306,1356.4059],[34.4272,0.7332,1368.7915],[34.423,0.7296,1387.3955],[34.4199,0.7302,1409.8997],[34.418,0.7281,1437.483],[34.4152,0.73,1444.3137],[34.4126,0.7282,1466.1002],[34.4074,0.7315,1443.3684],[34.4043,0.7307,1418.1079],[34.4154,0.6941,1356.0027],[34.409,0.6857,1432.8237],[34.4103,0.682,1489.731],[34.4204,0.6813,1352.4622],[34.4574,0.6989,1398.6615],[34.4534,0.7047,1408.1366],[34.4591,0.709,1401.5527],[34.4596,0.7112,1397.8011],[34.4456,0.722,1360.2379],[34.4453,0.7276,1361.1058],[34.4416,0.7329,1386.7495],[34.4463,0.7332,1378.5339],[34.4466,0.7363,1388.4495],[34.4497,0.7377,1384.5876],[34.4492,0.7395,1390.9276],[34.4513,0.7408,1382.2656],[34.4519,0.745,1378.0017],[34.4529,0.7448,1378.0017],[34.4507,0.7509,1404.9515],[34.4543,0.7561,1417.1831],[34.4533,0.761,1473.0522],[34.4594,0.7624,1445.1871],[34.4589,0.7646,1446.7579],[34.4628,0.7697,1459.2516],[34.4713,0.7756,1447.8142],[34.4709,0.7787,1462.771],[34.4733,0.7818,1497.9476],[34.4793,0.7809,1516.6871],[34.4809,0.7821,1532.5903],[34.4803,0.7853,1548.8092],[34.4845,0.7882,1590.5466],[34.4889,0.7837,1586.1947],[34.492,0.7861,1594.2761],[34.4899,0.7919,1582.3643],[34.4851,0.7947,1628.7487],[34.4731,0.7944,1536.5406],[34.4697,0.7909,1513.7324],[34.4634,0.7918,1550.0479],[34.4627,0.8008,1600.0951],[34.4511,0.8079,1546.8807],[34.4468,0.8181,1538.6718],[34.4366,0.814,1451.5851],[34.4229,0.8176,1436.7633],[34.4136,0.8159,1385.6875],[34.4126,0.8179,1392.8508]]]]}
,"properties": {"GID_3": "KEN.3.8.1_1","GID_0": "KEN","country": "Kenya","GID_1": "KEN.3_1","province": "Bungoma","NL_NAME_1": "NA","GID_2": "KEN.3.8_1","county": "Sirisia","NL_NAME_2": "NA","city": "Lwandanyi","VARNAME_3": "NA","NL_NAME_3": "NA","TYPE_3": "Ward","ENGTYPE_3": "Ward","CC_3": "1084","HASC_3": "NA","name": "Lwandanyi.city","area_km2": 83.08408,"hist_schema_id": "Elevation0-9000","hist_area_km2": {"1275": 0.212,"1300": 0.82681,"1325": 4.8973,"1350": 11.89346,"1375": 12.40224,"1400": 12.3598,"1425": 10.62134,"1450": 9.05252,"1475": 7.48369,"1500": 5.04565,"1525": 4.00683,"1550": 2.31082,"1575": 1.12361,"1600": 0.59361,"1625": 0.2544}}}