{"type":"Feature","properties":{"GID_3":"KEN.20.1.4_1","GID_0":"KEN","country":"Kenya","GID_1":"KEN.20_1","province":"Laikipia","NL_NAME_1":"NA","GID_2":"KEN.20.1_1","county":"LaikipiaEast","NL_NAME_2":"NA","city":"Tigithi","VARNAME_3":"NA","NL_NAME_3":"NA","TYPE_3":"Ward","ENGTYPE_3":"Ward","CC_3":"818","HASC_3":"NA","name":"Tigithi.city"},
"geometry":{"type": "MultiPolygon","coordinates": [[[[36.831,-0.0976,1931.2946],[36.8315,-0.1283,1907.6115],[36.8479,-0.1307,1893.7578],[36.861,-0.1365,1863.4608],[36.8618,-0.1397,1859.6921],[36.8592,-0.1423,1866.7134],[36.8588,-0.147,1865.0748],[36.8631,-0.1511,1873.8348],[36.8652,-0.1612,1875.2932],[36.8701,-0.1655,1902.3909],[36.8717,-0.1699,1897.2896],[36.8694,-0.175,1891.6351],[36.8656,-0.1747,1890.8762],[36.8661,-0.1809,1899.2341],[36.8598,-0.182,1913.7552],[36.8544,-0.186,1934.6116],[36.8551,-0.1889,1937.8363],[36.8524,-0.1892,1946.1554],[36.8535,-0.1905,1928.6898],[36.8505,-0.1915,1953.3986],[36.8457,-0.1893,1978.528],[36.844,-0.1897,1992.1128],[36.8446,-0.1911,1992.1128],[36.8394,-0.1917,2012.1437],[36.8448,-0.206,1989.4688],[36.8412,-0.2076,1996.4086],[36.8566,-0.2486,2003.3295],[36.8716,-0.2407,1969.1134],[36.8722,-0.2456,1966.0439],[36.8795,-0.2521,1931.1166],[36.9579,-0.2759,1879.3177],[36.9878,-0.2893,1902.4995],[36.9983,-0.265,1936.8495],[36.9886,-0.2503,1908.7207],[36.998,-0.2469,1918.3787],[37.0027,-0.2427,1924.6448],[37.0041,-0.2388,1928.1444],[37.006,-0.2393,1930.5782],[37.0081,-0.2356,1934.7994],[37.0105,-0.236,1935.8055],[37.0133,-0.2251,1951.4542],[37.0081,-0.2161,1953.0049],[37.0194,-0.1694,1979.9824],[37.0167,-0.1658,1977.7179],[37.0172,-0.1623,1976.5723],[37.0148,-0.1563,1956.0049],[37.0075,-0.1473,1935.6382],[37.0081,-0.1433,1941.8868],[36.9955,-0.1385,1909.3401],[36.9855,-0.1285,1896.6777],[36.9821,-0.0892,1861.4083],[36.9778,-0.0649,1837.2645],[36.9802,-0.0627,1826.1366],[36.986,-0.0629,1840.0134],[36.9899,-0.0597,1851.2615],[36.9979,-0.0584,1859.2749],[37.025,-0.0431,1890.2825],[37.0267,-0.04,1893.8798],[37.0222,-0.0393,1887.427],[37.0191,-0.037,1882.6018],[37.0182,-0.0379,1882.6018],[37.0108,-0.029,1862.8721],[37.0076,-0.0293,1862.2549],[36.9962,-0.0222,1841.5287],[36.9925,-0.0182,1837.9858],[36.9899,-0.0107,1845.5062],[36.9756,-0.0094,1829.6704],[36.9708,-0.0105,1824.7882],[36.9626,-0.0067,1828.5835],[36.9563,-0.0075,1811.6714],[36.9498,-0.0019,1807.084],[36.9385,-0.0001,1794.9871],[36.932,0.0053,1791.0493],[36.9217,0.0036,1786.776],[36.9169,0.0075,1779.4545],[36.91,0.0164,1778.3789],[36.9129,0.0211,1771.4591],[36.9112,0.0272,1767.8953],[36.9147,0.0331,1772.3156],[36.9109,0.037,1773.4749],[36.9101,0.0405,1767.0012],[36.9067,0.0403,1772.5481],[36.9066,0.0425,1768.462],[36.9049,0.0412,1769.4014],[36.9028,0.0427,1763.9141],[36.9021,0.0446,1764.8741],[36.9037,0.0453,1762.7611],[36.9006,0.048,1763.0573],[36.9023,0.0513,1761.1653],[36.9005,0.0536,1761.2019],[36.9031,0.0558,1763.8051],[36.8994,0.0628,1766.4252],[36.9024,0.0678,1760.1045],[36.901,0.0694,1758.309],[36.9028,0.0697,1755.239],[36.9042,0.0725,1753.9745],[36.9019,0.0777,1756.3475],[36.9039,0.0853,1752.0865],[36.9011,0.0905,1750.8507],[36.9039,0.0916,1751.8359],[36.902,0.0948,1747.8689],[36.899,0.0939,1755.8153],[36.8998,0.0963,1754.0737],[36.8982,0.0968,1757.0813],[36.9015,0.0987,1748.8003],[36.9013,0.1015,1750.6479],[36.8996,0.1078,1752.8597],[36.895,0.1142,1748.5496],[36.8075,0.1205,1836.8793],[36.8105,0.1101,1844.5503],[36.7709,0.0952,1867.1252],[36.77,0.0832,1870.3035],[36.766,0.0761,1886.2727],[36.7746,0.0704,1890.7721],[36.7831,0.0457,1906.0867],[36.8023,0.0415,1892.2427],[36.8167,-0.0445,1912.6106],[36.818,-0.0442,1912.6106],[36.8181,-0.0417,1904.5884],[36.8218,-0.04,1911.6246],[36.8261,-0.0409,1894.8396],[36.8301,-0.0371,1876.3669],[36.8353,-0.0402,1845.6975],[36.8362,-0.0764,1875.9264],[36.8275,-0.0781,1899.8594],[36.831,-0.0976,1931.2946]]]]}}