{"type":"Feature","properties":{"GID_3":"KEN.28.4.4_1","GID_0":"KEN","country":"Kenya","GID_1":"KEN.28_1","province":"Mombasa","NL_NAME_1":"NA","GID_2":"KEN.28.4_1","county":"Likoni","NL_NAME_2":"NA","city":"ShikaAdabu","VARNAME_3":"NA","NL_NAME_3":"NA","TYPE_3":"Ward","ENGTYPE_3":"Ward","CC_3":"22","HASC_3":"NA","name":"Shika_Adabu.city"},
"geometry":{"type": "MultiPolygon","coordinates": [[[[39.6446,-4.1531,9.4506],[39.6521,-4.141,2.1391],[39.6551,-4.1301,0.0],[39.6596,-4.1243,2.5556],[39.6648,-4.1119,0.0],[39.6509,-4.1083,15.916],[39.645,-4.1093,14.3023],[39.6388,-4.1068,15.9022],[39.6433,-4.098,16.3633],[39.6353,-4.094,14.526],[39.6361,-4.0831,20.8041],[39.6287,-4.0804,28.9355],[39.6237,-4.0805,41.3119],[39.6173,-4.0871,47.6325],[39.6087,-4.0865,32.832],[39.6101,-4.0923,56.8521],[39.6135,-4.0908,52.5428],[39.6121,-4.0924,58.1662],[39.6293,-4.1105,25.7539],[39.6325,-4.1169,23.3878],[39.6377,-4.1182,18.0287],[39.6369,-4.1219,20.0435],[39.6329,-4.1242,24.5765],[39.6301,-4.1366,24.09],[39.6263,-4.1416,22.7619],[39.6446,-4.1531,9.4506]]]]}}