{"type":"Feature","properties":{"GID_3":"KEN.10.1.1_1","GID_0":"KEN","country":"Kenya","GID_1":"KEN.10_1","province":"Kajiado","NL_NAME_1":"NA","GID_2":"KEN.10.1_1","county":"KajiadoCentral","NL_NAME_2":"NA","city":"Dalalekutuk","VARNAME_3":"NA","NL_NAME_3":"NA","TYPE_3":"Ward","ENGTYPE_3":"Ward","CC_3":"918","HASC_3":"NA","name":"Dalalekutuk.city"},
"geometry":{"type": "MultiPolygon","coordinates": [[[[36.8228,-1.9414,1569.1591],[36.8259,-1.9441,1575.4443],[36.8286,-1.9438,1582.6262],[36.8292,-1.9476,1565.0691],[36.8327,-1.9501,1569.7649],[36.8334,-1.9558,1557.9652],[36.8352,-1.9566,1559.8567],[36.8382,-1.967,1552.283],[36.837,-1.97,1554.2131],[36.8382,-1.9712,1554.2131],[36.8388,-1.981,1543.3496],[36.842,-1.9841,1544.2327],[36.8411,-1.9942,1533.2786],[36.8442,-1.997,1535.1357],[36.8446,-2.0002,1534.5256],[36.8427,-2.0041,1534.3998],[36.8384,-2.006,1539.6758],[36.8397,-2.008,1520.6897],[36.838,-2.0113,1535.449],[36.8398,-2.0159,1518.3562],[36.8383,-2.0176,1531.1426],[36.8395,-2.0203,1516.4448],[36.838,-2.0227,1525.9639],[36.8398,-2.0246,1512.173],[36.8397,-2.0271,1513.3137],[36.8378,-2.0285,1526.5596],[36.8414,-2.0295,1513.4187],[36.8401,-2.0407,1506.9301],[36.8421,-2.0417,1499.5101],[36.8417,-2.0438,1497.7043],[36.8432,-2.0439,1496.7053],[36.84,-2.0491,1504.1602],[36.842,-2.0499,1493.5813],[36.8427,-2.0529,1493.7351],[36.8462,-2.0524,1497.9507],[36.8515,-2.0556,1493.3229],[36.8492,-2.0577,1488.4562],[36.8505,-2.0632,1483.8271],[36.848,-2.0661,1483.8176],[36.8493,-2.0685,1475.4517],[36.8473,-2.0713,1469.0925],[36.8516,-2.0784,1463.0609],[36.8508,-2.085,1469.9967],[36.8531,-2.0836,1461.8965],[36.853,-2.0859,1461.7603],[36.8558,-2.087,1461.9816],[36.8557,-2.0883,1457.8949],[36.9542,-2.0918,1676.317],[36.9843,-2.1075,1637.3193],[36.997,-2.1096,1624.5474],[37.1022,-2.0854,1339.042],[37.1016,-2.0828,1357.0085],[37.105,-2.0803,1339.9697],[37.1029,-2.0778,1352.8246],[37.1113,-2.072,1349.2686],[37.1139,-2.0656,1351.3374],[37.1128,-2.0587,1354.2416],[37.1087,-2.0551,1365.6339],[37.1096,-2.0484,1361.7202],[37.1084,-2.0447,1360.3818],[37.1056,-2.047,1369.4114],[37.0981,-2.0467,1361.9349],[37.0939,-2.0416,1366.5576],[37.0858,-2.0424,1375.4686],[37.081,-2.0409,1371.3942],[37.0798,-2.0389,1374.0254],[37.0815,-2.037,1372.2616],[37.0779,-2.0347,1372.5461],[37.069,-2.0211,1390.0175],[37.0702,-2.0124,1384.563],[37.067,-2.0082,1399.5474],[37.0676,-2.0015,1396.6056],[37.0649,-2.0012,1397.9611],[37.0624,-1.9955,1402.441],[37.0517,-1.9965,1398.5356],[37.0469,-1.9852,1410.7426],[37.0424,-1.9819,1417.0435],[37.043,-1.9799,1416.4351],[37.048,-1.9765,1413.6848],[37.0477,-1.9738,1425.5228],[37.0425,-1.9731,1415.8235],[37.0486,-1.9649,1426.4333],[37.0409,-1.9623,1432.4312],[37.0401,-1.9573,1433.1056],[37.0333,-1.9567,1432.0233],[37.0343,-1.9519,1446.0938],[37.0306,-1.9497,1448.4565],[37.0311,-1.9478,1460.1255],[37.0346,-1.946,1445.0586],[37.0303,-1.942,1446.209],[37.0319,-1.9417,1446.209],[37.03,-1.934,1467.6154],[37.0312,-1.9288,1451.6689],[37.0293,-1.925,1459.382],[37.028,-1.9252,1472.5498],[37.0317,-1.9207,1471.7338],[37.0304,-1.9188,1478.0004],[37.0318,-1.915,1486.7255],[37.0304,-1.9102,1480.1204],[37.0319,-1.9091,1471.614],[37.0293,-1.9051,1489.4067],[37.0312,-1.9044,1488.4768],[37.0322,-1.9006,1486.932],[37.0292,-1.897,1499.87],[37.0278,-1.8967,1504.5681],[37.0275,-1.8985,1490.1334],[37.0211,-1.8959,1502.1426],[37.0198,-1.8976,1495.3643],[37.0116,-1.8886,1524.373],[37.0092,-1.8908,1507.7898],[37.0093,-1.8884,1524.302],[37.0061,-1.8884,1508.3828],[37.0068,-1.8851,1514.9672],[37.0038,-1.8843,1522.0349],[37.0042,-1.8822,1531.2455],[37.0001,-1.8835,1526.1958],[36.9973,-1.8807,1545.6973],[36.9914,-1.8807,1549.9609],[36.9861,-1.876,1548.2051],[36.9817,-1.8755,1554.3595],[36.9804,-1.8734,1550.3303],[36.9784,-1.874,1556.6837],[36.9781,-1.8663,1558.0757],[36.9743,-1.8638,1566.056],[36.9742,-1.8595,1571.2739],[36.9677,-1.8595,1579.089],[36.9615,-1.8546,1590.814],[36.9562,-1.856,1584.0042],[36.9556,-1.8579,1596.0763],[36.9446,-1.8591,1606.3823],[36.9341,-1.855,1604.7155],[36.932,-1.8514,1611.7908],[36.9232,-1.8526,1626.1615],[36.9189,-1.8494,1634.9573],[36.9206,-1.847,1626.2065],[36.9199,-1.843,1624.5551],[36.9101,-1.8382,1634.4995],[36.9097,-1.8331,1641.584],[36.9118,-1.8295,1643.6816],[36.9084,-1.8275,1650.3628],[36.9033,-1.8259,1655.1118],[36.8878,-1.8285,1710.3596],[36.8798,-1.828,1718.6014],[36.8673,-1.8246,1709.0875],[36.8526,-1.8176,1730.7744],[36.8489,-1.8188,1743.6893],[36.8442,-1.8151,1750.358],[36.8413,-1.8149,1748.3972],[36.8282,-1.7922,1727.3383],[36.827,-1.7726,1705.4996],[36.8117,-1.7702,1745.8773],[36.7547,-1.7663,1733.6859],[36.7572,-1.7688,1731.4637],[36.7599,-1.7789,1717.5914],[36.7657,-1.7881,1703.9443],[36.7659,-1.7925,1703.7245],[36.7711,-1.8068,1688.0372],[36.7824,-1.8149,1702.1388],[36.7809,-1.8286,1710.3613],[36.7762,-1.834,1722.4038],[36.7782,-1.8393,1718.1885],[36.7822,-1.8375,1713.7734],[36.7855,-1.8419,1732.9955],[36.7896,-1.8427,1738.8888],[36.7887,-1.8477,1734.3713],[36.7822,-1.8561,1727.1786],[36.7795,-1.8553,1722.9292],[36.7671,-1.8669,1651.6628],[36.7755,-1.8736,1647.8732],[36.79,-1.88,1647.3774],[36.793,-1.8843,1634.014],[36.7924,-1.8861,1634.2959],[36.7956,-1.8888,1630.5929],[36.7906,-1.8939,1632.2484],[36.7904,-1.901,1626.3625],[36.7933,-1.9026,1620.9852],[36.7943,-1.9065,1621.2153],[36.795,-1.9054,1618.0012],[36.7966,-1.9073,1619.5642],[36.7992,-1.9135,1613.4304],[36.804,-1.9166,1609.9019],[36.8057,-1.916,1611.6246],[36.8078,-1.9189,1609.0122],[36.8085,-1.9238,1603.2302],[36.807,-1.927,1604.5321],[36.8095,-1.928,1600.824],[36.8119,-1.9267,1604.7111],[36.8134,-1.9282,1600.387],[36.8126,-1.9301,1596.1172],[36.8172,-1.93,1600.094],[36.8167,-1.9326,1591.9961],[36.8202,-1.9299,1602.0892],[36.8231,-1.9304,1591.6924],[36.8228,-1.934,1583.7292],[36.8246,-1.933,1582.3872],[36.8281,-1.935,1583.1694],[36.8251,-1.9378,1586.3889],[36.8223,-1.9377,1590.6656],[36.8228,-1.9414,1569.1591]]]]}}