{"type": "Feature","bbox": [36.8973,-1.2887,36.9381,-1.2506],"geometry": {"type": "MultiPolygon","coordinates": [[[[36.9181,-1.2803,1591.0106],[36.9177,-1.2762,1598.6664],[36.9207,-1.2747,1586.7081],[36.9201,-1.2706,1593.899],[36.9247,-1.2676,1586.9034],[36.9245,-1.2656,1592.325],[36.9381,-1.263,1564.2231],[36.9336,-1.2506,1565.9219],[36.9093,-1.2577,1589.5824],[36.8973,-1.2695,1609.1816],[36.902,-1.2795,1611.5863],[36.906,-1.2774,1611.8253],[36.9123,-1.2887,1605.4526],[36.9155,-1.2875,1593.2847],[36.9148,-1.2851,1605.8701],[36.9181,-1.2803,1591.0106]]]]}
,"properties": {"GID_2": "KEN.30.3_1","GID_0": "KEN","country": "Kenya","GID_1": "KEN.30_1","province": "Nairobi","NL_NAME_1": "NA","county": "EmbakasiCentral","VARNAME_2": "NA","NL_NAME_2": "NA","TYPE_2": "Constituency","ENGTYPE_2": "Constituency","CC_2": "284","HASC_2": "NA","name": "Embakasi_Central.county","area_km2": 8.351627,"hist_schema_id": "Elevation0-9000","hist_area_km2": {"1550": 0.127183,"1575": 2.628438,"1600": 5.447627,"1625": 0.148379}}}