{"type":"Feature","properties":{"GID_3":"KEN.45.4.6_1","GID_0":"KEN","country":"Kenya","GID_1":"KEN.45_1","province":"Vihiga","NL_NAME_1":"NA","GID_2":"KEN.45.4_1","county":"Sabatia","NL_NAME_2":"NA","city":"Wodanga","VARNAME_3":"NA","NL_NAME_3":"NA","TYPE_3":"Ward","ENGTYPE_3":"Ward","CC_3":"1059","HASC_3":"NA","name":"Wodanga.city"},
"geometry":{"type": "MultiPolygon","coordinates": [[[[34.801,0.0892,1650.228],[34.8046,0.0895,1698.5891],[34.8083,0.0962,1673.6707],[34.8135,0.0985,1650.342],[34.8102,0.1057,1636.9077],[34.8142,0.1068,1636.3635],[34.8207,0.1235,1644.731],[34.8102,0.1255,1634.1906],[34.7985,0.1325,1599.9746],[34.7926,0.1288,1600.9363],[34.7806,0.1336,1564.6475],[34.7772,0.1164,1622.4166],[34.7704,0.1173,1611.8342],[34.768,0.1151,1617.3628],[34.7699,0.1105,1581.6752],[34.7766,0.1066,1613.847],[34.7748,0.0961,1620.0508],[34.7778,0.0854,1614.5535],[34.782,0.0822,1660.3479],[34.7914,0.0862,1655.0922],[34.7951,0.0852,1666.1746],[34.798,0.0891,1648.5146],[34.801,0.0892,1650.228]]]]}}