{"type": "Feature","bbox": [39.1705,1.1475,39.8413,1.9959],"geometry": {"type": "MultiPolygon","coordinates": [[[[39.4231,1.5261,269.8842],[39.4465,1.5079,267.2111],[39.4709,1.5075,261.5676],[39.4997,1.5203,255.3831],[39.5047,1.5187,255.0766],[39.5213,1.5033,253.7309],[39.5331,1.5035,252.4381],[39.5335,1.4989,251.8525],[39.5363,1.4935,251.4705],[39.5311,1.4943,252.1378],[39.5279,1.4927,253.3068],[39.5151,1.4813,258.4469],[39.5149,1.4751,260.3233],[39.5107,1.4663,263.4559],[39.5095,1.4601,265.4466],[39.4997,1.4381,273.1006],[39.4941,1.4297,277.7947],[39.5393,1.3181,274.1636],[39.5325,1.3127,276.0588],[39.5255,1.2981,279.5167],[39.5203,1.2925,281.4828],[39.5209,1.2727,288.0826],[39.5261,1.2487,300.2856],[39.5505,1.2193,317.4037],[39.5549,1.2163,318.9504],[39.5671,1.2111,317.6513],[39.5833,1.2107,311.7051],[39.6193,1.1943,287.2853],[39.6317,1.1787,274.8551],[39.6407,1.1559,262.9504],[39.6459,1.1489,259.4139],[39.6551,1.1475,256.6221],[39.6689,1.1503,255.4951],[39.7329,1.2013,241.1073],[39.8279,1.2803,228.2819],[39.8335,1.2853,225.3219],[39.8413,1.2963,217.7402],[39.8303,1.3029,217.1406],[39.8261,1.3123,218.4788],[39.8131,1.3189,219.9635],[39.8049,1.3261,220.6996],[39.7973,1.3289,221.2814],[39.7909,1.3359,221.9813],[39.7789,1.3401,222.6208],[39.7733,1.3445,223.307],[39.7471,1.3583,225.9723],[39.7401,1.3603,226.9576],[39.7333,1.3581,227.7456],[39.7241,1.3623,227.8838],[39.7191,1.3681,228.7108],[39.7149,1.3699,229.3598],[39.7123,1.3775,230.4059],[39.7081,1.3815,230.2957],[39.7105,1.3885,231.5526],[39.7037,1.3943,231.8915],[39.6999,1.3999,232.4919],[39.6961,1.4019,233.0582],[39.6939,1.4095,233.9682],[39.6879,1.4125,234.2089],[39.6823,1.4195,234.9381],[39.6755,1.4223,235.7653],[39.6729,1.4417,238.1351],[39.6649,1.4649,241.4464],[39.6371,1.6135,257.8965],[39.6279,1.6451,261.7476],[39.6185,1.6567,263.7207],[39.6099,1.6797,267.0591],[39.6093,1.6935,268.755],[39.6063,1.7103,271.4061],[39.5977,1.7399,275.9777],[39.5925,1.7497,277.5745],[39.5919,1.7603,278.9915],[39.5879,1.7695,280.4257],[39.5861,1.7921,284.037],[39.5771,1.8179,288.0773],[39.5739,1.8417,291.7102],[39.5749,1.8685,296.0962],[39.5727,1.8735,296.9291],[39.5651,1.8807,298.3873],[39.5647,1.8953,300.4916],[39.5601,1.9113,303.3141],[39.2451,1.9959,328.1208],[39.2221,1.9251,316.9954],[39.2047,1.8823,309.4262],[39.1929,1.846,307.0931],[39.1705,1.7914,301.6025],[39.1769,1.7737,299.5894],[39.1773,1.7647,298.5232],[39.1817,1.7547,297.5185],[39.1895,1.7449,296.0508],[39.2037,1.7161,291.9543],[39.2137,1.7093,290.4506],[39.2225,1.7084,289.4144],[39.2265,1.7071,288.9583],[39.2305,1.7033,288.3308],[39.2471,1.6992,286.2265],[39.2607,1.6885,284.6733],[39.2713,1.6895,284.0323],[39.2835,1.6803,280.9778],[39.2843,1.6767,280.8875],[39.2981,1.6687,279.7437],[39.3073,1.6681,279.8203],[39.3085,1.6611,277.6413],[39.3107,1.6577,277.8365],[39.3157,1.6603,278.5557],[39.3215,1.6499,276.7745],[39.3313,1.6479,276.5865],[39.3373,1.6393,274.7786],[39.3411,1.6403,274.4613],[39.3459,1.6283,273.5032],[39.3515,1.6253,272.6123],[39.3583,1.6133,271.6616],[39.3669,1.6039,270.2316],[39.3769,1.5875,268.6249],[39.3827,1.5847,267.853],[39.3851,1.5817,267.6772],[39.3873,1.5737,267.09],[39.3939,1.5741,266.5009],[39.3971,1.5643,265.5372],[39.4037,1.5591,265.0871],[39.4125,1.5601,264.1133],[39.4391,1.5379,262.0088],[39.4483,1.5357,260.905],[39.4231,1.5261,269.8842]]]]}
,"properties": {"GID_3": "KEN.46.6.4_1","GID_0": "KEN","country": "Kenya","GID_1": "KEN.46_1","province": "Wajir","NL_NAME_1": "NA","GID_2": "KEN.46.6_1","county": "WajirWest","NL_NAME_2": "NA","city": "Hadado/Athibohol","VARNAME_3": "NA","NL_NAME_3": "NA","TYPE_3": "Ward","ENGTYPE_3": "Ward","CC_3": "177","HASC_3": "NA","name": "Hadado_Athibohol.city","area_km2": 2704.389,"hist_schema_id": "Elevation0-9000","hist_area_km2": {"225": 152.679,"250": 654.577,"275": 848.31,"300": 868.959,"325": 179.864}}}