{"type":"Feature","properties":{"GID_2":"KEN.6.2_1","GID_0":"KEN","country":"Kenya","GID_1":"KEN.6_1","province":"Embu","NL_NAME_1":"NA","county":"MbeereNorth","VARNAME_2":"NA","NL_NAME_2":"NA","TYPE_2":"Constituency","ENGTYPE_2":"Constituency","CC_2":"66","HASC_2":"NA","name":"Mbeere_North.county"},
"geometry":{"type": "MultiPolygon","coordinates": [[[[37.901,-0.6003,584.2863],[37.9023,-0.5976,595.9279],[37.8835,-0.5827,556.8003],[37.8878,-0.56,556.7498],[37.8875,-0.553,554.0677],[37.8824,-0.5405,535.2443],[37.8825,-0.5349,538.473],[37.8923,-0.5104,565.0159],[37.8955,-0.5072,550.3157],[37.9137,-0.4667,541.1696],[37.9313,-0.4443,545.5776],[37.9355,-0.4344,531.9062],[37.9359,-0.4281,537.8963],[37.9333,-0.4279,541.0449],[37.9319,-0.426,550.9214],[37.9271,-0.428,547.7461],[37.9245,-0.4269,550.7678],[37.9215,-0.4241,550.2374],[37.9207,-0.4208,636.4028],[37.9225,-0.4158,641.6563],[37.9085,-0.4131,609.6412],[37.9087,-0.4104,590.8778],[37.9011,-0.4053,587.8079],[37.9021,-0.3993,602.9773],[37.8995,-0.3963,619.459],[37.8901,-0.3934,625.6687],[37.8915,-0.3828,630.1614],[37.8967,-0.378,631.1399],[37.8951,-0.3753,637.9783],[37.8965,-0.3702,641.8987],[37.8905,-0.367,653.864],[37.8895,-0.3641,654.1608],[37.8933,-0.358,652.9722],[37.8945,-0.3528,660.3168],[37.8905,-0.3462,661.824],[37.8863,-0.343,684.5106],[37.8805,-0.3479,683.3052],[37.8735,-0.3508,687.3575],[37.8707,-0.3659,698.8979],[37.8651,-0.3714,710.4199],[37.8659,-0.3825,716.0785],[37.8526,-0.3904,743.8358],[37.8455,-0.4025,754.8304],[37.8399,-0.405,768.6425],[37.8315,-0.406,810.7717],[37.8275,-0.4094,789.3101],[37.8281,-0.4126,768.4934],[37.8177,-0.4206,792.3324],[37.8146,-0.428,794.5521],[37.8065,-0.4315,808.8163],[37.8019,-0.4367,814.3318],[37.7881,-0.4435,839.3207],[37.7849,-0.4472,854.6387],[37.7793,-0.4459,883.5553],[37.7671,-0.4494,983.2639],[37.7606,-0.4495,1024.1637],[37.7555,-0.4472,1030.8594],[37.7434,-0.4459,1053.4077],[37.7345,-0.4472,1076.059],[37.7326,-0.45,1055.4503],[37.7285,-0.4511,1089.2454],[37.7201,-0.4504,1096.5012],[37.7149,-0.4447,1098.7139],[37.7042,-0.4427,1136.9402],[37.6994,-0.4386,1146.4204],[37.6933,-0.4384,1143.8478],[37.6873,-0.4459,1165.6301],[37.6802,-0.4595,1190.0529],[37.6798,-0.4711,1209.0051],[37.6881,-0.4736,1176.2041],[37.6893,-0.4756,1167.0878],[37.6972,-0.4794,1143.0469],[37.704,-0.4794,1108.7595],[37.7107,-0.4863,1062.7166],[37.714,-0.4924,1001.47],[37.7069,-0.49,1035.0806],[37.7057,-0.4874,1078.6687],[37.7023,-0.4927,1069.6755],[37.6983,-0.4926,1130.7437],[37.69,-0.4962,1134.4214],[37.6841,-0.5031,1127.5195],[37.6851,-0.5084,1071.1831],[37.6829,-0.5162,1076.178],[37.6782,-0.5138,1132.7748],[37.6726,-0.514,1095.0033],[37.6722,-0.5118,1108.9033],[37.6684,-0.5161,1111.1487],[37.6637,-0.514,1143.1069],[37.663,-0.519,1102.1057],[37.6601,-0.5193,1127.2866],[37.66,-0.5217,1100.1182],[37.6573,-0.5189,1132.3312],[37.6532,-0.5178,1160.4727],[37.6508,-0.5203,1145.1682],[37.6521,-0.5264,1106.6943],[37.6472,-0.5262,1133.8931],[37.6452,-0.5292,1113.9398],[37.6417,-0.5265,1125.1512],[37.6371,-0.5266,1119.6984],[37.6352,-0.5235,1129.5278],[37.6266,-0.5222,1124.3704],[37.6253,-0.5182,1128.1238],[37.6222,-0.5173,1161.0586],[37.6203,-0.5218,1135.6254],[37.6188,-0.5221,1135.6254],[37.6116,-0.52,1158.3149],[37.6047,-0.5205,1161.0015],[37.5998,-0.5159,1152.7061],[37.591,-0.5203,1223.5082],[37.5872,-0.519,1236.364],[37.5852,-0.521,1238.3755],[37.5821,-0.5198,1241.4072],[37.5737,-0.5224,1258.2716],[37.5682,-0.5198,1268.5857],[37.5648,-0.5229,1284.0959],[37.5628,-0.5313,1311.0188],[37.557,-0.5345,1318.6562],[37.5501,-0.5345,1378.3203],[37.5475,-0.5388,1344.5376],[37.5528,-0.539,1393.8982],[37.5558,-0.541,1379.8198],[37.5582,-0.5465,1401.7618],[37.5605,-0.5432,1386.1627],[37.5632,-0.5436,1370.3032],[37.5662,-0.5491,1333.5039],[37.5658,-0.5602,1315.6421],[37.5683,-0.5656,1261.4504],[37.5674,-0.569,1249.6331],[37.5648,-0.575,1222.6606],[37.56,-0.5772,1222.9403],[37.5596,-0.5796,1208.8074],[37.5563,-0.5813,1202.0957],[37.5646,-0.5855,1212.7366],[37.5681,-0.5911,1205.3149],[37.5737,-0.5945,1214.8762],[37.5723,-0.5978,1199.4037],[37.5674,-0.6003,1188.3726],[37.5618,-0.6086,1167.6348],[37.5645,-0.6144,1161.1671],[37.5689,-0.6176,1156.5303],[37.5678,-0.6235,1146.02],[37.5697,-0.6239,1147.8169],[37.5706,-0.6206,1151.9242],[37.575,-0.6182,1162.6272],[37.5759,-0.6135,1188.406],[37.5817,-0.61,1189.9009],[37.5879,-0.6127,1203.7235],[37.5903,-0.6123,1209.9316],[37.5911,-0.6092,1207.5239],[37.5934,-0.6081,1203.0464],[37.5962,-0.6101,1215.3455],[37.6025,-0.61,1245.0887],[37.6101,-0.6157,1287.7689],[37.6209,-0.6171,1202.7612],[37.6243,-0.6197,1173.7915],[37.6293,-0.6185,1163.1021],[37.6308,-0.6227,1137.238],[37.6354,-0.6245,1114.5502],[37.64,-0.6238,1095.8855],[37.6466,-0.6289,1097.569],[37.649,-0.6297,1087.5117],[37.6516,-0.6284,1079.8601],[37.6532,-0.6315,1075.8503],[37.6562,-0.6305,1091.8678],[37.6567,-0.6327,1072.8635],[37.6612,-0.6352,1057.4595],[37.6605,-0.6365,1058.5245],[37.6621,-0.6371,1058.9082],[37.6609,-0.6391,1064.9059],[37.6648,-0.6409,1061.0144],[37.6658,-0.6391,1066.6317],[37.6676,-0.6409,1036.2195],[37.6666,-0.644,1037.9895],[37.6683,-0.6444,1032.488],[37.6702,-0.649,1026.7119],[37.673,-0.6492,1034.2939],[37.6755,-0.6523,1021.6904],[37.6778,-0.6506,1033.7812],[37.6806,-0.6513,1040.4421],[37.6815,-0.6534,1012.9598],[37.6906,-0.6544,1019.8655],[37.6902,-0.6562,1007.6404],[37.6936,-0.6576,1000.5705],[37.6941,-0.656,1000.9825],[37.6958,-0.6562,1004.4827],[37.6958,-0.6579,997.6169],[37.6981,-0.6583,987.1774],[37.6978,-0.6607,986.202],[37.701,-0.661,992.9563],[37.7016,-0.6625,989.4382],[37.7022,-0.6592,1002.1551],[37.7049,-0.6561,994.9683],[37.7082,-0.6592,987.8329],[37.7105,-0.6575,984.8256],[37.7114,-0.6592,978.3301],[37.713,-0.6565,977.3499],[37.7168,-0.6586,964.5473],[37.7191,-0.6574,997.1271],[37.7196,-0.6594,977.1667],[37.7211,-0.6585,977.1667],[37.7221,-0.6613,956.6141],[37.7242,-0.6614,991.0804],[37.7261,-0.6641,983.7098],[37.7275,-0.663,983.7098],[37.7327,-0.6647,957.0272],[37.7302,-0.6604,1000.8513],[37.7371,-0.663,955.0052],[37.7378,-0.6601,988.412],[37.7397,-0.662,959.9669],[37.742,-0.6609,987.1634],[37.7421,-0.6587,977.607],[37.7451,-0.6589,944.2185],[37.7455,-0.6566,953.5867],[37.7552,-0.6537,942.5615],[37.7579,-0.6544,916.3204],[37.7606,-0.6516,891.1476],[37.7595,-0.6508,904.6136],[37.7631,-0.6438,890.4351],[37.7684,-0.6418,902.946],[37.7692,-0.637,898.8547],[37.7719,-0.6405,883.7966],[37.7751,-0.6384,870.0142],[37.7755,-0.6362,907.9724],[37.7817,-0.6386,845.2429],[37.7832,-0.6361,887.7964],[37.7872,-0.6434,798.6293],[37.7891,-0.6422,788.6017],[37.7891,-0.6342,817.8748],[37.7943,-0.6302,765.9565],[37.793,-0.6264,839.2563],[37.7946,-0.6266,779.3813],[37.7976,-0.6215,770.156],[37.8001,-0.6216,751.6249],[37.8023,-0.6282,776.5944],[37.8175,-0.6463,888.9913],[37.8327,-0.6567,830.7281],[37.8374,-0.6571,815.6956],[37.8418,-0.6535,798.4425],[37.8535,-0.6542,765.1069],[37.8584,-0.647,746.0306],[37.8742,-0.6508,721.6876],[37.8783,-0.65,718.8942],[37.893,-0.6562,698.0],[37.8935,-0.6452,698.0],[37.9072,-0.6392,697.0128],[37.9228,-0.6247,592.5977],[37.901,-0.6003,584.2863]]]]}}