{"type":"Feature","properties":{"GID_1":"KEN.7_1","GID_0":"KEN","country":"Kenya","province":"Garissa","VARNAME_1":"NA","NL_NAME_1":"NA","TYPE_1":"County","ENGTYPE_1":"County","CC_1":"7","HASC_1":"KE.GA","ISO_1":"KE-07","name":"Garissa.province"},
"geometry":{"type": "MultiPolygon","coordinates": [[[[41.0272,-0.8552,83.8783],[41.0043,-0.8236,88.0645],[41.0021,-0.7843,87.0056],[41.0004,-0.7842,87.3048],[40.9988,-0.542,90.1991],[41.0008,-0.5029,85.9096],[40.9982,-0.4322,83.9635],[41.0,-0.4221,85.1984],[40.9994,-0.3401,85.5106],[41.0014,-0.2436,90.7576],[40.9991,-0.112,95.0486],[41.0005,-0.0877,91.5977],[41.0005,0.0,89.8634],[40.9886,0.014,90.1305],[40.9893,0.0932,92.7255],[40.991,0.1066,90.9128],[40.9893,0.1193,92.0892],[40.9899,0.2347,89.0637],[40.9941,0.2362,88.3404],[40.9923,0.2875,82.9407],[40.999,0.4058,78.6233],[40.9887,0.4485,77.1182],[40.9887,0.4621,75.7305],[40.9784,0.4545,76.8988],[40.9618,0.449,77.9381],[40.9465,0.4384,78.755],[40.9343,0.434,79.5552],[40.9201,0.4261,80.7332],[40.886,0.3933,84.961],[40.8581,0.3759,85.9044],[40.8421,0.3703,87.8647],[40.8172,0.3654,90.3994],[40.7713,0.3532,92.5266],[40.7501,0.3417,92.609],[40.7367,0.3262,93.2791],[40.7171,0.3206,95.0849],[40.7114,0.3141,95.4968],[40.7037,0.2931,97.5285],[40.6955,0.2785,100.2497],[40.6845,0.2715,99.8049],[40.6833,0.2597,102.0889],[40.6813,0.2571,103.2995],[40.6465,0.2313,105.7683],[40.6293,0.2327,106.3139],[40.6191,0.2313,106.5314],[40.6115,0.2321,106.8817],[40.6065,0.2265,108.6856],[40.5953,0.2253,108.1385],[40.5855,0.2153,109.9436],[40.5779,0.2177,110.4245],[40.5713,0.2153,107.4212],[40.5629,0.2163,109.006],[40.5407,0.2269,108.2801],[40.5349,0.227,109.2676],[40.5241,0.2218,110.4664],[40.5205,0.2137,110.5113],[40.5129,0.2077,111.9927],[40.5077,0.1941,115.1498],[40.5029,0.1931,113.3133],[40.4983,0.1967,115.8072],[40.4951,0.197,115.8475],[40.4839,0.1887,112.1293],[40.4753,0.1863,113.4107],[40.4527,0.1855,114.5701],[40.4257,0.1899,116.1524],[40.4186,0.1887,116.0271],[40.4055,0.1835,116.8164],[40.4023,0.1837,117.1409],[40.3965,0.1851,118.0308],[40.3785,0.1957,120.0736],[40.3595,0.1984,120.924],[40.3578,0.2013,121.6395],[40.3446,0.2013,122.8521],[40.3425,0.1987,122.0435],[40.3394,0.1987,122.4285],[40.3432,0.2027,122.7847],[40.3289,0.2042,126.1684],[40.2998,0.2236,124.4075],[40.2596,0.2413,126.7861],[40.2382,0.2536,128.1127],[40.2144,0.2734,131.9995],[40.1766,0.3159,144.7666],[40.1753,0.3133,140.8767],[40.1567,0.3293,145.0335],[40.1301,0.3421,141.6115],[40.059,0.3931,148.7813],[40.0493,0.3964,144.0888],[40.0135,0.3993,146.5366],[39.9839,0.4083,147.5606],[39.9657,0.4169,148.7107],[39.9479,0.4277,149.94],[39.9046,0.463,155.1313],[39.8943,0.4625,153.817],[39.8892,0.4641,154.1744],[39.8779,0.4597,154.9721],[39.8743,0.4597,155.1178],[39.8693,0.4621,155.6177],[39.8649,0.467,156.0013],[39.8571,0.4703,156.7127],[39.8496,0.4785,157.4973],[39.8401,0.4791,158.1949],[39.8357,0.4815,158.2758],[39.8275,0.4797,158.9003],[39.8209,0.4835,159.195],[39.8103,0.4851,159.8723],[39.8009,0.4845,160.4041],[39.7957,0.4883,160.8179],[39.7831,0.4915,161.6313],[39.7747,0.4965,162.0393],[39.7699,0.5037,162.4725],[39.7637,0.5071,162.7761],[39.7619,0.512,163.033],[39.7463,0.5177,163.7163],[39.7405,0.5233,164.3477],[39.7359,0.5233,164.6167],[39.7329,0.5253,164.7782],[39.7235,0.5431,166.3255],[39.7204,0.5466,166.5077],[39.7169,0.5465,166.7476],[39.7163,0.5505,166.8318],[39.7115,0.5569,167.1507],[39.7019,0.5651,168.1658],[39.698,0.5726,168.3768],[39.6883,0.5801,169.6823],[39.6846,0.588,170.0269],[39.6759,0.5979,170.8869],[39.6729,0.6053,170.9986],[39.6639,0.6153,172.3839],[39.6623,0.6203,172.5977],[39.6539,0.6325,173.7268],[39.6455,0.6571,174.9966],[39.6349,0.6671,176.0051],[39.6269,0.6703,176.6349],[39.6239,0.6771,177.1689],[39.6139,0.6845,177.9395],[39.6101,0.6917,178.488],[39.5997,0.7035,179.6643],[39.5965,0.7129,180.2151],[39.5867,0.7207,181.1178],[39.5755,0.7409,182.859],[39.5641,0.7557,184.3851],[39.5613,0.7623,184.4782],[39.5607,0.7689,184.7791],[39.5545,0.7809,185.6769],[39.5437,0.8215,188.4536],[39.5331,0.8535,190.4138],[39.5151,0.8979,196.0804],[39.4991,0.9305,197.4726],[39.4931,0.9605,198.1126],[39.4799,0.9803,199.1738],[39.4657,0.9887,200.083],[39.4621,0.9949,200.8953],[39.4545,0.9891,201.1147],[39.3957,0.9685,204.2806],[39.3553,0.9511,205.0535],[39.3359,0.9375,206.2875],[39.3137,0.9249,207.6092],[39.2679,0.8759,223.438],[39.2497,0.8597,228.7708],[39.2371,0.8443,234.218],[39.2247,0.8177,241.3561],[39.2153,0.8051,245.381],[39.2005,0.7895,251.1594],[39.1805,0.7519,259.4886],[39.1777,0.7437,259.4162],[39.1757,0.7279,263.4065],[39.1809,0.7231,266.8227],[39.1779,0.7257,267.6167],[39.1741,0.7201,271.7933],[39.1673,0.7187,269.6644],[39.1643,0.7143,273.6708],[39.1475,0.7055,270.3701],[39.1435,0.6979,275.2958],[39.1423,0.6913,287.4435],[39.1353,0.6909,274.4815],[39.1311,0.6883,275.9388],[39.1143,0.6913,279.7678],[39.1025,0.6895,281.8701],[39.0985,0.6867,283.0216],[39.0981,0.6811,283.051],[39.0895,0.6809,285.3832],[39.0839,0.6769,288.7395],[39.0783,0.6791,288.9533],[39.0723,0.6787,288.4739],[39.0669,0.6829,290.2513],[39.0619,0.6831,292.2087],[39.0581,0.6857,291.2682],[39.0519,0.6855,292.9003],[39.0489,0.6837,294.4881],[39.0461,0.6775,297.9746],[39.0377,0.6729,298.063],[39.0351,0.6671,299.6536],[39.0319,0.6653,301.3995],[39.0275,0.6653,300.6875],[39.0257,0.6631,300.9971],[39.0227,0.6559,301.924],[39.0239,0.6467,307.6625],[39.0209,0.6415,307.3306],[39.0145,0.6415,307.2634],[39.0127,0.6389,306.9644],[39.0123,0.6281,319.2375],[39.0103,0.6253,322.5645],[38.9861,0.6263,315.2009],[38.9803,0.6229,316.0901],[38.9757,0.6227,319.9932],[38.9615,0.6247,321.783],[38.9517,0.6285,322.5304],[38.9457,0.6267,323.9609],[38.9403,0.6285,324.4035],[38.9357,0.6251,326.4215],[38.9255,0.6069,331.9902],[38.9107,0.5997,336.7538],[38.9081,0.6003,337.4583],[38.9013,0.5973,338.9706],[38.8943,0.5981,340.9479],[38.8917,0.5961,341.5636],[38.8861,0.5973,344.006],[38.8759,0.5957,347.5841],[38.8719,0.6007,347.5701],[38.8607,0.6005,350.3074],[38.8567,0.5989,350.7908],[38.8387,0.5871,357.8043],[38.8319,0.5859,360.6061],[38.8247,0.5811,365.1253],[38.8161,0.5717,365.9625],[38.8077,0.5553,371.0986],[38.8017,0.5505,373.4733],[38.7991,0.5445,375.2417],[38.7917,0.5413,377.2418],[38.7837,0.5271,382.8434],[38.7755,0.5199,386.7503],[38.7677,0.5175,390.6144],[38.7651,0.5133,392.9948],[38.7557,0.5167,396.549],[38.7543,0.5219,397.4487],[38.7491,0.5253,398.9505],[38.7433,0.5249,401.0293],[38.7351,0.5203,402.6691],[38.7231,0.5261,414.0244],[38.7205,0.5241,405.5042],[38.7211,0.5134,410.799],[38.7081,0.5133,412.8884],[38.7035,0.5079,414.291],[38.6921,0.5117,417.5066],[38.6779,0.5097,428.1989],[38.6639,0.5107,436.3985],[38.6577,0.5091,430.4924],[38.6661,0.5015,431.9475],[38.6699,0.5015,431.2599],[38.6769,0.4955,436.1609],[38.6799,0.4739,454.9406],[38.6903,0.4475,488.2749],[38.7073,0.3789,477.1125],[38.7122,0.3657,476.6095],[38.7131,0.3559,477.9789],[38.7573,0.1841,453.5194],[38.7573,0.1743,445.4322],[38.7557,0.17,440.0434],[38.7351,0.1495,461.2346],[38.7341,0.1469,453.6774],[38.7321,0.1249,458.589],[38.7301,0.1185,449.252],[38.7319,0.0979,432.3105],[38.7287,0.0855,418.6893],[38.7305,0.0493,392.4741],[38.7401,0.0139,357.2498],[38.7379,0.0039,332.2375],[38.7429,-0.0022,324.231],[38.7423,-0.0129,308.9535],[38.7485,-0.0203,299.5032],[38.7493,-0.0281,298.768],[38.7625,-0.026,347.0384],[38.7755,-0.0262,350.6789],[38.8331,-0.0488,301.3471],[38.8579,-0.0473,276.8096],[38.8659,-0.0506,263.6724],[38.8837,-0.0513,282.3167],[38.9003,-0.0431,281.8512],[38.9109,-0.0401,260.1842],[38.9369,-0.0438,243.3576],[38.9485,-0.0285,240.2689],[38.9661,-0.0147,227.1682],[38.9643,-0.013,227.6408],[38.9669,-0.0137,226.9377],[39.014,-0.0025,237.3911],[39.0357,-0.0018,239.0174],[39.0505,-0.0051,231.5596],[39.0543,-0.0032,236.3994],[39.0553,-0.0047,235.1555],[39.0753,-0.0034,240.5021],[39.0905,-0.0082,233.2355],[39.1013,-0.0174,230.7256],[39.1033,-0.0148,233.8312],[39.1013,-0.0178,230.7256],[39.1037,-0.0218,229.6488],[39.1255,-0.0501,214.8301],[39.1391,-0.0665,201.257],[39.1479,-0.0743,193.3326],[39.1553,-0.0783,190.976],[39.1725,-0.0823,196.716],[39.1857,-0.0882,201.109],[39.1969,-0.0906,201.4925],[39.2281,-0.0854,216.6891],[39.2613,-0.0931,218.8658],[39.2939,-0.0913,215.9376],[39.3121,-0.0877,224.0229],[39.3265,-0.0896,222.7173],[39.3357,-0.0942,219.8326],[39.3621,-0.1144,205.0626],[39.3869,-0.1252,201.4705],[39.4075,-0.1442,193.1822],[39.4361,-0.1457,200.1433],[39.4477,-0.1496,198.7493],[39.4685,-0.1664,190.1673],[39.4815,-0.1744,205.5999],[39.5099,-0.2024,192.2437],[39.5275,-0.2143,188.5505],[39.5322,-0.2196,185.9791],[39.5447,-0.244,176.8148],[39.5517,-0.2485,179.3316],[39.5645,-0.2527,183.8911],[39.5775,-0.2632,182.1612],[39.5867,-0.2733,179.665],[39.5999,-0.2969,171.827],[39.6177,-0.3103,177.8925],[39.6263,-0.3192,180.1777],[39.6261,-0.4309,144.2046],[39.6273,-0.4495,141.7563],[39.6367,-0.4593,143.2606],[39.6327,-0.465,140.8973],[39.6311,-0.4731,137.4994],[39.6325,-0.4923,139.2733],[39.6927,-0.4931,168.6222],[39.7041,-0.5047,163.4551],[39.7097,-0.5151,167.3798],[39.7173,-0.5198,172.7074],[39.7229,-0.5256,170.9209],[39.7263,-0.5341,166.6721],[39.7263,-0.5449,155.9626],[39.7289,-0.5458,157.0974],[39.747,-0.5431,184.2318],[39.758,-0.5473,186.3804],[39.7723,-0.5593,172.1425],[39.8085,-0.5811,158.4923],[39.8177,-0.5924,161.4664],[39.8211,-0.6018,172.1356],[39.8197,-0.6166,160.1642],[39.8212,-0.6235,162.9569],[39.84,-0.6473,160.5362],[39.8423,-0.6538,150.1176],[39.8433,-0.6678,162.091],[39.8561,-0.6887,151.1033],[39.8578,-0.6978,147.9893],[39.8581,-0.718,150.4156],[39.8667,-0.731,163.7111],[39.8682,-0.738,159.2963],[39.8626,-0.7517,153.7101],[39.8627,-0.7605,159.1064],[39.8793,-0.7855,154.8581],[39.8901,-0.8172,149.0117],[39.9009,-0.8333,145.8831],[39.9033,-0.8465,144.6938],[39.9037,-0.8705,128.249],[39.9054,-0.877,127.7143],[39.9028,-0.8871,124.7916],[39.9039,-0.8962,122.7663],[39.9051,-0.8991,121.9967],[39.9129,-0.9063,121.3177],[39.9197,-0.918,121.5022],[39.9257,-0.9392,121.2293],[39.9347,-0.9561,114.2839],[39.9377,-0.9652,112.6925],[39.9389,-0.978,104.5505],[39.9343,-1.0025,101.3243],[39.9465,-1.0216,100.0603],[39.9699,-1.0718,96.0958],[39.9965,-1.1203,93.0647],[40.0106,-1.1604,90.3975],[40.0389,-1.1997,90.6447],[40.0509,-1.2371,91.5282],[40.0567,-1.2486,94.4823],[40.0569,-1.2703,99.6559],[40.0499,-1.2981,97.0461],[40.0497,-1.316,84.4649],[40.0609,-1.3391,93.6114],[40.0629,-1.3545,95.4472],[40.0845,-1.4475,89.8727],[40.0887,-1.4795,66.2897],[40.0965,-1.4943,65.9468],[40.1039,-1.5048,76.6479],[40.1052,-1.5046,79.6618],[40.1105,-1.5343,78.9098],[40.1169,-1.5522,78.324],[40.1251,-1.5649,75.6577],[40.1395,-1.5783,75.4029],[40.1469,-1.5878,75.0868],[40.1543,-1.6056,73.9511],[40.1599,-1.6421,74.331],[40.1577,-1.6856,72.0392],[40.1587,-1.6956,69.8531],[40.1693,-1.7158,69.473],[40.1707,-1.7212,70.0252],[40.1695,-1.7308,68.2966],[40.1579,-1.7582,61.5698],[40.1631,-1.8183,46.1663],[40.1683,-1.8316,46.5387],[40.1791,-1.8436,44.7867],[40.1879,-1.8608,44.7015],[40.1887,-1.8715,42.8288],[40.1871,-1.9029,40.4062],[40.1897,-1.9296,33.5764],[40.1863,-1.9505,34.555],[40.1867,-1.9608,34.2096],[40.1975,-1.9827,34.2987],[40.1961,-1.9996,33.4895],[40.2063,-2.0166,32.0476],[40.2129,-2.0397,30.8056],[40.2127,-2.0375,30.6117],[40.2151,-2.0355,31.5682],[40.2987,-1.9956,46.6075],[40.3507,-1.9717,59.4907],[40.3595,-1.9684,53.5526],[40.3613,-1.9709,54.5186],[40.3595,-1.968,53.5526],[40.3623,-1.9663,56.8954],[40.4033,-1.9472,73.0607],[40.5169,-1.8997,51.0241],[40.5203,-1.8967,49.8877],[40.7351,-1.7936,41.0025],[40.7363,-1.7961,39.8905],[40.7387,-1.7983,38.7201],[40.7357,-1.7946,40.3958],[40.7407,-1.7905,37.9225],[40.8373,-1.7437,37.6287],[40.8519,-1.7351,33.2862],[40.8925,-1.7165,41.1485],[41.1635,-1.6917,21.4181],[41.5624,-1.658,1.3903],[41.5693,-1.6515,2.644],[41.5721,-1.6451,5.8593],[41.5754,-1.6426,5.2958],[41.5774,-1.5848,15.5934],[41.493899999999996,-1.4816,27.2944],[41.3653,-1.3003,32.6442],[41.2754,-1.1803,47.2069],[41.2287,-1.1262,53.8774],[41.1819,-1.063,64.1027],[41.1152,-0.9781,92.9904],[41.0272,-0.8552,83.8783]]]]}}