{"type": "Feature","bbox": [35.2434,-0.7422,35.3452,-0.6449],"geometry": {"type": "MultiPolygon","coordinates": [[[[35.2749,-0.7156,1927.8003],[35.2868,-0.7144,1937.5525],[35.29,-0.7032,1974.1006],[35.2923,-0.7014,1982.3801],[35.2989,-0.7007,1985.8433],[35.2999,-0.6991,1992.2686],[35.3139,-0.6991,2009.1356],[35.3192,-0.7013,2016.8932],[35.3348,-0.699,2046.7338],[35.3452,-0.6955,2054.5959],[35.3422,-0.6894,2051.6707],[35.3435,-0.6848,2062.2747],[35.3333,-0.6739,1984.0759],[35.3322,-0.6675,2004.369],[35.326,-0.6608,2015.2817],[35.324,-0.6563,1965.0347],[35.318,-0.6534,1951.0372],[35.3173,-0.6513,1970.4147],[35.3187,-0.6504,1984.0513],[35.3163,-0.6485,2020.0981],[35.3104,-0.648,2016.1523],[35.3101,-0.6463,1983.6973],[35.3079,-0.6472,1974.7515],[35.3073,-0.6449,1960.2429],[35.3055,-0.6477,1963.2311],[35.2978,-0.6454,1937.3452],[35.2961,-0.6474,1964.0132],[35.2938,-0.6452,1924.6628],[35.2898,-0.6471,1937.1279],[35.2884,-0.6494,1928.9867],[35.2846,-0.6502,1931.4951],[35.2822,-0.6546,1973.3804],[35.2807,-0.6539,1925.3408],[35.278,-0.6559,1958.2933],[35.2763,-0.6546,1916.3181],[35.2764,-0.657,1957.1257],[35.2746,-0.6575,1934.5774],[35.2691,-0.6657,1916.4766],[35.2667,-0.6657,1894.5596],[35.2681,-0.6678,1880.417],[35.2664,-0.667,1878.4188],[35.2655,-0.6699,1906.895],[35.2645,-0.6692,1873.0396],[35.265,-0.6716,1889.5215],[35.2593,-0.6748,1929.9045],[35.2583,-0.6781,1896.1014],[35.2553,-0.6789,1910.8252],[35.2546,-0.6769,1923.9451],[35.2533,-0.6789,1935.2754],[35.2522,-0.6783,1959.7845],[35.2519,-0.681,1949.3995],[35.2505,-0.6805,1949.3995],[35.2494,-0.6824,1935.1517],[35.2497,-0.6844,1900.7351],[35.2449,-0.6872,1908.8806],[35.2434,-0.6894,1898.8894],[35.2434,-0.7422,1889.4547],[35.2496,-0.7381,1899.7537],[35.2517,-0.7383,1897.5195],[35.2534,-0.7352,1906.8826],[35.2623,-0.7297,1909.0674],[35.2705,-0.7176,1922.6035],[35.2749,-0.7156,1927.8003]]]]}
,"properties": {"GID_3": "KEN.2.1.1_1","GID_0": "KEN","country": "Kenya","GID_1": "KEN.2_1","province": "Bomet","NL_NAME_1": "NA","GID_2": "KEN.2.1_1","county": "BometCentral","NL_NAME_2": "NA","city": "Chesoen","VARNAME_3": "NA","NL_NAME_3": "NA","TYPE_3": "Ward","ENGTYPE_3": "Ward","CC_3": "984","HASC_3": "NA","name": "Chesoen.city","area_km2": 60.67635,"hist_schema_id": "Elevation0-9000","hist_area_km2": {"1850": 1.50525,"1875": 3.3285,"1900": 5.74537,"1925": 8.56506,"1950": 11.21516,"1975": 9.54033,"2000": 7.29305,"2025": 6.67822,"2050": 4.70655,"2075": 1.88686,"2100": 0.21201}}}