{"type": "Feature","bbox": [37.6945,-3.8787,38.2635,-3.3685],"geometry": {"type": "MultiPolygon","coordinates": [[[[38.1185,-3.4029,1096.7671],[38.0869,-3.4039,1101.2889],[37.9997,-3.4114,1046.0675],[37.9755,-3.4118,1044.1967],[37.9531,-3.4172,1073.1497],[37.9315,-3.4164,1054.3813],[37.8915,-3.3974,1026.6394],[37.8753,-3.3953,1014.8387],[37.8401,-3.3951,976.1038],[37.8359,-3.3921,959.8482],[37.8331,-3.3874,969.439],[37.8169,-3.3835,937.5533],[37.7533,-3.3748,827.7705],[37.7413,-3.3685,795.8088],[37.7385,-3.3736,785.3583],[37.7385,-3.3889,784.5851],[37.7139,-3.3874,757.087],[37.7173,-3.3935,749.991],[37.7155,-3.4009,743.41],[37.7121,-3.4071,734.8353],[37.6987,-3.4184,727.2366],[37.6971,-3.4221,724.5272],[37.6981,-3.4271,725.0452],[37.6945,-3.4298,722.9473],[37.6957,-3.4357,722.78],[37.6982,-3.4361,722.5109],[37.6983,-3.4435,719.4293],[37.7029,-3.4509,720.2551],[37.7067,-3.4556,719.2307],[37.7135,-3.4586,716.8498],[37.7153,-3.4658,715.8397],[37.7139,-3.4728,715.4476],[37.7197,-3.4747,715.2736],[37.7209,-3.4811,714.901],[37.7251,-3.4833,713.7559],[37.7247,-3.4902,714.0989],[37.7329,-3.4967,713.8088],[37.7319,-3.4999,713.6435],[37.7364,-3.5038,712.3916],[37.7379,-3.5107,711.1028],[37.7433,-3.5154,712.0681],[37.7481,-3.526,711.7344],[37.7457,-3.5304,711.1441],[37.7463,-3.5344,711.7161],[37.7435,-3.5417,710.7628],[37.7475,-3.5507,710.4383],[37.7489,-3.565,708.5],[37.768,-3.6333,708.5],[37.7858,-3.6771,709.0171],[37.954,-3.796,757.1091],[38.0584,-3.8674,765.4579],[38.0597,-3.8671,763.1929],[38.0583,-3.8661,766.5307],[38.0663,-3.8652,756.6788],[38.0839,-3.8673,738.4026],[38.1055,-3.8633,741.4691],[38.1111,-3.8549,742.0961],[38.1153,-3.8523,743.7932],[38.1329,-3.8655,731.764],[38.1461,-3.8702,715.9116],[38.1541,-3.8764,715.128],[38.1683,-3.8787,716.8894],[38.1869,-3.8772,737.1709],[38.2215,-3.8704,751.3722],[38.2429,-3.8643,770.3005],[38.2463,-3.861,797.2021],[38.2537,-3.8618,858.9327],[38.2613,-3.8584,879.5438],[38.2635,-3.8544,881.1837],[38.2595,-3.8431,887.2722],[38.2605,-3.8221,872.5507],[38.2591,-3.8043,821.8044],[38.2527,-3.7903,792.4168],[38.2479,-3.7854,807.8197],[38.2379,-3.7688,769.9445],[38.1333,-3.7506,764.588],[38.1335,-3.4356,1042.095],[38.1191,-3.4355,1035.5457],[38.1185,-3.4029,1096.7671]]]]}
,"properties": {"GID_3": "KEN.39.2.4_1","GID_0": "KEN","country": "Kenya","GID_1": "KEN.39_1","province": "TaitaTaveta","NL_NAME_1": "NA","GID_2": "KEN.39.2_1","county": "Taveta","NL_NAME_2": "NA","city": "Mata","VARNAME_3": "NA","NL_NAME_3": "NA","TYPE_3": "Ward","ENGTYPE_3": "Ward","CC_3": "115","HASC_3": "NA","name": "Mata.city","area_km2": 2003.604,"hist_schema_id": "Elevation0-9000","hist_area_km2": {"700": 43.188,"725": 330.123,"750": 259.938,"775": 184.207,"800": 149.092,"825": 124.104,"850": 121.989,"875": 92.811,"900": 101.679,"925": 107.395,"950": 118.169,"975": 114.871,"1000": 93.287,"1025": 87.533,"1050": 44.318,"1075": 23.133,"1100": 7.704,"1125": 0.063}}}