{"type": "Feature","bbox": [39.4733,2.8682,40.1353,3.3399],"geometry": {"type": "MultiPolygon","coordinates": [[[[39.7859,3.3399,790.6484],[39.7865,3.3363,777.3726],[39.7657,3.3317,765.5716],[39.7477,3.3161,737.2166],[39.6921,3.2969,745.4702],[39.6879,3.2869,739.8477],[39.6773,3.2725,739.9459],[39.6475,3.2435,832.8079],[39.6415,3.2349,960.7189],[39.6185,3.1873,668.1722],[39.6065,3.1727,659.5731],[39.6017,3.1615,651.8553],[39.5993,3.1605,665.415],[39.5903,3.1691,647.7321],[39.5745,3.1681,639.4784],[39.5575,3.1587,628.3041],[39.5399,3.1577,618.4071],[39.5249,3.1643,616.4523],[39.5223,3.1703,616.5155],[39.5223,3.1773,616.7426],[39.5197,3.1789,614.2871],[39.5099,3.1847,613.4189],[39.4837,3.1913,590.5845],[39.4794,3.1942,588.967],[39.4733,3.0641,562.3157],[39.4785,3.0631,587.2995],[39.4923,3.0669,564.7266],[39.5111,3.0749,575.1559],[39.5335,3.0691,578.4335],[39.5401,3.0683,578.245],[39.5521,3.0697,582.2462],[39.5633,3.0649,581.5991],[39.5777,3.0707,588.7533],[39.5913,3.0665,585.8413],[39.6041,3.0439,575.7296],[39.6109,3.0413,575.2283],[39.6159,3.0365,572.9983],[39.6271,3.0301,571.7086],[39.6361,3.0191,569.8795],[39.6429,2.9983,565.2966],[39.6465,2.9947,567.2222],[39.6461,2.9856,565.5302],[39.6522,2.972,562.7596],[39.6513,2.9651,560.8599],[39.6401,2.9517,553.7325],[39.6458,2.9411,553.8721],[39.6457,2.9333,554.3025],[39.6414,2.9264,549.6094],[39.6512,2.9201,555.1007],[39.6671,2.9029,566.9145],[39.6768,2.8846,567.9266],[39.6807,2.8682,566.5611],[39.7057,2.8819,585.2401],[39.7221,2.8843,596.9953],[39.7373,2.8907,608.2228],[39.7481,2.8915,617.4945],[39.7621,2.8869,632.6051],[39.7951,2.9113,647.0542],[39.8679,2.9971,615.9709],[39.868,3.0018,614.9787],[39.8711,3.0053,616.4683],[39.8763,3.0065,634.7569],[39.8785,3.0053,625.3636],[39.9129,3.0209,578.976],[40.1353,3.1279,550.5965],[40.0437,3.2283,598.1824],[40.0337,3.2337,610.0048],[40.0335,3.2373,610.3807],[39.8077,3.3279,735.8721],[39.7871,3.3365,777.3726],[39.7859,3.3399,790.6484]]]]}
,"properties": {"GID_3": "KEN.46.4.3_1","GID_0": "KEN","country": "Kenya","GID_1": "KEN.46_1","province": "Wajir","NL_NAME_1": "NA","GID_2": "KEN.46.4_1","county": "WajirNorth","NL_NAME_2": "NA","city": "Danaba","VARNAME_3": "NA","NL_NAME_3": "NA","TYPE_3": "Ward","ENGTYPE_3": "Ward","CC_3": "166","HASC_3": "NA","name": "Danaba.city","area_km2": 1909.362,"hist_schema_id": "Elevation0-9000","hist_area_km2": {"550": 63.81,"575": 278.663,"600": 381.953,"625": 355.38,"650": 244.814,"675": 199.017,"700": 186.965,"725": 123.73,"750": 38.211,"775": 13.931,"800": 7.283,"825": 4.764,"850": 3.282,"875": 1.948,"900": 1.652,"925": 1.101,"950": 1.016,"975": 0.741,"1000": 0.423,"1025": 0.275,"1050": 0.254,"1075": 0.085,"1100": 0.042,"1150": 0.021}}}