{"type":"Feature","properties":{"GID_3":"KEN.34.3.2_1","GID_0":"KEN","country":"Kenya","GID_1":"KEN.34_1","province":"Nyamira","NL_NAME_1":"NA","GID_2":"KEN.34.3_1","county":"NorthMugirango","NL_NAME_2":"NA","city":"Bomwagamo","VARNAME_3":"NA","NL_NAME_3":"NA","TYPE_3":"Ward","ENGTYPE_3":"Ward","CC_3":"1358","HASC_3":"NA","name":"Bomwagamo.city"},
"geometry":{"type": "MultiPolygon","coordinates": [[[[34.9614,-0.5352,1784.2504],[34.96,-0.5325,1842.0719],[34.9608,-0.5214,1688.5575],[34.9638,-0.5177,1673.3529],[34.9671,-0.5174,1695.9626],[34.9664,-0.513,1655.7513],[34.9617,-0.5046,1614.314],[34.9661,-0.4851,1718.2045],[34.9609,-0.4822,1654.6293],[34.9679,-0.4719,1717.1874],[34.9699,-0.4625,1702.322],[34.9632,-0.4647,1729.5725],[34.96,-0.4627,1651.1128],[34.9567,-0.463,1644.2593],[34.9552,-0.467,1635.4374],[34.9558,-0.4706,1630.224],[34.9416,-0.4744,1563.6792],[34.9409,-0.4723,1558.5499],[34.9397,-0.4808,1548.8951],[34.9336,-0.4873,1600.4768],[34.931399999999996,-0.4963,1746.7371],[34.9326,-0.4996,1730.8481],[34.9294,-0.5042,1694.8942],[34.9312,-0.5099,1788.6447],[34.9289,-0.519,1807.3005],[34.9319,-0.5203,1815.0739],[34.9318,-0.5273,1864.4434],[34.9336,-0.5295,1885.0955],[34.9327,-0.5321,1925.5996],[34.9356,-0.5349,1877.1697],[34.9413,-0.5355,1860.6995],[34.94,-0.5395,1855.7252],[34.9416,-0.5458,1980.8738],[34.9478,-0.5417,1807.1938],[34.9568,-0.546,1939.9425],[34.9614,-0.5352,1784.2504]]]]}}