{"type": "Feature","bbox": [34.7393,-0.5294,34.7962,-0.4123],"geometry": {"type": "MultiPolygon","coordinates": [[[[34.7477,-0.4123,1322.4561],[34.7393,-0.4124,1302.3807],[34.7421,-0.4178,1304.5237],[34.7502,-0.4262,1334.7538],[34.7509,-0.4297,1314.8429],[34.7504,-0.4356,1319.2976],[34.7449,-0.4391,1359.1265],[34.7419,-0.4457,1342.5723],[34.7406,-0.4519,1352.2628],[34.7423,-0.4638,1356.2686],[34.7481,-0.4642,1385.6603],[34.7573,-0.4764,1453.5264],[34.7636,-0.4771,1417.2462],[34.7666,-0.4843,1479.9716],[34.7612,-0.4858,1460.1895],[34.7655,-0.4991,1392.2372],[34.7579,-0.4983,1396.3413],[34.7542,-0.5015,1400.7305],[34.7594,-0.5019,1413.1956],[34.7595,-0.5059,1428.4102],[34.7677,-0.5072,1410.6755],[34.7646,-0.5176,1446.5405],[34.7766,-0.521,1469.1047],[34.778,-0.5223,1484.6519],[34.7782,-0.5294,1527.0796],[34.7892,-0.5273,1547.1285],[34.7915,-0.5229,1584.5338],[34.7887,-0.5197,1545.2709],[34.7798,-0.5147,1480.9839],[34.7857,-0.5121,1599.8596],[34.7829,-0.5044,1467.9591],[34.7862,-0.5008,1475.0344],[34.7899,-0.4923,1429.5438],[34.7878,-0.4897,1423.85],[34.7962,-0.4829,1461.4452],[34.7945,-0.471,1426.1349],[34.787,-0.461,1369.8289],[34.7866,-0.4462,1357.8246],[34.7766,-0.4385,1318.5549],[34.7727,-0.4287,1329.8333],[34.7679,-0.4256,1320.6814],[34.7629,-0.4181,1322.5314],[34.7581,-0.4161,1338.6268],[34.7569,-0.4175,1339.4453],[34.7477,-0.4123,1322.4561]]]]}
,"properties": {"GID_3": "KEN.8.4.2_1","GID_0": "KEN","country": "Kenya","GID_1": "KEN.8_1","province": "HomaBay","NL_NAME_1": "NA","GID_2": "KEN.8.4_1","county": "Kasipul","NL_NAME_2": "NA","city": "EastKamagak","VARNAME_3": "NA","NL_NAME_3": "NA","TYPE_3": "Ward","ENGTYPE_3": "Ward","CC_3": "1224","HASC_3": "NA","name": "East_Kamagak.city","area_km2": 40.87649,"hist_schema_id": "Elevation0-9000","hist_area_km2": {"1275": 0.12721,"1300": 1.90815,"1325": 5.57602,"1350": 9.07427,"1375": 5.06716,"1400": 5.13075,"1425": 5.80919,"1450": 4.5159,"1475": 1.88692,"1500": 0.95406,"1525": 0.53003,"1550": 0.19081,"1575": 0.0636,"1600": 0.0424}}}