{"type":"Feature","properties":{"GID_2":"KEN.3.3_1","GID_0":"KEN","country":"Kenya","GID_1":"KEN.3_1","province":"Bungoma","NL_NAME_1":"NA","county":"Kanduyi","VARNAME_2":"NA","NL_NAME_2":"NA","TYPE_2":"Constituency","ENGTYPE_2":"Constituency","CC_2":"220","HASC_2":"NA","name":"Kanduyi.county"},
"geometry":{"type": "MultiPolygon","coordinates": [[[[34.6779,0.5354,1430.4219],[34.679,0.5387,1426.4692],[34.6825,0.5397,1420.0947],[34.6814,0.5461,1427.5852],[34.6831,0.5477,1419.3788],[34.6837,0.5527,1423.8556],[34.6817,0.5542,1423.9292],[34.6844,0.5561,1429.9434],[34.6823,0.5592,1424.9072],[34.6837,0.5618,1425.8198],[34.6797,0.5669,1427.2737],[34.6825,0.5696,1434.8379],[34.6805,0.5748,1429.0046],[34.6791,0.5752,1430.7667],[34.6805,0.5753,1429.0046],[34.6793,0.5762,1430.7607],[34.6809,0.5785,1429.2949],[34.6786,0.5804,1430.5645],[34.6797,0.5828,1430.8784],[34.6785,0.5831,1430.8784],[34.6816,0.5869,1431.1313],[34.6777,0.589,1434.7671],[34.6813,0.5891,1433.2683],[34.6806,0.5933,1433.8635],[34.6814,0.5914,1433.6906],[34.6843,0.594,1434.2233],[34.6822,0.601,1437.5895],[34.6842,0.6012,1436.2634],[34.6812,0.6041,1437.359],[34.6821,0.6076,1437.6633],[34.68,0.6128,1443.7454],[34.6818,0.6252,1445.3462],[34.6791,0.6404,1455.816],[34.6745,0.6471,1461.4506],[34.6691,0.6454,1471.2397],[34.6634,0.6384,1499.0237],[34.6582,0.6383,1505.9554],[34.658,0.6352,1504.697],[34.6488,0.6314,1476.1127],[34.6459,0.6204,1475.5624],[34.64,0.6153,1475.7539],[34.6389,0.6124,1471.2772],[34.6114,0.6003,1482.6228],[34.6035,0.6057,1456.1046],[34.6015,0.6098,1469.5564],[34.5913,0.6101,1447.4451],[34.5706,0.5933,1424.2708],[34.5631,0.6031,1430.0332],[34.5603,0.6096,1451.421],[34.5475,0.6219,1451.7056],[34.5418,0.6323,1457.7515],[34.5373,0.6487,1480.6125],[34.5303,0.6572,1477.2153],[34.5297,0.6606,1487.5873],[34.5318,0.6653,1502.1145],[34.5396,0.6717,1527.3279],[34.5449,0.6715,1528.7014],[34.5509,0.6736,1523.5183],[34.5577,0.6815,1539.1011],[34.5594,0.6879,1537.9771],[34.549,0.6936,1531.0817],[34.5439,0.7078,1491.0934],[34.5395,0.7053,1460.8118],[34.529,0.7058,1451.4541],[34.5282,0.7039,1450.2314],[34.5235,0.7016,1462.912],[34.5222,0.6978,1441.9717],[34.5087,0.6887,1434.8593],[34.5027,0.6885,1420.5306],[34.508,0.6844,1412.5303],[34.5099,0.6807,1413.2307],[34.5071,0.6779,1408.1246],[34.5054,0.6724,1435.0153],[34.5012,0.6687,1470.5439],[34.5005,0.6655,1451.2908],[34.5055,0.6636,1486.6145],[34.509,0.6511,1504.4683],[34.516,0.6533,1520.754],[34.5099,0.6403,1475.6235],[34.5041,0.6314,1448.4326],[34.5025,0.6311,1442.7715],[34.4983,0.622,1382.7366],[34.5018,0.6182,1375.6907],[34.5008,0.6138,1360.1008],[34.4991,0.6129,1359.9594],[34.5005,0.6042,1342.3409],[34.4991,0.6039,1342.3409],[34.4972,0.5993,1345.6511],[34.4982,0.5984,1339.439],[34.4991,0.6001,1335.7117],[34.504,0.6018,1354.8048],[34.5074,0.6013,1388.2504],[34.5076,0.5907,1374.1342],[34.5098,0.5848,1359.1218],[34.5049,0.5777,1332.1582],[34.5026,0.5774,1328.2141],[34.5051,0.5752,1324.8754],[34.5118,0.5733,1338.2844],[34.5268,0.5728,1407.0308],[34.5281,0.5693,1414.4443],[34.5377,0.5726,1417.427],[34.5382,0.5714,1401.6355],[34.5342,0.5619,1396.4417],[34.5316,0.5608,1401.9888],[34.524,0.5617,1396.5286],[34.52,0.5601,1389.3175],[34.5073,0.5489,1366.0073],[34.5092,0.5417,1351.9012],[34.5086,0.5361,1347.5819],[34.5122,0.5287,1344.2065],[34.5113,0.5212,1338.7452],[34.5256,0.5151,1364.9863],[34.5311,0.5155,1378.2537],[34.535,0.5133,1367.0649],[34.5404,0.5128,1391.0609],[34.5452,0.5077,1395.7936],[34.5477,0.5087,1400.444],[34.5551,0.5059,1393.3159],[34.5648,0.5053,1363.627],[34.5667,0.4987,1352.325],[34.5639,0.4907,1365.5409],[34.5522,0.4797,1350.0842],[34.5508,0.4751,1345.3396],[34.5631,0.4629,1362.0745],[34.5772,0.4621,1362.8273],[34.5799,0.4597,1351.4702],[34.5812,0.4574,1326.3759],[34.5797,0.4524,1313.4001],[34.5809,0.4497,1314.3845],[34.5797,0.4455,1310.0165],[34.5815,0.4446,1313.0151],[34.5807,0.4371,1307.4968],[34.5873,0.4311,1306.0178],[34.5889,0.4252,1307.5441],[34.5901,0.4315,1302.5999],[34.5927,0.4348,1306.4603],[34.5929,0.438,1308.3143],[34.59,0.4414,1313.2502],[34.5918,0.4508,1323.9418],[34.5954,0.4492,1324.1501],[34.5984,0.4502,1323.6302],[34.6044,0.4561,1345.8342],[34.6129,0.4481,1319.312],[34.6168,0.4486,1323.8798],[34.6151,0.4528,1325.658],[34.6181,0.4621,1354.0316],[34.6273,0.4655,1350.7715],[34.6271,0.4687,1353.8269],[34.6319,0.4655,1351.5935],[34.6364,0.4732,1371.4199],[34.6421,0.4724,1373.3602],[34.6442,0.4748,1379.2916],[34.6438,0.4764,1386.6077],[34.6475,0.4785,1380.8965],[34.65,0.483,1389.9214],[34.6546,0.4837,1390.0432],[34.6577,0.4906,1395.0394],[34.6662,0.493,1382.5864],[34.6659,0.4965,1384.9854],[34.6675,0.4984,1389.0784],[34.6665,0.5007,1403.5355],[34.6716,0.5135,1432.802],[34.6734,0.513,1417.5208],[34.6739,0.5168,1428.4651],[34.6767,0.5161,1418.6771],[34.6799,0.5194,1408.467],[34.6781,0.5253,1425.9349],[34.6799,0.531,1416.7424],[34.6782,0.5329,1423.0795],[34.6798,0.5343,1426.0304],[34.6779,0.5354,1430.4219]]]]}}