{"type": "Feature","bbox": [36.7198,-0.0105,37.1038,0.5381],"geometry": {"type": "MultiPolygon","coordinates": [[[[37.0767,0.0701,1866.1903],[37.0824,0.0827,1891.1522],[37.0796,0.0883,1888.864],[37.0803,0.1124,1825.2111],[37.0747,0.1144,1823.541],[37.073,0.1323,1833.1392],[37.074,0.1319,1839.5713],[37.0721,0.1639,1840.2676],[37.073,0.1705,1825.3766],[37.0716,0.1712,1825.3766],[37.0705,0.1993,1863.2878],[37.073,0.2254,1853.4587],[37.0741,0.2302,1864.5295],[37.0876,0.2541,1891.8035],[37.0966,0.2661,2096.113],[37.0975,0.2713,2115.1067],[37.0937,0.2778,1978.35],[37.0943,0.2826,2138.2373],[37.0954,0.2857,2138.9856],[37.1005,0.2878,2082.8113],[37.1038,0.2949,2021.1265],[37.0878,0.3568,1764.5985],[37.056399999999996,0.3714,1865.3057],[37.0493,0.3979,1779.5542],[37.0435,0.4311,1844.2061],[37.0203,0.4673,1775.9928],[36.9732,0.4715,1674.3903],[36.9679,0.4778,1678.7859],[36.9237,0.4505,1626.1368],[36.9086,0.4429,1630.7446],[36.907,0.4462,1618.8811],[36.8979,0.4442,1601.9745],[36.8966,0.4579,1591.0192],[36.9001,0.4612,1606.9951],[36.8936,0.4677,1585.828],[36.8926,0.4798,1596.4652],[36.8899,0.4823,1582.7438],[36.8902,0.4872,1588.3928],[36.8875,0.4907,1586.4425],[36.8867,0.496,1594.9894],[36.8829,0.5027,1597.627],[36.8762,0.503,1583.7395],[36.879,0.5063,1587.4436],[36.8752,0.5159,1596.0062],[36.8666,0.5188,1571.4131],[36.8652,0.5206,1589.002],[36.8659,0.5269,1573.0574],[36.8685,0.5308,1564.1714],[36.8674,0.5381,1577.6176],[36.8632,0.533,1575.6172],[36.8581,0.532,1603.8533],[36.8566,0.5242,1589.7268],[36.8516,0.5196,1596.2871],[36.852,0.513,1577.8821],[36.8492,0.5116,1580.1294],[36.8464,0.5123,1593.3281],[36.8437,0.5166,1600.6072],[36.8361,0.5198,1623.4149],[36.835,0.5161,1603.3037],[36.8324,0.5184,1627.2068],[36.8274,0.5161,1620.7114],[36.8299,0.5046,1596.3987],[36.822,0.5037,1609.3354],[36.8215,0.4924,1599.0345],[36.8361,0.451,1657.9431],[36.8231,0.4268,1676.7721],[36.8306,0.4125,1707.7495],[36.8477,0.3925,1683.6987],[36.8305,0.3907,1812.0717],[36.8279,0.3629,1813.0007],[36.7788,0.3663,1766.2988],[36.778,0.3708,1766.9866],[36.7808,0.3759,1762.6267],[36.7802,0.384,1775.5959],[36.7354,0.3713,1794.3789],[36.7752,0.3239,1783.5254],[36.7691,0.3112,1787.2501],[36.7828,0.2826,1793.2576],[36.7613,0.2682,1798.74],[36.7925,0.2341,1800.684],[36.7882,0.231,1803.4343],[36.7835,0.221,1805.7405],[36.7782,0.2165,1809.0795],[36.7707,0.2151,1815.0151],[36.7658,0.2081,1817.4523],[36.7617,0.2065,1819.7139],[36.7615,0.204,1819.3306],[36.7585,0.2013,1821.145],[36.7544,0.1995,1823.4464],[36.7527,0.2019,1824.8352],[36.7472,0.2017,1831.134],[36.7392,0.1923,1835.0847],[36.7368,0.1852,1833.5095],[36.7327,0.1822,1842.819],[36.731,0.1781,1848.5776],[36.7285,0.1774,1856.2549],[36.7262,0.1732,1853.2808],[36.7273,0.1689,1844.3584],[36.7198,0.1473,1858.0945],[36.8063,0.137,1816.9849],[36.8081,0.1204,1832.5591],[36.895,0.1142,1748.5496],[36.8996,0.1078,1752.8597],[36.9013,0.1015,1750.6479],[36.9015,0.0987,1748.8003],[36.8982,0.0968,1757.0813],[36.8998,0.0963,1754.0737],[36.899,0.0939,1755.8153],[36.902,0.0948,1747.8689],[36.9039,0.0916,1751.8359],[36.9011,0.0905,1750.8507],[36.9039,0.0853,1752.0865],[36.9019,0.0777,1756.3475],[36.9042,0.0725,1753.9745],[36.9028,0.0697,1755.239],[36.901,0.0694,1758.309],[36.9024,0.0678,1760.1045],[36.8994,0.0628,1766.4252],[36.9031,0.0558,1763.8051],[36.9005,0.0536,1761.2019],[36.9023,0.0513,1761.1653],[36.9006,0.048,1763.0573],[36.9037,0.0453,1762.7611],[36.9021,0.0446,1764.8741],[36.9028,0.0427,1763.9141],[36.9049,0.0412,1769.4014],[36.9066,0.0425,1768.462],[36.9067,0.0403,1772.5481],[36.9101,0.0405,1767.0012],[36.9109,0.037,1773.4749],[36.9147,0.0331,1772.3156],[36.9112,0.0272,1767.8953],[36.9129,0.0211,1771.4591],[36.9103,0.0157,1778.3789],[36.921,0.0039,1785.7241],[36.9261,0.0034,1789.002],[36.9295,0.0057,1790.7321],[36.932,0.0053,1791.0493],[36.9385,-0.0001,1794.9871],[36.9494,-0.0017,1807.084],[36.9571,-0.0077,1811.6714],[36.9626,-0.0067,1828.5835],[36.9708,-0.0105,1824.7882],[36.9813,-0.0092,1836.9482],[37.0003,0.0256,1839.7943],[36.9836,0.0307,1825.454],[36.9708,0.0703,1809.5527],[37.0411,0.098,1826.0912],[37.0407,0.0967,1827.8254],[37.0442,0.0945,1830.0347],[37.044,0.092,1830.7465],[37.0471,0.0894,1834.2974],[37.047,0.0873,1835.3115],[37.0511,0.0853,1839.6223],[37.0508,0.0825,1843.3711],[37.053,0.0813,1845.536],[37.0526,0.0796,1838.4014],[37.0565,0.0776,1849.0402],[37.0543,0.0707,1852.832],[37.0519,0.0704,1857.8021],[37.0521,0.0678,1859.7682],[37.0767,0.0701,1866.1903]]]]}
,"properties": {"GID_3": "KEN.20.2.3_1","GID_0": "KEN","country": "Kenya","GID_1": "KEN.20_1","province": "Laikipia","NL_NAME_1": "NA","GID_2": "KEN.20.2_1","county": "LaikipiaNorth","NL_NAME_2": "NA","city": "Segera","VARNAME_3": "NA","NL_NAME_3": "NA","TYPE_3": "Ward","ENGTYPE_3": "Ward","CC_3": "823","HASC_3": "NA","name": "Segera.city","area_km2": 1439.251,"hist_schema_id": "Elevation0-9000","hist_area_km2": {"1550": 0.042,"1575": 6.53,"1600": 19.399,"1625": 43.93,"1650": 70.368,"1675": 91.231,"1700": 97.846,"1725": 115.678,"1750": 173.496,"1775": 249.972,"1800": 312.221,"1825": 158.189,"1850": 53.832,"1875": 20.863,"1900": 8.672,"1925": 3.986,"1950": 2.502,"1975": 1.823,"2000": 1.887,"2025": 1.569,"2050": 1.527,"2075": 1.696,"2100": 0.848,"2125": 0.445,"2150": 0.382,"2175": 0.276,"2200": 0.042}}}