{"type": "Feature","bbox": [37.6524,-0.6647,37.9228,-0.5461],"geometry": {"type": "MultiPolygon","coordinates": [[[[37.6873,-0.557,1368.1122],[37.6863,-0.5634,1544.5723],[37.6815,-0.5686,1514.2046],[37.6811,-0.5751,1372.3162],[37.6772,-0.5774,1274.5669],[37.6783,-0.5812,1230.5292],[37.6771,-0.5849,1215.0862],[37.6743,-0.5877,1211.0277],[37.6724,-0.5873,1230.9857],[37.67,-0.5917,1181.3137],[37.6674,-0.5906,1229.4919],[37.6652,-0.5917,1206.7245],[37.6663,-0.5937,1171.8064],[37.6626,-0.5956,1185.3169],[37.6597,-0.5959,1140.4136],[37.659,-0.5927,1238.6765],[37.6559,-0.5941,1210.3169],[37.6537,-0.6012,1114.5609],[37.6555,-0.6019,1112.0054],[37.6524,-0.6055,1151.1759],[37.6545,-0.6056,1088.4309],[37.6528,-0.6124,1085.3657],[37.6554,-0.6145,1083.4371],[37.656,-0.6177,1075.3688],[37.6584,-0.6172,1093.6196],[37.665,-0.6246,1052.0291],[37.6638,-0.6255,1063.5092],[37.6653,-0.6312,1046.5037],[37.664,-0.6325,1047.2069],[37.6672,-0.6334,1047.1422],[37.6655,-0.639,1066.6317],[37.6676,-0.6409,1036.2195],[37.6663,-0.6426,1032.5798],[37.6683,-0.6444,1032.488],[37.6686,-0.6477,1022.9531],[37.673,-0.6492,1034.2939],[37.6755,-0.6523,1021.6904],[37.6778,-0.6506,1033.7812],[37.6806,-0.6513,1040.4421],[37.6815,-0.6534,1012.9598],[37.6906,-0.6544,1019.8655],[37.6902,-0.6562,1007.6404],[37.6936,-0.6576,1000.5705],[37.6941,-0.656,1000.9825],[37.6958,-0.6562,1004.4827],[37.6958,-0.6579,997.6169],[37.6981,-0.6583,987.1774],[37.6978,-0.6607,986.202],[37.701,-0.661,992.9563],[37.7016,-0.6625,989.4382],[37.7022,-0.6592,1002.1551],[37.7049,-0.6561,994.9683],[37.7082,-0.6592,987.8329],[37.7105,-0.6575,984.8256],[37.7114,-0.6592,978.3301],[37.713,-0.6565,977.3499],[37.7168,-0.6586,964.5473],[37.7191,-0.6574,997.1271],[37.7196,-0.6594,977.1667],[37.7211,-0.6585,977.1667],[37.7221,-0.6613,956.6141],[37.7242,-0.6614,991.0804],[37.7261,-0.6641,983.7098],[37.7275,-0.663,983.7098],[37.7327,-0.6647,957.0272],[37.7302,-0.6604,1000.8513],[37.7371,-0.663,955.0052],[37.7378,-0.6601,988.412],[37.7397,-0.662,959.9669],[37.742,-0.6609,987.1634],[37.7421,-0.6587,977.607],[37.7451,-0.6589,944.2185],[37.7455,-0.6566,953.5867],[37.7552,-0.6537,942.5615],[37.7579,-0.6544,916.3204],[37.7606,-0.6516,891.1476],[37.7595,-0.6508,904.6136],[37.7631,-0.6438,890.4351],[37.7684,-0.6418,902.946],[37.7692,-0.637,898.8547],[37.7719,-0.6405,883.7966],[37.7751,-0.6384,870.0142],[37.7755,-0.6362,907.9724],[37.7817,-0.6386,845.2429],[37.7832,-0.6361,887.7964],[37.7872,-0.6434,798.6293],[37.7891,-0.6422,788.6017],[37.7891,-0.6342,817.8748],[37.7943,-0.6302,765.9565],[37.793,-0.6264,839.2563],[37.7946,-0.6266,779.3813],[37.7976,-0.6215,770.156],[37.8001,-0.6216,751.6249],[37.8023,-0.6282,776.5944],[37.8175,-0.6463,888.9913],[37.8327,-0.6567,830.7281],[37.8374,-0.6571,815.6956],[37.8418,-0.6535,798.4425],[37.8535,-0.6542,765.1069],[37.8584,-0.647,746.0306],[37.8742,-0.6508,721.6876],[37.8783,-0.65,718.8942],[37.893,-0.6562,698.0],[37.8935,-0.6452,698.0],[37.9072,-0.6392,697.0128],[37.9228,-0.6247,592.5977],[37.9011,-0.6001,584.2863],[37.8873,-0.5961,639.8446],[37.8733,-0.5983,634.1838],[37.8645,-0.597,663.798],[37.8373,-0.5822,724.8268],[37.8085,-0.5756,744.8783],[37.8043,-0.5721,721.7695],[37.7959,-0.5691,727.2349],[37.7901,-0.5688,756.4253],[37.7819,-0.5617,755.2031],[37.7745,-0.5585,764.6617],[37.7676,-0.5513,796.7134],[37.7556,-0.5461,1062.3805],[37.7495,-0.5523,1191.9104],[37.7467,-0.5502,1184.6464],[37.7431,-0.5503,1249.7335],[37.7407,-0.5598,1007.4575],[37.7373,-0.5626,1118.1931],[37.7339,-0.5613,1184.1486],[37.7323,-0.5549,1119.6154],[37.7261,-0.5528,1143.6205],[37.6873,-0.557,1368.1122]]]]}
,"properties": {"GID_3": "KEN.6.2.2_1","GID_0": "KEN","country": "Kenya","GID_1": "KEN.6_1","province": "Embu","NL_NAME_1": "NA","GID_2": "KEN.6.2_1","county": "MbeereNorth","NL_NAME_2": "NA","city": "Muminji","VARNAME_3": "NA","NL_NAME_3": "NA","TYPE_3": "Ward","ENGTYPE_3": "Ward","CC_3": "329","HASC_3": "NA","name": "Muminji.city","area_km2": 235.5431,"hist_schema_id": "Elevation0-9000","hist_area_km2": {"550": 0.0848,"575": 0.4452,"600": 0.848,"625": 1.6113,"650": 4.749,"675": 8.0352,"700": 13.8018,"725": 14.6075,"750": 21.6462,"775": 20.671,"800": 11.8514,"825": 7.6112,"850": 5.5335,"875": 5.3638,"900": 5.7243,"925": 4.7702,"950": 3.901,"975": 5.0246,"1000": 7.3567,"1025": 7.5263,"1050": 8.6076,"1075": 8.5864,"1100": 6.9751,"1125": 5.3426,"1150": 4.113,"1175": 3.8374,"1200": 5.0883,"1225": 4.3674,"1250": 4.2614,"1275": 3.8586,"1300": 3.3074,"1325": 3.3286,"1350": 2.8409,"1375": 2.7985,"1400": 2.2049,"1425": 1.8657,"1450": 1.7173,"1475": 1.5053,"1500": 1.4205,"1525": 1.5477,"1550": 1.4629,"1575": 1.0177,"1600": 1.1025,"1625": 0.742,"1650": 0.6996,"1675": 0.6572,"1700": 0.3816,"1725": 0.3392,"1750": 0.2544,"1775": 0.0636,"1800": 0.0848}}}