{"type":"Feature","properties":{"GID_3":"KEN.47.2.4_1","GID_0":"KEN","country":"Kenya","GID_1":"KEN.47_1","province":"WestPokot","NL_NAME_1":"NA","GID_2":"KEN.47.2_1","county":"Kapenguria","NL_NAME_2":"NA","city":"Mnagei","VARNAME_3":"NA","NL_NAME_3":"NA","TYPE_3":"Ward","ENGTYPE_3":"Ward","CC_3":"643","HASC_3":"NA","name":"Mnagei.city"},
"geometry":{"type": "MultiPolygon","coordinates": [[[[35.1198,1.193,1923.3738],[35.1134,1.1938,1913.3044],[35.1128,1.1958,1917.7322],[35.1106,1.195,1923.3031],[35.1026,1.2045,1925.677],[35.1029,1.2071,1930.0952],[35.1007,1.2105,1930.9791],[35.1025,1.2137,1950.2109],[35.1009,1.219,1958.4268],[35.1029,1.2229,1972.5333],[35.1028,1.2309,2025.1714],[35.1001,1.2344,1991.9094],[35.1,1.2425,2044.0764],[35.0932,1.2536,2042.391],[35.0936,1.259,2050.4509],[35.0986,1.2616,2073.1472],[35.0924,1.2661,2012.636],[35.0964,1.2723,2034.1539],[35.0942,1.2754,2048.8149],[35.0966,1.2843,2065.0588],[35.104,1.2853,2093.7061],[35.0968,1.2978,1982.4565],[35.096,1.3051,2032.9932],[35.0925,1.3077,1907.3657],[35.0918,1.3147,1937.512],[35.0878,1.3154,1890.1062],[35.0851,1.3226,1887.7925],[35.0791,1.3254,1718.6289],[35.0769,1.3295,1863.3024],[35.0593,1.3378,1509.0681],[35.0436,1.3323,1475.5591],[35.0311,1.3332,1492.483],[35.0356,1.2968,1600.0042],[35.0362,1.268,1640.5593],[35.0193,1.268,1504.5281],[34.9942,1.3094,1486.8529],[34.9855,1.3368,1403.6083],[34.9626,1.3053,1450.0374],[34.9574,1.314,1436.1516],[34.9552,1.314,1436.1633],[34.9549,1.3126,1435.201],[34.9572,1.3112,1438.8831],[34.9572,1.3076,1442.3698],[34.9586,1.3084,1444.2467],[34.9578,1.3053,1436.7317],[34.9622,1.2968,1463.9738],[34.9621,1.2875,1473.615],[34.9656,1.2837,1497.8707],[34.9639,1.2814,1491.552],[34.9662,1.2814,1488.9568],[34.9658,1.2798,1490.6196],[34.9682,1.2774,1491.7815],[34.9677,1.2745,1500.436],[34.9742,1.2686,1521.9865],[34.9775,1.2625,1549.1145],[34.9819,1.258,1608.381],[34.9942,1.2633,1802.8666],[35.0126,1.2599,1899.5896],[35.0256,1.2379,1930.085],[35.0436,1.2204,1910.8113],[35.0362,1.2089,1934.4508],[35.043,1.1998,1917.3303],[35.0468,1.1992,1898.1112],[35.0615,1.1858,1919.1012],[35.0656,1.1837,1913.7527],[35.0692,1.1844,1888.6184],[35.0731,1.183,1894.929],[35.08,1.1784,1899.7605],[35.0845,1.173,1903.6971],[35.088,1.1877,1958.4401],[35.1198,1.193,1923.3738]]]]}}