{"type": "Feature","bbox": [39.6655,2.5767,40.2622,3.1308],"geometry": {"type": "MultiPolygon","coordinates": [[[[40.1332,3.1308,552.375],[40.1353,3.1279,550.5965],[39.9129,3.0209,578.976],[39.8785,3.0053,625.3636],[39.8763,3.0065,634.7569],[39.8711,3.0053,616.4683],[39.868,3.0018,614.9787],[39.8679,2.9971,615.9709],[39.7951,2.9113,647.0542],[39.7621,2.8869,632.6051],[39.7481,2.8915,617.4945],[39.7373,2.8907,608.2228],[39.7221,2.8843,596.9953],[39.7057,2.8819,585.2401],[39.6807,2.8682,566.5611],[39.6842,2.8529,572.973],[39.696,2.8389,578.6445],[39.6687,2.8219,598.3595],[39.6709,2.8137,598.6868],[39.6655,2.8076,596.8016],[39.6731,2.7869,529.1115],[39.6714,2.7812,528.0543],[39.6752,2.7744,635.1979],[39.6678,2.7084,541.5344],[39.6726,2.6579,564.2083],[39.7626,2.6299,484.388],[39.8297,2.5767,452.7946],[40.1253,2.5867,455.4702],[40.1321,2.6029,461.5473],[40.1053,2.6349,447.1803],[40.1083,2.6531,451.8183],[40.1155,2.6645,453.8467],[40.1241,2.6733,454.8847],[40.1351,2.6945,457.457],[40.1471,2.7077,459.8549],[40.1599,2.7325,463.4803],[40.1853,2.7743,478.8474],[40.1943,2.7939,487.3233],[40.1972,2.8345,508.8546],[40.1924,2.851,507.9374],[40.1937,2.863,506.2301],[40.1853,2.8713,502.2216],[40.182,2.9033,501.8595],[40.1894,2.9145,503.5894],[40.1963,2.9304,501.6452],[40.2186,2.9587,499.239],[40.2365,2.9693,496.1226],[40.255,2.9756,491.7458],[40.2622,2.9829,490.7942],[40.2037,3.0521,518.0613],[40.1332,3.1308,552.375]]]]}
,"properties": {"GID_3": "KEN.46.4.1_1","GID_0": "KEN","country": "Kenya","GID_1": "KEN.46_1","province": "Wajir","NL_NAME_1": "NA","GID_2": "KEN.46.4_1","county": "WajirNorth","NL_NAME_2": "NA","city": "Batalu","VARNAME_3": "NA","NL_NAME_3": "NA","TYPE_3": "Ward","ENGTYPE_3": "Ward","CC_3": "165","HASC_3": "NA","name": "Batalu.city","area_km2": 2582.466,"hist_schema_id": "Elevation0-9000","hist_area_km2": {"425": 0.021,"450": 149.001,"475": 246.376,"500": 511.041,"525": 504.046,"550": 420.153,"575": 237.189,"600": 166.188,"625": 117.929,"650": 93.576,"675": 51.204,"700": 33.014,"725": 19.948,"750": 13.172,"775": 9.424,"800": 5.696,"825": 3.092,"850": 1.186,"875": 0.191,"900": 0.021}}}