{"type":"Feature","properties":{"GID_3":"KEN.12.3.4_1","GID_0":"KEN","country":"Kenya","GID_1":"KEN.12_1","province":"Kericho","NL_NAME_1":"NA","GID_2":"KEN.12.3_1","county":"Bureti","NL_NAME_2":"NA","city":"Kapkatet","VARNAME_3":"NA","NL_NAME_3":"NA","TYPE_3":"Ward","ENGTYPE_3":"Ward","CC_3":"956","HASC_3":"NA","name":"Kapkatet.city"},
"geometry":{"type": "MultiPolygon","coordinates": [[[[35.1955,-0.5702,1893.3228],[35.1913,-0.5773,1934.9845],[35.1934,-0.5849,1941.1235],[35.191,-0.6027,1957.9626],[35.1927,-0.6058,1932.2969],[35.1697,-0.6126,1870.2721],[35.1605,-0.6188,1897.374],[35.1481,-0.6216,1860.3953],[35.1508,-0.6268,1846.761],[35.1543,-0.6282,1867.2744],[35.1518,-0.6333,1850.5288],[35.1552,-0.6354,1856.2188],[35.1594,-0.6351,1891.5696],[35.1616,-0.6376,1906.3965],[35.159,-0.6413,1903.718],[35.1556,-0.6429,1900.4227],[35.1536,-0.6535,1859.8949],[35.162,-0.6512,1890.6262],[35.1787,-0.6513,1864.782],[35.1784,-0.6477,1885.213],[35.1946,-0.6408,1909.1862],[35.1986,-0.6325,1920.689],[35.2068,-0.6266,1946.6825],[35.2108,-0.6219,1923.1124],[35.2185,-0.6177,1943.6808],[35.2286,-0.6095,1930.8518],[35.2286,-0.6029,1963.0256],[35.2248,-0.5931,1985.4877],[35.2128,-0.5875,1955.1902],[35.1996,-0.5759,1943.1821],[35.1955,-0.5702,1893.3228]]]]}}