{"type":"Feature","properties":{"GID_3":"KEN.33.4.3_1","GID_0":"KEN","country":"Kenya","GID_1":"KEN.33_1","province":"Narok","NL_NAME_1":"NA","GID_2":"KEN.33.4_1","county":"NarokNorth","NL_NAME_2":"NA","city":"Nkareta","VARNAME_3":"NA","NL_NAME_3":"NA","TYPE_3":"Ward","ENGTYPE_3":"Ward","CC_3":"894","HASC_3":"NA","name":"Nkareta.city"},
"geometry":{"type": "MultiPolygon","coordinates": [[[[35.9159,-0.9615,2092.6833],[35.8788,-0.9615,2083.447],[35.8815,-0.9462,2092.2539],[35.8779,-0.9349,2105.2754],[35.8791,-0.9338,2115.6162],[35.8773,-0.9301,2121.7688],[35.8787,-0.9261,2135.0225],[35.8766,-0.9235,2129.8699],[35.8773,-0.9216,2143.5444],[35.8744,-0.9141,2183.6306],[35.8726,-0.9128,2144.6619],[35.8736,-0.9122,2144.6619],[35.8716,-0.912,2165.5007],[35.8722,-0.91,2153.6543],[35.8708,-0.9099,2169.8679],[35.8709,-0.9054,2160.6899],[35.8723,-0.9044,2176.2319],[35.8682,-0.8961,2211.3896],[35.8685,-0.8926,2246.1326],[35.8632,-0.8866,2238.2383],[35.8646,-0.884,2236.7361],[35.8636,-0.8821,2253.6016],[35.8655,-0.8819,2224.1304],[35.8656,-0.877,2261.3271],[35.8676,-0.8753,2235.6755],[35.8698,-0.863,2294.9956],[35.8736,-0.8559,2278.3391],[35.8704,-0.8425,2361.0134],[35.8667,-0.8386,2302.1968],[35.8669,-0.8367,2311.502],[35.865,-0.836,2367.0972],[35.8676,-0.8274,2332.7551],[35.867,-0.8223,2348.209],[35.8688,-0.8187,2338.3174],[35.8679,-0.8109,2359.5942],[35.866,-0.8089,2380.053],[35.8693,-0.7993,2397.4556],[35.8683,-0.7932,2465.8372],[35.74,-0.7937,2332.512],[35.7478,-0.8058,2342.0037],[35.7412,-0.8205,2250.2874],[35.7403,-0.8502,2177.02],[35.7372,-0.8537,2208.3108],[35.7354,-0.8591,2197.1033],[35.737,-0.8623,2153.0227],[35.7378,-0.8737,2148.9607],[35.7419,-0.8838,2126.3965],[35.7394,-0.8893,2138.3621],[35.7434,-0.9033,2102.1904],[35.7416,-0.9147,2106.7961],[35.7434,-0.923,2086.8325],[35.7403,-0.9345,2085.3462],[35.7416,-0.9364,2074.8013],[35.7405,-0.9384,2069.48],[35.7426,-0.9475,2065.1636],[35.741,-0.9512,2070.7092],[35.7382,-0.9528,2077.3516],[35.7365,-0.9623,2044.542],[35.7381,-0.9679,2033.2574],[35.7351,-0.9729,2041.6074],[35.7389,-0.9762,2027.3271],[35.7376,-0.9831,2024.1255],[35.7395,-0.987,2015.8081],[35.7381,-0.9925,2011.2173],[35.7393,-0.9946,2015.0083],[35.7366,-0.9998,2014.6777],[35.7389,-1.0019,2005.1589],[35.7403,-1.0099,1992.614],[35.7393,-1.0181,1993.7789],[35.7417,-1.0238,1978.8752],[35.7438,-1.0251,1988.0753],[35.744,-1.0284,1978.9717],[35.7489,-1.0306,1980.8523],[35.7556,-1.0382,1975.2853],[35.7552,-1.0399,1969.4458],[35.7467,-1.0455,1978.4905],[35.7581,-1.0503,1952.4165],[35.7746,-1.0506,1957.2925],[35.7749,-1.0311,1985.8002],[35.8143,-1.0299,1959.3298],[35.8167,-1.0354,1985.4017],[35.8362,-1.0366,1924.4053],[35.8369,-1.0381,1918.1859],[35.8347,-1.0393,1913.3783],[35.8345,-1.0419,1914.274],[35.8389,-1.0402,1947.1185],[35.8416,-1.0416,1947.4623],[35.8384,-1.0423,1920.3074],[35.8409,-1.0456,1922.3951],[35.8379,-1.0484,1909.5549],[35.8397,-1.0479,1906.2415],[35.8408,-1.0495,1911.2347],[35.8419,-1.0475,1908.282],[35.8429,-1.0492,1924.3906],[35.8444,-1.0486,1924.3906],[35.8461,-1.0505,1934.6897],[35.8447,-1.0525,1921.6733],[35.8472,-1.0538,1930.7372],[35.8472,-1.0521,1931.5809],[35.8494,-1.0527,1918.9954],[35.8493,-1.0509,1916.3976],[35.8513,-1.0517,1904.4382],[35.8525,-1.0502,1904.3081],[35.863,-1.0504,1988.0355],[35.8865,-1.0558,2018.7567],[35.8929,-1.0603,1999.6837],[35.8927,-1.0655,1989.6982],[35.8876,-1.0699,1949.3716],[35.8867,-1.0727,1941.9515],[35.8857,-1.0851,1905.4478],[35.8862,-1.09,1892.0802],[35.8915,-1.0964,1920.0525],[35.91,-1.1067,1930.4691],[35.9163,-1.1075,1934.0923],[35.9213,-1.1105,1932.848],[35.9289,-1.1123,1947.7258],[35.9482,-1.1128,1884.0743],[35.9554,-1.1189,1846.8094],[35.9598,-1.113,1805.1599],[35.9551,-1.1004,1834.022],[35.9562,-1.0988,1835.7538],[35.9556,-1.0913,1843.5708],[35.9539,-1.0893,1849.4133],[35.9561,-1.0873,1858.377],[35.9535,-1.0865,1864.6077],[35.9516,-1.0815,1908.8022],[35.9444,-1.0792,1897.025],[35.9423,-1.0722,1884.0665],[35.9438,-1.0676,1924.2731],[35.9391,-1.0639,1919.4109],[35.9447,-1.0522,1956.0328],[35.9412,-1.0468,1933.5048],[35.9431,-1.0423,1933.2133],[35.9405,-1.0377,1967.6692],[35.9416,-1.0256,2005.7705],[35.9366,-1.0196,2008.4104],[35.9361,-1.0171,2021.2284],[35.9402,-1.0179,1991.1333],[35.942,-1.0143,2029.3224],[35.9398,-1.014,2010.0338],[35.9403,-1.0122,2016.5371],[35.9383,-1.0114,2002.2159],[35.9393,-1.0097,2017.8818],[35.9377,-1.0084,1999.7628],[35.938,-1.006,2006.8701],[35.9349,-1.006,2004.2831],[35.9367,-1.0036,2021.5419],[35.9351,-1.0021,2019.3512],[35.9379,-1.0008,2058.8721],[35.9306,-0.9981,2043.9082],[35.9343,-0.9913,2052.9031],[35.931,-0.9888,2046.2164],[35.9304,-0.9862,2048.3706],[35.9286,-0.9862,2033.2922],[35.9276,-0.9799,2086.5273],[35.9231,-0.9791,2036.8363],[35.9235,-0.9735,2092.7976],[35.9197,-0.971,2066.186],[35.917,-0.9659,2065.6409],[35.9185,-0.9653,2065.6409],[35.9187,-0.9629,2076.1011],[35.9159,-0.9615,2092.6833]]]]}}