{"type": "Feature","bbox": [35.3368,1.5336,35.5442,1.9319],"geometry": {"type": "MultiPolygon","coordinates": [[[[35.3718,1.9319,774.3716],[35.3749,1.9187,782.3984],[35.3741,1.9152,785.1078],[35.3708,1.9116,795.4381],[35.3727,1.9015,805.1891],[35.3713,1.8964,828.637],[35.3579,1.8798,1223.3357],[35.3453,1.8526,1229.0215],[35.3414,1.836,1656.1926],[35.3368,1.8289,1456.7677],[35.34,1.8244,1580.797],[35.3408,1.8198,1450.4392],[35.3386,1.8045,1485.1829],[35.3431,1.7882,1586.8207],[35.3399,1.782,1616.6304],[35.3421,1.773,1799.7395],[35.3457,1.7641,1704.4373],[35.3485,1.7628,1707.3215],[35.3503,1.7592,1712.9561],[35.3537,1.7589,1741.0535],[35.3574,1.7522,1753.3535],[35.3584,1.74,2072.1768],[35.3666,1.723,2288.7197],[35.3541,1.6698,1929.845],[35.3535,1.6547,2190.7397],[35.3713,1.6431,2529.9692],[35.3706,1.6265,2421.0115],[35.3749,1.6198,2536.7476],[35.3824,1.6014,2559.9707],[35.38,1.5938,2400.3071],[35.384,1.5907,2430.0991],[35.3895,1.5822,2262.5435],[35.39,1.5748,1829.6654],[35.3988,1.5681,1833.9695],[35.3974,1.5652,1562.8787],[35.3993,1.5616,1477.4753],[35.4023,1.5609,1599.7428],[35.402,1.5569,1370.0822],[35.4047,1.556,1524.3804],[35.4067,1.5531,1499.2239],[35.4107,1.5535,1298.2346],[35.4117,1.5523,1298.2346],[35.4109,1.5497,1233.5415],[35.4135,1.5469,1228.9515],[35.4118,1.5437,1155.3153],[35.4134,1.5435,1177.4718],[35.4125,1.5416,1163.5745],[35.4143,1.5386,1117.946],[35.4219,1.5353,1309.3201],[35.4295,1.5355,1552.9636],[35.434,1.5337,1279.77],[35.4362,1.5352,1391.7955],[35.4392,1.5336,1240.1431],[35.4443,1.5379,1043.3373],[35.4517,1.5382,961.9944],[35.4564,1.543,934.1539],[35.4633,1.5393,921.5988],[35.4694,1.5454,935.8451],[35.4786,1.5489,906.968],[35.4796,1.5517,919.7532],[35.4816,1.5496,905.5021],[35.4843,1.5575,920.9023],[35.4825,1.5589,925.0425],[35.487,1.5599,911.6985],[35.486,1.5617,921.0999],[35.4895,1.5639,915.2964],[35.492,1.5627,912.5901],[35.494,1.566,914.5848],[35.496,1.5663,911.8157],[35.4953,1.5685,910.265],[35.4981,1.5695,899.8833],[35.4999,1.5684,890.1273],[35.5005,1.5736,906.5374],[35.5024,1.5754,906.5071],[35.5014,1.5778,910.3672],[35.5047,1.5772,907.3822],[35.506,1.5803,907.0497],[35.5103,1.5798,900.7849],[35.5126,1.5821,904.0228],[35.5166,1.58,887.3009],[35.519,1.5849,891.1761],[35.5212,1.5851,886.5131],[35.5217,1.5903,890.004],[35.524,1.5905,874.8718],[35.5242,1.5933,873.9254],[35.5252,1.5924,873.9254],[35.5259,1.5974,881.1957],[35.5245,1.5985,881.1957],[35.5287,1.6011,881.9703],[35.5271,1.6034,883.6309],[35.5296,1.605,881.2964],[35.5286,1.6072,879.5029],[35.5298,1.607,879.0706],[35.5309,1.6101,875.8331],[35.5318,1.6083,876.4227],[35.5365,1.6109,873.7453],[35.5352,1.6137,871.3485],[35.5411,1.6171,866.0681],[35.5422,1.6209,859.1959],[35.5439,1.6216,860.1635],[35.5427,1.6231,865.1509],[35.5442,1.6258,863.2971],[35.5415,1.6275,859.6304],[35.5406,1.6361,868.4651],[35.5384,1.637,864.942],[35.5342,1.6342,859.1927],[35.5328,1.6358,855.1536],[35.5346,1.6378,859.1322],[35.531,1.6388,854.5997],[35.5295,1.6369,855.7668],[35.5274,1.6396,859.9409],[35.5313,1.6422,854.9899],[35.5299,1.644,852.8234],[35.5276,1.6436,857.7255],[35.5292,1.6465,852.6855],[35.5324,1.6482,851.7341],[35.5314,1.6505,847.875],[35.5347,1.6519,857.9152],[35.5299,1.6544,850.1116],[35.5324,1.6559,855.1392],[35.5325,1.6577,854.7869],[35.5312,1.657,848.2087],[35.5273,1.659,848.0788],[35.5315,1.6621,847.1437],[35.5295,1.6631,848.9122],[35.5307,1.6677,845.8275],[35.5326,1.6683,846.605],[35.5313,1.672,843.4736],[35.5343,1.6716,850.6642],[35.5308,1.6739,842.1936],[35.5318,1.6777,840.4272],[35.5287,1.6802,839.7458],[35.5304,1.6821,842.9373],[35.5341,1.6815,845.1025],[35.5334,1.6849,845.0349],[35.5307,1.6838,841.3848],[35.5281,1.6889,839.0698],[35.5251,1.6871,836.589],[35.5218,1.6899,836.6946],[35.5213,1.6929,834.0726],[35.5247,1.6954,839.0043],[35.5184,1.6999,837.4513],[35.5197,1.7029,833.0426],[35.516,1.7053,835.4044],[35.5123,1.705,834.1215],[35.5094,1.7094,831.8812],[35.5088,1.7142,827.9364],[35.5063,1.717,830.5081],[35.5113,1.7295,825.0394],[35.5108,1.7308,824.7187],[35.5085,1.7307,828.8497],[35.5121,1.7348,823.0198],[35.5091,1.7359,822.1005],[35.5119,1.737,823.8679],[35.509,1.7418,823.2669],[35.5051,1.7447,822.5712],[35.5063,1.7532,816.3543],[35.5027,1.7605,813.9059],[35.5065,1.7646,817.4059],[35.5065,1.7694,816.4906],[35.5047,1.7701,814.8611],[35.5018,1.7676,809.9684],[35.5034,1.7711,815.3007],[35.5,1.7729,819.2669],[35.4981,1.7708,811.981],[35.4984,1.7735,817.1849],[35.4951,1.7735,823.0668],[35.4972,1.7804,813.9979],[35.4953,1.7811,811.2124],[35.495,1.7832,808.7424],[35.4925,1.7832,806.9921],[35.4915,1.7849,806.7422],[35.4928,1.787,809.5607],[35.4897,1.7862,806.5897],[35.4879,1.7904,804.0391],[35.4853,1.7917,803.7554],[35.4858,1.7953,806.2277],[35.4827,1.7966,803.9141],[35.4825,1.8019,805.728],[35.4759,1.8043,799.5735],[35.4746,1.8085,799.3602],[35.4709,1.8083,801.1033],[35.4715,1.8102,800.3643],[35.4742,1.8108,797.8784],[35.4745,1.8145,796.8123],[35.4776,1.8179,796.9229],[35.473,1.8186,795.5965],[35.4726,1.822,795.23],[35.4769,1.8267,792.8335],[35.4747,1.8284,794.2233],[35.4767,1.8311,795.5881],[35.4743,1.8333,794.9249],[35.4735,1.8407,796.1616],[35.4691,1.8436,795.1755],[35.4676,1.8473,795.7098],[35.4608,1.8455,790.796],[35.4575,1.8516,788.1899],[35.4527,1.8506,787.4351],[35.4518,1.8554,787.3915],[35.3718,1.9319,774.3716]]]]}
,"properties": {"GID_3": "KEN.47.4.3_1","GID_0": "KEN","country": "Kenya","GID_1": "KEN.47_1","province": "WestPokot","NL_NAME_1": "NA","GID_2": "KEN.47.4_1","county": "Sigor","NL_NAME_2": "NA","city": "Sekerr","VARNAME_3": "NA","NL_NAME_3": "NA","TYPE_3": "Ward","ENGTYPE_3": "Ward","CC_3": "647","HASC_3": "NA","name": "Sekerr.city","area_km2": 603.2498,"hist_schema_id": "Elevation0-9000","hist_area_km2": {"775": 2.2038,"800": 42.4459,"825": 44.0363,"850": 48.1914,"875": 50.8419,"900": 40.2249,"925": 24.9447,"950": 16.9547,"975": 12.4828,"1000": 10.9991,"1025": 7.3539,"1050": 6.3789,"1075": 5.9338,"1100": 6.1246,"1125": 5.7855,"1150": 6.1669,"1175": 5.9339,"1200": 6.5061,"1225": 5.3193,"1250": 6.4636,"1275": 5.955,"1300": 5.9763,"1325": 5.8915,"1350": 6.5908,"1375": 5.9127,"1400": 6.7604,"1425": 6.0611,"1450": 5.616,"1475": 5.1074,"1500": 4.6624,"1525": 3.7511,"1550": 4.62,"1575": 3.6664,"1600": 3.8359,"1625": 3.7724,"1650": 3.7936,"1675": 3.8995,"1700": 3.179,"1725": 4.1115,"1750": 4.0267,"1775": 5.1075,"1800": 7.5872,"1825": 8.2654,"1850": 6.4004,"1875": 6.4216,"1900": 6.0825,"1925": 5.3407,"1950": 5.15,"1975": 5.044,"2000": 5.044,"2025": 4.0055,"2050": 3.9207,"2075": 3.836,"2100": 3.5816,"2125": 3.179,"2150": 3.4121,"2175": 3.1578,"2200": 2.9882,"2225": 2.7975,"2250": 2.5644,"2275": 2.7975,"2300": 2.8823,"2325": 2.8187,"2350": 2.7975,"2375": 3.2213,"2400": 3.2425,"2425": 2.6915,"2450": 3.179,"2475": 2.1829,"2500": 2.5856,"2525": 2.4796,"2550": 2.2465,"2575": 2.1405,"2600": 1.7378,"2625": 1.8226,"2650": 1.9286,"2675": 1.6107,"2700": 1.5259,"2725": 1.4411,"2750": 1.2716,"2775": 1.4199,"2800": 1.4411,"2825": 1.2292,"2850": 0.8689,"2875": 0.8053,"2900": 0.9113,"2925": 0.6782,"2950": 0.4239,"2975": 0.2967,"3000": 0.4239,"3025": 0.2543,"3050": 0.1484,"3075": 0.2331,"3100": 0.3815,"3125": 0.0848,"3150": 0.1695,"3175": 0.1272,"3200": 0.0424,"3225": 0.106,"3250": 0.0212,"3275": 0.1272,"3300": 0.0636,"3325": 0.0212}}}