{"type":"Feature","properties":{"GID_3":"KEN.22.7.4_1","GID_0":"KEN","country":"Kenya","GID_1":"KEN.22_1","province":"Machakos","NL_NAME_1":"NA","GID_2":"KEN.22.7_1","county":"Mwala","NL_NAME_2":"NA","city":"Mbiuni","VARNAME_3":"NA","NL_NAME_3":"NA","TYPE_3":"Ward","ENGTYPE_3":"Ward","CC_3":"405","HASC_3":"NA","name":"Mbiuni.city"},
"geometry":{"type": "MultiPolygon","coordinates": [[[[37.4127,-1.3152,1638.9293],[37.4234,-1.3105,1278.553],[37.4306,-1.3125,1258.0782],[37.4356,-1.3104,1241.5365],[37.4416,-1.3031,1236.3108],[37.453,-1.3003,1211.5225],[37.4534,-1.2947,1207.3781],[37.457,-1.2895,1201.7158],[37.4579,-1.2847,1206.7678],[37.4643,-1.2852,1229.4766],[37.4864,-1.2802,1196.3582],[37.4917,-1.275,1177.2919],[37.4925,-1.2696,1183.558],[37.5071,-1.2642,1136.6642],[37.5091,-1.262,1143.8832],[37.5053,-1.2599,1150.1454],[37.5008,-1.2523,1228.5909],[37.487,-1.251,1167.0708],[37.4747,-1.2312,1174.9774],[37.4674,-1.23,1171.1646],[37.4613,-1.2308,1170.283],[37.4554,-1.2225,1187.1461],[37.4508,-1.2225,1180.9852],[37.4508,-1.2171,1189.8101],[37.4458,-1.2211,1193.5215],[37.4358,-1.2088,1192.6991],[37.4307,-1.2075,1181.209],[37.4297,-1.2051,1183.1134],[37.4313,-1.1983,1198.2778],[37.4272,-1.1979,1187.6151],[37.4252,-1.1936,1195.7488],[37.4191,-1.1931,1187.4075],[37.4198,-1.1856,1221.9821],[37.4178,-1.1834,1223.3502],[37.4139,-1.1839,1190.3517],[37.4112,-1.1823,1185.1516],[37.4112,-1.1784,1189.7842],[37.4079,-1.1748,1190.4045],[37.4091,-1.169,1228.6118],[37.4066,-1.1687,1195.0682],[37.4027,-1.1718,1192.7773],[37.3981,-1.1691,1226.5056],[37.3926,-1.1709,1204.0674],[37.3877,-1.1673,1198.1542],[37.3862,-1.1616,1214.2987],[37.3825,-1.1611,1222.5283],[37.3804,-1.1581,1203.8779],[37.3731,-1.1652,1223.8395],[37.3662,-1.1756,1259.0813],[37.3627,-1.1755,1257.3528],[37.3571,-1.1726,1259.1848],[37.35,-1.1725,1272.953],[37.3469,-1.167,1236.3635],[37.344,-1.1711,1258.4595],[37.3454,-1.1755,1263.9427],[37.3426,-1.184,1345.3038],[37.3438,-1.192,1594.572],[37.364,-1.2252,1673.3502],[37.369,-1.2424,1713.3672],[37.3749,-1.2485,1586.0038],[37.3738,-1.266,1729.4836],[37.3788,-1.2651,1566.0402],[37.3853,-1.2701,1458.8964],[37.3923,-1.2684,1321.8635],[37.3935,-1.2717,1415.3315],[37.3917,-1.2774,1438.0216],[37.3964,-1.2821,1378.2037],[37.396,-1.2846,1507.092],[37.3993,-1.2885,1438.813],[37.3998,-1.2955,1588.7904],[37.4055,-1.299,1516.9594],[37.4127,-1.3152,1638.9293]]]]}}