{"type":"Feature","properties":{"GID_3":"KEN.7.6.3_1","GID_0":"KEN","country":"Kenya","GID_1":"KEN.7_1","province":"Garissa","NL_NAME_1":"NA","GID_2":"KEN.7.6_1","county":"Lagdera","NL_NAME_2":"NA","city":"Goreale","VARNAME_3":"NA","NL_NAME_3":"NA","TYPE_3":"Ward","ENGTYPE_3":"Ward","CC_3":"142","HASC_3":"NA","name":"Goreale.city"},
"geometry":{"type": "MultiPolygon","coordinates": [[[[39.4221,0.0171,283.6472],[39.4246,0.0155,282.6868],[39.4557,0.0105,274.3533],[39.5017,0.0064,261.8593],[39.5032,0.0263,264.1263],[39.5088,0.0352,262.7539],[39.5116,0.046,262.8085],[39.5258,0.0572,254.7237],[39.531,0.071,256.1718],[39.5347,0.0752,255.7837],[39.5396,0.0779,253.3685],[39.5501,0.0791,253.3609],[39.5569,0.0831,249.318],[39.5675,0.0939,244.8718],[39.571,0.1049,241.2179],[39.5788,0.1119,236.4214],[39.59,0.1154,234.0733],[39.5918,0.126,231.8975],[39.5956,0.1323,228.6648],[39.609,0.1317,225.7623],[39.6164,0.1328,223.0976],[39.6218,0.1355,220.0124],[39.6354,0.1351,213.6514],[39.654,0.1418,206.698],[39.6559,0.1463,206.2044],[39.66,0.1489,203.233],[39.6578,0.1587,203.887],[39.665,0.1632,201.0168],[39.67,0.1704,198.2067],[39.6789,0.1755,194.4135],[39.6963,0.1792,188.0073],[39.7109,0.1896,182.3999],[39.7216,0.1935,179.3799],[39.7421,0.2195,172.5939],[39.7509,0.2272,170.9078],[39.7736,0.2412,167.8993],[39.7882,0.242,166.544],[39.8109,0.2574,162.8989],[39.8224,0.2599,161.6795],[39.8392,0.2672,158.8944],[39.8485,0.2732,157.6042],[39.8664,0.29,155.5026],[39.8756,0.2892,154.7315],[39.8799,0.2993,153.7754],[39.8947,0.3125,151.9031],[39.9004,0.32,151.4545],[39.9001,0.3432,152.3183],[39.8952,0.3541,149.8956],[39.8879,0.3647,151.6107],[39.8496,0.3985,155.0755],[39.8804,0.4254,154.5312],[39.8888,0.4367,153.4374],[39.8935,0.4484,153.367],[39.8965,0.4497,153.4104],[39.9052,0.4478,152.8651],[39.9096,0.4487,152.5162],[39.9114,0.4497,152.9795],[39.9138,0.4563,153.7789],[39.9035,0.4635,155.1313],[39.8943,0.4625,153.817],[39.8892,0.4641,154.1744],[39.8779,0.4597,154.9721],[39.8743,0.4597,155.1178],[39.8693,0.4621,155.6177],[39.8649,0.467,156.0013],[39.8571,0.4703,156.7127],[39.8496,0.4785,157.4973],[39.8401,0.4791,158.1949],[39.8357,0.4815,158.2758],[39.8275,0.4797,158.9003],[39.8209,0.4835,159.195],[39.8103,0.4851,159.8723],[39.8009,0.4845,160.4041],[39.7937,0.4891,160.6035],[39.7831,0.4915,161.6313],[39.7747,0.4965,162.0393],[39.7699,0.5037,162.4725],[39.7637,0.5071,162.7761],[39.7619,0.512,163.033],[39.7463,0.5177,163.7163],[39.7405,0.5233,164.3477],[39.7359,0.5233,164.6167],[39.7329,0.5253,164.7782],[39.7235,0.5431,166.3255],[39.7204,0.5466,166.5077],[39.7169,0.5465,166.7476],[39.7163,0.5505,166.8318],[39.7115,0.5569,167.1507],[39.7019,0.5651,168.1658],[39.6976,0.573,168.3768],[39.6897,0.5787,169.2368],[39.6787,0.5264,166.7572],[39.6692,0.496,165.5046],[39.659,0.4859,167.3607],[39.6516,0.4832,168.5989],[39.6381,0.4721,172.4253],[39.625,0.4711,175.6236],[39.618,0.4732,178.76],[39.6086,0.4695,178.6169],[39.6005,0.4708,181.6422],[39.5944,0.4697,181.9205],[39.5907,0.4724,184.4153],[39.5802,0.4729,186.1603],[39.5761,0.4716,185.8624],[39.5728,0.4669,186.8643],[39.5538,0.4676,192.1339],[39.5493,0.4634,190.8046],[39.539,0.459,195.3448],[39.5057,0.547,186.3415],[39.4875,0.5317,192.676],[39.4837,0.5251,194.7133],[39.4754,0.5198,197.0329],[39.4607,0.5063,201.5333],[39.4477,0.5045,205.2962],[39.4262,0.4865,214.2653],[39.4207,0.4785,216.488],[39.4107,0.4753,219.3859],[39.4027,0.4663,221.8802],[39.4011,0.4619,223.8416],[39.3951,0.4597,226.6324],[39.3833,0.4493,229.8211],[39.3721,0.4497,233.0109],[39.3546,0.4475,238.3525],[39.3513,0.4425,239.0622],[39.3465,0.4391,240.378],[39.3413,0.4379,241.001],[39.334,0.4388,243.0293],[39.3466,0.3879,241.4903],[39.3562,0.3322,265.3352],[39.3653,0.3171,259.1528],[39.368899999999996,0.3035,252.6842],[39.3697,0.2767,261.8713],[39.3755,0.2661,255.5702],[39.3871,0.2573,251.3329],[39.3985,0.2391,249.409],[39.4021,0.2299,253.1602],[39.4073,0.2251,257.7811],[39.4146,0.2133,259.7111],[39.4305,0.1994,260.3987],[39.4302,0.1824,266.3489],[39.4326,0.1717,265.8206],[39.4293,0.1518,273.848],[39.4339,0.1089,270.8953],[39.4255,0.0827,273.4553],[39.4229,0.0567,281.0639],[39.4255,0.0391,279.1767],[39.4218,0.0246,283.0201],[39.4221,0.0171,283.6472]]]]}}