{"type": "Feature","bbox": [34.6615,0.0496,34.7463,0.0909],"geometry": {"type": "MultiPolygon","coordinates": [[[[34.6732,0.0855,1495.3759],[34.6734,0.0713,1533.2439],[34.6656,0.0689,1532.3932],[34.6639,0.0597,1522.7983],[34.6615,0.0589,1525.1517],[34.6691,0.0566,1526.2521],[34.6719,0.0579,1543.163],[34.6773,0.0521,1523.3503],[34.6838,0.0507,1543.554],[34.6905,0.0519,1573.1866],[34.6923,0.0496,1577.2356],[34.6994,0.052,1580.5393],[34.7002,0.0547,1602.4229],[34.7015,0.0544,1602.186],[34.708,0.0617,1581.3645],[34.7096,0.0673,1580.2571],[34.714,0.0647,1573.012],[34.7155,0.0664,1587.9799],[34.7183,0.0661,1613.2458],[34.7236,0.073,1601.4974],[34.7224,0.0757,1594.5118],[34.7377,0.0763,1627.7815],[34.742,0.0807,1574.9092],[34.7449,0.0794,1586.917],[34.7463,0.0803,1610.3317],[34.7432,0.0881,1578.0847],[34.7402,0.0903,1551.416],[34.7324,0.0884,1586.134],[34.7132,0.0892,1581.7448],[34.6991,0.0862,1554.2831],[34.6875,0.0896,1526.0906],[34.6747,0.0909,1487.4365],[34.6732,0.0855,1495.3759]]]]}
,"properties": {"GID_3": "KEN.45.5.2_1","GID_0": "KEN","country": "Kenya","GID_1": "KEN.45_1","province": "Vihiga","NL_NAME_1": "NA","GID_2": "KEN.45.5_1","county": "Vihiga","NL_NAME_2": "NA","city": "Lugaga-Wamuluma","VARNAME_3": "NA","NL_NAME_3": "NA","TYPE_3": "Ward","ENGTYPE_3": "Ward","CC_3": "1051","HASC_3": "NA","name": "Lugaga-Wamuluma.city","area_km2": 23.87366,"hist_schema_id": "Elevation0-9000","hist_area_km2": {"1475": 0.76328,"1500": 1.9718,"1525": 3.37115,"1550": 5.66099,"1575": 6.42426,"1600": 4.62208,"1625": 1.06011}}}