{"type": "Feature","bbox": [34.7855,0.3113,34.9499,0.4044],"geometry": {"type": "MultiPolygon","coordinates": [[[[34.7855,0.3295,1557.2482],[34.7865,0.3261,1585.041],[34.7894,0.3253,1595.4347],[34.7918,0.322,1573.2942],[34.7909,0.3179,1550.9603],[34.7948,0.3142,1548.6459],[34.7948,0.3114,1540.3982],[34.8487,0.3113,1564.1044],[34.8543,0.3138,1568.2908],[34.8572,0.3134,1573.6844],[34.8652,0.3187,1575.3779],[34.867,0.3233,1549.9275],[34.8734,0.3245,1580.1281],[34.8755,0.3274,1561.092],[34.877,0.327,1560.4987],[34.8785,0.3296,1557.4062],[34.8776,0.3326,1559.5009],[34.8802,0.3377,1579.3895],[34.8892,0.3496,1571.5352],[34.8979,0.3496,1565.401],[34.9039,0.3516,1573.0125],[34.91,0.358,1567.1876],[34.9146,0.3593,1574.9113],[34.9233,0.3571,1576.949],[34.9266,0.3541,1590.5726],[34.9302,0.3542,1616.3312],[34.9357,0.3576,1856.1368],[34.9382,0.3561,1845.8678],[34.9371,0.3648,1747.6464],[34.9487,0.3583,1758.9662],[34.9499,0.3616,1764.8555],[34.9443,0.3645,1704.7515],[34.9452,0.3725,1704.0928],[34.9403,0.3798,1659.6719],[34.9411,0.384,1650.105],[34.9394,0.3895,1655.8684],[34.937,0.3915,1653.3582],[34.9384,0.3939,1673.2717],[34.9344,0.395,1638.042],[34.926,0.4044,1614.0156],[34.9221,0.4044,1597.5498],[34.9198,0.4016,1602.7393],[34.9167,0.4009,1589.5027],[34.9135,0.4029,1590.374],[34.9096,0.4028,1588.2104],[34.9061,0.4,1600.7609],[34.904,0.3934,1599.1313],[34.9013,0.3935,1613.4113],[34.894,0.3855,1617.5171],[34.8821,0.3872,1566.4993],[34.8739,0.3809,1561.8025],[34.8754,0.3706,1552.2721],[34.8631,0.3709,1593.3533],[34.8564,0.3746,1628.6285],[34.8533,0.3741,1633.1479],[34.8484,0.3709,1597.4016],[34.8497,0.3675,1609.5043],[34.8463,0.3674,1582.7465],[34.8407,0.3616,1608.8536],[34.8355,0.3602,1661.0966],[34.8337,0.355,1686.0674],[34.8265,0.3507,1590.7382],[34.8183,0.343,1558.9847],[34.8033,0.3397,1588.6493],[34.7935,0.34,1577.3279],[34.7855,0.3295,1557.2482]]]]}
,"properties": {"GID_3": "KEN.11.11.3_1","GID_0": "KEN","country": "Kenya","GID_1": "KEN.11_1","province": "Kakamega","NL_NAME_1": "NA","GID_2": "KEN.11.11_1","county": "Shinyalu","NL_NAME_2": "NA","city": "IsukhaNorth","VARNAME_3": "NA","NL_NAME_3": "NA","TYPE_3": "Ward","ENGTYPE_3": "Ward","CC_3": "1041","HASC_3": "NA","name": "Isukha_North.city","area_km2": 80.33363,"hist_schema_id": "Elevation0-9000","hist_area_km2": {"1525": 0.36043,"1550": 12.10625,"1575": 33.52007,"1600": 20.86256,"1625": 6.42413,"1650": 2.20498,"1675": 1.61133,"1700": 1.67494,"1725": 0.97528,"1750": 0.42404,"1775": 0.0212,"1800": 0.0424,"1825": 0.06361,"1850": 0.0424}}}