{"type":"Feature","properties":{"GID_3":"KEN.35.2.1_1","GID_0":"KEN","country":"Kenya","GID_1":"KEN.35_1","province":"Nyandarua","NL_NAME_1":"NA","GID_2":"KEN.35.2_1","county":"Kipipiri","NL_NAME_2":"NA","city":"Geta","VARNAME_3":"NA","NL_NAME_3":"NA","TYPE_3":"Ward","ENGTYPE_3":"Ward","CC_3":"451","HASC_3":"NA","name":"Geta.city"},
"geometry":{"type": "MultiPolygon","coordinates": [[[[36.5969,-0.4687,2589.4553],[36.599,-0.4715,2589.1504],[36.604,-0.4732,2578.123],[36.615,-0.4553,2704.7231],[36.6187,-0.4542,2764.7319],[36.6217,-0.4582,2712.896],[36.6328,-0.4457,2942.8752],[36.6419,-0.447,3173.5388],[36.6464,-0.4436,3238.5789],[36.6508,-0.4432,3297.7197],[36.6504,-0.428,3397.0159],[36.6341,-0.4061,3693.095],[36.6231,-0.395,3783.5684],[36.6319,-0.3821,3783.5359],[36.6161,-0.3721,3790.4292],[36.6067,-0.37,3819.6848],[36.6044,-0.3673,3798.6069],[36.6043,-0.3619,3771.4773],[36.603,-0.3611,3780.6487],[36.5888,-0.3613,3647.1155],[36.5722,-0.3702,3145.0837],[36.5552,-0.3659,2646.7607],[36.5322,-0.3866,2755.2153],[36.5357,-0.4274,3257.7617],[36.539,-0.4298,3308.8452],[36.542,-0.4291,3290.8843],[36.5471,-0.4229,2974.603],[36.5547,-0.428,3157.0574],[36.5605,-0.4259,2991.646],[36.5619,-0.4227,2962.667],[36.5647,-0.423,2947.3577],[36.5676,-0.4253,2869.3188],[36.5679,-0.4301,2882.2634],[36.5745,-0.4457,2901.647],[36.5802,-0.4502,2769.4976],[36.5901,-0.451,2669.1719],[36.5933,-0.4595,2630.8237],[36.5974,-0.4632,2623.3682],[36.5969,-0.4687,2589.4553]]]]}}