{"type":"Feature","properties":{"GID_3":"KEN.14.6.1_1","GID_0":"KEN","country":"Kenya","GID_1":"KEN.14_1","province":"Kilifi","NL_NAME_1":"NA","GID_2":"KEN.14.6_1","county":"Malindi","NL_NAME_2":"NA","city":"Ganda","VARNAME_3":"NA","NL_NAME_3":"NA","TYPE_3":"Ward","ENGTYPE_3":"Ward","CC_3":"77","HASC_3":"NA","name":"Ganda.city"},
"geometry":{"type": "MultiPolygon","coordinates": [[[[40.0451,-3.2686,22.3492],[40.0543,-3.2687,19.7646],[40.0547,-3.2806,19.5684],[40.1227,-3.2797,7.1293],[40.1249,-3.2762,3.9468],[40.1233,-3.2715,7.5609],[40.1275,-3.2652,9.2083],[40.1247,-3.2636,9.875],[40.1251,-3.2569,10.6803],[40.1235,-3.2543,12.0745],[40.1183,-3.2532,12.9627],[40.1159,-3.2451,6.4993],[40.1083,-3.2467,21.5599],[40.1071,-3.2397,24.934],[40.1115,-3.2382,18.976],[40.1063,-3.2373,25.4864],[40.1049,-3.233,22.6034],[40.1011,-3.2348,24.3569],[40.0973,-3.2335,28.4146],[40.0933,-3.2371,30.4275],[40.0795,-3.2438,30.615],[40.0735,-3.2301,37.5991],[40.0695,-3.2316,36.6131],[40.0653,-3.2186,45.1097],[40.0657,-3.2117,43.7066],[40.0689,-3.2058,38.9643],[40.0701,-3.1911,39.8992],[40.0741,-3.1847,54.1147],[40.0721,-3.1809,13.9083],[40.0734,-3.1781,6.8474],[40.0695,-3.1762,7.8357],[40.0647,-3.18,8.3732],[40.0629,-3.1776,8.9948],[40.0603,-3.1772,8.5442],[40.0569,-3.1854,8.8653],[40.0541,-3.1859,10.0473],[40.0539,-3.1906,8.9886],[40.0509,-3.1916,9.2839],[40.0403,-3.2051,6.4409],[40.0239,-3.2156,45.6805],[40.0187,-3.2167,42.1265],[40.0146,-3.2203,47.4766],[40.0091,-3.22,47.3604],[40.0139,-3.2334,48.1564],[40.0125,-3.2433,48.5002],[40.0395,-3.2538,35.8077],[40.0395,-3.2685,26.9013],[40.0451,-3.2686,22.3492]]]]}}