{"type": "Feature","bbox": [35.4044,-0.123,35.6412,0.0319],"geometry": {"type": "MultiPolygon","coordinates": [[[[35.5229,0.0199,2831.2285],[35.5166,0.0196,2824.4004],[35.5139,0.0127,2857.9922],[35.4983,0.0144,2814.8271],[35.498,0.0165,2805.0298],[35.4942,0.0193,2709.7329],[35.4803,0.02,2754.9631],[35.4578,0.0146,2640.3906],[35.4579,0.0182,2667.3477],[35.4713,0.0242,2693.9888],[35.4664,0.0319,2665.8374],[35.4349,0.0312,2548.1387],[35.4382,0.024,2475.0195],[35.4136,0.0093,1979.1914],[35.4044,-0.0172,2185.4004],[35.4232,-0.0698,2131.7012],[35.4241,-0.072,2103.6501],[35.4414,-0.0736,2294.2058],[35.4551,-0.0716,2368.5293],[35.4573,-0.0829,2299.9165],[35.4741,-0.0947,2337.3567],[35.4746,-0.0911,2318.48],[35.4772,-0.0902,2347.5222],[35.481,-0.0814,2300.6904],[35.485,-0.0773,2293.0405],[35.4872,-0.0664,2341.2178],[35.5095,-0.0477,2453.3372],[35.5161,-0.039,2508.209],[35.5185,-0.0409,2513.3018],[35.5199,-0.045,2493.79],[35.5244,-0.0461,2502.5154],[35.5143,-0.0587,2500.9456],[35.5136,-0.0691,2554.3914],[35.5155,-0.071,2555.6724],[35.5207,-0.0908,2544.9246],[35.5352,-0.0955,2407.9875],[35.5441,-0.1003,2393.874],[35.5524,-0.0948,2347.2251],[35.5615,-0.0915,2331.521],[35.5656,-0.1061,2319.1826],[35.5732,-0.115,2322.552],[35.576,-0.1159,2300.2974],[35.5739,-0.123,2328.8811],[35.5763,-0.1229,2303.3745],[35.5782,-0.1173,2311.2427],[35.5748,-0.1093,2307.1697],[35.5749,-0.1036,2327.521],[35.5762,-0.103,2318.0464],[35.5758,-0.0995,2332.1057],[35.579,-0.0958,2331.7891],[35.579,-0.0917,2339.0176],[35.5808,-0.0882,2334.9055],[35.5829,-0.0877,2334.4561],[35.5849,-0.0826,2328.0093],[35.5897,-0.078,2337.5859],[35.5919,-0.0782,2330.7173],[35.6016,-0.0942,2341.6018],[35.6053,-0.0915,2344.0996],[35.6087,-0.0833,2366.6523],[35.615,-0.0779,2370.7371],[35.6241,-0.0743,2427.4509],[35.6281,-0.0673,2437.5723],[35.6371,-0.0571,2495.4888],[35.6412,-0.0544,2506.2927],[35.6365,-0.0485,2500.8621],[35.6401,-0.0446,2522.1353],[35.6333,-0.0297,2543.8486],[35.6113,-0.0264,2557.9736],[35.5839,-0.0013,2692.8657],[35.5724,-0.0033,2643.0576],[35.571,-0.0015,2630.9897],[35.5431,-0.0023,2754.979],[35.5229,0.0199,2831.2285]]]]}
,"properties": {"GID_3": "KEN.12.4.4_1","GID_0": "KEN","country": "Kenya","GID_1": "KEN.12_1","province": "Kericho","NL_NAME_1": "NA","GID_2": "KEN.12.4_1","county": "KipkelionEast","NL_NAME_2": "NA","city": "Tendeno/Sorget","VARNAME_3": "NA","NL_NAME_3": "NA","TYPE_3": "Ward","ENGTYPE_3": "Ward","CC_3": "939","HASC_3": "NA","name": "Tendeno_Sorget.city","area_km2": 239.5212,"hist_schema_id": "Elevation0-9000","hist_area_km2": {"1925": 0.0424,"1950": 0.1696,"1975": 0.212,"2000": 0.3816,"2025": 0.4664,"2050": 0.8269,"2075": 0.6149,"2100": 0.6997,"2125": 0.8269,"2150": 1.1661,"2175": 1.2721,"2200": 1.569,"2225": 1.9506,"2250": 2.099,"2275": 2.4595,"2300": 3.5196,"2325": 7.8024,"2350": 21.181,"2375": 15.7744,"2400": 17.3858,"2425": 15.1172,"2450": 15.9441,"2475": 15.308,"2500": 14.1207,"2525": 14.0359,"2550": 15.1172,"2575": 14.8839,"2600": 13.0394,"2625": 8.2689,"2650": 7.6328,"2675": 6.6363,"2700": 5.1733,"2725": 3.668,"2750": 3.5832,"2775": 3.0955,"2800": 1.4205,"2825": 0.8693,"2850": 0.5937,"2875": 0.5089,"2900": 0.0848}}}