{"type": "Feature","bbox": [36.4731,3.5081,37.5794,4.444],"geometry": {"type": "MultiPolygon","coordinates": [[[[37.5097,4.0466,746.2119],[37.4011,4.1182,806.6163],[37.3536,4.1468,773.7474],[37.3204,4.1703,803.317],[37.1904,4.2542,819.1605],[37.1614,4.2702,844.0028],[37.1237,4.2828,909.2061],[37.1042,4.2988,1156.5403],[37.0848,4.3255,1160.4642],[37.0585,4.343,1458.7855],[37.0394,4.3617,1505.1628],[36.997,4.3789,1192.4315],[36.9854,4.3853,1095.0902],[36.9814,4.3892,1068.9349],[36.9697,4.3945,956.0037],[36.9561,4.3967,898.5009],[36.9497,4.4042,975.1088],[36.8955,4.4249,594.7008],[36.8665,4.4318,568.5875],[36.8388,4.444,544.632],[36.7182,4.4394,498.7232],[36.7195,4.4321,499.986],[36.7245,4.4237,500.9842],[36.725,4.4167,501.7634],[36.7197,4.3979,503.5498],[36.719,4.376,505.9073],[36.7167,4.3663,507.1263],[36.7191,4.3574,508.1395],[36.7175,4.3405,510.061],[36.7194,4.325,512.2543],[36.7175,4.3211,512.6485],[36.7162,4.3081,514.5132],[36.7122,4.2975,516.2051],[36.7087,4.2941,517.0226],[36.7061,4.2857,518.8732],[36.7072,4.2707,524.515],[36.7053,4.2599,529.0394],[36.7085,4.2505,534.5552],[36.7032,4.2416,545.4106],[36.6957,4.2355,552.5777],[36.6829,4.2093,600.1311],[36.6785,4.2025,596.4821],[36.6718,4.2045,597.9894],[36.6577,4.2049,568.1207],[36.6463,4.1943,541.1078],[36.6371,4.1937,539.4991],[36.6288,4.1877,559.2325],[36.6113,4.1811,536.5976],[36.6052,4.1742,534.1201],[36.5965,4.1681,530.7701],[36.5909,4.1661,530.1706],[36.5837,4.1685,524.6564],[36.5691,4.1635,526.4825],[36.5609,4.1561,524.0423],[36.5353,4.1455,591.0124],[36.5257,4.1363,595.3365],[36.5015,4.1237,524.9487],[36.4953,4.1175,512.2344],[36.4875,4.1045,488.5054],[36.4851,4.0943,488.4485],[36.4833,4.0694,485.5015],[36.4731,4.0519,487.4837],[36.4805,4.0505,479.1195],[36.4835,4.0481,475.9904],[36.4898,4.0491,479.3552],[36.4955,4.0469,496.9474],[36.5055,4.0507,492.3671],[36.5169,4.0397,502.6545],[36.5339,4.0411,517.8536],[36.5431,4.0243,536.7154],[36.5521,4.0169,555.7863],[36.5597,4.0069,576.2306],[36.5663,4.0013,586.6467],[36.5715,4.0023,602.1457],[36.6049,4.0215,731.868],[36.6209,4.0253,761.6096],[36.6393,4.0269,705.6609],[36.6557,4.0247,654.1866],[36.6877,4.0159,712.4712],[36.7855,4.0127,621.8704],[36.8467,4.0003,640.6959],[36.9103,3.9977,635.4502],[36.9571,3.9993,749.1921],[36.9735,3.9955,699.8625],[36.9837,3.9905,684.2543],[37.0131,3.9733,652.8463],[37.0373,3.9619,639.4068],[37.0471,3.9549,637.1548],[37.0543,3.9487,634.2974],[37.0607,3.9403,624.7633],[37.0615,3.9371,631.4788],[37.0537,3.9203,616.3698],[37.0519,3.9017,608.5922],[37.0553,3.8879,603.2782],[37.0581,3.8833,600.6016],[37.0595,3.8637,593.1304],[37.0675,3.8487,586.4457],[37.0693,3.8399,583.2556],[37.0737,3.8329,580.1103],[37.0765,3.8219,576.1678],[37.0823,3.8171,573.446],[37.0887,3.8155,571.1083],[37.1017,3.8033,564.5795],[37.1091,3.7879,559.9009],[37.1099,3.7827,557.5752],[37.1311,3.7597,545.9259],[37.1361,3.7487,550.4644],[37.1551,3.7391,541.1067],[37.1765,3.7211,531.1306],[37.1849,3.7193,527.3149],[37.1899,3.7121,510.6738],[37.1897,3.7085,518.2592],[37.1859,3.7015,517.6486],[37.1897,3.6937,512.7386],[37.1839,3.6913,499.3473],[37.1827,3.6887,495.0494],[37.1843,3.6829,498.5765],[37.1793,3.6759,486.9796],[37.1789,3.6593,478.7773],[37.1767,3.6547,476.7343],[37.1731,3.6519,474.5923],[37.1731,3.6439,471.9257],[37.1785,3.6225,473.3123],[37.1761,3.6173,464.1115],[37.1787,3.6101,466.2292],[37.1761,3.6039,460.9519],[37.1793,3.5971,458.7439],[37.1845,3.5925,456.5554],[37.1907,3.5897,454.5942],[37.1975,3.5821,452.9249],[37.2003,3.5781,452.2659],[37.2007,3.5733,452.9109],[37.1995,3.5651,447.3853],[37.1909,3.5545,447.2412],[37.1821,3.5309,437.7962],[37.1819,3.5125,431.4249],[37.1835,3.5081,428.2579],[37.2125,3.5359,435.2789],[37.2357,3.5509,443.0891],[37.2407,3.5579,446.0608],[37.2469,3.5627,441.2767],[37.2491,3.5633,441.129],[37.2451,3.5561,439.3372],[37.2451,3.5515,438.935],[37.2655,3.5537,444.5145],[37.2733,3.5599,447.0034],[37.2861,3.5773,453.7653],[37.2947,3.5807,456.3401],[37.3007,3.5797,458.8347],[37.3233,3.5853,466.0647],[37.3363,3.5941,474.1254],[37.3395,3.5989,475.4874],[37.3475,3.6022,479.7496],[37.3557,3.6137,483.8524],[37.3605,3.6125,487.1728],[37.3727,3.6191,492.7865],[37.3783,3.6267,510.225],[37.3841,3.6291,512.2829],[37.3869,3.6341,504.9794],[37.3911,3.6373,509.549],[37.3911,3.6465,506.0393],[37.3977,3.6605,511.9243],[37.4041,3.6601,520.884],[37.4097,3.6641,524.2686],[37.4143,3.6777,524.4327],[37.4177,3.6787,533.5012],[37.4243,3.6777,534.1138],[37.4327,3.6821,538.692],[37.4403,3.6831,546.9407],[37.4487,3.6807,549.5657],[37.4553,3.6899,549.4875],[37.4551,3.7047,544.9019],[37.4583,3.7175,558.3405],[37.4623,3.7225,567.1835],[37.4683,3.7265,570.9787],[37.4719,3.7467,565.6013],[37.4746,3.752,582.0607],[37.4804,3.7571,584.6111],[37.4833,3.7576,584.7955],[37.4863,3.7519,586.3136],[37.4881,3.7513,585.8928],[37.4943,3.7587,588.1711],[37.5083,3.7679,601.3376],[37.5119,3.7671,591.2024],[37.5139,3.7645,614.484],[37.5149,3.7557,606.3787],[37.5195,3.7503,624.2764],[37.5235,3.7517,627.299],[37.5275,3.7573,629.2182],[37.5339,3.7594,633.9287],[37.5369,3.7693,627.8713],[37.5375,3.7795,633.6819],[37.5401,3.7861,641.5197],[37.5369,3.7941,627.2856],[37.5373,3.7967,638.8305],[37.5437,3.8081,656.6709],[37.5433,3.8253,662.1624],[37.5483,3.8353,673.4219],[37.5519,3.8497,682.0212],[37.5501,3.8547,657.9494],[37.5545,3.8641,692.3791],[37.5603,3.8683,698.4043],[37.5585,3.8839,704.6687],[37.5591,3.8867,709.6163],[37.5685,3.8979,717.444],[37.5695,3.9157,714.1067],[37.5785,3.9247,717.5458],[37.5794,3.9284,719.0064],[37.5753,3.9453,690.5693],[37.5785,3.9589,735.797],[37.5771,3.9642,690.4076],[37.5785,3.9691,725.9488],[37.5781,3.9721,739.959],[37.5717,3.9753,698.1924],[37.5693,3.9785,709.104],[37.5665,3.9863,708.6179],[37.5571,3.9939,698.5292],[37.5555,3.9977,707.2719],[37.5547,4.0117,712.2806],[37.5305,4.0313,761.0457],[37.516,4.0394,745.3115],[37.5097,4.0466,746.2119]]]]}
,"properties": {"GID_3": "KEN.25.3.1_1","GID_0": "KEN","country": "Kenya","GID_1": "KEN.25_1","province": "Marsabit","NL_NAME_1": "NA","GID_2": "KEN.25.3_1","county": "NorthHorr","NL_NAME_2": "NA","city": "Dukana","VARNAME_3": "NA","NL_NAME_3": "NA","TYPE_3": "Ward","ENGTYPE_3": "Ward","CC_3": "228","HASC_3": "NA","name": "Dukana.city","area_km2": 5295.32,"hist_schema_id": "Elevation0-9000","hist_area_km2": {"425": 3.005,"450": 62.509,"475": 151.753,"500": 154.295,"525": 249.908,"550": 302.26,"575": 286.605,"600": 300.71,"625": 308.087,"650": 429.931,"675": 482.237,"700": 551.034,"725": 610.839,"750": 465.288,"775": 296.94,"800": 230.341,"825": 134.696,"850": 49.013,"875": 29.263,"900": 25.415,"925": 19.389,"950": 16.619,"975": 14.102,"1000": 13.764,"1025": 12.22,"1050": 9.197,"1075": 8.224,"1100": 8.457,"1125": 7.505,"1150": 8.118,"1175": 8.795,"1200": 7.463,"1225": 7.4,"1250": 6.617,"1275": 4.25,"1300": 3.552,"1325": 2.706,"1350": 2.537,"1375": 2.157,"1400": 1.966,"1425": 1.269,"1450": 1.522,"1475": 1.078,"1500": 0.846,"1525": 0.55,"1550": 0.402,"1575": 0.211,"1600": 0.106,"1625": 0.169}}}