{"type":"Feature","properties":{"GID_3":"KEN.16.7.4_1","GID_0":"KEN","country":"Kenya","GID_1":"KEN.16_1","province":"Kisii","NL_NAME_1":"NA","GID_2":"KEN.16.7_1","county":"NyaribariChache","NL_NAME_2":"NA","city":"Keumbu","VARNAME_3":"NA","NL_NAME_3":"NA","TYPE_3":"Ward","ENGTYPE_3":"Ward","CC_3":"1333","HASC_3":"NA","name":"Keumbu.city"},
"geometry":{"type": "MultiPolygon","coordinates": [[[[34.8784,-0.7327,1943.2114],[34.8691,-0.7292,1927.3312],[34.8414,-0.7098,1794.1594],[34.8412,-0.7222,1853.9949],[34.8335,-0.7189,1789.3452],[34.8267,-0.729,1789.4288],[34.8182,-0.7211,1796.4209],[34.8146,-0.7277,1778.5452],[34.8211,-0.7353,1886.9357],[34.8227,-0.7443,1829.359],[34.8309,-0.7456,1904.552],[34.8363,-0.7503,1806.7092],[34.8424,-0.7476,1869.8522],[34.8456,-0.7502,1851.2102],[34.851,-0.7487,1834.7205],[34.8578,-0.7504,1881.3466],[34.8675,-0.7469,1914.1658],[34.8698,-0.7447,1923.309],[34.8692,-0.7364,2018.5082],[34.8709,-0.7378,2030.9456],[34.8739,-0.7373,2002.6482],[34.8784,-0.7327,1943.2114]]]]}}