{"type": "Feature","bbox": [34.3533,-0.7313,34.452,-0.5519],"geometry": {"type": "MultiPolygon","coordinates": [[[[34.4045,-0.5519,1150.694],[34.3974,-0.5682,1169.9259],[34.3887,-0.5725,1209.7666],[34.3857,-0.5794,1210.9388],[34.3791,-0.5849,1228.0701],[34.3773,-0.5832,1232.4099],[34.3748,-0.5848,1227.1406],[34.3649,-0.584,1222.2311],[34.3683,-0.5898,1207.3162],[34.3622,-0.5944,1200.4622],[34.3533,-0.6185,1233.194],[34.358,-0.6215,1348.3962],[34.3673,-0.6212,1347.3691],[34.3692,-0.6299,1375.7053],[34.3722,-0.6317,1375.364],[34.3715,-0.6345,1377.3201],[34.3757,-0.6346,1368.2831],[34.3792,-0.6367,1366.803],[34.3821,-0.6441,1364.5249],[34.3864,-0.6464,1370.1809],[34.3881,-0.6545,1358.642],[34.3921,-0.6603,1351.9115],[34.4003,-0.6659,1342.3879],[34.4011,-0.6645,1335.8586],[34.4082,-0.6649,1349.7162],[34.4099,-0.671,1348.7617],[34.4059,-0.6794,1340.8254],[34.4072,-0.6812,1342.2631],[34.406,-0.684,1339.0854],[34.4084,-0.6859,1342.2769],[34.4087,-0.6922,1344.9055],[34.4109,-0.696,1341.7651],[34.4126,-0.7027,1335.3267],[34.4116,-0.7043,1334.3571],[34.4147,-0.7115,1324.1995],[34.4142,-0.7173,1317.4084],[34.417,-0.7177,1320.078],[34.4191,-0.7246,1300.5248],[34.4154,-0.7286,1313.2035],[34.416,-0.7313,1313.238],[34.4227,-0.722,1313.167],[34.422,-0.7178,1318.187],[34.426,-0.7155,1307.2701],[34.4287,-0.7069,1294.2834],[34.4336,-0.708,1296.163],[34.4376,-0.7043,1319.7172],[34.4397,-0.6915,1359.1093],[34.4448,-0.6903,1345.5435],[34.4471,-0.6806,1337.3044],[34.4493,-0.6766,1333.4368],[34.452,-0.6755,1333.2791],[34.4474,-0.6623,1337.6377],[34.4476,-0.6564,1341.7374],[34.4445,-0.6534,1342.4551],[34.4472,-0.6329,1361.7339],[34.4414,-0.6278,1355.469],[34.4399,-0.6241,1350.6602],[34.439,-0.6095,1325.3671],[34.433,-0.6,1325.0217],[34.434,-0.5896,1314.7264],[34.433,-0.5885,1313.2883],[34.427,-0.5909,1324.2527],[34.4261,-0.5841,1277.3008],[34.419,-0.5653,1195.0693],[34.4163,-0.5643,1183.6752],[34.413,-0.5586,1171.3152],[34.4081,-0.5562,1150.8313],[34.4045,-0.5519,1150.694]]]]}
,"properties": {"GID_3": "KEN.8.6.4_1","GID_0": "KEN","country": "Kenya","GID_1": "KEN.8_1","province": "HomaBay","NL_NAME_1": "NA","GID_2": "KEN.8.6_1","county": "Ndhiwa","NL_NAME_2": "NA","city": "KanyamwaKologi","VARNAME_3": "NA","NL_NAME_3": "NA","TYPE_3": "Ward","ENGTYPE_3": "Ward","CC_3": "1250","HASC_3": "NA","name": "Kanyamwa_Kologi.city","area_km2": 98.88107,"hist_schema_id": "Elevation0-9000","hist_area_km2": {"1150": 1.22967,"1175": 2.94696,"1200": 4.74905,"1225": 7.25077,"1250": 4.74904,"1275": 3.37096,"1300": 6.38145,"1325": 13.73816,"1350": 33.28531,"1375": 21.1585,"1400": 0.0212}}}