{"type": "Feature","bbox": [36.0613,-1.6329,36.2813,-1.486],"geometry": {"type": "MultiPolygon","coordinates": [[[[36.0614,-1.5023,1350.3531],[36.0613,-1.5061,1349.9562],[36.0743,-1.5408,1476.178],[36.0842,-1.558,1338.2515],[36.0863,-1.5668,1286.1115],[36.084,-1.5785,1361.6196],[36.0803,-1.5807,1415.0428],[36.0791,-1.5923,1408.9026],[36.0742,-1.5895,1412.4585],[36.0695,-1.5977,1405.5171],[36.0854,-1.6035,1085.0505],[36.0997,-1.6067,951.2886],[36.28,-1.6329,887.4858],[36.2766,-1.6231,1035.0955],[36.2762,-1.6172,1064.6898],[36.2788,-1.6055,1005.1552],[36.2769,-1.5829,1028.8983],[36.2813,-1.486,1077.6122],[36.1638,-1.4929,1356.8218],[36.0614,-1.5023,1350.3531]]]]}
,"properties": {"GID_3": "KEN.10.5.5_1","GID_0": "KEN","country": "Kenya","GID_1": "KEN.10_1","province": "Kajiado","NL_NAME_1": "NA","GID_2": "KEN.10.5_1","county": "KajiadoWest","NL_NAME_2": "NA","city": "Mosiro","VARNAME_3": "NA","NL_NAME_3": "NA","TYPE_3": "Ward","ENGTYPE_3": "Ward","CC_3": "930","HASC_3": "NA","name": "Mosiro.city","area_km2": 314.5673,"hist_schema_id": "Elevation0-9000","hist_area_km2": {"875": 0.106,"900": 0.5298,"925": 2.183,"950": 6.9516,"975": 9.7704,"1000": 18.4388,"1025": 21.067,"1050": 23.25,"1075": 21.2579,"1100": 20.1134,"1125": 18.7993,"1150": 18.7146,"1175": 16.8284,"1200": 17.5491,"1225": 21.025,"1250": 29.0577,"1275": 27.2352,"1300": 23.3779,"1325": 7.6937,"1350": 4.3025,"1375": 3.7091,"1400": 1.6532,"1425": 0.763,"1450": 0.106,"1475": 0.0636,"1500": 0.0212}}}