{"type":"Feature","properties":{"GID_3":"KEN.13.8.4_1","GID_0":"KEN","country":"Kenya","GID_1":"KEN.13_1","province":"Kiambu","NL_NAME_1":"NA","GID_2":"KEN.13.8_1","county":"Kikuyu","NL_NAME_2":"NA","city":"Nachu","VARNAME_3":"NA","NL_NAME_3":"NA","TYPE_3":"Ward","ENGTYPE_3":"Ward","CC_3":"597","HASC_3":"NA","name":"Nachu.city"},
"geometry":{"type": "MultiPolygon","coordinates": [[[[36.636,-1.2921,1999.4437],[36.6373,-1.2879,1993.0743],[36.6273,-1.2784,2042.2781],[36.6265,-1.2758,2035.5704],[36.6277,-1.2744,2055.6565],[36.6264,-1.2733,2044.3973],[36.6271,-1.2671,2026.613],[36.6252,-1.2666,2004.9062],[36.627,-1.2591,1978.4688],[36.6176,-1.2577,1980.3776],[36.6151,-1.2557,1995.1289],[36.6163,-1.2501,1983.7004],[36.6145,-1.2333,2046.6116],[36.6218,-1.2286,2041.5675],[36.6285,-1.2366,2027.6595],[36.6431,-1.2238,2055.4075],[36.6458,-1.2233,2022.6973],[36.6476,-1.2208,2040.6721],[36.6452,-1.2163,2051.9375],[36.6457,-1.2133,2075.6736],[36.6516,-1.2119,2088.6877],[36.6467,-1.2095,2074.4282],[36.6456,-1.2001,2099.6089],[36.6332,-1.2028,2059.0107],[36.6308,-1.1949,2054.9033],[36.6263,-1.1875,2108.4585],[36.6245,-1.1868,2107.6111],[36.6108,-1.1917,2121.6145],[36.6088,-1.1973,2109.7739],[36.6096,-1.2011,2098.979],[36.6113,-1.2034,2091.041],[36.6158,-1.2041,2066.3345],[36.6161,-1.2105,2086.1929],[36.6127,-1.2163,2099.105],[36.5907,-1.2211,2087.7886],[36.5735,-1.2211,2061.5806],[36.5395,-1.2288,1622.489],[36.5166,-1.2362,1451.8516],[36.5126,-1.2358,1443.8049],[36.4908,-1.264,1414.0088],[36.5636,-1.2783,1890.7262],[36.636,-1.2921,1999.4437]]]]}}