{"type": "Feature","bbox": [37.6432,-3.391,37.7413,-3.306],"geometry": {"type": "MultiPolygon","coordinates": [[[[37.6971,-3.391,747.5723],[37.7045,-3.3873,750.6351],[37.7069,-3.3888,750.6998],[37.7157,-3.3874,754.3706],[37.7385,-3.3889,784.5851],[37.7385,-3.3736,785.3583],[37.7413,-3.3685,795.8088],[37.7399,-3.3674,802.8276],[37.7385,-3.3686,803.2994],[37.7311,-3.3607,848.2262],[37.7365,-3.3504,841.3119],[37.7359,-3.3482,841.2908],[37.7317,-3.3458,832.7604],[37.7273,-3.3469,821.3983],[37.7189,-3.3413,808.7501],[37.7205,-3.3372,811.4106],[37.7193,-3.334,824.6245],[37.7209,-3.3325,821.1312],[37.7167,-3.3197,845.3816],[37.7193,-3.3168,852.0646],[37.7173,-3.312,865.2523],[37.7157,-3.3124,865.2523],[37.7113,-3.3088,875.5917],[37.7108,-3.306,873.3844],[37.6894,-3.3222,872.5],[37.6856,-3.3236,1071.5316],[37.6856,-3.3512,885.715],[37.6808,-3.3571,862.8142],[37.6643,-3.3589,951.6743],[37.6432,-3.3796,838.488],[37.6671,-3.3901,776.6896],[37.6677,-3.3858,786.3878],[37.6799,-3.385,777.1689],[37.6821,-3.3821,778.5642],[37.6845,-3.3825,773.2173],[37.6893,-3.3873,757.5597],[37.6927,-3.3868,754.9191],[37.6977,-3.3888,748.3738],[37.6971,-3.391,747.5723]]]]}
,"properties": {"GID_3": "KEN.39.2.3_1","GID_0": "KEN","country": "Kenya","GID_1": "KEN.39_1","province": "TaitaTaveta","NL_NAME_1": "NA","GID_2": "KEN.39.2_1","county": "Taveta","NL_NAME_2": "NA","city": "Mahoo","VARNAME_3": "NA","NL_NAME_3": "NA","TYPE_3": "Ward","ENGTYPE_3": "Ward","CC_3": "112","HASC_3": "NA","name": "Mahoo.city","area_km2": 50.54388,"hist_schema_id": "Elevation0-9000","hist_area_km2": {"750": 4.38121,"775": 8.82598,"800": 10.07482,"825": 9.84209,"850": 7.0271,"875": 5.75726,"900": 1.79914,"925": 1.16415,"950": 0.84665,"975": 0.46566,"1000": 0.254,"1025": 0.04233,"1050": 0.0635}}}