{"type":"Feature","properties":{"GID_3":"KEN.17.5.2_1","GID_0":"KEN","country":"Kenya","GID_1":"KEN.17_1","province":"Kisumu","NL_NAME_1":"NA","GID_2":"KEN.17.5_1","county":"Nyakach","NL_NAME_2":"NA","city":"NorthNyakach","VARNAME_3":"NA","NL_NAME_3":"NA","TYPE_3":"Ward","ENGTYPE_3":"Ward","CC_3":"1217","HASC_3":"NA","name":"North_Nyakach.city"},
"geometry":{"type": "MultiPolygon","coordinates": [[[[35.0311,-0.3104,1267.028],[35.0486,-0.2943,1263.2683],[35.051,-0.2884,1267.2527],[35.0516,-0.2768,1277.9578],[35.0463,-0.2758,1258.7522],[35.042,-0.2774,1250.5176],[35.0399,-0.2756,1243.3872],[35.0294,-0.2796,1224.8445],[35.0235,-0.275,1211.3245],[35.0157,-0.2755,1199.5312],[35.0145,-0.2742,1195.1611],[35.016,-0.2734,1199.4312],[35.0151,-0.2718,1194.7312],[35.0088,-0.2714,1190.4336],[35.0065,-0.2678,1185.8989],[35.0047,-0.2682,1184.7114],[35.0033,-0.2647,1182.8706],[35.0026,-0.2656,1181.9865],[35.0,-0.2635,1179.4451],[35.0002,-0.2602,1177.9067],[34.9965,-0.259,1172.3281],[34.994,-0.2552,1170.1227],[34.9954,-0.2526,1169.371],[34.9905,-0.2519,1167.3669],[34.9842,-0.2484,1161.4467],[34.9807,-0.2488,1160.7736],[34.9793,-0.2415,1157.3607],[34.9742,-0.2326,1152.1418],[34.9696,-0.2331,1150.2543],[34.9691,-0.2356,1150.8943],[34.967,-0.2339,1149.7253],[34.9659,-0.2348,1150.6198],[34.9622,-0.2311,1148.1223],[34.9603,-0.2318,1147.9301],[34.9574,-0.2278,1146.0283],[34.9418,-0.2189,1142.178],[34.9401,-0.2191,1142.6272],[34.9393,-0.2225,1142.3708],[34.9371,-0.2231,1142.3623],[34.9337,-0.2286,1142.2025],[34.9268,-0.2313,1142.368],[34.9188,-0.2307,1141.064],[34.9107,-0.2445,1138.6675],[34.8845,-0.2618,1136.335],[34.8817,-0.2651,1136.5994],[34.8807,-0.2697,1136.0375],[34.8779,-0.2695,1135.96],[34.876,-0.2714,1136.3489],[34.9261,-0.2871,1137.9061],[34.9223,-0.2963,1137.303],[34.9176,-0.2986,1137.1122],[34.9184,-0.3042,1139.4592],[34.9311,-0.2999,1142.4476],[34.9346,-0.3006,1144.8496],[34.9366,-0.2979,1147.5516],[34.9386,-0.298,1148.001],[34.94,-0.293,1151.3593],[34.9436,-0.2897,1150.8008],[34.9509,-0.2931,1159.589],[34.962,-0.2922,1171.8131],[34.9653,-0.2974,1179.3274],[34.9718,-0.2977,1189.1487],[34.9718,-0.3012,1191.6965],[34.9734,-0.2992,1192.9062],[34.9773,-0.3008,1197.9254],[34.9783,-0.2998,1197.9254],[34.9792,-0.3025,1201.5033],[34.982,-0.3037,1208.2156],[34.9827,-0.3017,1208.9431],[34.983,-0.3038,1210.6499],[34.9852,-0.3032,1212.889],[34.9866,-0.3072,1214.9565],[34.9859,-0.3125,1215.8092],[34.9965,-0.32,1286.1135],[35.0078,-0.3211,1266.61],[35.0089,-0.3232,1267.891],[35.0073,-0.3265,1274.6318],[35.0236,-0.3182,1284.8799],[35.0311,-0.3104,1267.028]]]]}}