{"type": "Feature","bbox": [35.6867,3.015,36.1529,3.7413],"geometry": {"type": "MultiPolygon","coordinates": [[[[36.0513,3.3439,362.0],[36.0504,3.7413,362.0],[35.9143,3.5581,362.0],[35.9141,3.4886,363.8937],[35.8949,3.4777,369.4181],[35.8872,3.4662,374.6142],[35.8852,3.4559,378.3155],[35.8863,3.4261,389.4596],[35.8785,3.4151,395.6514],[35.8829,3.4058,402.4242],[35.8861,3.4039,399.9054],[35.891,3.4038,403.2565],[35.894,3.3986,408.7388],[35.8856,3.3905,409.627],[35.8751,3.3904,417.4388],[35.8704,3.3878,423.1788],[35.8674,3.3823,422.9943],[35.8575,3.3796,436.7829],[35.8204,3.3604,483.7149],[35.7958,3.3531,576.6011],[35.7753,3.3411,553.6287],[35.7654,3.3426,543.0864],[35.7608,3.3378,537.0002],[35.7517,3.3376,522.2495],[35.7283,3.3175,512.3907],[35.6996,3.3002,502.0995],[35.6867,3.2835,516.0323],[35.6916,3.2802,515.279],[35.7041,3.2777,508.0969],[35.7119,3.2796,504.4034],[35.719,3.278,500.6154],[35.7251,3.2817,499.3223],[35.7295,3.2809,499.6315],[35.7355,3.2743,496.6343],[35.7379,3.2656,493.945],[35.7543,3.2495,487.4435],[35.7718,3.2441,487.2171],[35.7921,3.2426,474.9609],[35.7986,3.238,475.942],[35.8102,3.2251,510.0884],[35.8228,3.2206,491.3276],[35.8361,3.2118,490.7849],[35.8429,3.205,480.837],[35.8512,3.1876,466.2773],[35.8521,3.1796,467.599],[35.8491,3.1652,442.0253],[35.8544,3.1596,441.4528],[35.853,3.1531,443.031],[35.8549,3.1488,440.3961],[35.8593,3.1459,442.2361],[35.8752,3.1487,438.1866],[35.8794,3.1465,434.415],[35.8852,3.1385,441.7786],[35.905,3.1391,433.5221],[35.9137,3.1365,427.8295],[35.9173,3.1331,426.3458],[35.919,3.1274,425.6742],[35.9165,3.1165,430.1415],[35.9176,3.1139,427.8931],[35.9448,3.1109,420.6955],[35.9604,3.119,415.1545],[35.9906,3.1141,412.2524],[36.0028,3.1057,403.625],[36.0091,3.1071,405.968],[36.0166,3.1062,399.8413],[36.0347,3.1146,396.9322],[36.0476,3.1121,392.375],[36.0647,3.1162,390.8479],[36.0895,3.1148,387.4128],[36.0969,3.1125,387.635],[36.1027,3.104,379.0195],[36.1027,3.0666,372.3757],[36.1052,3.0575,370.0483],[36.1122,3.0405,366.7121],[36.1259,3.0308,366.184],[36.1275,3.0217,365.2873],[36.1323,3.015,362.4141],[36.1364,3.018,362.0],[36.1369,3.0295,362.0],[36.1407,3.0365,362.0],[36.1421,3.0457,362.0],[36.142,3.0618,367.0159],[36.1398,3.0656,367.3181],[36.1409,3.0725,372.7009],[36.1473,3.0741,366.5],[36.1487,3.0759,371.5549],[36.1519,3.0815,364.9991],[36.1529,3.0883,367.6693],[36.1497,3.0955,366.7333],[36.1521,3.1171,362.0],[36.1495,3.1347,362.0],[36.1439,3.1453,362.7565],[36.1393,3.1489,364.4534],[36.1385,3.1515,364.7119],[36.1505,3.1907,362.0],[36.1517,3.2147,362.0],[36.1485,3.2217,362.0],[36.1461,3.2233,362.5543],[36.1441,3.2227,364.5407],[36.1399,3.2149,364.7485],[36.1423,3.2119,365.6958],[36.1413,3.2099,366.3301],[36.1379,3.2087,365.4561],[36.1209,3.2133,362.0],[36.1109,3.2207,362.0],[36.1013,3.2205,363.1276],[36.0833,3.2255,363.5763],[36.0741,3.2259,362.0],[36.0521,3.2385,362.0],[36.0513,3.3439,362.0]]]]}
,"properties": {"GID_3": "KEN.43.2.3_1","GID_0": "KEN","country": "Kenya","GID_1": "KEN.43_1","province": "Turkana","NL_NAME_1": "NA","GID_2": "KEN.43.2_1","county": "TurkanaCentral","NL_NAME_2": "NA","city": "Kang'Atotha","VARNAME_3": "NA","NL_NAME_3": "NA","TYPE_3": "Ward","ENGTYPE_3": "Ward","CC_3": "625","HASC_3": "NA","name": "Kang'Atotha.city","area_km2": 1480.584,"hist_schema_id": "Elevation0-9000","hist_area_km2": {"350": 529.353,"375": 252.008,"400": 110.775,"425": 135.472,"450": 289.946,"475": 41.827,"500": 61.555,"525": 38.651,"550": 17.166,"575": 2.857,"600": 0.974}}}