{"type": "Feature","bbox": [36.6147,-0.328,36.8717,-0.0976],"geometry": {"type": "MultiPolygon","coordinates": [[[[36.6596,-0.1458,2322.1755],[36.6903,-0.1678,2293.0244],[36.6826,-0.1683,2281.4595],[36.6842,-0.1785,2443.3079],[36.6153,-0.3036,3883.2471],[36.6147,-0.3132,3920.6416],[36.6267,-0.328,3649.4041],[36.6224,-0.3115,3802.4053],[36.6394,-0.2963,3586.1855],[36.6464,-0.2879,3506.3606],[36.6721,-0.27,3179.0586],[36.6786,-0.2625,2934.7896],[36.6866,-0.2476,2937.6274],[36.7016,-0.2419,2745.8708],[36.7054,-0.2382,2708.4482],[36.71,-0.2371,2662.3425],[36.7165,-0.2321,2622.4087],[36.7239,-0.2327,2592.6533],[36.7276,-0.2269,2513.4646],[36.7348,-0.2235,2465.5527],[36.7408,-0.2241,2396.6726],[36.7421,-0.2221,2374.6953],[36.7465,-0.222,2380.9231],[36.7514,-0.224,2366.6746],[36.7561,-0.2212,2338.1633],[36.7591,-0.2237,2317.325],[36.7652,-0.223,2286.0022],[36.7678,-0.2259,2290.2183],[36.7716,-0.2271,2277.2085],[36.7757,-0.2254,2254.5498],[36.7789,-0.2204,2206.2349],[36.7806,-0.2215,2221.1948],[36.7864,-0.2194,2197.6245],[36.7894,-0.2142,2170.7891],[36.7974,-0.2187,2170.0181],[36.801,-0.2161,2133.6479],[36.8035,-0.2167,2142.022],[36.8071,-0.2093,2116.9553],[36.8193,-0.2043,2080.2842],[36.819,-0.2026,2080.4966],[36.8225,-0.2021,2040.436],[36.8267,-0.1969,2045.9656],[36.8324,-0.197,2020.7815],[36.8354,-0.1924,2025.6787],[36.8446,-0.1911,1992.1128],[36.8441,-0.1897,1992.1128],[36.8498,-0.1902,1943.9012],[36.8505,-0.1915,1953.3986],[36.8535,-0.1905,1928.6898],[36.8524,-0.1892,1946.1554],[36.8551,-0.1889,1937.8363],[36.8544,-0.186,1934.6116],[36.8598,-0.182,1913.7552],[36.8661,-0.1809,1899.2341],[36.8656,-0.1747,1890.8762],[36.8694,-0.175,1891.6351],[36.8717,-0.1701,1897.2896],[36.8703,-0.1658,1902.3909],[36.8652,-0.1612,1875.2932],[36.8631,-0.1511,1873.8348],[36.8588,-0.147,1865.0748],[36.8592,-0.1423,1866.7134],[36.8618,-0.1397,1859.6921],[36.861,-0.1365,1863.4608],[36.8479,-0.1307,1893.7578],[36.8315,-0.1283,1907.6115],[36.831,-0.0976,1931.2946],[36.7915,-0.1012,2056.45],[36.7684,-0.1078,2078.2529],[36.7654,-0.1027,2054.1204],[36.7524,-0.114,2057.6948],[36.7168,-0.1224,2173.0906],[36.7115,-0.129,2197.1892],[36.6596,-0.1458,2322.1755]]]]}
,"properties": {"GID_3": "KEN.36.1.4_1","GID_0": "KEN","country": "Kenya","GID_1": "KEN.36_1","province": "Nyeri","NL_NAME_1": "NA","GID_2": "KEN.36.1_1","county": "Kieni","NL_NAME_2": "NA","city": "Mugunda","VARNAME_3": "NA","NL_NAME_3": "NA","TYPE_3": "Ward","ENGTYPE_3": "Ward","CC_3": "472","HASC_3": "NA","name": "Mugunda.city","area_km2": 268.6517,"hist_schema_id": "Elevation0-9000","hist_area_km2": {"1850": 0.106,"1875": 4.3676,"1900": 5.767,"1925": 7.5056,"1950": 9.6682,"1975": 7.9084,"2000": 10.071,"2025": 13.0605,"2050": 16.0924,"2075": 17.3221,"2100": 13.7178,"2125": 11.4915,"2150": 11.4279,"2175": 10.7707,"2200": 10.1134,"2225": 8.6293,"2250": 8.2264,"2275": 6.4242,"2300": 7.1663,"2325": 6.0638,"2350": 5.0037,"2375": 4.1768,"2400": 3.3923,"2425": 3.1803,"2450": 3.8164,"2475": 3.1591,"2500": 1.993,"2525": 1.4841,"2550": 1.7174,"2575": 1.993,"2600": 2.3534,"2625": 2.5654,"2650": 1.9082,"2675": 1.8022,"2700": 1.8234,"2725": 1.887,"2750": 1.569,"2775": 1.569,"2800": 1.569,"2825": 1.9294,"2850": 1.5265,"2875": 1.3781,"2900": 1.4205,"2925": 1.4417,"2950": 1.3357,"2975": 1.1873,"3000": 1.4629,"3025": 1.3781,"3050": 1.2085,"3075": 1.2721,"3100": 1.1025,"3125": 1.1025,"3150": 1.2085,"3175": 0.8057,"3200": 0.4876,"3225": 0.9965,"3250": 0.6361,"3275": 0.6149,"3300": 0.7845,"3325": 0.5513,"3350": 0.6149,"3375": 0.53,"3400": 0.3816,"3425": 0.5725,"3450": 0.4664,"3475": 0.3816,"3500": 0.3604,"3525": 0.3392,"3550": 0.3604,"3575": 0.6785,"3600": 0.6361,"3625": 0.4452,"3650": 0.5937,"3675": 0.5725,"3700": 0.9117,"3725": 0.8057,"3750": 0.6997,"3775": 0.3392,"3800": 0.5088,"3825": 0.5088,"3850": 0.2968,"3875": 0.3392,"3900": 0.1696,"3925": 0.0848,"3950": 0.1908,"3975": 0.1484,"4000": 0.0212}}}