{"type":"Feature","properties":{"GID_3":"KEN.32.1.5_1","GID_0":"KEN","country":"Kenya","GID_1":"KEN.32_1","province":"Nandi","NL_NAME_1":"NA","GID_2":"KEN.32.1_1","county":"Aldai","NL_NAME_2":"NA","city":"Koyo-Ndurio","VARNAME_3":"NA","NL_NAME_3":"NA","TYPE_3":"Ward","ENGTYPE_3":"Ward","CC_3":"760","HASC_3":"NA","name":"Koyo-Ndurio.city"},
"geometry":{"type": "MultiPolygon","coordinates": [[[[35.0183,0.0543,1910.4515],[35.0178,0.0502,1880.1785],[35.0104,0.039,1875.0271],[35.01,0.0348,1858.6716],[34.9992,0.0282,1879.8387],[34.9915,0.0296,1822.8021],[34.9906,0.0273,1807.7098],[34.9834,0.024,1822.7404],[34.9835,0.0204,1770.4131],[34.9815,0.0192,1772.5615],[34.9888,0.009,1730.2371],[34.9894,0.006,1770.8176],[34.9923,0.0061,1872.6687],[34.9992,0.0024,1840.8904],[35.002,-0.0033,1549.9006],[35.0016,-0.006,1529.7002],[35.0043,-0.0078,1533.9127],[35.0039,-0.0163,1303.9949],[35.0177,-0.0219,1719.4608],[35.0234,-0.0203,1775.2615],[35.0255,-0.0246,1475.802],[35.0275,-0.0228,1717.0771],[35.0291,-0.0239,1677.0625],[35.0333,-0.023,1702.7408],[35.0387,-0.0189,1680.3823],[35.0431,-0.023,1431.7383],[35.0442,-0.0215,1438.5204],[35.0435,-0.0155,1437.1279],[35.0456,-0.0155,1418.0725],[35.0465,-0.0118,1414.3513],[35.043,-0.0094,1460.5046],[35.0464,-0.0072,1434.8059],[35.0469,-0.0021,1667.9042],[35.0456,-0.0002,1718.1304],[35.0496,-0.0027,1679.0779],[35.0517,-0.0083,1504.2076],[35.0542,-0.0088,1578.3086],[35.0567,-0.0074,1562.7964],[35.0572,-0.0011,1568.3647],[35.0636,-0.0063,1608.6171],[35.0687,-0.0038,1573.6666],[35.0707,-0.0009,1706.9481],[35.0806,-0.0032,1596.9303],[35.0851,-0.0026,1762.5957],[35.0894,0.0008,1527.4012],[35.0909,0.0038,1492.1821],[35.0898,0.0075,1507.5612],[35.0913,0.015,1784.1487],[35.098,0.0187,1504.2533],[35.0976,0.0229,1498.9896],[35.0998,0.0238,1562.6964],[35.1003,0.0263,1686.9771],[35.0983,0.0286,1648.53],[35.0962,0.0285,1581.8203],[35.0966,0.0333,1826.3733],[35.0948,0.0328,1786.3158],[35.0944,0.0347,1814.4795],[35.0914,0.0358,1728.5562],[35.0923,0.0378,1750.3291],[35.0892,0.0408,1741.7012],[35.0906,0.0439,1775.2242],[35.0847,0.0574,1837.6449],[35.0857,0.0655,1835.4127],[35.0841,0.0684,1861.3041],[35.0756,0.0725,1921.2922],[35.0703,0.0691,1955.7234],[35.067,0.0688,1948.2922],[35.0668,0.0815,1958.354],[35.0615,0.0822,1953.0106],[35.0565,0.0803,1931.2041],[35.0536,0.0725,1894.2668],[35.0509,0.0703,1887.356],[35.0587,0.0602,1855.9141],[35.0521,0.0559,1872.7209],[35.031,0.0485,1861.897],[35.0183,0.0543,1910.4515]]]]}}