{"type": "Feature","bbox": [35.4214,1.0367,35.5938,1.2964],"geometry": {"type": "MultiPolygon","coordinates": [[[[35.5938,1.2858,1766.8212],[35.5877,1.2878,1799.822],[35.5794,1.2963,2380.1477],[35.5681,1.2964,2602.3098],[35.5598,1.2936,2721.8794],[35.5588,1.2905,2910.9331],[35.5443,1.2911,2987.1001],[35.5002,1.257,3441.6199],[35.4232,1.1927,3008.6245],[35.4219,1.1878,3132.426],[35.4234,1.1795,3099.1047],[35.4214,1.1765,3001.2361],[35.4278,1.1739,3028.7676],[35.4294,1.1772,3054.5154],[35.4326,1.179,3130.7715],[35.4329,1.1766,3027.978],[35.4374,1.1765,3149.4058],[35.4389,1.173,3111.8997],[35.4375,1.1702,3144.9824],[35.442,1.1693,3195.0073],[35.4414,1.165,3065.3291],[35.4458,1.1676,3143.1897],[35.4483,1.1642,3130.6482],[35.4542,1.1625,3218.8955],[35.4583,1.165,3164.571],[35.4608,1.1647,3138.7205],[35.4728,1.1438,2945.1636],[35.4736,1.1348,2896.9067],[35.4685,1.1244,2901.9739],[35.4578,1.1247,2947.3643],[35.453,1.1228,2914.4531],[35.4508,1.1297,2965.8528],[35.4474,1.1273,2960.9426],[35.4488,1.1228,2878.9067],[35.4479,1.1032,2821.5276],[35.4518,1.0973,2847.5601],[35.4539,1.0879,2826.0315],[35.4478,1.0786,2812.0942],[35.4477,1.0698,2876.1489],[35.4492,1.0613,2863.5361],[35.4537,1.057,2867.4722],[35.4537,1.0434,2748.6025],[35.4622,1.0442,2818.8599],[35.4673,1.0407,2673.011],[35.4662,1.0371,2700.0654],[35.4673,1.0367,2672.2031],[35.5464,1.0991,2639.3037],[35.5541,1.0961,2507.8713],[35.5541,1.1083,2715.0542],[35.5503,1.112,2821.8738],[35.5514,1.1174,2931.5532],[35.5497,1.1188,2997.7192],[35.5507,1.1205,2996.6821],[35.5485,1.1277,3078.677],[35.5489,1.1307,3043.469],[35.5536,1.1366,3160.4749],[35.5443,1.2871,3232.1226],[35.5588,1.2865,3018.0947],[35.5598,1.2896,2848.9187],[35.5691,1.2926,2592.8669],[35.5794,1.2923,2339.8564],[35.5904,1.2827,1771.585],[35.5938,1.2858,1766.8212]]]]}
,"properties": {"GID_3": "KEN.5.3.2_1","GID_0": "KEN","country": "Kenya","GID_1": "KEN.5_1","province": "Elgeyo-Marakwet","NL_NAME_1": "NA","GID_2": "KEN.5.3_1","county": "MarakwetEast","NL_NAME_2": "NA","city": "Kapyego","VARNAME_3": "NA","NL_NAME_3": "NA","TYPE_3": "Ward","ENGTYPE_3": "Ward","CC_3": "731","HASC_3": "NA","name": "Kapyego.city","area_km2": 238.4756,"hist_schema_id": "Elevation0-9000","hist_area_km2": {"1750": 0.0212,"1775": 0.0424,"1800": 0.0636,"1825": 0.0424,"1875": 0.0848,"1925": 0.0212,"2000": 0.0424,"2025": 0.0424,"2175": 0.0636,"2200": 0.0212,"2275": 0.0636,"2300": 0.0424,"2350": 0.0636,"2375": 0.0424,"2400": 0.0636,"2425": 0.0212,"2450": 0.0212,"2475": 0.0636,"2500": 0.0424,"2525": 0.0636,"2550": 0.1484,"2575": 0.2756,"2600": 0.424,"2625": 0.5723,"2650": 1.1447,"2675": 1.717,"2700": 2.5438,"2725": 3.6885,"2750": 4.8332,"2775": 6.4231,"2800": 8.0129,"2825": 10.4931,"2850": 11.553,"2875": 11.4682,"2900": 12.1253,"2925": 11.0654,"2950": 11.1925,"2975": 10.3446,"3000": 11.6589,"3025": 11.4045,"3050": 11.2561,"3075": 9.009,"3100": 7.4616,"3125": 8.2883,"3150": 7.5463,"3175": 8.7122,"3200": 9.7932,"3225": 12.4005,"3250": 11.6374,"3275": 7.6099,"3300": 4.8118,"3325": 3.01,"3350": 1.8865,"3375": 0.9327,"3400": 0.7631,"3425": 0.5723,"3450": 0.5511,"3475": 0.1484,"3500": 0.0636}}}