{"type": "Feature","bbox": [38.6064,3.4839,38.7598,3.6215],"geometry": {"type": "MultiPolygon","coordinates": [[[[38.6064,3.6093,773.748],[38.6069,3.6025,737.4353],[38.6131,3.5923,754.8444],[38.6169,3.5737,875.6699],[38.6207,3.5659,865.6281],[38.6205,3.5575,848.547],[38.6239,3.5469,756.8142],[38.6357,3.5345,766.043],[38.6437,3.5187,704.4882],[38.6457,3.5097,680.3333],[38.6455,3.5051,674.8256],[38.6437,3.5027,670.2159],[38.6461,3.5047,674.8256],[38.7189,3.5013,661.9326],[38.7353,3.4955,655.5717],[38.7357,3.4927,654.7136],[38.7407,3.4883,653.2784],[38.7407,3.4853,653.1994],[38.7429,3.4839,652.4202],[38.7395,3.4967,655.2946],[38.7427,3.5027,656.213],[38.7405,3.5083,658.2565],[38.7405,3.5155,661.7119],[38.7549,3.5285,668.1547],[38.7591,3.5421,677.0074],[38.7598,3.5545,684.1598],[38.7124,3.5691,729.9053],[38.7058,3.5825,745.5745],[38.6906,3.6036,774.8472],[38.6835,3.6173,823.3918],[38.6779,3.6215,1047.2399],[38.6704,3.6198,1138.2386],[38.6692,3.6147,1241.1205],[38.6706,3.6092,1228.2898],[38.6686,3.6038,1148.3274],[38.6624,3.5949,958.2993],[38.6552,3.594,725.7126],[38.6305,3.6003,704.7827],[38.6185,3.6016,735.3552],[38.6104,3.6038,745.3027],[38.6097,3.6111,827.8232],[38.6064,3.6093,773.748]]]]}
,"properties": {"GID_3": "KEN.25.2.6_1","GID_0": "KEN","country": "Kenya","GID_1": "KEN.25_1","province": "Marsabit","NL_NAME_1": "NA","GID_2": "KEN.25.2_1","county": "Moyale","NL_NAME_2": "NA","city": "Sololo","VARNAME_3": "NA","NL_NAME_3": "NA","TYPE_3": "Ward","ENGTYPE_3": "Ward","CC_3": "222","HASC_3": "NA","name": "Sololo.city","area_km2": 133.529,"hist_schema_id": "Elevation0-9000","hist_area_km2": {"650": 5.2483,"675": 52.8624,"700": 38.0056,"725": 13.1199,"750": 5.0998,"775": 3.026,"800": 2.5605,"825": 1.9045,"850": 1.3966,"875": 1.2273,"900": 1.5659,"925": 0.8888,"950": 0.783,"975": 0.6771,"1000": 0.7618,"1025": 0.656,"1050": 0.7618,"1075": 0.4867,"1100": 0.4021,"1125": 0.3386,"1150": 0.4867,"1175": 0.4655,"1200": 0.4655,"1225": 0.127,"1250": 0.1481,"1275": 0.0635}}}