{"type":"Feature","properties":{"GID_3":"KEN.18.3.1_1","GID_0":"KEN","country":"Kenya","GID_1":"KEN.18_1","province":"Kitui","NL_NAME_1":"NA","GID_2":"KEN.18.3_1","county":"KituiRural","NL_NAME_2":"NA","city":"Kanyangi","VARNAME_3":"NA","NL_NAME_3":"NA","TYPE_3":"Ward","ENGTYPE_3":"Ward","CC_3":"353","HASC_3":"NA","name":"Kanyangi.city"},
"geometry":{"type": "MultiPolygon","coordinates": [[[[37.8796,-1.6374,917.0383],[37.8694,-1.6389,942.8272],[37.8634,-1.6368,961.6359],[37.8457,-1.6426,1109.1427],[37.8369,-1.6396,1110.7026],[37.8335,-1.6346,1096.8429],[37.8288,-1.6354,1080.6666],[37.8253,-1.6323,1033.2981],[37.8221,-1.6322,1017.6727],[37.8181,-1.6341,997.6812],[37.8102,-1.6339,983.5267],[37.8043,-1.6391,952.3943],[37.8037,-1.6437,936.89],[37.8012,-1.6474,937.5267],[37.806,-1.6486,946.7079],[37.8045,-1.6527,932.3105],[37.8086,-1.6542,941.7612],[37.8108,-1.6588,922.749],[37.821,-1.6647,942.8792],[37.8226,-1.6703,922.1221],[37.8202,-1.6749,930.1863],[37.82,-1.6802,925.725],[37.8251,-1.6824,938.1403],[37.831,-1.6808,938.511],[37.8305,-1.6844,922.2544],[37.8324,-1.6886,920.2469],[37.8376,-1.6896,933.0737],[37.8364,-1.6939,929.9478],[37.8381,-1.7,928.4652],[37.8348,-1.7091,924.5861],[37.8424,-1.71,925.6916],[37.8453,-1.7124,933.3033],[37.845,-1.7232,908.7523],[37.8507,-1.7305,906.9559],[37.8509,-1.7355,912.8571],[37.8545,-1.7459,903.1832],[37.854,-1.7507,907.7653],[37.856,-1.7538,901.0578],[37.854,-1.7572,907.8496],[37.8546,-1.7638,894.1656],[37.8519,-1.7645,911.0016],[37.853,-1.7663,878.5319],[37.8505,-1.7693,872.6813],[37.8461,-1.7665,870.0374],[37.8409,-1.7668,881.0428],[37.8391,-1.7718,848.343],[37.8407,-1.7756,843.6451],[37.8395,-1.78,840.2999],[37.8489,-1.798,833.8955],[37.8676,-1.8158,836.3621],[37.8804,-1.8311,834.1476],[37.8877,-1.8334,835.6111],[37.8926,-1.8384,830.2283],[37.8928,-1.8416,823.9345],[37.887,-1.8438,841.1764],[37.8849,-1.8516,821.0364],[37.8879,-1.8593,824.1785],[37.8932,-1.8586,824.5357],[37.9012,-1.8625,826.1274],[37.8991,-1.8685,822.4931],[37.9024,-1.8785,813.8817],[37.9044,-1.8778,817.2015],[37.9042,-1.8762,816.3729],[37.9073,-1.8779,832.2888],[37.9151,-1.8756,860.712],[37.9231,-1.8778,868.2146],[37.9283,-1.8741,880.8945],[37.9335,-1.8757,895.7332],[37.9406,-1.8725,977.8067],[37.9566,-1.872,960.0531],[37.9555,-1.8781,964.6968],[37.9624,-1.889,958.6736],[37.9767,-1.8943,912.8669],[37.9894,-1.8961,905.212],[37.9969,-1.8954,899.8265],[38.0035,-1.8928,873.2812],[38.0055,-1.8893,871.4252],[38.0137,-1.888,864.161],[38.0226,-1.8916,850.4167],[38.0325,-1.8902,839.0489],[38.0444,-1.8955,823.3224],[38.0506,-1.8885,813.8603],[38.053,-1.8909,814.6753],[38.0556,-1.8877,824.9263],[38.0737,-1.8866,796.2238],[38.0783,-1.8824,768.2126],[38.0789,-1.8793,766.1955],[38.0771,-1.8756,783.1124],[38.071,-1.8779,778.2916],[38.0691,-1.8734,795.1892],[38.0653,-1.8753,784.4664],[38.0637,-1.8718,790.3555],[38.061,-1.8703,793.7314],[38.0624,-1.8629,801.8392],[38.058,-1.8639,789.3497],[38.0569,-1.8628,793.2982],[38.0585,-1.8597,798.8278],[38.0545,-1.8607,792.7645],[38.0525,-1.8572,810.7179],[38.051,-1.858,803.1536],[38.0521,-1.8603,794.6029],[38.0489,-1.8603,804.7988],[38.0469,-1.8577,801.0197],[38.0495,-1.8504,806.1886],[38.0431,-1.8517,802.068],[38.0407,-1.8461,802.9716],[38.0418,-1.8419,813.4191],[38.0391,-1.8424,807.3265],[38.0349,-1.8371,807.0051],[38.0334,-1.8321,821.2357],[38.0314,-1.837,816.6136],[38.0277,-1.8383,814.924],[38.0269,-1.8374,814.3987],[38.0292,-1.8339,824.2629],[38.0222,-1.8337,816.9097],[38.0228,-1.8309,821.6971],[38.021,-1.83,818.1148],[38.0213,-1.8272,816.9135],[38.0192,-1.8247,821.7635],[38.0211,-1.8212,825.1521],[38.0163,-1.8193,821.1661],[38.0188,-1.8113,826.2415],[38.0158,-1.8114,821.9125],[38.0175,-1.8081,822.8962],[38.0141,-1.8047,824.5468],[38.0113,-1.7964,826.6799],[38.0128,-1.795,830.077],[38.0079,-1.794,834.2664],[38.005,-1.7914,837.5458],[38.0071,-1.7898,830.0829],[38.0075,-1.7865,829.9086],[38.0053,-1.7853,832.2593],[38.0037,-1.7784,833.9242],[38.0017,-1.7774,835.0461],[38.0028,-1.7743,832.5719],[38.0007,-1.7721,835.8223],[38.0059,-1.7658,842.5285],[38.0009,-1.7624,838.4451],[38.0008,-1.7589,840.1209],[37.9967,-1.7578,843.4382],[37.9992,-1.7541,841.219],[37.9955,-1.7513,844.6503],[38.0017,-1.7516,841.9828],[38.0078,-1.7488,844.4726],[38.0105,-1.74,845.6217],[38.0084,-1.7338,848.0092],[38.0057,-1.7327,847.4893],[38.0074,-1.7293,853.9337],[37.9989,-1.7321,852.179],[37.9964,-1.7288,858.5829],[37.993,-1.7288,855.7971],[37.9831,-1.7319,857.5101],[37.984,-1.7275,860.8351],[37.9871,-1.7246,857.2455],[37.9856,-1.7227,859.915],[37.9865,-1.7197,858.347],[37.983,-1.7167,867.3791],[37.9796,-1.7187,862.8462],[37.9757,-1.7176,861.7907],[37.976,-1.7139,861.6245],[37.9739,-1.711,868.8203],[37.9759,-1.7069,871.316],[37.975,-1.7035,865.3925],[37.9713,-1.7,867.0878],[37.9674,-1.7007,870.2037],[37.9677,-1.6954,869.2193],[37.9627,-1.6893,871.5538],[37.9596,-1.6891,874.3895],[37.9593,-1.6848,873.5995],[37.9483,-1.6822,881.6944],[37.9488,-1.6877,875.0496],[37.9429,-1.6924,884.8096],[37.9396,-1.693,886.3898],[37.9388,-1.6967,881.699],[37.937,-1.6977,887.2797],[37.933,-1.6972,881.2024],[37.9302,-1.6938,893.4519],[37.9229,-1.6937,883.9656],[37.9185,-1.6837,898.1395],[37.9138,-1.6812,895.9949],[37.9156,-1.6741,894.054],[37.9112,-1.6729,894.1779],[37.9102,-1.6708,894.1249],[37.9121,-1.669,896.19],[37.9116,-1.6673,902.1689],[37.9085,-1.6688,896.1627],[37.9073,-1.6669,900.6376],[37.903,-1.6654,898.224],[37.906,-1.6604,906.8252],[37.9036,-1.6604,899.9903],[37.9006,-1.6577,901.7202],[37.8982,-1.6502,905.8635],[37.8911,-1.6539,904.8778],[37.8913,-1.6514,909.6721],[37.889,-1.6505,914.7857],[37.8864,-1.6531,906.8979],[37.8862,-1.6471,913.665],[37.8831,-1.6442,908.7191],[37.8841,-1.6413,913.712],[37.8805,-1.6402,911.5743],[37.8796,-1.6374,917.0383]]]]}}