{"type":"Feature","properties":{"GID_3":"KEN.38.4.4_1","GID_0":"KEN","country":"Kenya","GID_1":"KEN.38_1","province":"Siaya","NL_NAME_1":"NA","GID_2":"KEN.38.4_1","county":"Rarieda","NL_NAME_2":"NA","city":"WestAsembo","VARNAME_3":"NA","NL_NAME_3":"NA","TYPE_3":"Ward","ENGTYPE_3":"Ward","CC_3":"1182","HASC_3":"NA","name":"West_Asembo.city"},
"geometry":{"type": "MultiPolygon","coordinates": [[[[34.2932,-0.1464,1210.2693],[34.2942,-0.154,1226.4513],[34.2874,-0.1647,1231.636],[34.2862,-0.1734,1208.8644],[34.2829,-0.1756,1197.067],[34.2801,-0.1843,1199.0165],[34.2829,-0.1843,1193.4741],[34.2834,-0.1862,1187.6289],[34.3048,-0.1992,1161.5063],[34.3178,-0.2048,1153.1147],[34.3316,-0.2049,1145.3143],[34.3366,-0.2012,1146.5684],[34.3387,-0.2034,1137.2347],[34.3424,-0.2015,1137.3671],[34.3596,-0.2038,1133.0],[34.3664,-0.2061,1133.0],[34.483,-0.2947,1133.0],[34.3794,-0.1825,1143.7172],[34.3776,-0.1762,1169.2054],[34.3737,-0.1704,1176.6987],[34.3727,-0.1639,1171.0021],[34.3758,-0.1593,1169.3982],[34.3744,-0.1554,1176.938],[34.377,-0.1455,1181.6096],[34.3823,-0.1413,1192.8494],[34.3827,-0.1392,1190.175],[34.3849,-0.1396,1204.2407],[34.3842,-0.1287,1217.3936],[34.3911,-0.1252,1204.6576],[34.3935,-0.1164,1231.2599],[34.3974,-0.1138,1252.8179],[34.4046,-0.1019,1256.9354],[34.4092,-0.0991,1262.4708],[34.3943,-0.1036,1297.3926],[34.3885,-0.1112,1279.9805],[34.3803,-0.1136,1276.4661],[34.3756,-0.12,1248.8223],[34.3682,-0.1233,1221.301],[34.3658,-0.1224,1219.3578],[34.3641,-0.1135,1232.3213],[34.3614,-0.1104,1248.8292],[34.3631,-0.1077,1253.4094],[34.361,-0.1059,1265.1677],[34.3634,-0.1043,1272.0919],[34.361,-0.0984,1326.9823],[34.3608,-0.0897,1312.2166],[34.3592,-0.089,1307.6003],[34.36,-0.0829,1314.8843],[34.3558,-0.0803,1324.2865],[34.355,-0.0773,1317.3992],[34.3486,-0.0851,1289.2168],[34.3442,-0.0859,1306.4167],[34.3442,-0.0886,1305.807],[34.3416,-0.0908,1307.8916],[34.3322,-0.0918,1327.3942],[34.3252,-0.1002,1340.7058],[34.3212,-0.1008,1329.8953],[34.3173,-0.1038,1323.974],[34.3105,-0.1134,1291.119],[34.3073,-0.1259,1242.109],[34.3075,-0.1309,1226.3397],[34.3035,-0.1286,1231.0834],[34.3009,-0.1371,1223.0125],[34.2978,-0.1418,1222.6674],[34.2945,-0.143,1206.7534],[34.2932,-0.1464,1210.2693]]]]}}