{"type": "Feature","bbox": [36.9159,-1.3028,36.9902,-1.2575],"geometry": {"type": "MultiPolygon","coordinates": [[[[36.9902,-1.2808,1565.2507],[36.98,-1.2663,1515.5957],[36.9675,-1.2584,1553.7816],[36.9361,-1.2575,1572.5662],[36.9374,-1.2636,1572.4634],[36.9268,-1.2644,1590.0149],[36.9245,-1.2656,1592.325],[36.924,-1.2683,1583.8542],[36.9204,-1.2701,1593.899],[36.9207,-1.2747,1586.7081],[36.9177,-1.2762,1598.6664],[36.9181,-1.2803,1591.0106],[36.9159,-1.2847,1600.4524],[36.9191,-1.2936,1612.3734],[36.9321,-1.3028,1611.9172],[36.9512,-1.2954,1599.0474],[36.9601,-1.2892,1592.5504],[36.962,-1.2916,1593.2118],[36.9902,-1.2808,1565.2507]]]]}
,"properties": {"GID_3": "KEN.30.4.3_1","GID_0": "KEN","country": "Kenya","GID_1": "KEN.30_1","province": "Nairobi","NL_NAME_1": "NA","GID_2": "KEN.30.4_1","county": "EmbakasiEast","NL_NAME_2": "NA","city": "Mihango","VARNAME_3": "NA","NL_NAME_3": "NA","TYPE_3": "Ward","ENGTYPE_3": "Ward","CC_3": "1425","HASC_3": "NA","name": "Mihango.city","area_km2": 26.36898,"hist_schema_id": "Elevation0-9000","hist_area_km2": {"1525": 0.78429,"1550": 3.22195,"1575": 10.72567,"1600": 11.61588,"1625": 0.0212}}}