{"type":"Feature","properties":{"GID_3":"KEN.39.3.1_1","GID_0":"KEN","country":"Kenya","GID_1":"KEN.39_1","province":"TaitaTaveta","NL_NAME_1":"NA","GID_2":"KEN.39.3_1","county":"Voi","NL_NAME_2":"NA","city":"Kaloleni","VARNAME_3":"NA","NL_NAME_3":"NA","TYPE_3":"Ward","ENGTYPE_3":"Ward","CC_3":"127","HASC_3":"NA","name":"Kaloleni.city"},
"geometry":{"type": "MultiPolygon","coordinates": [[[[38.4867,-3.452,644.6636],[38.5048,-3.489,738.1094],[38.5677,-3.4899,1207.4358],[38.5779,-3.4564,1113.0902],[38.6008,-3.438,651.9991],[38.6013,-3.442,655.2055],[38.6031,-3.4429,646.7221],[38.6081,-3.4344,626.2839],[38.6127,-3.4303,608.4895],[38.6367,-3.4514,571.2235],[38.6638,-3.4278,515.3562],[38.6441,-3.4048,530.2663],[38.6174,-3.3656,520.0719],[38.6063,-3.3713,526.5569],[38.6012,-3.3713,528.3414],[38.5947,-3.3803,534.1035],[38.5789,-3.3804,569.2123],[38.5727,-3.3864,567.2381],[38.5639,-3.3888,587.7031],[38.5489,-3.3988,576.6992],[38.511,-3.4313,679.6249],[38.539,-3.439,591.6916],[38.5401,-3.4353,596.1075],[38.5486,-3.4351,589.2151],[38.5507,-3.4311,577.1655],[38.5501,-3.4223,574.9521],[38.5519,-3.416,569.0518],[38.5527,-3.4187,569.4429],[38.5509,-3.4257,573.6173],[38.5521,-3.435,578.4272],[38.5503,-3.4367,580.3171],[38.5455,-3.4389,584.1927],[38.5426,-3.4385,585.422],[38.5367,-3.4438,594.1299],[38.5292,-3.4429,611.1136],[38.5265,-3.4462,601.006],[38.5273,-3.4485,595.9676],[38.5216,-3.4492,617.2192],[38.5207,-3.4507,612.064],[38.5165,-3.4508,623.8044],[38.5145,-3.4485,633.8021],[38.5114,-3.4494,613.1495],[38.5093,-3.447,616.2231],[38.5051,-3.4464,622.4288],[38.5037,-3.4517,623.2205],[38.4991,-3.4545,622.7715],[38.4991,-3.4517,627.1315],[38.4961,-3.4481,646.3735],[38.4931,-3.4515,627.1897],[38.4913,-3.4485,645.7628],[38.4896,-3.4486,652.7499],[38.4883,-3.451,642.6849],[38.4905,-3.4531,631.8705],[38.4867,-3.452,644.6636]]]]}}