{"type":"Feature","properties":{"GID_3":"KEN.12.5.2_1","GID_0":"KEN","country":"Kenya","GID_1":"KEN.12_1","province":"Kericho","NL_NAME_1":"NA","GID_2":"KEN.12.5_1","county":"KipkelionWest","NL_NAME_2":"NA","city":"Kamasian","VARNAME_3":"NA","NL_NAME_3":"NA","TYPE_3":"Ward","ENGTYPE_3":"Ward","CC_3":"941","HASC_3":"NA","name":"Kamasian.city"},
"geometry":{"type": "MultiPolygon","coordinates": [[[[35.4241,-0.072,2103.6501],[35.401,-0.081,2293.3911],[35.399,-0.0892,2175.1721],[35.4085,-0.1033,2182.1265],[35.3964,-0.1063,2077.7861],[35.3971,-0.1079,2077.7861],[35.3938,-0.1145,2077.7712],[35.3945,-0.1167,2021.6621],[35.3918,-0.121,2071.5227],[35.3923,-0.1236,1992.0887],[35.3964,-0.1237,2044.0634],[35.3985,-0.1364,2010.6946],[35.4038,-0.1443,1867.8666],[35.4068,-0.1463,1817.1743],[35.405,-0.1475,1846.6575],[35.4058,-0.1503,1810.5647],[35.4041,-0.1506,1833.069],[35.405,-0.1522,1790.1548],[35.4029,-0.1529,1811.1604],[35.4036,-0.1549,1782.9185],[35.4003,-0.158,1825.4873],[35.4003,-0.1609,1856.6969],[35.3984,-0.1615,1842.125],[35.4086,-0.1848,1822.2423],[35.4092,-0.1943,1965.7178],[35.4129,-0.1918,1903.5021],[35.4138,-0.1861,2015.5264],[35.417,-0.1819,1980.8606],[35.4229,-0.1812,1951.6584],[35.4261,-0.1838,2040.6626],[35.4316,-0.1806,2024.0562],[35.4318,-0.1786,2040.302],[35.4351,-0.176,1976.9021],[35.4398,-0.1746,2040.6321],[35.4409,-0.1755,2040.6321],[35.4414,-0.1727,2052.6926],[35.4475,-0.1682,2032.8784],[35.4521,-0.1681,2033.3892],[35.4545,-0.1661,2040.9102],[35.455,-0.1625,2052.2036],[35.4662,-0.1507,2063.0586],[35.4644,-0.1383,2091.3555],[35.4656,-0.1368,2116.9729],[35.4643,-0.135,2139.1501],[35.4655,-0.1335,2131.7632],[35.4646,-0.1322,2126.5264],[35.4675,-0.1302,2102.1096],[35.4658,-0.1199,2133.0654],[35.4704,-0.1135,2208.229],[35.4694,-0.0904,2454.8523],[35.4573,-0.0829,2299.9165],[35.4551,-0.0716,2368.5293],[35.4438,-0.0737,2296.498],[35.4241,-0.072,2103.6501]]]]}}