{"type": "Feature","bbox": [35.1067,0.1387,35.289,0.3109],"geometry": {"type": "MultiPolygon","coordinates": [[[[35.1308,0.1404,1924.6171],[35.1366,0.1468,1976.9486],[35.1401,0.1573,2023.4651],[35.1542,0.1451,1930.0088],[35.1736,0.1541,1956.931],[35.1795,0.1589,1973.9752],[35.1825,0.1638,1936.4008],[35.1838,0.1708,1953.8862],[35.1865,0.1747,1936.2644],[35.1861,0.1789,1940.5973],[35.1965,0.1801,1974.439],[35.2036,0.1853,1954.8308],[35.2044,0.1934,1980.7639],[35.2073,0.1972,1990.0701],[35.2109,0.1994,1985.078],[35.2167,0.1978,1998.4866],[35.2154,0.1919,1976.0374],[35.2263,0.1931,2032.1658],[35.2269,0.1984,2043.8896],[35.2235,0.2078,2054.3818],[35.2322,0.2117,2034.4769],[35.2404,0.2116,2080.3264],[35.2444,0.2099,2093.5098],[35.2592,0.2127,2097.0608],[35.2734,0.2122,2097.5591],[35.2749,0.2156,2107.3706],[35.2871,0.2232,2141.6838],[35.289,0.2343,2122.1064],[35.26,0.2772,2126.8789],[35.2615,0.279,2127.2478],[35.241,0.3084,2154.3726],[35.2326,0.3109,2143.1094],[35.2252,0.3082,2129.238],[35.2225,0.31,2128.3076],[35.2196,0.308,2129.9487],[35.2179,0.3053,2111.2441],[35.2184,0.3028,2087.8052],[35.2164,0.3019,2059.6284],[35.2162,0.2986,2032.5353],[35.214,0.2959,2008.3123],[35.2145,0.2883,1964.3162],[35.2115,0.2775,1962.2126],[35.2045,0.2824,1964.7772],[35.2008,0.2821,1965.7885],[35.1951,0.278,1956.1401],[35.1824,0.2762,1951.6832],[35.1696,0.2686,1947.6189],[35.1683,0.272,1949.9402],[35.1657,0.2724,1952.3257],[35.1639,0.2758,1955.0193],[35.1635,0.2735,1952.224],[35.1649,0.2707,1951.0564],[35.168,0.2694,1948.6394],[35.1679,0.2677,1947.6189],[35.1572,0.2599,1945.1145],[35.1659,0.2586,1944.4432],[35.1677,0.2486,1944.3862],[35.1717,0.2438,1945.3359],[35.1686,0.2398,1948.8647],[35.1723,0.2314,1956.1782],[35.165,0.236,1965.3849],[35.1607,0.2345,1966.5233],[35.1593,0.2314,1963.9453],[35.1601,0.2288,1963.3652],[35.1558,0.2233,1976.5339],[35.1559,0.2161,2008.179],[35.1458,0.2087,1968.7725],[35.1396,0.2118,1942.7924],[35.1338,0.2184,1974.7946],[35.1282,0.2204,1954.2694],[35.1256,0.2131,1948.4664],[35.1281,0.2083,2007.2222],[35.1277,0.2023,1985.7349],[35.1336,0.1969,1991.1675],[35.1281,0.1939,2003.1968],[35.1257,0.1878,2005.7762],[35.1269,0.182,1998.2371],[35.1248,0.1798,2011.5017],[35.1308,0.1751,2045.9558],[35.131,0.1711,2025.9659],[35.1286,0.1691,2045.7883],[35.1233,0.1512,1961.8035],[35.1196,0.1527,2006.8801],[35.1161,0.151,2035.0396],[35.1151,0.1518,2035.0396],[35.1067,0.1462,1951.2368],[35.1146,0.1387,1946.6279],[35.1202,0.142,1989.8103],[35.1308,0.1404,1924.6171]]]]}
,"properties": {"GID_3": "KEN.32.3.4_1","GID_0": "KEN","country": "Kenya","GID_1": "KEN.32_1","province": "Nandi","NL_NAME_1": "NA","GID_2": "KEN.32.3_1","county": "Emgwen","NL_NAME_2": "NA","city": "Kilibwoni","VARNAME_3": "NA","NL_NAME_3": "NA","TYPE_3": "Ward","ENGTYPE_3": "Ward","CC_3": "773","HASC_3": "NA","name": "Kilibwoni.city","area_km2": 164.4854,"hist_schema_id": "Elevation0-9000","hist_area_km2": {"1925": 2.099,"1950": 35.0682,"1975": 45.0332,"2000": 24.7428,"2025": 9.5621,"2050": 6.9331,"2075": 8.9048,"2100": 13.3149,"2125": 12.3608,"2150": 4.516,"2175": 1.9506}}}