{"type":"Feature","properties":{"GID_3":"KEN.33.5.6_1","GID_0":"KEN","country":"Kenya","GID_1":"KEN.33_1","province":"Narok","NL_NAME_1":"NA","GID_2":"KEN.33.5_1","county":"NarokSouth","NL_NAME_2":"NA","city":"Sagamian","VARNAME_3":"NA","NL_NAME_3":"NA","TYPE_3":"Ward","ENGTYPE_3":"Ward","CC_3":"906","HASC_3":"NA","name":"Sagamian.city"},
"geometry":{"type": "MultiPolygon","coordinates": [[[[35.4342,-0.7211,2186.5847],[35.4791,-0.757,2265.187],[35.4977,-0.7629,2232.7537],[35.5073,-0.768,2141.0815],[35.5338,-0.7714,2296.2109],[35.5443,-0.7783,2207.283],[35.5467,-0.7816,2172.3789],[35.5444,-0.7871,2134.8525],[35.5381,-0.7919,2154.499],[35.5383,-0.7934,2127.4683],[35.5344,-0.7949,2113.8589],[35.5341,-0.7977,2070.585],[35.5321,-0.7976,2070.585],[35.5308,-0.8003,2043.54],[35.5278,-0.8015,2073.4158],[35.527,-0.8044,2058.406],[35.521,-0.8042,2048.179],[35.5195,-0.8081,2040.9414],[35.5204,-0.8108,2000.4119],[35.5179,-0.8111,2023.8921],[35.5169,-0.813,2029.8418],[35.5127,-0.8117,2010.542],[35.5134,-0.8139,1987.6689],[35.5114,-0.8139,2003.2506],[35.5116,-0.8158,1978.7317],[35.5092,-0.8185,2054.0615],[35.5021,-0.8188,1986.989],[35.5007,-0.8206,1991.0342],[35.5003,-0.8185,2007.8344],[35.4972,-0.8188,2024.4574],[35.4947,-0.8202,2020.9664],[35.4945,-0.8233,1980.3502],[35.4909,-0.8233,2004.7375],[35.4899,-0.8259,1992.7589],[35.4872,-0.8255,1959.5688],[35.4864,-0.8286,1951.6825],[35.4886,-0.833,1914.4177],[35.4928,-0.8299,1920.3945],[35.4966,-0.8299,1926.6617],[35.4983,-0.8272,1942.9529],[35.5109,-0.8341,1998.9222],[35.5245,-0.8315,2048.7585],[35.5291,-0.8324,2111.9626],[35.5319,-0.8307,2113.5669],[35.529,-0.8284,2078.0823],[35.5471,-0.8176,2119.8826],[35.5744,-0.7933,2248.1113],[35.5842,-0.7806,2251.4971],[35.5957,-0.7542,2326.0674],[35.6015,-0.7474,2257.1211],[35.6102,-0.7414,2292.2876],[35.6091,-0.7391,2318.1533],[35.6005,-0.7386,2329.3184],[35.5087,-0.6401,2228.5486],[35.4974,-0.6096,2242.0388],[35.3969,-0.6386,2114.4746],[35.426,-0.7148,2102.8538],[35.4342,-0.7211,2186.5847]]]]}}