{"type": "Feature","bbox": [36.8751,-0.4616,36.9711,-0.4141],"geometry": {"type": "MultiPolygon","coordinates": [[[[36.9003,-0.4154,1994.7206],[36.8994,-0.4167,1940.6382],[36.8975,-0.4155,1974.5267],[36.8948,-0.4177,1988.1711],[36.8934,-0.4162,1967.6263],[36.8888,-0.418,1977.6051],[36.887,-0.4191,1968.9995],[36.8871,-0.4214,2012.6118],[36.8847,-0.4226,2015.1827],[36.8751,-0.4214,2017.5057],[36.8798,-0.44,2018.9495],[36.8827,-0.4396,2034.9392],[36.8854,-0.4365,2006.1477],[36.89,-0.4357,1993.6553],[36.9023,-0.4494,1956.8777],[36.909,-0.4499,1948.9468],[36.9106,-0.4558,1940.6307],[36.9168,-0.4585,1860.4578],[36.9197,-0.4616,1863.9386],[36.9206,-0.4566,1883.6637],[36.925,-0.4563,1888.1515],[36.9311,-0.4528,1875.8641],[36.9351,-0.4531,1845.7148],[36.9387,-0.4509,1863.9709],[36.9423,-0.4522,1825.6438],[36.9457,-0.4498,1823.827],[36.9456,-0.4469,1828.6277],[36.941,-0.444,1857.4698],[36.9404,-0.4396,1859.2877],[36.9534,-0.4367,1814.8208],[36.956,-0.4386,1812.4312],[36.9642,-0.4364,1773.5266],[36.9711,-0.4373,1770.2236],[36.9668,-0.4342,1776.161],[36.9624,-0.4333,1769.1505],[36.9601,-0.427,1773.2007],[36.9559,-0.4244,1788.5594],[36.9509,-0.4232,1795.7094],[36.9355,-0.4278,1852.3604],[36.9293,-0.4141,1838.343],[36.9243,-0.4197,1826.8569],[36.9212,-0.4186,1859.1541],[36.9185,-0.4208,1860.2069],[36.9109,-0.4183,1956.5863],[36.9073,-0.4191,1915.1631],[36.9003,-0.4154,1994.7206]]]]}
,"properties": {"GID_3": "KEN.36.4.2_1","GID_0": "KEN","country": "Kenya","GID_1": "KEN.36_1","province": "Nyeri","NL_NAME_1": "NA","GID_2": "KEN.36.4_1","county": "NyeriTown","NL_NAME_2": "NA","city": "Kamakwa/Mukaro","VARNAME_3": "NA","NL_NAME_3": "NA","TYPE_3": "Ward","ENGTYPE_3": "Ward","CC_3": "495","HASC_3": "NA","name": "Kamakwa_Mukaro.city","area_km2": 26.73521,"hist_schema_id": "Elevation0-9000","hist_area_km2": {"1750": 0.21202,"1775": 1.3781,"1800": 1.06008,"1825": 1.52652,"1850": 3.49826,"1875": 3.9435,"1900": 3.71028,"1925": 3.37105,"1950": 3.01063,"1975": 2.7138,"2000": 1.65373,"2025": 0.44523,"2050": 0.19081,"2075": 0.0212}}}