{"type": "Feature","bbox": [37.4752,-0.5063,37.5491,-0.4475],"geometry": {"type": "MultiPolygon","coordinates": [[[[37.5063,-0.46,1554.7529],[37.4961,-0.4515,1573.2734],[37.486,-0.4547,1589.9255],[37.4826,-0.4506,1626.6187],[37.4759,-0.4475,1626.7732],[37.4806,-0.4607,1600.1259],[37.4758,-0.4685,1580.9783],[37.477,-0.4727,1568.9233],[37.4754,-0.4743,1555.3029],[37.477,-0.4767,1546.5908],[37.4752,-0.4805,1536.1426],[37.4787,-0.4829,1537.9437],[37.481,-0.4871,1502.7346],[37.4835,-0.4877,1508.3956],[37.4841,-0.4917,1493.5222],[37.4828,-0.4928,1490.4984],[37.4841,-0.4957,1463.6984],[37.4809,-0.502,1467.5205],[37.4834,-0.5045,1438.0172],[37.4882,-0.5063,1441.3872],[37.4945,-0.4978,1496.8767],[37.5082,-0.494,1467.7278],[37.5334,-0.4784,1402.6335],[37.5478,-0.4729,1365.5146],[37.5474,-0.4692,1375.0857],[37.5491,-0.4669,1372.6245],[37.5473,-0.463,1370.6748],[37.5475,-0.4571,1375.8334],[37.5448,-0.4555,1379.2245],[37.5437,-0.4493,1385.401],[37.5385,-0.4557,1492.7028],[37.5388,-0.4603,1532.1719],[37.5318,-0.4662,1445.4579],[37.5239,-0.4643,1479.1626],[37.5213,-0.4651,1526.2406],[37.5152,-0.4599,1543.662],[37.5063,-0.46,1554.7529]]]]}
,"properties": {"GID_3": "KEN.6.1.2_1","GID_0": "KEN","country": "Kenya","GID_1": "KEN.6_1","province": "Embu","NL_NAME_1": "NA","GID_2": "KEN.6.1_1","county": "Manyatta","NL_NAME_2": "NA","city": "GaturiSouth","VARNAME_3": "NA","NL_NAME_3": "NA","TYPE_3": "Ward","ENGTYPE_3": "Ward","CC_3": "316","HASC_3": "NA","name": "Gaturi_South.city","area_km2": 26.90468,"hist_schema_id": "Elevation0-9000","hist_area_km2": {"1350": 0.0212,"1375": 1.71732,"1400": 1.25089,"1425": 1.3993,"1450": 1.67492,"1475": 2.35336,"1500": 2.65018,"1525": 4.57952,"1550": 6.36045,"1575": 3.60426,"1600": 1.08128,"1625": 0.14841,"1650": 0.0636}}}