{"type":"Feature","properties":{"GID_3":"KEN.40.1.5_1","GID_0":"KEN","country":"Kenya","GID_1":"KEN.40_1","province":"TanaRiver","NL_NAME_1":"NA","GID_2":"KEN.40.1_1","county":"Bura","NL_NAME_2":"NA","city":"Sala","VARNAME_3":"NA","NL_NAME_3":"NA","TYPE_3":"Ward","ENGTYPE_3":"Ward","CC_3":"99","HASC_3":"NA","name":"Sala.city"},
"geometry":{"type": "MultiPolygon","coordinates": [[[[39.8134,-0.5865,157.2309],[39.8085,-0.5811,158.4923],[39.7723,-0.5593,172.1425],[39.758,-0.5473,186.3804],[39.747,-0.5431,184.2318],[39.7289,-0.5458,157.0974],[39.7263,-0.5449,155.9626],[39.7263,-0.5341,166.6721],[39.7229,-0.5256,170.9209],[39.7173,-0.5198,172.7074],[39.7097,-0.5151,167.3798],[39.7041,-0.5047,163.4551],[39.6927,-0.4931,168.6222],[39.6329,-0.4926,139.2733],[39.6313,-0.4878,137.1793],[39.6311,-0.4731,137.4994],[39.6327,-0.465,140.8973],[39.6367,-0.4593,143.2606],[39.6273,-0.4495,141.7563],[39.6261,-0.4003,146.9153],[39.6115,-0.4092,145.1041],[39.5873,-0.4195,154.6721],[39.5885,-0.4247,152.7568],[39.5957,-0.4352,146.6192],[39.5967,-0.4392,146.5193],[39.6079,-0.4555,141.8517],[39.618899999999996,-0.4839,140.1295],[39.6227,-0.4867,143.9603],[39.4987,-0.5129,251.8805],[39.4745,-0.5206,261.9555],[39.4269,-0.5251,275.9597],[39.3955,-0.5315,289.1342],[39.3739,-0.5377,288.8918],[39.3433,-0.5431,297.6241],[39.3131,-0.5512,300.4359],[39.3037,-0.5554,286.3926],[39.3087,-0.5623,284.2729],[39.3259,-0.5709,279.9445],[39.3316,-0.5753,277.8169],[39.3407,-0.5894,271.4993],[39.3479,-0.6115,264.8754],[39.3611,-0.6201,260.0538],[39.3773,-0.64,252.5488],[39.3839,-0.6463,250.4214],[39.3911,-0.6503,249.1842],[39.3995,-0.6517,247.7483],[39.4157,-0.6415,244.2829],[39.4289,-0.6402,239.6033],[39.4577,-0.6506,232.1601],[39.4629,-0.6539,229.4914],[39.4723,-0.6559,227.2143],[39.4867,-0.6551,225.4714],[39.4945,-0.6563,223.3553],[39.4995,-0.66,220.3826],[39.5033,-0.6605,219.4455],[39.5293,-0.6555,213.7136],[39.5447,-0.6663,208.5819],[39.5515,-0.6783,206.4059],[39.8197,-0.6238,157.404],[39.8211,-0.6018,172.1356],[39.8177,-0.5924,161.4664],[39.8134,-0.5865,157.2309]]]]}}