{"type": "Feature","bbox": [34.2474,-1.1878,34.5081,-0.9928],"geometry": {"type": "MultiPolygon","coordinates": [[[[34.4092,-1.1245,1376.0668],[34.4129,-1.1241,1376.1595],[34.4217,-1.1281,1407.9109],[34.4218,-1.1228,1384.9431],[34.4233,-1.1218,1390.6163],[34.4319,-1.1211,1409.6475],[34.4431,-1.1227,1433.4603],[34.4489,-1.1194,1412.0874],[34.4632,-1.1183,1388.5127],[34.4735,-1.1193,1395.5507],[34.4765,-1.1212,1395.3071],[34.4766,-1.1249,1394.1539],[34.4799,-1.1249,1389.49],[34.4811,-1.1239,1401.2441],[34.4801,-1.1213,1390.1594],[34.4846,-1.1161,1402.2703],[34.4897,-1.1155,1391.922],[34.5081,-1.105,1387.5988],[34.5062,-1.1032,1392.5095],[34.5062,-1.101,1398.2664],[34.4969,-1.1007,1392.2299],[34.4962,-1.0986,1397.511],[34.4877,-1.0976,1375.5281],[34.4824,-1.0912,1385.1504],[34.4782,-1.09,1377.9364],[34.4786,-1.088,1378.6212],[34.4717,-1.0906,1364.9606],[34.4733,-1.0855,1368.0228],[34.4716,-1.0859,1375.1499],[34.4694,-1.0835,1388.7139],[34.4712,-1.081,1367.1832],[34.4738,-1.0803,1362.6289],[34.4754,-1.0815,1372.1476],[34.4763,-1.078,1385.5255],[34.4733,-1.0774,1378.5515],[34.4731,-1.074,1373.6284],[34.4695,-1.0712,1364.9656],[34.4718,-1.0613,1370.3966],[34.4678,-1.0599,1355.9032],[34.4669,-1.057,1378.7593],[34.4644,-1.0559,1357.8167],[34.4641,-1.0494,1389.0032],[34.4603,-1.0456,1406.6204],[34.4601,-1.0494,1384.4634],[34.4572,-1.0514,1369.623],[34.4502,-1.0465,1391.6965],[34.4476,-1.0471,1368.3284],[34.446,-1.0436,1383.6587],[34.4415,-1.0425,1360.2823],[34.4398,-1.0548,1376.4],[34.4405,-1.0691,1422.4377],[34.4422,-1.0724,1430.494],[34.4346,-1.0783,1366.4614],[34.4317,-1.0757,1379.1434],[34.4124,-1.0719,1350.0195],[34.4009,-1.06,1335.7947],[34.3881,-1.051,1319.4089],[34.3853,-1.0462,1329.6056],[34.3778,-1.0438,1331.3198],[34.374,-1.0452,1319.0382],[34.3727,-1.039,1341.7661],[34.3758,-1.0343,1414.6367],[34.3775,-1.0343,1414.6367],[34.3786,-1.029,1331.4011],[34.3824,-1.0223,1293.4036],[34.3803,-1.0189,1302.0289],[34.3845,-1.0072,1284.3984],[34.3792,-1.0028,1327.5907],[34.3775,-1.0031,1307.6711],[34.3779,-1.0065,1283.5698],[34.3733,-1.0038,1314.1539],[34.3713,-1.0079,1286.0295],[34.3697,-1.0025,1321.0591],[34.3655,-1.0048,1290.866],[34.3607,-1.0015,1259.0726],[34.3586,-1.006,1274.318],[34.3545,-1.0015,1291.0457],[34.3483,-1.0034,1240.4579],[34.3468,-0.999,1280.6191],[34.3407,-0.9969,1260.9265],[34.3397,-0.9938,1265.1571],[34.3361,-0.993,1217.6276],[34.3343,-0.9946,1216.3025],[34.3331,-0.9929,1212.5378],[34.3304,-0.9928,1211.0673],[34.3095,-1.0093,1270.0894],[34.3042,-1.0091,1266.0555],[34.2984,-1.0186,1258.5284],[34.2915,-1.0154,1200.3979],[34.2861,-1.0153,1189.1475],[34.2833,-1.0203,1227.1719],[34.2788,-1.021,1222.7694],[34.2794,-1.0222,1230.8369],[34.2767,-1.0272,1221.1909],[34.2705,-1.027,1220.842],[34.2698,-1.0332,1229.1759],[34.2812,-1.0391,1255.5779],[34.28,-1.0459,1260.5126],[34.2768,-1.0456,1260.1934],[34.2729,-1.0483,1274.6642],[34.2745,-1.0518,1256.9178],[34.2776,-1.0528,1255.2159],[34.2789,-1.0594,1275.7286],[34.2793,-1.0636,1273.2965],[34.2751,-1.071,1259.9987],[34.2778,-1.0759,1240.0951],[34.2741,-1.0805,1242.5613],[34.2696,-1.0811,1238.4421],[34.27,-1.0825,1244.0413],[34.2616,-1.0899,1287.4773],[34.2568,-1.0913,1292.8577],[34.2538,-1.0974,1286.84],[34.2542,-1.1025,1291.3337],[34.2488,-1.1104,1308.4323],[34.2498,-1.111,1308.4323],[34.2474,-1.116,1301.3625],[34.3754,-1.1878,1476.1763],[34.3791,-1.184,1447.6968],[34.3753,-1.1817,1442.7659],[34.3801,-1.1741,1396.0637],[34.3829,-1.1627,1375.4207],[34.3851,-1.1599,1387.4193],[34.3839,-1.1577,1389.9049],[34.3866,-1.1552,1395.3439],[34.3921,-1.1365,1372.8591],[34.4092,-1.1245,1376.0668]]]]}
,"properties": {"GID_2": "KEN.27.7_1","GID_0": "KEN","country": "Kenya","GID_1": "KEN.27_1","province": "Migori","NL_NAME_1": "NA","county": "SunaWest","VARNAME_2": "NA","NL_NAME_2": "NA","TYPE_2": "Constituency","ENGTYPE_2": "Constituency","CC_2": "256","HASC_2": "NA","name": "Suna_West.county","area_km2": 295.0814,"hist_schema_id": "Elevation0-9000","hist_area_km2": {"1175": 0.0212,"1200": 0.6572,"1225": 5.7661,"1250": 14.9663,"1275": 27.1979,"1300": 30.2716,"1325": 34.3627,"1350": 50.8971,"1375": 74.9357,"1400": 40.4674,"1425": 10.1327,"1450": 2.4802,"1475": 1.2083,"1500": 1.1871,"1525": 0.53}}}