{"type": "Feature","bbox": [34.6923,0.0172,34.7492,0.0807],"geometry": {"type": "MultiPolygon","coordinates": [[[[34.7484,0.0706,1626.5093],[34.7492,0.0754,1624.6537],[34.7463,0.0803,1610.3317],[34.7449,0.0794,1586.917],[34.742,0.0807,1574.9092],[34.7377,0.0763,1627.7815],[34.7224,0.0757,1594.5118],[34.7236,0.073,1601.4974],[34.7183,0.0661,1613.2458],[34.7155,0.0664,1587.9799],[34.714,0.0647,1573.012],[34.7096,0.0673,1580.2571],[34.708,0.0617,1581.3645],[34.7015,0.0544,1602.186],[34.7002,0.0547,1602.4229],[34.6994,0.052,1580.5393],[34.6923,0.0496,1577.2356],[34.6944,0.0417,1578.2687],[34.6928,0.0403,1585.5692],[34.695,0.0398,1589.4833],[34.6933,0.0385,1592.0649],[34.6954,0.0384,1597.0732],[34.6936,0.0372,1592.0649],[34.6985,0.0346,1624.0387],[34.7071,0.0359,1661.4039],[34.7102,0.0346,1662.4137],[34.7121,0.0291,1611.0702],[34.717,0.0273,1594.3291],[34.7141,0.0196,1526.2776],[34.7154,0.0172,1449.621],[34.7203,0.0236,1499.5107],[34.724,0.0252,1540.347],[34.7233,0.0276,1558.4794],[34.7277,0.0356,1559.2981],[34.726,0.0511,1604.1229],[34.7331,0.0569,1644.8721],[34.7434,0.0696,1625.0156],[34.7484,0.0706,1626.5093]]]]}
,"properties": {"GID_3": "KEN.45.5.1_1","GID_0": "KEN","country": "Kenya","GID_1": "KEN.45_1","province": "Vihiga","NL_NAME_1": "NA","GID_2": "KEN.45.5_1","county": "Vihiga","NL_NAME_2": "NA","city": "CentralMaragoli","VARNAME_3": "NA","NL_NAME_3": "NA","TYPE_3": "Ward","ENGTYPE_3": "Ward","CC_3": "1053","HASC_3": "NA","name": "Central_Maragoli.city","area_km2": 17.11017,"hist_schema_id": "Elevation0-9000","hist_area_km2": {"1450": 0.0424,"1475": 0.0212,"1500": 0.08481,"1525": 0.08481,"1550": 0.55126,"1575": 2.56547,"1600": 6.12743,"1625": 5.36416,"1650": 2.16262,"1675": 0.10601}}}