{"type": "Feature","bbox": [35.6829,-0.3485,35.789,-0.2347],"geometry": {"type": "MultiPolygon","coordinates": [[[[35.6947,-0.3306,2806.095],[35.7055,-0.3167,2740.7119],[35.7439,-0.3485,2871.1904],[35.7817,-0.2908,2431.9172],[35.7794,-0.2886,2446.894],[35.7859,-0.2773,2357.2559],[35.7848,-0.2759,2377.8735],[35.7863,-0.2718,2368.8191],[35.7844,-0.2698,2357.0286],[35.786,-0.2662,2340.1331],[35.7882,-0.266,2314.3506],[35.789,-0.2581,2317.7354],[35.7861,-0.2528,2264.1655],[35.7855,-0.2456,2268.0371],[35.7838,-0.2444,2270.6567],[35.7848,-0.2427,2268.8865],[35.7822,-0.2407,2242.1914],[35.7837,-0.2384,2233.4365],[35.7814,-0.2376,2243.7539],[35.7803,-0.2347,2275.9731],[35.7783,-0.2366,2277.7085],[35.7785,-0.2409,2259.4292],[35.7607,-0.2499,2404.479],[35.75,-0.2492,2446.4929],[35.745,-0.2533,2456.8176],[35.7319,-0.2497,2458.2571],[35.7255,-0.2511,2502.2144],[35.7143,-0.2572,2577.3269],[35.7152,-0.259,2591.2476],[35.7137,-0.2612,2596.0447],[35.715,-0.2633,2554.6169],[35.7117,-0.2677,2576.5864],[35.696,-0.2776,2665.0144],[35.6892,-0.2859,2718.2529],[35.6829,-0.3095,2716.4397],[35.6846,-0.3221,2747.3503],[35.6947,-0.3306,2806.095]]]]}
,"properties": {"GID_3": "KEN.31.5.4_1","GID_0": "KEN","country": "Kenya","GID_1": "KEN.31_1","province": "Nakuru","NL_NAME_1": "NA","GID_2": "KEN.31.5_1","county": "Molo","NL_NAME_2": "NA","city": "Turi","VARNAME_3": "NA","NL_NAME_3": "NA","TYPE_3": "Ward","ENGTYPE_3": "Ward","CC_3": "828","HASC_3": "NA","name": "Turi.city","area_km2": 84.10806,"hist_schema_id": "Elevation0-9000","hist_area_km2": {"2200": 0.0212,"2225": 0.12721,"2250": 0.55125,"2275": 0.46644,"2300": 1.1025,"2325": 1.18731,"2350": 1.0813,"2375": 1.61135,"2400": 1.90818,"2425": 3.28631,"2450": 5.10968,"2475": 6.36059,"2500": 6.82703,"2525": 4.94005,"2550": 3.85875,"2575": 4.19798,"2600": 4.17678,"2625": 5.5125,"2650": 6.02134,"2675": 7.95071,"2700": 8.71398,"2725": 6.21215,"2750": 1.82336,"2775": 0.57245,"2800": 0.31803,"2825": 0.12721,"2850": 0.0212,"2875": 0.0212}}}