{"type": "Feature","bbox": [34.547,0.5625,34.5634,0.5878],"geometry": {"type": "MultiPolygon","coordinates": [[[[34.5571,0.5878,1446.0022],[34.55,0.5868,1420.7227],[34.547,0.5755,1413.0503],[34.5478,0.5734,1417.0508],[34.5554,0.5716,1440.0978],[34.5554,0.5675,1435.0596],[34.5532,0.5639,1427.1461],[34.5587,0.5625,1429.835],[34.5634,0.584,1436.9712],[34.5571,0.5878,1446.0022]]]]}
,"properties": {"GID_3": "KEN.3.3.7_1","GID_0": "KEN","country": "Kenya","GID_1": "KEN.3_1","province": "Bungoma","NL_NAME_1": "NA","GID_2": "KEN.3.3_1","county": "Kanduyi","NL_NAME_2": "NA","city": "Township","VARNAME_3": "NA","NL_NAME_3": "NA","TYPE_3": "Ward","ENGTYPE_3": "Ward","CC_3": "1098","HASC_3": "NA","name": "Township.city","area_km2": 3.031762,"hist_schema_id": "Elevation0-9000","hist_area_km2": {"1425": 1.505281,"1450": 1.526481}}}