{"type": "Feature","bbox": [40.6891,2.8591,40.9417,3.2641],"geometry": {"type": "MultiPolygon","coordinates": [[[[40.7095,3.2265,507.5546],[40.7085,3.2193,508.4296],[40.7067,3.2209,508.5818],[40.7027,3.1937,502.2119],[40.6941,3.1809,501.7706],[40.6925,3.1601,494.7336],[40.6891,3.1427,489.061],[40.6949,3.1323,488.3391],[40.7107,3.1199,475.867],[40.7147,3.1147,473.3929],[40.7191,3.1017,468.6838],[40.7187,3.0937,466.4983],[40.7237,3.0789,461.0469],[40.7221,3.0713,457.2938],[40.7227,3.0647,454.715],[40.7279,3.0563,450.8124],[40.7557,3.0379,436.8819],[40.7605,3.0309,431.8845],[40.7747,3.0189,427.1389],[40.7889,3.0109,421.6576],[40.7985,2.9921,414.2242],[40.7947,2.9851,412.0574],[40.7863,2.9759,412.629],[40.7853,2.9633,408.7757],[40.7867,2.9593,406.8975],[40.7945,2.9539,404.6144],[40.8087,2.9403,397.4732],[40.8365,2.9219,391.3689],[40.8419,2.9159,390.5428],[40.8517,2.8993,388.7957],[40.8719,2.8803,387.9311],[40.8873,2.8591,388.222],[40.8957,2.8699,385.6249],[40.9056,2.8757,387.3294],[40.9133,2.8859,389.6253],[40.9213,2.8877,388.7009],[40.9417,2.9017,385.8578],[40.9385,2.9259,387.6742],[40.9313,2.9355,389.1855],[40.9281,2.9435,388.2112],[40.9269,2.9761,394.6509],[40.9093,2.9977,401.8525],[40.9069,3.0039,404.3948],[40.9043,3.0489,422.2722],[40.9007,3.0729,432.61],[40.8971,3.0801,436.1154],[40.8857,3.0913,440.498],[40.8767,3.1297,456.6045],[40.8691,3.1647,470.4437],[40.8669,3.1855,480.9783],[40.8635,3.1971,487.4088],[40.8635,3.2041,490.1528],[40.8659,3.2113,495.4525],[40.8645,3.2275,501.4901],[40.8651,3.2483,513.5963],[40.8439,3.2569,515.135],[40.8385,3.2573,515.5763],[40.8221,3.2515,508.7728],[40.8177,3.2519,508.9583],[40.8085,3.2559,513.5234],[40.8031,3.2635,515.7383],[40.7985,3.2641,516.9917],[40.7909,3.2611,526.3561],[40.7775,3.2519,509.1638],[40.7465,3.2443,505.5727],[40.7387,3.2449,508.2862],[40.7275,3.2503,513.661],[40.7193,3.2495,516.7886],[40.7095,3.2265,507.5546]]]]}
,"properties": {"GID_3": "KEN.24.5.4_1","GID_0": "KEN","country": "Kenya","GID_1": "KEN.24_1","province": "Mandera","NL_NAME_1": "NA","GID_2": "KEN.24.5_1","county": "ManderaSouth","NL_NAME_2": "NA","city": "Wargadud","VARNAME_3": "NA","NL_NAME_3": "NA","TYPE_3": "Ward","ENGTYPE_3": "Ward","CC_3": "206","HASC_3": "NA","name": "Wargadud.city","area_km2": 672.724,"hist_schema_id": "Elevation0-9000","hist_area_km2": {"375": 7.496,"400": 179.4075,"425": 109.2277,"450": 134.8599,"475": 127.718,"500": 108.8923,"525": 4.8686,"550": 0.1905,"575": 0.0635}}}