{"type":"Feature","properties":{"GID_3":"KEN.13.4.3_1","GID_0":"KEN","country":"Kenya","GID_1":"KEN.13_1","province":"Kiambu","NL_NAME_1":"NA","GID_2":"KEN.13.4_1","county":"Juja","NL_NAME_2":"NA","city":"Murera","VARNAME_3":"NA","NL_NAME_3":"NA","TYPE_3":"Ward","ENGTYPE_3":"Ward","CC_3":"559","HASC_3":"NA","name":"Murera.city"},
"geometry":{"type": "MultiPolygon","coordinates": [[[[36.9449,-1.118,1541.8158],[36.9496,-1.1236,1547.9897],[36.951,-1.1294,1533.2695],[36.9544,-1.1317,1549.5029],[36.9567,-1.1324,1545.6199],[36.9564,-1.1306,1540.9998],[36.9599,-1.1254,1539.4816],[36.9692,-1.132,1532.6965],[36.9677,-1.1342,1534.2949],[36.9695,-1.1355,1531.6223],[36.9629,-1.1437,1515.0295],[36.9639,-1.143,1515.0295],[36.9646,-1.1454,1518.1893],[36.9729,-1.1485,1517.8821],[36.9781,-1.1477,1518.9954],[36.9798,-1.1504,1507.075],[36.9852,-1.1509,1515.6056],[36.9869,-1.1536,1497.4263],[36.9925,-1.156,1506.0137],[36.9943,-1.1632,1493.3512],[36.9981,-1.1659,1497.2133],[36.9986,-1.1646,1497.2133],[37.0007,-1.1658,1499.7086],[37.0082,-1.1716,1492.197],[37.0108,-1.1708,1496.7112],[37.0147,-1.1733,1490.0925],[37.0207,-1.1733,1491.3374],[37.0231,-1.1752,1485.8606],[37.036,-1.1722,1484.567],[37.042,-1.1732,1478.2966],[37.0443,-1.1719,1481.4048],[37.047,-1.1735,1474.2175],[37.0554,-1.1688,1479.4297],[37.0613,-1.1686,1478.6274],[37.0633,-1.1713,1460.1354],[37.0662,-1.1685,1477.7467],[37.0696,-1.1691,1456.7072],[37.0705,-1.1656,1477.5659],[37.0729,-1.168,1454.45],[37.0835,-1.1674,1476.2354],[37.0933,-1.174,1450.9636],[37.0956,-1.179,1448.1082],[37.1001,-1.1828,1455.5229],[37.111,-1.1836,1469.8438],[37.1115,-1.1873,1448.0494],[37.1148,-1.1899,1455.0801],[37.1183,-1.1965,1445.2582],[37.1232,-1.194,1466.2244],[37.127,-1.1964,1447.7239],[37.131,-1.2028,1458.1406],[37.134,-1.2018,1450.3247],[37.138,-1.196,1471.3142],[37.1431,-1.1992,1466.9832],[37.1499,-1.1973,1471.3406],[37.1537,-1.1986,1448.7809],[37.1563,-1.1969,1440.236],[37.1556,-1.1933,1469.7761],[37.1537,-1.1947,1459.387],[37.1499,-1.1933,1472.6171],[37.1431,-1.1953,1472.6737],[37.138,-1.192,1474.7693],[37.134,-1.1978,1471.2114],[37.131,-1.1988,1470.8313],[37.127,-1.1924,1472.7798],[37.1232,-1.1901,1473.0078],[37.1183,-1.1926,1458.356],[37.1148,-1.186,1471.489],[37.1115,-1.1833,1469.8438],[37.111,-1.1797,1473.2175],[37.1001,-1.1788,1474.5356],[37.0956,-1.1751,1463.0377],[37.0933,-1.1701,1471.5841],[37.0855,-1.1644,1479.795],[37.0786,-1.1616,1479.6637],[37.0731,-1.1554,1467.1466],[37.0692,-1.1559,1470.3206],[37.0665,-1.1537,1469.771],[37.0649,-1.1557,1464.14],[37.0628,-1.1536,1466.8573],[37.0545,-1.1557,1484.5221],[37.0512,-1.1521,1486.1246],[37.0455,-1.1493,1488.3103],[37.037,-1.1477,1491.9546],[37.0318,-1.1439,1488.099],[37.0303,-1.1455,1487.4717],[37.0301,-1.1406,1491.1241],[37.0287,-1.1422,1491.2703],[37.0262,-1.1347,1493.1892],[37.0216,-1.1307,1508.8374],[37.0088,-1.1335,1511.2827],[37.0039,-1.1316,1515.3611],[36.999,-1.1318,1505.6663],[36.9948,-1.1213,1510.0206],[36.978,-1.1109,1533.624],[36.9724,-1.1128,1539.6548],[36.9665,-1.1109,1548.728],[36.9554,-1.0945,1561.1523],[36.9454,-1.0854,1569.6089],[36.9416,-1.085,1565.8633],[36.9366,-1.0792,1584.8193],[36.9323,-1.0796,1588.9886],[36.9282,-1.0754,1601.2859],[36.9218,-1.0738,1609.3811],[36.917,-1.0663,1620.0137],[36.9084,-1.0661,1626.0282],[36.904,-1.0611,1631.9734],[36.8969,-1.0562,1660.7677],[36.8881,-1.0702,1661.2772],[36.887,-1.0685,1641.9329],[36.8762,-1.0835,1665.2009],[36.8842,-1.0868,1642.5089],[36.8898,-1.0938,1634.5468],[36.8922,-1.0912,1632.3944],[36.8946,-1.093,1616.2058],[36.8961,-1.0918,1620.6965],[36.8994,-1.0926,1618.5195],[36.9016,-1.0954,1611.1477],[36.9059,-1.0942,1605.7749],[36.9097,-1.096,1583.0643],[36.9124,-1.0933,1584.2278],[36.9164,-1.0938,1598.2921],[36.9232,-1.0986,1586.6483],[36.9262,-1.1035,1580.1158],[36.931,-1.1035,1569.6116],[36.9339,-1.106,1558.7931],[36.937,-1.1052,1573.561],[36.9432,-1.1112,1558.4343],[36.946,-1.1167,1558.6792],[36.9449,-1.118,1541.8158]]]]}}