{"type":"Feature","properties":{"GID_3":"KEN.16.3.1_1","GID_0":"KEN","country":"Kenya","GID_1":"KEN.16_1","province":"Kisii","NL_NAME_1":"NA","GID_2":"KEN.16.3_1","county":"BomachogeChache","NL_NAME_2":"NA","city":"Boochi/Tendere","VARNAME_3":"NA","NL_NAME_3":"NA","TYPE_3":"Ward","ENGTYPE_3":"Ward","CC_3":"1324","HASC_3":"NA","name":"Boochi_Tendere.city"},
"geometry":{"type": "MultiPolygon","coordinates": [[[[34.7351,-0.7956,1645.8127],[34.7341,-0.7805,1667.0994],[34.7294,-0.7694,1657.4315],[34.7246,-0.7715,1666.5961],[34.7204,-0.7681,1656.636],[34.7117,-0.7651,1654.4875],[34.694,-0.765,1724.0176],[34.6889,-0.7668,1782.08],[34.6818,-0.7732,1738.4102],[34.6836,-0.7792,1693.0677],[34.6888,-0.7855,1695.135],[34.691,-0.7922,1653.6525],[34.6982,-0.7993,1597.613],[34.6988,-0.8015,1562.5442],[34.6965,-0.8057,1558.5582],[34.7015,-0.807,1594.7783],[34.7083,-0.8057,1602.2994],[34.7175,-0.8075,1645.0386],[34.7209,-0.8109,1640.0698],[34.7233,-0.8172,1625.3408],[34.725,-0.8285,1659.5554],[34.7359,-0.836,1737.0647],[34.7428,-0.8378,1681.8853],[34.7403,-0.8456,1677.9865],[34.7446,-0.8469,1684.498],[34.748,-0.8456,1682.6432],[34.7496,-0.8504,1695.0789],[34.7611,-0.8516,1675.4385],[34.7602,-0.8458,1686.9365],[34.7566,-0.8386,1699.6851],[34.751,-0.8327,1674.3121],[34.7501,-0.8273,1673.2302],[34.7412,-0.8227,1664.3632],[34.7395,-0.8184,1649.7274],[34.7371,-0.817,1632.71],[34.7353,-0.8052,1585.3203],[34.7318,-0.8022,1589.575],[34.7348,-0.7996,1580.5193],[34.7351,-0.7956,1645.8127]]]]}}