{"type": "Feature","bbox": [36.6057,1.0176,36.7496,1.1809],"geometry": {"type": "MultiPolygon","coordinates": [[[[36.618,1.1805,2387.335],[36.6057,1.18,2292.5193],[36.6085,1.17,2219.4541],[36.6075,1.1605,2221.8989],[36.611,1.1473,2179.7544],[36.6101,1.1421,2189.9111],[36.6178,1.1272,2108.8088],[36.6279,1.1196,2088.5938],[36.6405,1.107,2046.3215],[36.6512,1.0879,2012.8965],[36.6716,1.074,2005.8391],[36.682,1.0489,1908.2026],[36.6889,1.0431,1926.0441],[36.6921,1.0376,1894.0205],[36.6961,1.038,1903.1547],[36.6992,1.0361,1874.9248],[36.71,1.026,1851.7301],[36.7144,1.0176,1841.3352],[36.7496,1.0469,1975.2971],[36.7378,1.1405,2021.3162],[36.7057,1.1809,2103.7424],[36.618,1.1805,2387.335]]]]}
,"properties": {"GID_3": "KEN.37.3.3_1","GID_0": "KEN","country": "Kenya","GID_1": "KEN.37_1","province": "Samburu","NL_NAME_1": "NA","GID_2": "KEN.37.3_1","county": "SamburuWest","NL_NAME_2": "NA","city": "Maralal","VARNAME_3": "NA","NL_NAME_3": "NA","TYPE_3": "Ward","ENGTYPE_3": "Ward","CC_3": "663","HASC_3": "NA","name": "Maralal.city","area_km2": 176.1994,"hist_schema_id": "Elevation0-9000","hist_area_km2": {"1850": 3.6886,"1875": 7.6315,"1900": 8.6278,"1925": 11.744,"1950": 10.896,"1975": 10.2812,"2000": 11.6379,"2025": 11.0019,"2050": 11.8498,"2075": 10.0055,"2100": 8.6488,"2125": 9.3696,"2150": 9.1787,"2175": 9.2635,"2200": 10.599,"2225": 8.9031,"2250": 7.1437,"2275": 4.3244,"2300": 3.8792,"2325": 3.0525,"2350": 2.7557,"2375": 1.1235,"2400": 0.5935}}}