{"type":"Feature","properties":{"GID_2":"KEN.23.3_1","GID_0":"KEN","country":"Kenya","GID_1":"KEN.23_1","province":"Makueni","NL_NAME_1":"NA","county":"KibweziWest","VARNAME_2":"NA","NL_NAME_2":"NA","TYPE_2":"Constituency","ENGTYPE_2":"Constituency","CC_2":"87","HASC_2":"NA","name":"Kibwezi_West.county"},
"geometry":{"type": "MultiPolygon","coordinates": [[[[37.7959,-2.5419,1624.5795],[37.8874,-2.4983,1063.7767],[37.9141,-2.4814,1010.9092],[37.9373,-2.4399,964.429],[37.9555,-2.4126,921.5592],[37.9578,-2.4115,924.2946],[37.9598,-2.4142,921.2386],[37.9649,-2.43,934.0983],[37.9721,-2.4249,916.8079],[37.9723,-2.4204,908.7772],[37.9688,-2.4175,899.5118],[37.9741,-2.4105,886.6743],[37.9741,-2.4063,884.8752],[37.9835,-2.3936,863.3383],[37.9918,-2.3891,841.5262],[37.9958,-2.3908,841.8351],[38.0042,-2.385,829.9329],[38.006,-2.3804,820.601],[38.0083,-2.3796,814.6105],[38.0112,-2.3756,812.1133],[38.0107,-2.3724,815.046],[38.0133,-2.3686,813.9161],[38.0145,-2.3629,809.7736],[38.0181,-2.365,806.1376],[38.0205,-2.3632,811.1072],[38.0209,-2.365,803.7682],[38.0252,-2.3678,801.0447],[38.0285,-2.3674,796.7375],[38.0343,-2.3705,783.1752],[38.0382,-2.3696,780.9943],[38.0406,-2.3714,773.2665],[38.043,-2.3687,777.1729],[38.0479,-2.3703,769.3015],[38.0494,-2.3695,767.1866],[38.0484,-2.3675,768.7031],[38.0546,-2.3676,771.9344],[38.0598,-2.372,759.4475],[38.0599,-2.3754,752.6372],[38.0625,-2.3743,752.4329],[38.0669,-2.3765,745.0062],[38.0685,-2.3754,746.4197],[38.0718,-2.3789,743.3929],[38.0742,-2.3762,755.5679],[38.0808,-2.3808,734.9416],[38.084,-2.3804,728.1398],[38.0872,-2.3745,734.716],[38.0908,-2.3752,726.0507],[38.0933,-2.3706,727.3519],[38.0995,-2.3692,715.7926],[38.0994,-2.3659,725.5458],[38.1045,-2.3615,714.6281],[38.1083,-2.3624,713.6974],[38.1117,-2.3555,706.7741],[38.122,-2.3586,696.7567],[38.1242,-2.3509,686.8116],[38.1223,-2.3508,689.9097],[38.1225,-2.3447,685.2991],[38.1213,-2.3434,684.5051],[38.1224,-2.3413,687.8492],[38.1256,-2.3404,678.1599],[38.1258,-2.334,669.8965],[38.1236,-2.3329,677.4386],[38.125,-2.3275,673.598],[38.1364,-2.3206,671.7692],[38.127,-2.3219,663.7628],[38.1171,-2.3138,674.3448],[38.1155,-2.3029,682.8701],[38.1092,-2.3002,683.9636],[38.1116,-2.2862,690.7584],[38.1014,-2.2815,688.5123],[38.0975,-2.273,691.173],[38.0909,-2.2734,695.6544],[38.0874,-2.272,692.2228],[38.0833,-2.2616,690.4169],[38.0755,-2.2612,696.5056],[38.0764,-2.255,698.4433],[38.0725,-2.2511,700.5446],[38.069,-2.2248,699.1192],[38.0633,-2.2217,707.7552],[38.064,-2.2184,715.396],[38.0693,-2.2159,701.8779],[38.0704,-2.2139,705.4755],[38.0635,-2.2109,709.9856],[38.0602,-2.2069,703.1228],[38.0558,-2.1957,706.1844],[38.0546,-2.1864,706.2612],[38.0482,-2.1801,720.8582],[38.0503,-2.1709,715.9525],[38.0446,-2.1664,711.3138],[38.037,-2.1666,717.1936],[38.0277,-2.1619,715.3188],[38.0213,-2.147,731.5274],[38.0073,-2.1525,737.87],[37.9907,-2.1568,741.0348],[37.9675,-2.1672,739.655],[37.9645,-2.1641,728.8365],[37.9652,-2.1556,737.3712],[37.9635,-2.1445,748.7746],[37.9555,-2.1432,761.2917],[37.9532,-2.1403,764.1946],[37.9508,-2.1418,764.9053],[37.9466,-2.1408,763.592],[37.9482,-2.1375,768.0765],[37.9431,-2.1342,782.0436],[37.9397,-2.1372,770.2157],[37.9368,-2.1324,787.4951],[37.935,-2.1339,788.7635],[37.9364,-2.1353,766.659],[37.9345,-2.1387,773.8531],[37.9312,-2.1325,787.3149],[37.9256,-2.1333,781.3358],[37.9206,-2.1279,802.129],[37.917,-2.132,801.7624],[37.914,-2.1328,792.194],[37.9112,-2.1282,801.9382],[37.9057,-2.1278,806.6417],[37.9044,-2.1292,808.9644],[37.9057,-2.134,795.0803],[37.8988,-2.1341,806.5923],[37.8965,-2.1314,805.7823],[37.8924,-2.1312,806.5629],[37.8949,-2.1272,817.1846],[37.8929,-2.1255,805.4193],[37.8929,-2.1228,822.928],[37.89,-2.1217,815.7999],[37.8882,-2.1234,809.4645],[37.883,-2.1158,821.3243],[37.8817,-2.1163,824.423],[37.8824,-2.1184,808.023],[37.8806,-2.1233,814.3031],[37.8756,-2.127,824.3309],[37.8745,-2.1297,812.5966],[37.8687,-2.1246,815.8575],[37.8678,-2.12,827.6218],[37.8628,-2.1204,817.4776],[37.8596,-2.1169,823.5228],[37.8566,-2.1179,820.2457],[37.856,-2.1135,825.798],[37.8489,-2.1118,828.3984],[37.8473,-2.1127,828.3984],[37.8489,-2.1148,822.3201],[37.8475,-2.1167,824.3004],[37.8451,-2.1155,825.2123],[37.8448,-2.1119,832.8715],[37.8349,-2.1124,833.8107],[37.8338,-2.1131,834.679],[37.8346,-2.1171,830.1263],[37.8328,-2.1198,829.8849],[37.8292,-2.118,838.5873],[37.8215,-2.1237,839.3141],[37.8177,-2.1247,840.1492],[37.8169,-2.1172,842.5418],[37.8138,-2.1145,841.4893],[37.8147,-2.1115,843.8536],[37.8119,-2.1145,840.7628],[37.8069,-2.1099,847.1084],[37.8024,-2.113,844.5751],[37.8,-2.1054,855.8364],[37.7987,-2.1076,850.421],[37.7923,-2.1067,852.4439],[37.7922,-2.1039,854.3588],[37.7941,-2.1035,850.9666],[37.7952,-2.1011,850.4996],[37.7853,-2.0961,875.2075],[37.7889,-2.0928,852.7466],[37.7881,-2.0895,865.2642],[37.7861,-2.0897,857.093],[37.7833,-2.0864,858.732],[37.7783,-2.0854,867.3568],[37.7755,-2.088,865.4169],[37.7748,-2.0931,860.8792],[37.7725,-2.0937,861.1858],[37.7714,-2.0925,861.1701],[37.773,-2.0894,867.1566],[37.7697,-2.0876,864.988],[37.772,-2.0854,863.188],[37.7691,-2.082,881.0914],[37.7643,-2.0842,867.0895],[37.7628,-2.0818,874.6637],[37.7601,-2.0811,882.0227],[37.76,-2.0839,867.4071],[37.754,-2.0789,878.3215],[37.7515,-2.0798,870.5663],[37.75,-2.0764,872.7127],[37.7469,-2.0772,878.3132],[37.7488,-2.0686,877.9471],[37.7457,-2.0671,892.4928],[37.7421,-2.0691,884.7349],[37.7416,-2.0722,879.6762],[37.7386,-2.0702,880.7319],[37.7384,-2.0654,884.4384],[37.733,-2.067,887.9245],[37.7284,-2.0663,890.3771],[37.7267,-2.0679,886.1838],[37.7244,-2.0649,886.9366],[37.726,-2.0615,890.6077],[37.7234,-2.0591,900.5593],[37.723,-2.0547,894.6014],[37.7157,-2.052,894.5256],[37.7156,-2.0496,898.7902],[37.7108,-2.0477,893.9315],[37.7094,-2.044,913.8669],[37.7074,-2.0474,896.0316],[37.7024,-2.0444,899.9305],[37.7013,-2.039,913.4668],[37.6968,-2.0345,912.9519],[37.6973,-2.0317,903.3077],[37.6956,-2.0308,910.0731],[37.6987,-2.0274,906.324],[37.6956,-2.0281,909.5468],[37.696,-2.0233,908.6323],[37.6925,-2.0214,914.703],[37.6843,-2.0206,922.943],[37.6829,-2.0083,921.7194],[37.6778,-2.0062,940.2171],[37.6713,-2.0094,965.524],[37.6717,-2.0038,984.4844],[37.6704,-2.0023,986.2832],[37.6717,-2.0015,986.2832],[37.6704,-1.9997,987.201],[37.6722,-1.9978,981.2097],[37.6724,-1.9926,985.4387],[37.6708,-1.9941,988.9081],[37.668,-1.9926,984.9265],[37.665,-1.9878,991.4343],[37.6691,-1.9882,988.6862],[37.6679,-1.9853,994.9496],[37.6692,-1.9835,990.0643],[37.6657,-1.9853,993.3518],[37.6634,-1.9825,1007.8875],[37.6575,-1.9823,1001.9286],[37.657,-1.9804,998.0096],[37.6593,-1.9778,1004.6167],[37.6568,-1.9789,1005.3329],[37.6541,-1.9778,1005.779],[37.6539,-1.9754,1017.0943],[37.6498,-1.9726,1015.257],[37.6525,-1.9702,1006.3595],[37.6509,-1.965,1009.6661],[37.6471,-1.9633,1009.8102],[37.6435,-1.9656,1031.6213],[37.63,-1.9522,1070.3083],[37.6155,-1.948,1072.8088],[37.609,-1.9494,1061.7898],[37.6102,-1.9513,1052.1755],[37.6085,-1.9568,1048.5171],[37.6102,-1.9607,1047.549],[37.61,-1.9659,1041.9926],[37.6081,-1.967,1043.9301],[37.6143,-1.9836,1036.3907],[37.608,-1.9833,1048.1516],[37.6068,-1.9915,1028.0747],[37.6005,-1.9915,1044.683],[37.6007,-1.993,1036.3783],[37.6031,-1.9936,1024.7806],[37.6074,-2.0047,1050.8235],[37.6051,-2.0103,1062.5031],[37.6037,-2.0104,1057.3115],[37.6006,-1.9971,1034.9563],[37.5968,-1.998,1031.7981],[37.5985,-1.9958,1032.0721],[37.5958,-1.9951,1037.6799],[37.5981,-1.9928,1043.8298],[37.5942,-1.9879,1051.9648],[37.5891,-1.9879,1044.7471],[37.5872,-1.9905,1038.499],[37.5862,-1.9889,1038.3597],[37.5882,-1.9871,1044.7471],[37.5875,-1.9857,1053.4858],[37.5845,-1.985,1047.0602],[37.5816,-1.987,1040.8475],[37.5808,-1.9812,1052.4604],[37.5786,-1.9788,1060.947],[37.5765,-1.9827,1045.2026],[37.5669,-1.985,1059.5842],[37.5639,-1.989,1082.3674],[37.5595,-2.0046,1327.5745],[37.5681,-2.0048,1100.4216],[37.5662,-2.0195,1110.9316],[37.5414,-2.006,1140.005],[37.5391,-2.0029,1115.2419],[37.536,-2.0031,1109.1196],[37.5339,-2.0012,1102.7069],[37.5333,-1.9911,1107.1108],[37.5301,-1.9791,1104.0906],[37.5271,-1.9774,1093.0037],[37.5258,-1.9658,1105.0983],[37.5232,-1.9649,1104.9521],[37.5179,-1.9564,1136.7771],[37.5102,-1.9554,1191.0704],[37.5083,-1.9577,1228.6841],[37.5019,-1.9531,1334.6757],[37.504,-1.96,1235.2942],[37.5069,-1.962,1245.4907],[37.5087,-1.967,1131.7167],[37.5129,-1.9693,1124.4385],[37.5154,-1.9741,1103.2036],[37.5119,-1.9856,1113.3673],[37.5025,-1.987,1145.7314],[37.4924,-2.0028,1271.3568],[37.4897,-2.0006,1336.2151],[37.4734,-1.9959,1379.4838],[37.4639,-1.9971,1383.1866],[37.4579,-2.0016,1364.4508],[37.4448,-2.0172,1219.957],[37.4445,-2.0316,1152.6073],[37.4483,-2.0335,1153.168],[37.4512,-2.0314,1170.085],[37.4502,-2.038,1145.5093],[37.4541,-2.0374,1156.2346],[37.4565,-2.0403,1141.3353],[37.4578,-2.0367,1148.8389],[37.4609,-2.0368,1149.49],[37.4699,-2.0446,1129.8447],[37.4582,-2.0759,1170.5668],[37.4651,-2.0788,1157.9932],[37.4624,-2.0854,1157.5547],[37.4759,-2.0908,1153.2087],[37.4786,-2.0839,1154.4049],[37.5336,-2.1058,1107.4956],[37.5372,-2.1111,1100.2532],[37.5412,-2.1123,1082.4027],[37.5438,-2.1151,1082.7675],[37.5431,-2.122,1078.8368],[37.5452,-2.1252,1063.7983],[37.5505,-2.1271,1060.0198],[37.5646,-2.1268,1054.6804],[37.5731,-2.1376,1044.7644],[37.5925,-2.1528,1015.636],[37.6213,-2.161,996.5046],[37.665,-2.1554,970.2318],[37.6924,-2.1647,949.0304],[37.6991,-2.1643,930.7721],[37.7058,-2.1725,919.5668],[37.7076,-2.1816,911.8579],[37.7239,-2.1885,915.5795],[37.7243,-2.1915,910.8604],[37.7155,-2.1903,917.5609],[37.7059,-2.1947,921.4207],[37.6947,-2.2099,930.6047],[37.688,-2.2155,938.9019],[37.6837,-2.2241,952.3147],[37.6802,-2.2256,957.8276],[37.6793,-2.2278,957.8442],[37.6749,-2.228,960.496],[37.6763,-2.2325,959.8391],[37.6756,-2.2392,961.7102],[37.6787,-2.2432,963.6059],[37.6783,-2.2535,967.842],[37.6761,-2.2595,979.5912],[37.6785,-2.2643,972.6035],[37.6733,-2.2675,981.7036],[37.6722,-2.2793,980.3585],[37.667,-2.2809,991.7997],[37.6679,-2.2839,988.0841],[37.6701,-2.2851,985.4449],[37.6699,-2.288,988.3711],[37.6645,-2.29,989.0035],[37.6602,-2.2889,991.7802],[37.658,-2.2865,992.6777],[37.6552,-2.2875,990.9653],[37.6483,-2.2915,993.9225],[37.6461,-2.2993,996.3548],[37.6425,-2.2971,1020.5216],[37.637,-2.2977,1006.8696],[37.6318,-2.294,1004.3495],[37.6323,-2.2988,1004.283],[37.6309,-2.3014,1005.9974],[37.6259,-2.3012,1007.552],[37.6218,-2.3044,1007.8296],[37.6184,-2.2978,1010.8885],[37.6124,-2.2976,1012.3843],[37.6099,-2.3022,1014.0133],[37.6066,-2.3034,1014.6783],[37.6075,-2.3079,1013.92],[37.6042,-2.3114,1016.1079],[37.6015,-2.3092,1019.4216],[37.5999,-2.3112,1019.937],[37.5983,-2.3095,1019.8196],[37.5962,-2.312,1020.0941],[37.7959,-2.5419,1624.5795]]]]}}