{"type": "Feature","bbox": [35.0168,-0.5486,35.033,-0.4999],"geometry": {"type": "MultiPolygon","coordinates": [[[[35.0328,-0.5079,1708.1696],[35.0251,-0.5065,1685.5767],[35.0211,-0.504,1658.6311],[35.019,-0.4999,1709.3694],[35.0178,-0.5074,1634.6436],[35.019,-0.5165,1666.8068],[35.0168,-0.5229,1759.6937],[35.0205,-0.5277,1718.5659],[35.028,-0.544,1885.6958],[35.0328,-0.5486,1886.1508],[35.033,-0.5197,1800.7604],[35.0328,-0.5079,1708.1696]]]]}
,"properties": {"GID_3": "KEN.34.3.3_1","GID_0": "KEN","country": "Kenya","GID_1": "KEN.34_1","province": "Nyamira","NL_NAME_1": "NA","GID_2": "KEN.34.3_1","county": "NorthMugirango","NL_NAME_2": "NA","city": "Ekerenyo","VARNAME_3": "NA","NL_NAME_3": "NA","TYPE_3": "Ward","ENGTYPE_3": "Ward","CC_3": "1361","HASC_3": "NA","name": "Ekerenyo.city","area_km2": 5.448741,"hist_schema_id": "Elevation0-9000","hist_area_km2": {"1625": 0.084806,"1650": 0.296819,"1675": 0.445229,"1700": 0.254416,"1725": 0.46643,"1750": 0.720846,"1775": 1.166072,"1800": 1.017663,"1825": 0.508831,"1850": 0.402825,"1875": 0.063604,"1900": 0.021201}}}