{"type":"Feature","properties":{"GID_3":"KEN.2.2.1_1","GID_0":"KEN","country":"Kenya","GID_1":"KEN.2_1","province":"Bomet","NL_NAME_1":"NA","GID_2":"KEN.2.2_1","county":"BometEast","NL_NAME_2":"NA","city":"Chemaner","VARNAME_3":"NA","NL_NAME_3":"NA","TYPE_3":"Ward","ENGTYPE_3":"Ward","CC_3":"980","HASC_3":"NA","name":"Chemaner.city"},
"geometry":{"type": "MultiPolygon","coordinates": [[[[35.4478,-0.824,1998.6428],[35.457,-0.8323,2007.2946],[35.4559,-0.834,1986.5499],[35.4599,-0.8381,1959.4133],[35.4587,-0.8395,1959.4133],[35.4597,-0.8424,1944.3335],[35.4624,-0.8436,1973.0739],[35.4651,-0.8477,1952.8066],[35.463,-0.8583,1905.6682],[35.4666,-0.857,1914.1462],[35.4681,-0.8582,1910.6693],[35.4695,-0.8547,1933.8787],[35.4717,-0.8544,1923.0115],[35.4717,-0.8556,1920.2635],[35.4728,-0.8544,1909.1531],[35.4713,-0.8512,1919.7509],[35.4745,-0.8492,1906.6023],[35.4765,-0.8503,1910.373],[35.4774,-0.8456,1911.4606],[35.4792,-0.8461,1915.53],[35.4784,-0.844,1942.0377],[35.4797,-0.8428,1906.457],[35.4772,-0.8409,1943.8615],[35.4777,-0.8384,1950.3909],[35.4798,-0.8371,1930.8752],[35.4791,-0.8349,1943.2976],[35.4815,-0.8337,1946.7234],[35.4816,-0.8317,1965.1226],[35.4844,-0.8311,1954.4412],[35.4845,-0.8282,1965.7921],[35.4874,-0.8282,1934.7386],[35.4872,-0.8255,1959.5688],[35.4899,-0.8259,1992.7589],[35.4909,-0.8233,2004.7375],[35.4945,-0.8233,1980.3502],[35.4947,-0.8202,2020.9664],[35.4972,-0.8188,2024.4574],[35.5003,-0.8185,2007.8344],[35.5007,-0.8206,1991.0342],[35.5021,-0.8188,1986.989],[35.5092,-0.8185,2054.0615],[35.5116,-0.8158,1978.7317],[35.5114,-0.8139,2003.2506],[35.5134,-0.8139,1987.6689],[35.5127,-0.8117,2010.542],[35.5169,-0.813,2029.8418],[35.5179,-0.8111,2023.8921],[35.5204,-0.8108,2000.4119],[35.5195,-0.8081,2040.9414],[35.521,-0.8042,2048.179],[35.527,-0.8044,2058.406],[35.5278,-0.8015,2073.4158],[35.5308,-0.8003,2043.54],[35.5321,-0.7976,2070.585],[35.5341,-0.7977,2070.585],[35.5344,-0.7949,2113.8589],[35.5383,-0.7934,2127.4683],[35.5381,-0.7919,2154.499],[35.5444,-0.7871,2134.8525],[35.5467,-0.7816,2172.3789],[35.5443,-0.7783,2207.283],[35.5338,-0.7714,2296.2109],[35.5073,-0.768,2141.0815],[35.502,-0.7655,2143.1362],[35.4781,-0.7879,2145.2371],[35.4649,-0.793,2112.7622],[35.4596,-0.8025,2047.34],[35.4545,-0.8065,2047.4384],[35.4527,-0.806,2082.2927],[35.4476,-0.8114,2033.3003],[35.4455,-0.8168,2039.3232],[35.4468,-0.8184,1998.1349],[35.4458,-0.8213,1975.5997],[35.4478,-0.824,1998.6428]]]]}}