{"type": "Feature","bbox": [35.0268,-1.1102,35.1023,-1.0351],"geometry": {"type": "MultiPolygon","coordinates": [[[[35.0268,-1.0881,1859.863],[35.0397,-1.0814,1872.8939],[35.0434,-1.076,1863.3745],[35.0469,-1.0665,1865.7119],[35.0523,-1.06,1870.4407],[35.0699,-1.0964,1822.7078],[35.0772,-1.1061,1813.8838],[35.0849,-1.1102,1801.019],[35.085,-1.1084,1803.0796],[35.0889,-1.1071,1788.9302],[35.0952,-1.0994,1779.7058],[35.1023,-1.0945,1790.4148],[35.0944,-1.0836,1781.2528],[35.0955,-1.0812,1797.8678],[35.0924,-1.0803,1772.6848],[35.091,-1.0774,1768.3624],[35.0913,-1.0649,1799.9199],[35.0945,-1.0568,1785.5332],[35.0922,-1.0489,1799.0199],[35.0859,-1.0463,1813.0652],[35.0764,-1.0465,1815.5546],[35.0664,-1.0428,1850.0402],[35.0524,-1.0351,1849.1451],[35.0408,-1.0637,1830.3566],[35.0302,-1.0782,1850.667],[35.0268,-1.0881,1859.863]]]]}
,"properties": {"GID_3": "KEN.33.1.1_1","GID_0": "KEN","country": "Kenya","GID_1": "KEN.33_1","province": "Narok","NL_NAME_1": "NA","GID_2": "KEN.33.1_1","county": "EmuruaDikirr","NL_NAME_2": "NA","city": "Ilkerin","VARNAME_3": "NA","NL_NAME_3": "NA","TYPE_3": "Ward","ENGTYPE_3": "Ward","CC_3": "887","HASC_3": "NA","name": "Ilkerin.city","area_km2": 30.69543,"hist_schema_id": "Elevation0-9000","hist_area_km2": {"1725": 0.16959,"1750": 0.89033,"1775": 3.51894,"1800": 9.98447,"1825": 7.08031,"1850": 6.78355,"1875": 2.26825}}}