{"type":"Feature","properties":{"GID_3":"KEN.15.3.3_1","GID_0":"KEN","country":"Kenya","GID_1":"KEN.15_1","province":"Kirinyaga","NL_NAME_1":"NA","GID_2":"KEN.15.3_1","county":"Mwea","NL_NAME_2":"NA","city":"Murinduko","VARNAME_3":"NA","NL_NAME_3":"NA","TYPE_3":"Ward","ENGTYPE_3":"Ward","CC_3":"501","HASC_3":"NA","name":"Murinduko.city"},
"geometry":{"type": "MultiPolygon","coordinates": [[[[37.4478,-0.539,1318.9966],[37.4449,-0.5382,1361.1781],[37.4383,-0.54,1364.3733],[37.4309,-0.5375,1390.0043],[37.4145,-0.5489,1353.7456],[37.3893,-0.5495,1347.1013],[37.3891,-0.5519,1354.7372],[37.3853,-0.5536,1352.5122],[37.3848,-0.5555,1335.8284],[37.385,-0.5666,1296.6854],[37.3866,-0.5693,1289.6096],[37.3845,-0.579,1261.2457],[37.3747,-0.5922,1246.0291],[37.3673,-0.599,1226.7538],[37.3691,-0.6041,1217.2693],[37.3704,-0.601,1219.6482],[37.3716,-0.6023,1219.6133],[37.3711,-0.6194,1207.8411],[37.3735,-0.6181,1196.014],[37.3759,-0.6196,1184.1234],[37.3791,-0.6141,1189.8102],[37.3801,-0.6149,1180.2614],[37.3794,-0.6201,1184.1489],[37.3813,-0.6229,1179.4396],[37.3774,-0.6263,1185.2043],[37.3752,-0.6351,1167.2307],[37.3835,-0.6401,1163.3274],[37.3903,-0.6387,1152.0295],[37.3975,-0.6416,1148.9939],[37.3999,-0.6385,1147.7703],[37.3999,-0.6405,1148.4921],[37.4029,-0.6414,1146.1931],[37.4061,-0.6451,1140.421],[37.409,-0.6422,1138.3044],[37.4097,-0.6451,1138.1407],[37.4133,-0.6441,1129.5023],[37.414,-0.6419,1126.9778],[37.4156,-0.6431,1126.5161],[37.414,-0.6469,1130.9434],[37.4175,-0.6509,1139.9661],[37.4156,-0.6516,1132.5585],[37.4178,-0.6573,1129.5513],[37.4162,-0.659,1136.3051],[37.4184,-0.6599,1125.4939],[37.4186,-0.6636,1122.2883],[37.4208,-0.6648,1126.2932],[37.4195,-0.6659,1126.2932],[37.4224,-0.6671,1126.0758],[37.4246,-0.666,1147.4076],[37.425,-0.6696,1121.9969],[37.4276,-0.6701,1134.7158],[37.4256,-0.6759,1126.0607],[37.4277,-0.6775,1114.0594],[37.4293,-0.6761,1118.1375],[37.4316,-0.6813,1107.8762],[37.436,-0.6817,1110.5637],[37.4324,-0.6865,1116.2065],[37.4362,-0.6893,1118.0486],[37.4309,-0.6899,1116.1499],[37.4305,-0.6926,1114.6055],[37.4337,-0.694,1113.9646],[37.4341,-0.6977,1105.2733],[37.4361,-0.6985,1109.4299],[37.4379,-0.7026,1107.4668],[37.4409,-0.7031,1108.7776],[37.4397,-0.7038,1108.7776],[37.4405,-0.7064,1101.2839],[37.4416,-0.704,1108.7776],[37.4442,-0.7052,1108.2761],[37.4453,-0.71,1095.0194],[37.4482,-0.7085,1103.772],[37.4486,-0.7146,1089.7175],[37.4572,-0.7094,1100.7319],[37.4613,-0.7096,1086.6887],[37.4644,-0.7073,1079.0515],[37.4633,-0.7037,1083.0459],[37.4657,-0.7037,1079.0183],[37.4664,-0.7019,1082.8862],[37.4707,-0.7044,1094.5129],[37.4728,-0.703,1092.0841],[37.4734,-0.7077,1081.326],[37.4739,-0.7061,1081.8362],[37.4758,-0.7067,1088.8621],[37.4779,-0.71,1079.0707],[37.4772,-0.7075,1080.8469],[37.4798,-0.6917,1086.5602],[37.478,-0.6869,1091.8225],[37.4748,-0.6846,1092.5685],[37.4739,-0.6787,1101.1963],[37.4767,-0.6772,1103.0483],[37.4763,-0.6729,1108.3806],[37.4785,-0.6691,1110.5369],[37.4731,-0.6574,1115.9354],[37.4743,-0.6559,1115.6042],[37.472,-0.6527,1123.0165],[37.4724,-0.6485,1124.2963],[37.4756,-0.6416,1130.8494],[37.4786,-0.6391,1141.7672],[37.4779,-0.6353,1139.7107],[37.4797,-0.6333,1136.606],[37.4806,-0.6253,1160.5626],[37.4869,-0.6227,1187.894],[37.4869,-0.6161,1195.2245],[37.4882,-0.6145,1169.51],[37.4826,-0.6038,1177.8446],[37.4836,-0.6028,1205.9833],[37.4821,-0.6029,1190.3982],[37.4811,-0.6008,1205.8636],[37.479,-0.6016,1184.2424],[37.4788,-0.6,1191.1204],[37.4765,-0.599,1197.4208],[37.4794,-0.5962,1192.2839],[37.4777,-0.5931,1209.1122],[37.4794,-0.5894,1226.6982],[37.4827,-0.5887,1218.618],[37.4853,-0.5818,1205.696],[37.4839,-0.5789,1223.4363],[37.479,-0.576,1226.8075],[37.4758,-0.5694,1256.8438],[37.4769,-0.5668,1229.3582],[37.474,-0.5582,1240.427],[37.4717,-0.5553,1302.4955],[37.4625,-0.5551,1279.8378],[37.4608,-0.5494,1316.0718],[37.4526,-0.5489,1300.6633],[37.4473,-0.5432,1320.8293],[37.4478,-0.539,1318.9966]]]]}}