{"type": "Feature","bbox": [36.8783,-1.7775,37.868,-0.7745],"geometry": {"type": "MultiPolygon","coordinates": [[[[37.3961,-1.6605,1395.2128],[37.3935,-1.6528,1417.426],[37.3889,-1.6459,1427.736],[37.386,-1.646,1461.8164],[37.3859,-1.6417,1440.4333],[37.382,-1.6349,1464.5942],[37.3831,-1.6312,1446.7737],[37.3769,-1.6234,1421.267],[37.3706,-1.6028,1398.1511],[37.3666,-1.5986,1405.3362],[37.364,-1.5898,1408.8228],[37.3424,-1.5723,1434.4573],[37.3351,-1.5599,1453.2634],[37.3405,-1.5543,1450.8699],[37.35,-1.5499,1410.9797],[37.3515,-1.5472,1408.7114],[37.3541,-1.5471,1392.5656],[37.3551,-1.5414,1375.7273],[37.3585,-1.5412,1370.47],[37.3605,-1.5328,1366.6226],[37.3635,-1.5355,1366.3225],[37.3651,-1.5352,1366.3225],[37.3647,-1.5323,1365.271],[37.3712,-1.5288,1333.4343],[37.3722,-1.5258,1314.7866],[37.3793,-1.519,1307.444],[37.3829,-1.5181,1290.4786],[37.384,-1.5195,1290.4786],[37.394,-1.5212,1309.6278],[37.3991,-1.5202,1342.1467],[37.4215,-1.53,1262.6399],[37.427,-1.5314,1244.017],[37.429,-1.5301,1253.1846],[37.4313,-1.5315,1238.5554],[37.4331,-1.5302,1259.3923],[37.435,-1.5318,1232.4823],[37.4377,-1.531,1226.2997],[37.4388,-1.5278,1262.7097],[37.4413,-1.5309,1229.3297],[37.4484,-1.5291,1247.0579],[37.4519,-1.5236,1238.1377],[37.4553,-1.5212,1223.6177],[37.4587,-1.5209,1222.7456],[37.4594,-1.5187,1231.6987],[37.4663,-1.5172,1226.3007],[37.4724,-1.5183,1216.8126],[37.4745,-1.5208,1212.1472],[37.4756,-1.5165,1221.3776],[37.4824,-1.5174,1216.8076],[37.4866,-1.5152,1205.4202],[37.4979,-1.5242,1204.2676],[37.5008,-1.524,1205.059],[37.5053,-1.5275,1197.7502],[37.5081,-1.5277,1210.8667],[37.5122,-1.5247,1198.9497],[37.5162,-1.5262,1203.3719],[37.518,-1.5279,1204.0764],[37.5178,-1.5321,1190.0946],[37.5212,-1.5325,1194.9027],[37.5202,-1.5362,1192.5811],[37.5221,-1.5382,1188.1604],[37.5258,-1.5367,1195.8801],[37.535,-1.5401,1186.6608],[37.5443,-1.5408,1186.624],[37.5451,-1.537,1182.0337],[37.5505,-1.5369,1184.14],[37.5552,-1.5409,1182.2263],[37.5499,-1.5451,1189.7126],[37.5508,-1.5481,1176.2158],[37.5633,-1.5517,1172.7312],[37.5627,-1.5533,1173.6791],[37.5568,-1.5545,1191.0017],[37.5567,-1.5577,1188.1713],[37.5602,-1.5578,1174.4985],[37.5623,-1.56,1168.7081],[37.5686,-1.5575,1187.4022],[37.5761,-1.5578,1184.8551],[37.5731,-1.564,1182.2849],[37.574,-1.5651,1163.0613],[37.5787,-1.565,1169.3237],[37.5821,-1.5608,1179.1287],[37.5906,-1.5575,1151.4922],[37.5981,-1.5511,1166.5537],[37.598,-1.5546,1143.4346],[37.6007,-1.5578,1139.9583],[37.5993,-1.5612,1150.6875],[37.6067,-1.5609,1138.5121],[37.6082,-1.5661,1133.3502],[37.6137,-1.5639,1130.8059],[37.6175,-1.5657,1134.1292],[37.6234,-1.5811,1118.0535],[37.6314,-1.5893,1127.4973],[37.635,-1.5895,1123.4459],[37.6415,-1.5865,1101.6854],[37.6396,-1.5901,1096.6981],[37.6433,-1.593,1091.7759],[37.6415,-1.5954,1099.5389],[37.6436,-1.5999,1083.6707],[37.6424,-1.603,1096.8087],[37.6445,-1.6146,1077.9683],[37.6466,-1.62,1063.4028],[37.65,-1.6219,1076.6067],[37.6492,-1.6285,1071.2261],[37.6557,-1.6304,1084.861],[37.6564,-1.6373,1053.698],[37.661,-1.6449,1053.5625],[37.6684,-1.6416,1073.4395],[37.6748,-1.6296,1097.3499],[37.6812,-1.6264,1122.7673],[37.6833,-1.6192,1142.0502],[37.687,-1.6193,1169.808],[37.6883,-1.617,1175.198],[37.6871,-1.6073,1325.0214],[37.6905,-1.5995,1244.7784],[37.6846,-1.5885,1327.8002],[37.6841,-1.5863,1377.8552],[37.6858,-1.5843,1271.2053],[37.6898,-1.5879,1251.9248],[37.6923,-1.5859,1235.4594],[37.6939,-1.5867,1251.9468],[37.6936,-1.5835,1226.2654],[37.696,-1.5871,1264.7301],[37.7011,-1.584,1207.2583],[37.7113,-1.6046,1105.548],[37.719,-1.6085,1102.6342],[37.7279,-1.6033,1068.652],[37.729,-1.6003,1070.4805],[37.7281,-1.5969,1079.4827],[37.735,-1.5925,1032.6333],[37.7363,-1.5845,1043.4724],[37.7322,-1.581,1052.963],[37.7351,-1.5788,1031.9165],[37.7362,-1.5749,1039.8663],[37.7453,-1.5688,998.9583],[37.7502,-1.5685,986.5454],[37.7538,-1.5662,950.3127],[37.7501,-1.5541,969.8505],[37.7423,-1.5531,972.6553],[37.7346,-1.5444,972.2574],[37.7245,-1.5284,960.7823],[37.7241,-1.524,994.4977],[37.7205,-1.5227,962.8478],[37.7141,-1.5099,967.2853],[37.7054,-1.5066,982.4124],[37.7015,-1.508,987.5212],[37.6948,-1.4978,992.5308],[37.7016,-1.4909,1028.7552],[37.7072,-1.4888,1064.3894],[37.7127,-1.4884,1060.903],[37.7184,-1.4927,1110.132],[37.7269,-1.4933,1213.0388],[37.7326,-1.4961,1219.4091],[37.7613,-1.4881,1195.1145],[37.7739,-1.4864,1182.6526],[37.7796,-1.4783,1137.3755],[37.7812,-1.4706,1095.4037],[37.7888,-1.4653,1064.7886],[37.7977,-1.4556,1053.5679],[37.8086,-1.448,1027.4464],[37.8198,-1.4463,1008.8703],[37.8162,-1.444,1011.4106],[37.8181,-1.4417,1015.6298],[37.8128,-1.4388,1016.6338],[37.8137,-1.4339,1015.2838],[37.8117,-1.4293,1032.0001],[37.8128,-1.4266,1027.1965],[37.8101,-1.4238,1021.7312],[37.8102,-1.4199,1028.4965],[37.8077,-1.4181,1031.5824],[37.8085,-1.4164,1022.9519],[37.8049,-1.4028,1027.5712],[37.8047,-1.3935,1034.5944],[37.7987,-1.3961,1040.8806],[37.7992,-1.392,1036.6145],[37.7931,-1.3818,1041.345],[37.7913,-1.3816,1045.1375],[37.7895,-1.3772,1052.8279],[37.7906,-1.376,1069.3701],[37.7853,-1.3754,1053.9657],[37.7842,-1.3707,1074.4335],[37.7813,-1.3717,1064.0715],[37.776,-1.36,1070.4268],[37.7734,-1.3605,1080.0576],[37.7676,-1.3566,1067.0889],[37.7657,-1.3574,1068.3422],[37.7657,-1.3545,1093.5464],[37.7595,-1.3549,1088.9735],[37.7555,-1.3573,1075.2365],[37.7543,-1.3547,1084.5786],[37.7489,-1.3577,1091.542],[37.7448,-1.3565,1081.1123],[37.7453,-1.3512,1085.801],[37.7398,-1.3476,1087.0254],[37.7381,-1.3418,1091.2345],[37.7327,-1.3413,1091.3706],[37.7326,-1.336,1092.9579],[37.7261,-1.3236,1101.2749],[37.7241,-1.3223,1097.0847],[37.7257,-1.3197,1097.028],[37.7239,-1.3169,1096.2214],[37.7251,-1.3135,1108.8102],[37.7217,-1.3121,1102.8888],[37.7172,-1.3031,1106.2397],[37.7174,-1.2992,1116.9801],[37.7136,-1.2985,1112.9022],[37.7139,-1.2904,1122.4991],[37.7085,-1.2891,1112.4374],[37.7067,-1.2792,1117.4404],[37.7027,-1.2751999999999999,1125.1295],[37.7026,-1.2717,1129.25],[37.6986,-1.2709,1127.6318],[37.6966,-1.268,1134.7915],[37.6979,-1.2655,1132.4103],[37.6938,-1.2574,1135.8563],[37.6936,-1.2493,1154.022],[37.6891,-1.2484,1139.2971],[37.6909,-1.2469,1151.6335],[37.688,-1.2454,1149.5493],[37.6897,-1.2417,1143.6025],[37.6886,-1.2395,1145.8262],[37.6844,-1.2341,1161.1665],[37.6781,-1.2332,1151.6848],[37.6756,-1.2314,1151.7339],[37.6754,-1.2291,1155.4236],[37.6729,-1.2262,1164.1707],[37.6716,-1.2267,1159.6633],[37.6715,-1.2245,1165.0918],[37.6652,-1.2188,1163.2487],[37.6668,-1.2164,1172.9071],[37.6637,-1.2158,1169.7571],[37.6615,-1.2104,1171.9639],[37.6561,-1.2057,1174.4921],[37.6548,-1.2002,1182.184],[37.6497,-1.1969,1179.748],[37.6475,-1.1886,1189.4702],[37.6438,-1.1835,1187.1707],[37.6384,-1.1685,1195.7485],[37.6347,-1.1615,1198.5975],[37.6261,-1.152,1204.9648],[37.6243,-1.1472,1210.8176],[37.6177,-1.1426,1218.491],[37.6125,-1.1422,1217.4763],[37.6111,-1.1403,1220.7898],[37.6056,-1.1423,1222.2046],[37.6031,-1.1341,1235.85],[37.6006,-1.1311,1243.8977],[37.5977,-1.1312,1245.4011],[37.5957,-1.0868,1195.8677],[37.7336,-1.08,1488.9043],[37.7939,-1.125,1158.2831],[37.7978,-1.1207,1150.1014],[37.7983,-1.1179,1153.9667],[37.801,-1.1179,1149.701],[37.8079,-1.0994,1137.4995],[37.808,-1.0922,1130.7009],[37.8188,-1.0802,1116.7274],[37.8206,-1.0708,1120.2195],[37.8261,-1.07,1118.7698],[37.8278,-1.0711,1117.1886],[37.832,-1.0677,1105.5647],[37.8361,-1.0583,1101.5148],[37.8405,-1.0518,1105.3539],[37.8437,-1.0511,1100.0795],[37.8483,-1.0417,1083.4755],[37.8463,-1.0293,1082.4446],[37.8488,-1.0264,1077.3057],[37.8491,-1.0136,1075.9434],[37.8512,-1.0032,1072.488],[37.847,-0.9995,1066.5034],[37.8462,-0.9947,1079.1431],[37.8503,-0.9943,1060.2428],[37.8496,-0.9911,1062.156],[37.854,-0.9866,1068.833],[37.8588,-0.9857,1061.3505],[37.8609,-0.9827,1063.9282],[37.8655,-0.9827,1042.5295],[37.8641,-0.9802,1049.1245],[37.8622,-0.98,1060.1696],[37.8623,-0.9784,1062.1332],[37.868,-0.9778,1040.6538],[37.8677,-0.9735,1047.4075],[37.8622,-0.9738,1052.1353],[37.864,-0.9689,1048.5203],[37.8596,-0.9679,1037.0217],[37.8572,-0.9655,1044.022],[37.8532,-0.9668,1032.5447],[37.8445,-0.964,1050.3005],[37.8507,-0.961,1026.3589],[37.8511,-0.959,1028.2107],[37.8527,-0.9627,1017.901],[37.8541,-0.9623,1020.1473],[37.8539,-0.9586,1009.8721],[37.8491,-0.9528,1016.7715],[37.8515,-0.9503,1011.3912],[37.8463,-0.9473,1009.24],[37.8488,-0.9434,991.002],[37.846,-0.9423,1012.5322],[37.8468,-0.9402,1003.7235],[37.8502,-0.9418,995.1078],[37.8523,-0.938,981.1839],[37.8513,-0.9352,978.5115],[37.8488,-0.9366,989.3364],[37.8489,-0.9348,977.3666],[37.8512,-0.9335,980.846],[37.847,-0.9285,970.9523],[37.8416,-0.9277,969.4866],[37.8443,-0.9249,965.5533],[37.8438,-0.9236,962.4672],[37.8405,-0.9237,966.4997],[37.8427,-0.9198,967.7705],[37.8375,-0.9202,969.6044],[37.8386,-0.9098,941.8979],[37.8331,-0.9126,948.6611],[37.8331,-0.9078,934.9207],[37.8367,-0.9073,937.5591],[37.8369,-0.9052,958.3369],[37.8322,-0.9057,928.1594],[37.8284,-0.9014,916.9715],[37.8183,-0.8998,914.9718],[37.8185,-0.8962,926.0416],[37.8225,-0.8953,902.6809],[37.8243,-0.8908,892.515],[37.8221,-0.8909,897.0701],[37.8216,-0.8849,876.6735],[37.8198,-0.8826,900.0001],[37.8219,-0.8829,875.285],[37.8216,-0.8798,878.7238],[37.8257,-0.8761,852.5969],[37.8238,-0.8728,851.4018],[37.8274,-0.8722,840.6356],[37.8262,-0.8666,870.6809],[37.8318,-0.8641,828.705],[37.8284,-0.8607,831.7607],[37.8299,-0.8572,836.756],[37.833,-0.8575,810.5475],[37.833,-0.855,808.5882],[37.831,-0.8536,827.0291],[37.8365,-0.8515,813.9799],[37.8382,-0.8485,800.8707],[37.8365,-0.8466,814.1852],[37.8373,-0.845,814.2292],[37.841,-0.845,796.4064],[37.8447,-0.8421,779.1264],[37.8415,-0.8404,786.5217],[37.8408,-0.835,786.3975],[37.8491,-0.8325,752.635],[37.8456,-0.8281,764.3287],[37.8475,-0.8254,748.8835],[37.8475,-0.8213,751.2487],[37.843,-0.8185,749.264],[37.846,-0.814,735.3127],[37.8448,-0.8111,742.1822],[37.8381,-0.8094,754.2999],[37.8369,-0.8122,748.0024],[37.8336,-0.8137,742.0927],[37.8286,-0.8056,747.7869],[37.819,-0.8044,757.7431],[37.8084,-0.8152,764.7915],[37.8079,-0.8072,779.0],[37.8056,-0.8017,796.5021],[37.7964,-0.8168,779.0],[37.791,-0.819,779.4268],[37.788,-0.8227,783.6351],[37.784,-0.8227,792.2843],[37.7821,-0.8248,786.1959],[37.7795,-0.8249,799.1313],[37.7711,-0.8207,829.156],[37.7649,-0.8243,850.37],[37.7573,-0.8238,867.7808],[37.7561,-0.8182,885.9291],[37.7539,-0.8154,892.5886],[37.7548,-0.8127,901.4661],[37.7498,-0.8028,922.9648],[37.7474,-0.7878,925.0],[37.7439,-0.7792,925.0],[37.7322,-0.7745,940.7499],[37.7242,-0.7804,937.1897],[37.7185,-0.7795,942.1992],[37.7066,-0.7815,954.0809],[37.6985,-0.7844,967.3395],[37.6988,-0.789,961.4685],[37.6929,-0.7911,968.7289],[37.6928,-0.7947,956.9959],[37.6905,-0.7967,970.5649],[37.6878,-0.794,980.9094],[37.6815,-0.7958,973.7408],[37.6824,-0.8087,1004.0],[37.6798,-0.8175,1004.0],[37.6815,-0.8226,1004.0],[37.6741,-0.8257,1004.0],[37.671,-0.8317,1004.0],[37.6709,-0.8372,1004.0],[37.6658,-0.8419,1004.0],[37.6646,-0.8462,1004.0],[37.6569,-0.8475,1006.6494],[37.6533,-0.8447,1004.0],[37.6486,-0.8444,1009.7515],[37.6461,-0.842,1010.9083],[37.64,-0.8455,1008.884],[37.6353,-0.8386,1008.9028],[37.6292,-0.8385,1019.0349],[37.6279,-0.8497,1010.7027],[37.6263,-0.8518,1026.5862],[37.6179,-0.8515,1020.2512],[37.6147,-0.8552,1017.3988],[37.6049,-0.8551,1023.1243],[37.6008,-0.8627,1017.9532],[37.5961,-0.8606,1019.0988],[37.5891,-0.8627,1019.5222],[37.5869,-0.8663,1013.0868],[37.5901,-0.868,1015.8823],[37.5914,-0.8709,1010.8716],[37.5882,-0.8729,1031.5205],[37.5872,-0.8782,1047.0305],[37.5749,-0.8768,1054.5],[37.5647,-0.8808,1054.5],[37.5614,-0.8754,1054.5],[37.5589,-0.8751,1054.5],[37.5509,-0.8844,1054.5],[37.5453,-0.8827,1054.5],[37.5428,-0.887,1054.5],[37.5372,-0.8887,1054.5],[37.5322,-0.8956,1054.5],[37.5355,-0.9063,1054.5],[37.5331,-0.9116,1054.5],[37.5187,-0.9161,1054.5],[37.5158,-0.912,1054.5],[37.515,-0.902,1054.5],[37.5026,-0.8989,1054.5],[37.4951,-0.9024,1054.5],[37.4912,-0.8991,1054.5],[37.4853,-0.8975,1054.5],[37.4832,-0.893,1054.5],[37.4766,-0.891,1054.5],[37.476,-0.8874,1054.5],[37.4715,-0.884,1054.5],[37.4741,-0.8741,1054.5],[37.4702,-0.8746,1054.5],[37.4673,-0.8715,1054.5],[37.4622,-0.874,1054.5],[37.4585,-0.8689,1054.5],[37.4537,-0.8703,1054.5],[37.4472,-0.869,1054.5],[37.4429,-0.8611,1054.5],[37.4325,-0.8605,1058.7417],[37.4269,-0.8648,1054.5],[37.4188,-0.86,1058.5518],[37.4132,-0.8598,1054.5],[37.4111,-0.857,1054.5],[37.4149,-0.8518,1054.5],[37.4125,-0.8484,1054.5],[37.4037,-0.8498,1054.5],[37.3979,-0.8546,1054.5],[37.394,-0.8527,1059.1029],[37.3884,-0.853,1054.5],[37.3857,-0.8501,1059.2485],[37.3801,-0.8557,1054.5],[37.3765,-0.8532,1054.5],[37.3769,-0.8488,1054.5],[37.3704,-0.8475,1054.5],[37.3638,-0.8429,1054.5],[37.3578,-0.8419,1054.5],[37.351,-0.844,1054.5],[37.3499,-0.8407,1054.5],[37.3466,-0.8429,1054.5],[37.3433,-0.8404,1054.5],[37.3368,-0.8449,1054.5],[37.3341,-0.8422,1054.5],[37.3273,-0.8417,1054.5],[37.3235,-0.8383,1054.5],[37.3263,-0.8338,1065.9434],[37.3199,-0.8345,1054.5],[37.3155,-0.8234,1054.5],[37.3123,-0.821,1054.5],[37.3132,-0.817,1061.1407],[37.3103,-0.8138,1058.1615],[37.3051,-0.8118,1054.5],[37.306,-0.8063,1054.5],[37.3048,-0.8046,1054.5],[37.3063,-0.8007,1054.5],[37.3037,-0.7978,1054.5],[37.3009,-0.7974,1054.5],[37.2989,-0.7934,1054.5],[37.2939,-0.7919,1056.1722],[37.2876,-0.7825,1056.4214],[37.2841,-0.781,1101.9255],[37.2816,-0.7828,1071.1656],[37.2769,-0.7823,1088.2273],[37.2717,-0.7853,1056.5],[37.2674,-0.7852,1070.3904],[37.2626,-0.7915,1123.557],[37.2584,-0.8374,1145.1991],[37.2332,-0.8371,1224.0021],[37.2252,-0.8521,1317.6552],[37.2407,-0.8578,1294.0094],[37.2416,-0.8615,1330.6448],[37.2484,-0.8613,1365.0034],[37.2527,-0.8572,1302.3558],[37.2562,-0.864,1360.9425],[37.2822,-0.8928,1314.1099],[37.3009,-0.9028,1233.7336],[37.3197,-0.9157,1142.4924],[37.3175,-0.9181,1138.0674],[37.3186,-0.9209,1133.3867],[37.3234,-0.926,1224.8223],[37.3249,-0.9257,1246.1107],[37.3241,-0.929,1187.7402],[37.3256,-0.9301,1203.4344],[37.3146,-0.9361,1224.9673],[37.3168,-0.944,1243.8402],[37.3277,-0.9404,1190.2076],[37.3306,-0.9438,1247.6862],[37.3283,-0.9462,1236.7241],[37.3339,-0.9515,1236.3442],[37.3351,-0.9557,1249.4877],[37.3369,-0.9545,1265.0533],[37.3426,-0.9577,1279.3947],[37.3546,-0.9434,1600.3398],[37.356,-0.9456,1490.0234],[37.3546,-0.9474,1571.3945],[37.3667,-0.9641,1421.5498],[37.3463,-0.9766,1271.952],[37.3355,-0.9765,1265.9285],[37.3383,-0.9813,1332.522],[37.3625,-0.9837,1418.5968],[37.4061,-1.008,1404.108],[37.4211,-1.0299,1185.2192],[37.4192,-1.0312,1197.2001],[37.4211,-1.0339,1267.6896],[37.3877,-1.0573,1282.2371],[37.3626,-1.0935,1286.3518],[37.3425,-1.1168,1291.09],[37.3386,-1.1107,1302.135],[37.3267,-1.0995,1319.1029],[37.326,-1.0968,1327.4536],[37.3187,-1.0932,1316.2682],[37.3109,-1.0826,1357.876],[37.3036,-1.0779,1339.5068],[37.3018,-1.0745,1359.926],[37.2954,-1.0704,1347.3633],[37.2878,-1.0695,1364.9189],[37.2814,-1.0651,1381.0131],[37.2625,-1.0676,1368.7133],[37.2496,-1.0777,1409.395],[37.2462,-1.0762,1412.3324],[37.2435,-1.0782,1406.528],[37.2323,-1.0734,1407.8984],[37.2281,-1.0739,1408.8237],[37.2239,-1.0765,1406.5007],[37.2113,-1.078,1426.5652],[37.2013,-1.0883,1409.157],[37.1927,-1.0922,1435.7031],[37.1901,-1.0958,1452.063],[37.1879,-1.104,1419.0044],[37.1809,-1.1071,1425.7119],[37.1754,-1.1134,1420.2253],[37.1792,-1.1225,1424.8925],[37.1817,-1.124,1452.2081],[37.182,-1.1278,1431.6177],[37.1849,-1.1284,1451.9685],[37.1869,-1.1314,1472.9769],[37.1868,-1.1367,1422.2415],[37.1841,-1.1404,1459.1013],[37.1854,-1.1427,1425.5785],[37.1807,-1.1506,1462.3055],[37.1825,-1.1626,1439.7566],[37.1807,-1.1661,1435.8793],[37.1741,-1.1714,1465.4387],[37.166,-1.1863,1439.2034],[37.1615,-1.1911,1469.0657],[37.1556,-1.1932,1469.7761],[37.1596,-1.2033,1443.8458],[37.1555,-1.2044,1469.3945],[37.1528,-1.2075,1472.6162],[37.156,-1.2104,1468.4517],[37.1544,-1.2193,1447.9242],[37.1508,-1.2233,1461.5016],[37.1406,-1.2239,1468.2924],[37.1358,-1.2309,1468.3203],[37.1261,-1.2306,1475.0073],[37.1206,-1.2327,1467.3505],[37.1185,-1.2357,1469.1931],[37.119,-1.245,1458.6488],[37.1161,-1.2462,1470.4888],[37.1093,-1.2449,1470.4641],[37.1094,-1.2571,1462.8909],[37.1021,-1.2582,1463.7966],[37.1015,-1.2601,1464.5203],[37.1037,-1.2635,1462.5802],[37.1007,-1.273,1464.8567],[37.0972,-1.2707,1464.0161],[37.085,-1.2763,1467.0743],[37.0823,-1.2826,1467.4717],[37.0784,-1.2812,1467.1862],[37.0765,-1.2826,1468.3105],[37.076,-1.2889,1466.429],[37.0724,-1.2925,1471.8036],[37.0723,-1.2971,1467.8906],[37.0757,-1.2984,1473.717],[37.0756,-1.3013,1466.2727],[37.026,-1.2895,1505.3231],[37.0019,-1.2984,1568.1804],[36.9948,-1.2791,1561.8912],[36.9738,-1.2872,1585.776],[36.9836,-1.3125,1584.9427],[36.9658,-1.3518,1606.6002],[36.9604,-1.346,1605.4683],[36.9339,-1.3364,1614.3257],[36.9056,-1.3618,1635.9758],[36.9145,-1.3723,1628.2865],[36.921,-1.3845,1621.8542],[36.9227,-1.392,1607.3999],[36.9281,-1.392,1614.0391],[36.9316,-1.3963,1605.775],[36.9364,-1.3968,1595.1729],[36.9421,-1.4012,1597.6196],[36.9453,-1.4065,1571.9996],[36.9477,-1.4213,1551.2739],[36.9548,-1.4262,1521.655],[36.9595,-1.4351,1522.5232],[36.9621,-1.4364,1526.024],[36.961,-1.4421,1510.7031],[36.9578,-1.4404,1508.9514],[36.9558,-1.435,1518.4526],[36.9501,-1.4356,1519.6985],[36.9428,-1.4306,1520.5773],[36.9314,-1.4305,1524.6731],[36.8899,-1.4123,1540.0248],[36.8783,-1.476,1598.6094],[36.8841,-1.4847,1577.0804],[36.8887,-1.4838,1579.0317],[36.9004,-1.4723,1579.3179],[36.9119,-1.4651,1557.2313],[36.9206,-1.4617,1548.5052],[36.9224,-1.4569,1549.1509],[36.9273,-1.4556,1546.3091],[36.9306,-1.4572,1544.2903],[36.9366,-1.4531,1540.6625],[36.9416,-1.4526,1538.8633],[36.9496,-1.4554,1528.5706],[36.9474,-1.4592,1532.0112],[36.9776,-1.4748,1553.1348],[36.9708,-1.4893,1555.1982],[36.9743,-1.4987,1573.246],[36.9627,-1.5108,1598.6484],[36.963,-1.5258,1601.1866],[36.9613,-1.53,1595.3458],[36.9589,-1.5296,1597.2117],[36.9573,-1.5327,1598.2584],[36.9572,-1.5423,1583.8087],[36.9662,-1.5533,1581.1434],[36.9737,-1.5549,1573.356],[36.9752,-1.552,1572.7148],[36.9776,-1.5531,1576.4788],[36.996,-1.581,1605.6179],[36.9908,-1.5849,1606.3315],[37.0004,-1.5973,1610.0049],[37.0065,-1.5927,1610.0514],[37.0814,-1.6929,1629.7203],[37.0803,-1.6937,1628.9197],[37.0843,-1.699,1630.5703],[37.0854,-1.6983,1630.5703],[37.1114,-1.733,1643.6235],[37.118,-1.7371,1641.2517],[37.1241,-1.7383,1646.1711],[37.1241,-1.741,1647.0514],[37.1322,-1.7425,1655.2883],[37.1328,-1.74,1652.2229],[37.141,-1.7357,1658.7811],[37.145,-1.7359,1660.2789],[37.1479,-1.7382,1665.4808],[37.1489,-1.7429,1672.0031],[37.147,-1.751,1649.3324],[37.1488,-1.7592,1641.7476],[37.1585,-1.764,1631.2159],[37.152,-1.7741,1608.7761],[37.1529,-1.7775,1615.973],[37.1567,-1.7771,1618.4901],[37.1655,-1.7611,1642.7321],[37.1764,-1.7536,1648.5315],[37.1938,-1.7212,1645.9303],[37.1966,-1.7199,1646.3745],[37.1919,-1.6527,1673.999],[37.175,-1.6169,1628.9647],[37.2294,-1.5921,1604.1044],[37.2319,-1.5889,1586.7292],[37.2453,-1.5921,1569.5107],[37.2514,-1.5919,1587.5073],[37.2523,-1.6355,1741.9281],[37.2563,-1.6445,1774.766],[37.2585,-1.6455,1803.7681],[37.2721,-1.6681,1826.4286],[37.265,-1.6803,1744.9165],[37.2789,-1.6875,1782.7466],[37.2893,-1.6984,1738.6855],[37.2881,-1.7115,1622.797],[37.3129,-1.7009,1571.363],[37.3294,-1.6999,1612.6699],[37.3314,-1.6981,1646.8668],[37.334,-1.7013,1660.8188],[37.3439,-1.7007,1568.1459],[37.3467,-1.7044,1558.5625],[37.3491,-1.7034,1580.498],[37.3502,-1.705,1576.6704],[37.3545,-1.7047,1601.7236],[37.3575,-1.7069,1571.5334],[37.364,-1.7037,1546.9181],[37.3736,-1.7049,1523.2595],[37.3801,-1.7019,1437.2079],[37.3848,-1.7017,1430.402],[37.3876,-1.6981,1429.0118],[37.3908,-1.698,1398.5305],[37.3929,-1.6951,1433.7653],[37.3942,-1.696,1433.7653],[37.4006,-1.6928,1388.496],[37.402,-1.6938,1377.4001],[37.4051,-1.6901,1395.0149],[37.4074,-1.691,1394.3816],[37.4082,-1.6891,1386.4849],[37.4122,-1.6891,1341.4562],[37.4131,-1.6878,1338.0005],[37.4081,-1.6845,1351.6719],[37.4069,-1.6794,1363.319],[37.4049,-1.6778,1363.58],[37.4061,-1.675,1366.1011],[37.4018,-1.6712,1372.1323],[37.4005,-1.6623,1409.2529],[37.3961,-1.6605,1395.2128]]]]}
,"properties": {"GID_1": "KEN.22_1","GID_0": "KEN","country": "Kenya","province": "Machakos","VARNAME_1": "NA","NL_NAME_1": "NA","TYPE_1": "County","ENGTYPE_1": "County","CC_1": "16","HASC_1": "KE.MC","ISO_1": "KE-22","name": "Machakos.province","area_km2": 6060.344,"hist_schema_id": "Elevation0-9000","hist_area_km2": {"725": 0.17,"750": 3.35,"775": 6.381,"800": 6.593,"825": 7.95,"850": 9.137,"875": 8.226,"900": 11.215,"925": 18.974,"950": 27.772,"975": 33.389,"1000": 49.309,"1025": 80.385,"1050": 213.599,"1075": 283.34,"1100": 298.451,"1125": 260.606,"1150": 259.691,"1175": 278.682,"1200": 307.994,"1225": 328.235,"1250": 266.402,"1275": 238.762,"1300": 258.2,"1325": 138.607,"1350": 91.654,"1375": 70.923,"1400": 69.271,"1425": 73.679,"1450": 92.077,"1475": 218.412,"1500": 351.844,"1525": 198.121,"1550": 163.949,"1575": 176.983,"1600": 213.964,"1625": 266.288,"1650": 186.021,"1675": 112.203,"1700": 70.896,"1725": 49.596,"1750": 41.309,"1775": 37.197,"1800": 30.415,"1825": 26.197,"1850": 20.941,"1875": 18.44,"1900": 17.274,"1925": 13.183,"1950": 12.59,"1975": 11.742,"2000": 9.665,"2025": 9.05,"2050": 6.422,"2075": 3.349,"2100": 0.869,"2125": 0.318,"2150": 0.085}}}