{"type": "Feature","bbox": [35.7855,0.9164,36.7239,2.8335],"geometry": {"type": "MultiPolygon","coordinates": [[[[36.3942,0.9164,1314.1632],[36.4217,0.9421,1465.6626],[36.431,0.9556,1458.8743],[36.4458,0.9876,1464.7982],[36.4508,1.0017,1301.4773],[36.4532,1.0183,1369.8008],[36.4484,1.0277,1383.6313],[36.4472,1.0346,1402.5081],[36.4426,1.041,1265.6617],[36.4443,1.0573,1289.8823],[36.4425,1.0616,1239.2175],[36.4434,1.0755,1411.5085],[36.4391,1.0851,1426.0487],[36.4388,1.091,1556.5259],[36.4398,1.1008,1427.1467],[36.4447,1.1126,1496.2678],[36.4447,1.1198,1493.0839],[36.44,1.1378,1325.3121],[36.4336,1.1436,1172.2955],[36.4361,1.1547,1246.24],[36.4413,1.1646,1359.0847],[36.4427,1.1792,1317.7286],[36.438,1.1826,1352.9695],[36.4333,1.1824,1316.8022],[36.4272,1.1874,1317.0101],[36.4199,1.1907,1418.895],[36.3979,1.1774,1239.5814],[36.3948,1.1771,1229.3921],[36.3915,1.1796,1167.049],[36.3901,1.1888,1046.5853],[36.3966,1.1948,1183.5701],[36.3974,1.2118,1073.8071],[36.3951,1.2249,950.9628],[36.4057,1.2342,912.7983],[36.4119,1.2362,934.3375],[36.4171,1.2308,970.3596],[36.4212,1.2384,950.0425],[36.4142,1.2489,939.7728],[36.4144,1.2598,974.4132],[36.412,1.2642,980.636],[36.4094,1.2633,1003.0948],[36.4045,1.2563,1090.9636],[36.4004,1.2589,1112.9187],[36.3966,1.2592,1049.6833],[36.3893,1.2674,1063.0563],[36.3912,1.2705,946.8799],[36.395,1.2699,924.0837],[36.3969,1.2771,1052.4487],[36.4042,1.2734,932.8693],[36.4096,1.2789,1117.0742],[36.4176,1.2744,1053.9758],[36.4238,1.2671,912.5563],[36.4305,1.2668,934.2007],[36.4472,1.2521,942.2169],[36.45,1.2529,980.3403],[36.4472,1.2561,936.2599],[36.4511,1.2574,949.453],[36.4536,1.2607,998.1839],[36.4503,1.2765,1001.8418],[36.4444,1.2822,1134.4143],[36.4402,1.2919,1188.1244],[36.4367,1.2953,1127.7345],[36.4381,1.3049,1208.4468],[36.4359,1.3081,1178.2217],[36.4267,1.3046,1147.2781],[36.421,1.2996,1127.4779],[36.4108,1.3042,1150.2347],[36.4061,1.3036,956.8768],[36.403,1.3121,1084.6589],[36.3972,1.3119,876.9043],[36.3937,1.3157,860.4387],[36.396,1.3184,840.6144],[36.4039,1.3173,947.9888],[36.4124,1.3297,880.4491],[36.4211,1.3347,987.7703],[36.4223,1.3465,945.0344],[36.4248,1.3496,827.9008],[36.434,1.3526,875.7759],[36.4416,1.3622,915.3093],[36.4604,1.3717,984.5895],[36.466,1.3846,956.6085],[36.4669,1.4025,1091.2577],[36.462,1.4072,966.5205],[36.4553,1.4023,1045.5382],[36.4508,1.41,900.4736],[36.4505,1.4141,925.1828],[36.4474,1.4165,997.6163],[36.4418,1.4145,1054.2776],[36.4379,1.4159,1085.2683],[36.4282,1.4125,1073.328],[36.4274,1.4192,1109.59],[36.4199,1.4206,1116.8374],[36.409,1.4326,962.8763],[36.4015,1.4373,894.7991],[36.3927,1.4493,813.9813],[36.3868,1.4499,859.4553],[36.3802,1.4456,852.3622],[36.3747,1.4463,896.2477],[36.3676,1.4426,891.6935],[36.3627,1.4431,858.9819],[36.3558,1.4413,830.4661],[36.3487,1.4445,859.3969],[36.3422,1.4508,860.8781],[36.3221,1.4756,999.5683],[36.3181,1.4763,944.2195],[36.2925,1.4689,734.0894],[36.2893,1.47,722.4822],[36.3,1.4911,957.5346],[36.2999,1.4961,933.5348],[36.2968,1.5043,875.6917],[36.301,1.5148,828.7635],[36.3011,1.5346,700.4874],[36.3026,1.5413,713.6751],[36.3346,1.5694,483.7907],[36.3413,1.5734,474.6402],[36.3444,1.5783,462.8197],[36.3448,1.5722,483.7052],[36.3463,1.571,504.6014],[36.357,1.5711,453.3978],[36.3588,1.5871,411.265],[36.3701,1.5965,416.6185],[36.3726,1.5949,440.8781],[36.3771,1.5861,484.8259],[36.376,1.575,576.5275],[36.3725,1.5707,612.1893],[36.3753,1.5442,715.2428],[36.3796,1.5373,758.1302],[36.3855,1.5324,723.7482],[36.3895,1.5251,784.0291],[36.3931,1.5253,763.0873],[36.3974,1.5273,670.2091],[36.4133,1.5623,469.8817],[36.4209,1.571,444.0755],[36.4264,1.573,500.4235],[36.4286,1.5835,443.0067],[36.4324,1.5892,452.194],[36.4331,1.597,426.6228],[36.4381,1.603,470.3713],[36.4411,1.615,438.2388],[36.4447,1.6184,435.4062],[36.4474,1.6189,442.1032],[36.4561,1.6143,545.4224],[36.4619,1.6143,595.0894],[36.464,1.616,526.3065],[36.4644,1.6285,490.0761],[36.4692,1.6422,475.372],[36.4703,1.6614,417.8519],[36.4776,1.6719,419.8916],[36.4815,1.6843,554.1642],[36.4856,1.6866,561.9335],[36.4871,1.7045,439.0489],[36.4998,1.7074,518.9266],[36.5038,1.7114,500.0132],[36.504,1.7198,493.0346],[36.5087,1.7251,470.5129],[36.5096,1.7383,550.6089],[36.5159,1.7466,584.0897],[36.5207,1.7468,599.9152],[36.5279,1.7578,652.7781],[36.5256,1.7643,697.4948],[36.5228,1.7583,672.4993],[36.5193,1.7569,701.4548],[36.519,1.7636,712.5304],[36.5129,1.7684,528.3804],[36.5116,1.7731,530.543],[36.513,1.7755,492.1168],[36.5189,1.7723,620.9362],[36.5192,1.7792,575.1387],[36.5172,1.7824,538.6097],[36.5217,1.7845,538.137],[36.5254,1.7904,579.3156],[36.524,1.792,606.9327],[36.5254,1.7944,601.9809],[36.5224,1.7972,654.8691],[36.5272,1.801,672.6127],[36.5316,1.808,747.3494],[36.5219,1.8143,713.3817],[36.5155,1.8232,634.2428],[36.5147,1.8311,638.4929],[36.5173,1.8322,616.7932],[36.523,1.8306,688.1993],[36.5245,1.8336,742.6484],[36.5216,1.8372,658.0114],[36.5249,1.8475,690.223],[36.5229,1.8527,668.5737],[36.5185,1.8475,644.5402],[36.5163,1.8528,685.9682],[36.5151,1.8806,503.6548],[36.5161,1.8844,512.8339],[36.5203,1.8865,615.9973],[36.5218,1.8901,555.8448],[36.5248,1.8905,688.9455],[36.5256,1.8952,604.3614],[36.5291,1.8969,634.4346],[36.533,1.9047,749.4076],[36.5375,1.9065,937.9776],[36.5384,1.9128,961.4279],[36.5414,1.9187,929.9967],[36.5421,1.9294,899.4923],[36.5397,1.944,701.295],[36.5412,1.9603,713.1808],[36.5396,1.9609,708.1672],[36.5379,1.9551,619.103],[36.5342,1.9535,597.8951],[36.532,1.9563,449.3679],[36.5467,1.9953,552.6401],[36.5454,2.004,447.827],[36.5412,2.0061,373.3407],[36.5405,2.0096,351.2032],[36.5415,2.0114,335.6282],[36.545,2.0118,408.7038],[36.5473,2.0083,401.9865],[36.5474,2.0212,420.0043],[36.5445,2.0277,313.2162],[36.5474,2.0325,318.18],[36.5499,2.0316,371.7272],[36.5518,2.0346,357.4162],[36.556,2.0429,356.5519],[36.5563,2.0485,344.2879],[36.5582,2.0504,344.682],[36.5611,2.0502,382.2317],[36.5647,2.0547,399.6594],[36.5686,2.0569,471.0166],[36.5671,2.0726,371.9898],[36.5486,2.0561,277.7804],[36.5438,2.0493,278.0339],[36.5419,2.0423,278.2032],[36.5345,2.0357,278.3019],[36.5349,2.0155,279.1365],[36.5323,2.0081,278.9369],[36.53,1.988,280.4362],[36.521,1.9785,280.5123],[36.5143,1.9648,281.7768],[36.5069,1.9542,282.0374],[36.508,1.9454,282.6551],[36.5114,1.9412,282.8999],[36.5087,1.9352,283.1617],[36.5108,1.9296,283.7687],[36.5092,1.9275,284.1564],[36.5065,1.9293,284.1892],[36.5031,1.9159,284.9498],[36.5017,1.9008,286.304],[36.4982,1.8956,286.1412],[36.4936,1.8953,286.7258],[36.4863,1.8912,287.4509],[36.4863,1.8863,288.3137],[36.4733,1.8758,289.769],[36.4727,1.8729,290.3344],[36.4755,1.8637,290.3118],[36.474,1.8582,290.5291],[36.4644,1.8511,293.1874],[36.4604,1.8445,293.2005],[36.4497,1.8428,295.0317],[36.4399,1.8377,296.9148],[36.4312,1.8369,298.3022],[36.4169,1.8281,300.8988],[36.4028,1.8315,305.4366],[36.3921,1.8208,304.6778],[36.3906,1.8142,307.6973],[36.384,1.8032,310.0228],[36.3816,1.7957,311.9247],[36.3768,1.7933,309.6534],[36.3777,1.7873,309.7993],[36.3729,1.7788,313.5904],[36.3711,1.7697,314.9643],[36.3706,1.7526,318.0719],[36.3632,1.7402,322.6052],[36.3613,1.7286,324.8512],[36.3572,1.7219,328.228],[36.3565,1.697,335.2549],[36.3542,1.6911,335.7794],[36.3531,1.6811,337.4474],[36.3295,1.6736,349.6393],[36.3115,1.6738,358.9871],[36.2861,1.67,378.7373],[36.2826,1.6751,382.9656],[36.2745,1.7068,444.2964],[36.2639,1.7159,522.9958],[36.2555,1.7161,628.2564],[36.2525,1.7197,620.0951],[36.251,1.7633,675.4896],[36.2475,1.7731,681.4774],[36.2486,1.7841,677.8389],[36.2462,1.7906,679.2389],[36.2481,1.797,681.2258],[36.2456,1.808,704.6729],[36.2363,1.8158,713.3512],[36.2261,1.8194,695.838],[36.2189,1.8268,691.7726],[36.2146,1.8278,681.7548],[36.2113,1.8307,668.8568],[36.2016,1.8338,651.7177],[36.1941,1.8335,637.7054],[36.1865,1.8379,630.9749],[36.1843,1.843,623.5912],[36.1684,1.8581,609.301],[36.1525,1.8804,595.3676],[36.1471,1.8843,591.1859],[36.1435,1.8945,592.825],[36.1382,1.9035,613.6929],[36.1362,1.9161,603.5797],[36.1274,1.9219,574.3804],[36.1038,1.9245,568.1456],[36.0968,1.9317,567.4559],[36.0885,1.9355,567.3884],[36.0837,1.9458,575.4062],[36.0671,1.9526,582.4644],[36.0536,1.9543,585.0862],[36.0467,1.9501,586.7982],[36.0422,1.9498,603.3527],[36.0366,1.947,587.9556],[36.0292,1.9393,591.4464],[36.0275,1.9333,591.2969],[36.0189,1.9232,593.1166],[36.0134,1.9199,599.7443],[36.012,1.9167,597.5026],[36.0072,1.9173,604.6469],[36.0079,1.8982,615.5991],[36.0112,1.8926,658.8538],[36.0075,1.8839,663.1178],[36.0049,1.8613,703.743],[35.9996,1.8461,680.2849],[35.9904,1.8411,655.16],[35.9842,1.8348,648.2781],[35.9739,1.8346,633.4256],[35.9591,1.8292,650.8925],[35.9553,1.8246,644.9219],[35.9439,1.8239,655.6363],[35.9376,1.8213,656.5615],[35.9323,1.8108,655.1805],[35.9243,1.8086,660.5461],[35.9202,1.801,749.5831],[35.9151,1.7962,663.6184],[35.9093,1.7848,676.3164],[35.9094,1.7805,681.9738],[35.9047,1.7768,681.3611],[35.9011,1.7805,670.7759],[35.8953,1.7826,734.4283],[35.8866,1.7829,756.0322],[35.8763,1.7801,748.3879],[35.8677,1.773,731.6464],[35.8615,1.7706,712.4313],[35.8599,1.7678,714.0412],[35.8599,1.7614,705.8267],[35.8537,1.7543,708.6356],[35.8498,1.7535,710.8246],[35.8488,1.7465,708.7224],[35.8368,1.7345,730.7239],[35.8334,1.7281,799.9679],[35.8193,1.7234,830.8271],[35.8135,1.7185,785.1702],[35.8002,1.6824,874.9029],[35.7916,1.6647,842.7394],[35.7855,1.6559,816.5282],[36.0961,1.171,728.9161],[36.0973,1.1732,729.1472],[36.1732,1.1752,1435.3231],[36.3173,0.9955,1187.6252],[36.3422,0.9983,1027.6199],[36.3426,0.9937,1039.5638],[36.3469,0.9913,1035.3378],[36.3477,0.9752,1049.9366],[36.3515,0.9667,1064.4705],[36.3638,0.9642,1144.3866],[36.3654,0.959,1083.8027],[36.3699,0.9559,1213.7139],[36.3753,0.9572,1305.208],[36.3787,0.9554,1178.6868],[36.3842,0.9551,1204.6245],[36.3843,0.9515,1134.3143],[36.3889,0.9494,1210.6624],[36.3906,0.9462,1179.4241],[36.388,0.9451,1232.6624],[36.388,0.931,1313.0151],[36.3939,0.9248,1490.9111],[36.3929,0.9172,1280.5997],[36.3942,0.9164,1314.1632]]],
[[[36.3861,2.8335,362.0],[36.3777,2.8332,395.9987],[36.3772,2.8304,395.6731],[36.3745,2.8283,414.4657],[36.3734,2.8182,463.3024],[36.365,2.8131,551.4271],[36.3652,2.8111,587.1091],[36.3619,2.8069,544.0544],[36.3603,2.7981,519.6138],[36.357,2.7945,557.0979],[36.3593,2.7904,564.038],[36.3584,2.786,547.323],[36.3471,2.7728,472.5943],[36.3413,2.7607,471.9888],[36.3408,2.7537,466.4382],[36.344,2.739,474.2316],[36.3437,2.7322,473.9565],[36.339,2.7232,467.7943],[36.3308,2.714,455.1918],[36.3321,2.7087,456.3831],[36.3402,2.6991,464.4525],[36.3423,2.6925,469.1935],[36.3367,2.6589,483.0657],[36.3367,2.6014,494.63],[36.3364,2.5947,489.2407],[36.3334,2.5882,490.9694],[36.3278,2.5821,483.0499],[36.3203,2.578,481.3874],[36.261,2.5509,462.2004],[36.25,2.5429,455.9393],[36.2374,2.5301,460.7046],[36.2202,2.5331,469.4991],[36.2153,2.531,470.2859],[36.2067,2.5233,476.1722],[36.1927,2.5157,480.6525],[36.1821,2.5075,482.909],[36.166,2.5053,488.8798],[36.1567,2.5,494.2076],[36.1531,2.4949,495.4126],[36.1423,2.4902,499.3304],[36.1358,2.4823,501.0703],[36.1282,2.4773,505.2675],[36.118,2.4745,510.3233],[36.1086,2.4695,512.3413],[36.0953,2.4664,514.489],[36.0915,2.4624,517.8879],[36.0912,2.4567,519.5312],[36.0967,2.4471,523.6447],[36.0978,2.4424,520.7547],[36.0866,2.4066,535.5238],[36.0828,2.3529,574.261],[36.0758,2.3053,560.2791],[36.0754,2.2933,562.5081],[36.0763,2.2901,570.9333],[36.0823,2.2861,566.1096],[36.0913,2.2861,548.075],[36.0939,2.2845,549.7959],[36.1094,2.2653,532.798],[36.1194,2.2562,527.6953],[36.1239,2.249,525.6956],[36.1252,2.234,526.0041],[36.1236,2.2131,521.3589],[36.116,2.1794,532.317],[36.1097,2.1236,550.4795],[36.0952,2.0635,563.502],[36.0931,2.062,565.0258],[36.1585,2.0476,549.7739],[36.2006,2.0436,545.4061],[36.2409,2.0467,546.7153],[36.2584,2.0534,548.8854],[36.2731,2.0552,550.8365],[36.2899,2.056,555.0535],[36.3086,2.0531,583.0999],[36.3288,2.0541,665.9894],[36.3367,2.0573,710.082],[36.3508,2.0689,775.4713],[36.3572,2.0714,781.4632],[36.3763,2.0713,663.3383],[36.3882,2.069,440.0245],[36.4086,2.0708,370.3102],[36.425,2.0679,314.1487],[36.4325,2.0711,304.6226],[36.4439,2.0713,291.9737],[36.4524,2.0754,285.5374],[36.5671,2.0767,332.7883],[36.5661,2.085,284.6891],[36.5676,2.0965,405.2028],[36.5647,2.1084,293.2385],[36.5806,2.1258,327.544],[36.585,2.1409,421.711],[36.5879,2.1458,397.8524],[36.595,2.1464,392.4793],[36.5996,2.1536,367.8409],[36.6111,2.1629,424.4269],[36.6132,2.1629,434.1456],[36.6128,2.161,446.8107],[36.6206,2.1654,438.73],[36.6365,2.1682,443.8156],[36.6487,2.1731,497.0116],[36.6587,2.1789,515.8934],[36.6708,2.1909,628.558],[36.6814,2.1973,857.7685],[36.6875,2.2001,927.7974],[36.7004,2.2027,747.6377],[36.7026,2.2055,819.2864],[36.7004,2.2176,823.8734],[36.7041,2.2215,996.9576],[36.7115,2.2241,1067.1643],[36.7124,2.2367,1071.5726],[36.7104,2.2407,965.3952],[36.7139,2.246,1126.5586],[36.7143,2.2555,1340.6729],[36.7127,2.2611,1340.0242],[36.7086,2.2643,1192.2173],[36.7151,2.2672,1094.946],[36.7236,2.276,1255.0364],[36.722,2.2859,1379.4178],[36.7239,2.292,1253.6626],[36.7233,2.3026,1076.3774],[36.6013,2.3608,556.1067],[36.6013,2.4095,375.48],[36.6025,2.4092,362.0],[36.5933,2.4171,396.4037],[36.5917,2.4172,426.9734],[36.5893,2.4132,421.0485],[36.5855,2.4109,382.9656],[36.5795,2.4109,379.7296],[36.5761,2.408,392.7303],[36.5682,2.4086,362.0],[36.5664,2.4039,383.9132],[36.5604,2.4006,370.8176],[36.5527,2.4027,362.5659],[36.5478,2.4072,362.0],[36.5418,2.4084,365.1946],[36.5388,2.4119,368.2359],[36.532,2.4361,362.0],[36.5244,2.451,362.0],[36.5249,2.4595,362.0],[36.5295,2.4735,362.0],[36.5275,2.4867,384.5205],[36.5279,2.4921,370.3677],[36.5311,2.5005,374.7248],[36.5302,2.5264,362.0],[36.5248,2.5304,362.0],[36.5149,2.5605,366.1186],[36.4935,2.5761,363.6815],[36.4743,2.6017,363.0154],[36.4729,2.6093,363.7963],[36.4639,2.6097,387.8253],[36.4535,2.6128999999999998,375.0602],[36.4383,2.6341,371.8101],[36.4381,2.6433,362.0],[36.4347,2.6523,392.9225],[36.4361,2.6693,362.0],[36.4339,2.683,362.0],[36.4381,2.6955,366.5551],[36.4473,2.7095,362.0],[36.4392,2.7156,362.0],[36.4322,2.7187,362.0],[36.4293,2.723,362.0],[36.4213,2.7405,362.0],[36.4219,2.7496,362.0],[36.4187,2.7675,362.0],[36.4132,2.7736,362.0],[36.4117,2.7784,362.0],[36.3963,2.8039,362.0],[36.3882,2.8216,362.0],[36.3861,2.8335,362.0]]]]}
,"properties": {"GID_2": "KEN.43.3_1","GID_0": "KEN","country": "Kenya","GID_1": "KEN.43_1","province": "Turkana","NL_NAME_1": "NA","county": "TurkanaEast","VARNAME_2": "NA","NL_NAME_2": "NA","TYPE_2": "Constituency","ENGTYPE_2": "Constituency","CC_2": "128","HASC_2": "NA","name": "Turkana_East.county","area_km2": 8057.712,"hist_schema_id": "Elevation0-9000","hist_area_km2": {"275": 239.204,"300": 167.483,"325": 131.191,"350": 147.786,"375": 136.237,"400": 107.011,"425": 86.772,"450": 97.805,"475": 228.645,"500": 240.999,"525": 313.19,"550": 409.714,"575": 335.635,"600": 364.408,"625": 456.294,"650": 445.672,"675": 377.769,"700": 293.082,"725": 248.388,"750": 238.599,"775": 215.265,"800": 191.953,"825": 188.22,"850": 189.276,"875": 204.432,"900": 202.926,"925": 218.102,"950": 208.827,"975": 198.32,"1000": 170.519,"1025": 138.282,"1050": 116.263,"1075": 101.385,"1100": 83.733,"1125": 84.644,"1150": 84.474,"1175": 73.285,"1200": 60.634,"1225": 48.132,"1250": 37.643,"1275": 35.016,"1300": 32.961,"1325": 26.857,"1350": 22.066,"1375": 16.428,"1400": 12.486,"1425": 8.119,"1450": 7.059,"1475": 6.084,"1500": 4.918,"1525": 2.332,"1550": 0.721,"1575": 0.445}}}