{"type": "Feature","bbox": [34.5796,0.4252,34.6799,0.5547],"geometry": {"type": "MultiPolygon","coordinates": [[[[34.6252,0.5547,1443.4197],[34.6128,0.5453,1427.7291],[34.6139,0.5385,1401.9778],[34.6181,0.5313,1402.3481],[34.6177,0.5181,1388.0475],[34.6136,0.5164,1401.6582],[34.6096,0.5075,1387.5701],[34.605,0.5055,1382.1556],[34.5999,0.498,1362.4579],[34.6009,0.4839,1339.5881],[34.5996,0.4788,1344.3639],[34.5953,0.4748,1346.4989],[34.5939,0.4713,1336.234],[34.5921,0.4709,1337.4768],[34.5903,0.4651,1328.9895],[34.5836,0.4637,1347.9817],[34.5796,0.4591,1351.4702],[34.5812,0.4574,1326.3759],[34.5797,0.4524,1313.4001],[34.5809,0.4497,1314.3845],[34.5797,0.4455,1310.0165],[34.5815,0.4446,1313.0151],[34.5807,0.4371,1307.4968],[34.5873,0.4311,1306.0178],[34.5889,0.4252,1307.5441],[34.5901,0.4315,1302.5999],[34.5927,0.4348,1306.4603],[34.5929,0.438,1308.3143],[34.59,0.4414,1313.2502],[34.5918,0.4508,1323.9418],[34.5954,0.4492,1324.1501],[34.5984,0.4502,1323.6302],[34.6044,0.4561,1345.8342],[34.6129,0.4481,1319.312],[34.6168,0.4486,1323.8798],[34.6151,0.4528,1325.658],[34.6181,0.4621,1354.0316],[34.6273,0.4655,1350.7715],[34.6271,0.4687,1353.8269],[34.6319,0.4655,1351.5935],[34.6364,0.4732,1371.4199],[34.6421,0.4724,1373.3602],[34.6442,0.4748,1379.2916],[34.6438,0.4764,1386.6077],[34.6475,0.4785,1380.8965],[34.65,0.483,1389.9214],[34.6546,0.4837,1390.0432],[34.6577,0.4906,1395.0394],[34.666,0.4928,1382.5864],[34.6659,0.4965,1384.9854],[34.6675,0.4984,1389.0784],[34.6665,0.5007,1403.5355],[34.6716,0.5135,1432.802],[34.6734,0.513,1417.5208],[34.6739,0.5168,1428.4651],[34.6767,0.5161,1418.6771],[34.6799,0.5194,1408.467],[34.6781,0.5253,1425.9349],[34.6799,0.531,1416.7424],[34.6782,0.5329,1423.0795],[34.6798,0.5343,1426.0304],[34.6768,0.5366,1432.0674],[34.6652,0.5392,1460.2714],[34.6606,0.542,1464.2841],[34.6514,0.5409,1485.0236],[34.6476,0.5447,1486.4386],[34.6396,0.5453,1454.9282],[34.6293,0.5501,1424.9486],[34.6252,0.5547,1443.4197]]]]}
,"properties": {"GID_3": "KEN.3.3.3_1","GID_0": "KEN","country": "Kenya","GID_1": "KEN.3_1","province": "Bungoma","NL_NAME_1": "NA","GID_2": "KEN.3.3_1","county": "Kanduyi","NL_NAME_2": "NA","city": "EastSang'Alo","VARNAME_3": "NA","NL_NAME_3": "NA","TYPE_3": "Ward","ENGTYPE_3": "Ward","CC_3": "1101","HASC_3": "NA","name": "East_Sang'Alo.city","area_km2": 65.63952,"hist_schema_id": "Elevation0-9000","hist_area_km2": {"1300": 0.78446,"1325": 6.36046,"1350": 6.08483,"1375": 7.82333,"1400": 9.87985,"1425": 14.67134,"1450": 12.63599,"1475": 6.65721,"1500": 0.74205}}}