{"type":"Feature","properties":{"GID_3":"KEN.4.2.6_1","GID_0":"KEN","country":"Kenya","GID_1":"KEN.4_1","province":"Busia","NL_NAME_1":"NA","GID_2":"KEN.4.2_1","county":"Butula","NL_NAME_2":"NA","city":"MarachiWest","VARNAME_3":"NA","NL_NAME_3":"NA","TYPE_3":"Ward","ENGTYPE_3":"Ward","CC_3":"1142","HASC_3":"NA","name":"Marachi_West.city"},
"geometry":{"type": "MultiPolygon","coordinates": [[[[34.1997,0.3552,1194.1698],[34.2011,0.35,1198.2463],[34.1982,0.3428,1216.5875],[34.1986,0.3399,1217.754],[34.1942,0.3342,1232.4557],[34.1898,0.3207,1271.467],[34.1855,0.3151,1286.6763],[34.175,0.3076,1347.1995],[34.1594,0.3051,1363.2471],[34.1737,0.3003,1344.395],[34.1777,0.2935,1295.5983],[34.1824,0.2907,1273.2627],[34.1855,0.2806,1257.4523],[34.1914,0.2764,1267.7194],[34.2008,0.2732,1244.442],[34.2027,0.2702,1238.7806],[34.2032,0.265,1224.9481],[34.205,0.2678,1224.877],[34.2041,0.2745,1241.4216],[34.2059,0.2797,1234.1963],[34.205,0.2902,1253.5139],[34.2361,0.2963,1257.7065],[34.2404,0.3017,1253.9967],[34.2463,0.3145,1266.1587],[34.2374,0.3164,1294.6376],[34.235,0.315,1293.1318],[34.2299,0.3243,1259.4591],[34.2255,0.3286,1254.0806],[34.2306,0.3333,1250.5437],[34.2288,0.3378,1249.8026],[34.2312,0.3399,1241.848],[34.2277,0.3434,1242.9932],[34.2206,0.345,1253.0231],[34.2159,0.3418,1240.3546],[34.2104,0.3443,1230.0231],[34.2131,0.3474,1240.1553],[34.2123,0.3489,1232.1281],[34.2075,0.3462,1228.3632],[34.2103,0.3495,1224.8228],[34.2105,0.3549,1230.9364],[34.1997,0.3552,1194.1698]]]]}}