{"type": "Feature","bbox": [39.4003,-3.5891,39.8085,-3.3488],"geometry": {"type": "MultiPolygon","coordinates": [[[[39.5911,-3.5695,282.5051],[39.6083,-3.5694,249.5685],[39.6135,-3.5666,221.5012],[39.6167,-3.5592,216.1083],[39.6227,-3.5542,205.2446],[39.6265,-3.5533,185.6229],[39.6289,-3.5554,175.8641],[39.6367,-3.5553,166.6457],[39.6543,-3.5474,157.1205],[39.6579,-3.5489,142.0084],[39.6613,-3.5467,137.6741],[39.6659,-3.5493,131.0065],[39.6763,-3.5503,114.3013],[39.6777,-3.5579,120.109],[39.6843,-3.5653,118.6425],[39.6821,-3.5701,105.9573],[39.6839,-3.5732,101.0353],[39.6875,-3.5737,105.2175],[39.6893,-3.5756,93.0552],[39.6911,-3.5807,91.2508],[39.6977,-3.5853,86.6971],[39.7023,-3.5862,96.5618],[39.7079,-3.5848,88.269],[39.7209,-3.5891,76.575],[39.7229,-3.5849,84.6655],[39.723,-3.5794,111.0992],[39.7205,-3.573,122.1341],[39.7209,-3.5656,112.7292],[39.7273,-3.5614,98.9869],[39.729,-3.5581,94.3923],[39.7301,-3.5323,124.6824],[39.7321,-3.5277,91.0705],[39.7464,-3.5162,61.9442],[39.7607,-3.5164,63.9689],[39.7637,-3.5183,54.2951],[39.7651,-3.5288,22.0928],[39.771,-3.5303,18.6187],[39.7679,-3.5363,13.4114],[39.7701,-3.5387,19.0548],[39.7814,-3.5431,28.6097],[39.784,-3.5462,27.2721],[39.7831,-3.5484,22.7013],[39.7765,-3.5509,41.394],[39.7775,-3.5544,8.2777],[39.7811,-3.5543,19.7416],[39.7947,-3.5431,59.1908],[39.8013,-3.5285,121.8532],[39.8053,-3.5149,209.5104],[39.8085,-3.445,118.5982],[39.8039,-3.4465,98.4191],[39.7971,-3.4557,89.1292],[39.7871,-3.4622,47.5272],[39.7839,-3.4622,53.5246],[39.7753,-3.4581,47.3205],[39.7702,-3.4585,49.0777],[39.7653,-3.4553,75.0209],[39.7561,-3.4561,90.4481],[39.7519,-3.454,104.0171],[39.7413,-3.4558,107.661],[39.7402,-3.4602,83.2445],[39.7349,-3.4612,84.2785],[39.7377,-3.4521,89.603],[39.7313,-3.4533,74.3034],[39.7271,-3.4474,85.594],[39.7307,-3.445,81.4926],[39.7305,-3.4372,75.2101],[39.7295,-3.4341,81.1447],[39.7223,-3.4282,81.0655],[39.7039,-3.4315,123.4983],[39.6937,-3.437,138.3188],[39.6831,-3.4352,150.0782],[39.6643,-3.4353,121.2498],[39.662,-3.4391,106.1009],[39.6589,-3.4402,113.4197],[39.6535,-3.4342,119.1547],[39.6427,-3.436,128.4031],[39.6365,-3.4292,133.7937],[39.6285,-3.4242,146.5579],[39.6053,-3.4168,145.3748],[39.6013,-3.4239,161.6594],[39.5555,-3.4035,227.3097],[39.5537,-3.4014,232.9478],[39.5541,-3.3988,237.9901],[39.5751,-3.362,174.7816],[39.5721,-3.3598,176.9556],[39.5613,-3.3588,170.0231],[39.5404,-3.3523,155.6408],[39.5233,-3.3523,147.0339],[39.5207,-3.3488,152.453],[39.4003,-3.3489,193.7144],[39.4067,-3.4137,185.5962],[39.4309,-3.4138,183.291],[39.4397,-3.4094,179.745],[39.4409,-3.4067,177.292],[39.4426,-3.4125,182.8808],[39.4653,-3.4118,175.6399],[39.5003,-3.4283,178.1805],[39.5425,-3.4521,253.6417],[39.5631,-3.4703,259.0348],[39.5729,-3.4847,212.0638],[39.5753,-3.4862,218.0326],[39.5815,-3.4832,208.1276],[39.5981,-3.4829,178.8863],[39.5981,-3.501,204.4217],[39.6043,-3.538,226.5306],[39.6039,-3.5418,217.6898],[39.5933,-3.5461,238.3816],[39.5945,-3.55,252.2408],[39.5989,-3.5508,246.8984],[39.5993,-3.554,229.2906],[39.5979,-3.5591,251.1561],[39.5911,-3.5695,282.5051]]]]}
,"properties": {"GID_3": "KEN.14.1.2_1","GID_0": "KEN","country": "Kenya","GID_1": "KEN.14_1","province": "Kilifi","NL_NAME_1": "NA","GID_2": "KEN.14.1_1","county": "Ganze","NL_NAME_2": "NA","city": "Ganze","VARNAME_3": "NA","NL_NAME_3": "NA","TYPE_3": "Ward","ENGTYPE_3": "Ward","CC_3": "71","HASC_3": "NA","name": "Ganze.city","area_km2": 469.0693,"hist_schema_id": "Elevation0-9000","hist_area_km2": {"0": 0.3809,"25": 8.1475,"50": 19.1734,"75": 22.0941,"100": 33.3738,"125": 57.7325,"150": 81.3308,"175": 119.7477,"200": 77.8201,"225": 37.9885,"250": 10.391,"275": 0.8677,"300": 0.0212}}}