{"type":"Feature","properties":{"GID_2":"KEN.46.2_1","GID_0":"KEN","country":"Kenya","GID_1":"KEN.46_1","province":"Wajir","NL_NAME_1":"NA","county":"Tarbaj","VARNAME_2":"NA","NL_NAME_2":"NA","TYPE_2":"Constituency","ENGTYPE_2":"Constituency","CC_2":"35","HASC_2":"NA","name":"Tarbaj.county"},
"geometry":{"type": "MultiPolygon","coordinates": [[[[39.87,2.1994,347.4673],[39.871,2.1858,344.8602],[39.8671,2.1563,338.1426],[39.8673,2.1314,333.6239],[39.8699,2.1049,327.9196],[39.8783,2.0551,319.1035],[39.8835,2.0017,307.1775],[39.8977,1.9781,303.2444],[39.9407,1.9291,296.4881],[39.9789,1.8943,291.7492],[39.9911,1.8791,287.3735],[39.9946,1.8768,287.7738],[39.9964,1.8727,288.0768],[39.9909,1.8645,285.3526],[39.9903,1.8549,281.0673],[39.9965,1.8459,282.3428],[40.0079,1.8342,279.6322],[40.0241,1.7933,270.4671],[40.0277,1.7931,268.4311],[40.0755,1.8059,274.2246],[40.0999,1.8093,272.9354],[40.1031,1.8081,272.0559],[40.1077,1.8017,270.0921],[40.1123,1.7829,265.9186],[40.1225,1.7897,267.7664],[40.1461,1.8125,273.8444],[40.1719,1.8337,280.099],[40.1835,1.8389,282.9994],[40.1907,1.8479,285.1224],[40.1925,1.8483,285.0164],[40.1985,1.8443,284.8615],[40.2045,1.8443,284.0264],[40.2163,1.8521,286.5735],[40.2301,1.8529,285.783],[40.2409,1.8601,286.9677],[40.2495,1.8707,289.7747],[40.2617,1.8791,290.8566],[40.2677,1.8855,291.0134],[40.2803,1.9091,297.6391],[40.2957,1.9319,305.0017],[40.3147,1.9549,315.553],[40.3211,1.9767,321.8052],[40.3259,1.9833,323.0437],[40.3381,1.9929,326.1967],[40.3497,1.9997,327.7016],[40.3561,2.0001,329.7331],[40.3619,1.9963,330.8975],[40.3727,1.9929,332.3859],[40.3833,1.9923,333.3638],[40.3935,1.9981,332.6212],[40.4156,1.9998,332.0771],[40.4219,2.0027,331.9939],[40.4313,2.0107,330.9092],[40.4497,2.0155,332.9015],[40.4537,2.0187,334.9244],[40.4589,2.0307,332.9004],[40.4663,2.0377,332.7182],[40.4773,2.0439,332.5535],[40.4933,2.0577,332.8712],[40.4981,2.0601,332.8098],[40.5051,2.0707,335.4707],[40.5277,2.0859,338.9856],[40.5553,2.1149,325.8369],[40.5617,2.1253,326.7325],[40.5625,2.1345,331.1718],[40.5531,2.1557,336.3445],[40.5481,2.1829,344.5658],[40.5433,2.1895,346.7317],[40.5437,2.1949,348.1132],[40.5467,2.2001,348.6489],[40.5473,2.2137,350.0121],[40.5421,2.2393,352.5938],[40.7225,2.3253,316.1779],[40.7161,2.3329,321.0717],[40.7131,2.3453,321.2182],[40.7105,2.3491,319.9211],[40.6905,2.3685,323.9361],[40.6763,2.3761,333.3521],[40.6749,2.3837,332.757],[40.6655,2.3911,335.3081],[40.6659,2.4065,336.7869],[40.6645,2.4099,334.2667],[40.6639,2.4249,336.2881],[40.6617,2.4283,336.378],[40.6557,2.4337,336.5409],[40.6411,2.4371,340.246],[40.6385,2.4421,340.399],[40.6363,2.4417,340.6628],[40.6319,2.4449,342.1561],[40.6291,2.4499,342.7625],[40.6215,2.4551,344.7731],[40.6135,2.4643,346.7852],[40.6033,2.4819,351.207],[40.6037,2.4927,352.4756],[40.5939,2.4997,356.3302],[40.5915,2.5031,361.7283],[40.5973,2.5099,360.7535],[40.5969,2.5131,357.0309],[40.5793,2.5303,363.3731],[40.5793,2.5497,368.4136],[40.5689,2.5651,369.5634],[40.5653,2.5667,374.9434],[40.5629,2.5727,375.1657],[40.5581,2.5787,381.0684],[40.5599,2.5891,375.9645],[40.5539,2.5935,384.6046],[40.5491,2.6023,385.8184],[40.5499,2.6111,385.857],[40.5357,2.6529,393.3422],[40.5269,2.6661,401.696],[40.5267,2.6739,396.4969],[40.5213,2.6919,406.7774],[40.5161,2.7015,404.232],[40.5127,2.7031,404.0821],[40.4999,2.7201,410.13],[40.4997,2.7229,413.5784],[40.5065,2.7257,416.8083],[40.5121,2.7351,416.6738],[40.5199,2.7403,418.043],[40.5193,2.7527,423.3089],[40.5179,2.7555,423.5816],[40.5193,2.7659,423.5216],[40.5179,2.7701,425.9036],[40.5185,2.7739,421.5734],[40.5207,2.7761,422.5301],[40.5187,2.7779,424.0934],[40.5129,2.7787,425.6342],[40.5083,2.7845,428.7575],[40.5035,2.7843,430.9407],[40.5011,2.7873,432.5211],[40.5021,2.7955,429.6078],[40.4957,2.7979,429.7271],[40.4943,2.7999,430.6628],[40.4963,2.8049,430.9643],[40.5031,2.8103,436.8608],[40.4955,2.8191,433.9287],[40.4985,2.8213,434.2852],[40.4965,2.8269,436.1763],[40.4991,2.8343,439.1941],[40.4947,2.8391,440.0384],[40.4945,2.8455,441.9767],[40.4973,2.8515,441.6497],[40.4939,2.8563,442.2444],[40.4953,2.8583,442.7868],[40.4931,2.8687,449.0211],[40.2701,2.9717,513.8856],[40.2681,2.9805,488.8261],[40.2639,2.9803,489.6411],[40.2622,2.9829,490.7942],[40.255,2.9756,491.7458],[40.2365,2.9693,496.1226],[40.2186,2.9587,499.239],[40.1963,2.9304,501.6452],[40.1894,2.9145,503.5894],[40.182,2.9033,501.8595],[40.1853,2.8713,502.2216],[40.1937,2.863,506.2301],[40.1924,2.851,507.9374],[40.1972,2.8345,508.8546],[40.1943,2.7939,487.3233],[40.1853,2.7743,478.8474],[40.1599,2.7325,463.4803],[40.1471,2.7077,459.8549],[40.1351,2.6945,457.457],[40.1241,2.6733,454.8847],[40.1155,2.6645,453.8467],[40.1083,2.6531,451.8183],[40.1053,2.6349,447.1803],[40.1321,2.6029,461.5473],[40.1253,2.5867,455.4702],[39.8297,2.5767,452.7946],[39.8171,2.4731,429.0581],[39.8215,2.4105,399.8785],[39.8267,2.3865,387.2395],[39.8271,2.3665,378.322],[39.8321,2.3413,371.3697],[39.8425,2.3045,365.557],[39.8501,2.2867,361.5738],[39.8547,2.2609,356.4935],[39.87,2.1994,347.4673]]]]}}