{"type":"Feature","properties":{"GID_3":"KEN.13.7.4_1","GID_0":"KEN","country":"Kenya","GID_1":"KEN.13_1","province":"Kiambu","NL_NAME_1":"NA","GID_2":"KEN.13.7_1","county":"Kiambu","NL_NAME_2":"NA","city":"Township","VARNAME_3":"NA","NL_NAME_3":"NA","TYPE_3":"Ward","ENGTYPE_3":"Ward","CC_3":"585","HASC_3":"NA","name":"Township.city"},
"geometry":{"type": "MultiPolygon","coordinates": [[[[36.7986,-1.1928,1722.1802],[36.8333,-1.212,1689.6729],[36.8301,-1.2036,1700.9377],[36.8341,-1.2078,1691.3722],[36.8389,-1.2073,1685.3665],[36.8492,-1.2113,1659.0336],[36.8507,-1.2009,1641.0229],[36.8556,-1.1992,1623.1406],[36.8597,-1.2005,1613.3121],[36.8629,-1.1882,1618.442],[36.8725,-1.1941,1615.3494],[36.8857,-1.1937,1578.7926],[36.8902,-1.1907,1572.2783],[36.8991,-1.1909,1565.0524],[36.8961,-1.1876,1546.3319],[36.895,-1.1855,1544.1219],[36.8964,-1.1842,1556.8723],[36.8953,-1.1832,1550.5869],[36.8943,-1.1806,1567.8208],[36.8883,-1.1715,1571.1593],[36.8877,-1.1712,1581.2645],[36.8943,-1.1809,1567.8208],[36.8826,-1.1739,1583.9119],[36.8665,-1.168,1596.8209],[36.8646,-1.1669,1608.0076],[36.8667,-1.1648,1617.6082],[36.8633,-1.1637,1626.1062],[36.8587,-1.1678,1597.3857],[36.8485,-1.1699,1660.2156],[36.8441,-1.1768,1649.1007],[36.8397,-1.1779,1663.567],[36.8365,-1.1763,1669.4347],[36.8404,-1.1695,1655.4192],[36.835,-1.1692,1686.231],[36.8289,-1.1662,1706.1096],[36.826,-1.1676,1716.3204],[36.823,-1.1634,1730.0938],[36.8197,-1.1708,1725.7708],[36.8261,-1.1725,1698.9808],[36.8222,-1.18,1702.5386],[36.8188,-1.1762,1715.7679],[36.8113,-1.1735,1728.6866],[36.8033,-1.1746,1726.577],[36.797,-1.1728,1786.2156],[36.797,-1.1666,1762.1315],[36.7937,-1.164,1805.6526],[36.7863,-1.1719,1824.9121],[36.7883,-1.1759,1804.8422],[36.8038,-1.1841,1735.0645],[36.7986,-1.1928,1722.1802]],
[[36.8607,-1.1661,1631.2812],[36.8608,-1.1661,1631.2812],[36.8606,-1.1662,1631.2812],[36.8607,-1.1661,1631.2812]]]]}}