{"type": "Feature","bbox": [36.1297,-1.2969,36.3477,-1.0],"geometry": {"type": "MultiPolygon","coordinates": [[[[36.3356,-1.0408,1609.3704],[36.2822,-1.0897,1649.7139],[36.2555,-1.0994,1643.2405],[36.2394,-1.1024,1677.1133],[36.2224,-1.0984,1709.9331],[36.1966,-1.0986,1794.2435],[36.2016,-1.0036,2072.646],[36.1924,-1.0012,2201.5032],[36.1874,-1.0025,2163.2668],[36.1844,-1.0,2185.4026],[36.1818,-1.0017,2189.1216],[36.1775,-1.0013,2269.8696],[36.1752,-1.0039,2253.8352],[36.1716,-1.0026,2200.9468],[36.1684,-1.0069,2197.9116],[36.1641,-1.0085,2236.9727],[36.155,-1.0234,2204.1216],[36.1504,-1.0365,2229.6458],[36.1445,-1.0418,2178.7092],[36.1415,-1.0537,2156.9446],[36.1368,-1.0604,2198.5605],[36.1297,-1.0905,2132.0378],[36.1313,-1.1409,2035.3651],[36.1331,-1.1529,2023.6318],[36.1448,-1.1523,2079.8118],[36.1496,-1.1487,2017.2552],[36.1534,-1.152,2035.0374],[36.16,-1.1491,1900.8813],[36.1942,-1.1486,1690.2554],[36.1918,-1.1513,1705.9321],[36.1911,-1.1564,1676.223],[36.1903,-1.1717,1660.8785],[36.192,-1.1789,1628.4933],[36.1975,-1.1889,1641.5096],[36.2052,-1.189,1602.6521],[36.1984,-1.2637,1869.3225],[36.21,-1.2662,1527.9094],[36.217,-1.2654,1491.9886],[36.2232,-1.2693,1466.0216],[36.2251,-1.2747,1450.3204],[36.2252,-1.2926,1423.4285],[36.2288,-1.2969,1417.0693],[36.3477,-1.1685,1866.6031],[36.3356,-1.0408,1609.3704]]]]}
,"properties": {"GID_3": "KEN.33.3.1_1","GID_0": "KEN","country": "Kenya","GID_1": "KEN.33_1","province": "Narok","NL_NAME_1": "NA","GID_2": "KEN.33.3_1","county": "NarokEast","NL_NAME_2": "NA","city": "Keekonyokie","VARNAME_3": "NA","NL_NAME_3": "NA","TYPE_3": "Ward","ENGTYPE_3": "Ward","CC_3": "899","HASC_3": "NA","name": "Keekonyokie.city","area_km2": 390.8271,"hist_schema_id": "Elevation0-9000","hist_area_km2": {"1400": 0.6995,"1425": 6.2532,"1450": 14.8592,"1475": 12.8243,"1500": 13.0152,"1525": 13.9479,"1550": 12.3793,"1575": 11.6587,"1600": 11.786,"1625": 19.2478,"1650": 27.7271,"1675": 27.7483,"1700": 16.8949,"1725": 12.316,"1750": 10.0267,"1775": 11.5741,"1800": 10.5142,"1825": 12.0405,"1850": 12.2737,"1875": 18.3363,"1900": 8.3732,"1925": 7.5889,"1950": 6.847,"1975": 6.5714,"2000": 5.7871,"2025": 6.1687,"2050": 5.1936,"2075": 7.2498,"2100": 10.366,"2125": 15.4749,"2150": 8.9458,"2175": 11.5957,"2200": 9.5606,"2225": 3.095,"2250": 1.6535,"2275": 0.2332}}}