{"type": "Feature","bbox": [34.9053,0.0838,35.0188,0.1766],"geometry": {"type": "MultiPolygon","coordinates": [[[[34.9295,0.0928,1804.8784],[34.9327,0.092,1822.4105],[34.9356,0.088,1860.2478],[34.9412,0.0855,1851.7817],[34.9441,0.0857,1850.3448],[34.9469,0.0886,1869.2826],[34.9704,0.0838,1988.6625],[34.9915,0.0862,2029.0793],[35.0015,0.0896,1967.0969],[35.0037,0.0917,1959.6577],[35.0048,0.0967,1969.1299],[35.0048,0.1026,1955.1628],[35.0019,0.1051,1937.7174],[35.0019,0.1106,1927.046],[35.0108,0.1223,1857.2526],[35.0153,0.1229,1843.8992],[35.0182,0.126,1807.8005],[35.0176,0.1307,1840.8198],[35.0188,0.1316,1828.9174],[35.0094,0.1348,1810.9514],[35.0111,0.1376,1838.0916],[35.007,0.139,1802.4023],[35.0073,0.1423,1792.2076],[35.0058,0.1427,1792.2076],[35.0061,0.1459,1824.3811],[35.0039,0.1489,1834.281],[34.9989,0.1503,1795.6414],[34.9911,0.1566,1782.816],[34.9892,0.1597,1771.4172],[34.9918,0.1647,1818.767],[34.9906,0.166,1826.6963],[34.9892,0.1643,1819.6005],[34.9871,0.166,1809.0438],[34.9819,0.1663,1784.8746],[34.9809,0.164,1791.5129],[34.9757,0.1653,1758.2192],[34.9752,0.1625,1764.8969],[34.9695,0.1743,1796.9663],[34.9634,0.1722,1762.611],[34.9614,0.1689,1760.0826],[34.9592,0.1685,1739.9596],[34.9542,0.1734,1760.8906],[34.9532,0.1766,1743.8022],[34.9519,0.1736,1753.5914],[34.9496,0.1743,1732.6613],[34.9497,0.1709,1740.2201],[34.9471,0.1708,1732.2777],[34.9466,0.1694,1718.7708],[34.9435,0.1707,1698.5114],[34.9448,0.1723,1726.4344],[34.9437,0.1746,1719.3986],[34.9418,0.1737,1697.7889],[34.9284,0.1766,1677.1577],[34.9206,0.1739,1677.9053],[34.9141,0.1603,1729.0431],[34.9092,0.1589,1703.7886],[34.9053,0.1448,1716.2231],[34.9352,0.1326,1773.0272],[34.9366,0.1304,1779.1301],[34.929,0.1222,1836.77],[34.93,0.1089,1849.2928],[34.9315,0.1069,1854.8638],[34.9284,0.0995,1822.3888],[34.9295,0.0928,1804.8784]]]]}
,"properties": {"GID_3": "KEN.32.3.1_1","GID_0": "KEN","country": "Kenya","GID_1": "KEN.32_1","province": "Nandi","NL_NAME_1": "NA","GID_2": "KEN.32.3_1","county": "Emgwen","NL_NAME_2": "NA","city": "Chepkumia","VARNAME_3": "NA","NL_NAME_3": "NA","TYPE_3": "Ward","ENGTYPE_3": "Ward","CC_3": "770","HASC_3": "NA","name": "Chepkumia.city","area_km2": 84.17254,"hist_schema_id": "Elevation0-9000","hist_area_km2": {"1650": 0.0212,"1675": 0.21202,"1700": 2.60786,"1725": 5.19452,"1750": 7.84479,"1775": 10.15582,"1800": 11.04632,"1825": 11.49157,"1850": 8.60808,"1875": 5.70338,"1900": 4.53726,"1925": 4.13442,"1950": 4.26164,"1975": 5.08852,"2000": 2.39585,"2025": 0.78448,"2050": 0.08481}}}