{"type": "Feature","bbox": [37.0521,-0.0314,37.1194,0.0717],"geometry": {"type": "MultiPolygon","coordinates": [[[[37.0742,0.014,1936.5229],[37.0789,0.0204,1928.9172],[37.0773,0.0125,1942.5619],[37.079,0.0084,1946.6112],[37.0776,0.0046,1958.3544],[37.0794,0.0012,1966.335],[37.0882,-0.0099,2000.3336],[37.0928,-0.0109,2001.3805],[37.1003,-0.0187,2038.3188],[37.1,-0.0214,2041.7133],[37.1059,-0.0239,2056.6418],[37.1115,-0.0285,2082.5449],[37.1127,-0.0314,2096.0325],[37.1194,-0.0173,2045.9725],[37.1107,-0.0085,2017.8198],[37.1069,0.0015,1996.3298],[37.1043,0.0037,1989.6014],[37.1009,0.0113,1963.6304],[37.0937,0.0175,1942.0282],[37.0931,0.0201,1940.0063],[37.0887,0.0225,1938.7811],[37.0913,0.0251,1944.9614],[37.0876,0.0267,1928.408],[37.1087,0.0425,1958.2875],[37.1085,0.0717,1926.4668],[37.0521,0.0678,1859.7682],[37.0536,0.0553,1870.8715],[37.0569,0.0503,1881.7228],[37.0605,0.048,1874.6923],[37.0618,0.0434,1892.7899],[37.0672,0.039,1890.1759],[37.0648,0.0344,1900.0273],[37.0694,0.0287,1913.6631],[37.0657,0.0173,1920.87],[37.0703,0.0188,1923.9022],[37.0742,0.014,1936.5229]]]]}
,"properties": {"GID_3": "KEN.20.1.1_1","GID_0": "KEN","country": "Kenya","GID_1": "KEN.20_1","province": "Laikipia","NL_NAME_1": "NA","GID_2": "KEN.20.1_1","county": "LaikipiaEast","NL_NAME_2": "NA","city": "Nanyuki","VARNAME_3": "NA","NL_NAME_3": "NA","TYPE_3": "Ward","ENGTYPE_3": "Ward","CC_3": "820","HASC_3": "NA","name": "Nanyuki.city","area_km2": 38.5456,"hist_schema_id": "Elevation0-9000","hist_area_km2": {"1850": 0.78448,"1875": 5.87301,"1900": 7.03913,"1925": 7.95083,"1950": 6.7847,"1975": 3.54077,"2000": 2.09902,"2025": 1.78099,"2050": 1.67497,"2075": 1.01771}}}