{"type": "Feature","bbox": [34.6854,-0.9582,34.7421,-0.8894],"geometry": {"type": "MultiPolygon","coordinates": [[[[34.7208,-0.8922,1732.1721],[34.7121,-0.8894,1742.4069],[34.6951,-0.8923,1676.9912],[34.6946,-0.8907,1702.2571],[34.687,-0.8898,1716.5266],[34.6854,-0.9002,1645.9844],[34.6855,-0.905,1763.6318],[34.6898,-0.9182,1795.3204],[34.6955,-0.9225,1833.7585],[34.6982,-0.9329,1771.7516],[34.7016,-0.9351,1890.41],[34.7073,-0.9347,1969.9709],[34.7109,-0.9409,1968.1091],[34.7114,-0.9508,1963.6362],[34.7157,-0.9582,1899.9497],[34.7418,-0.9519,1817.5961],[34.7403,-0.9472,1816.09],[34.7421,-0.9416,1800.8634],[34.7393,-0.9396,1796.7],[34.7329,-0.9172,1762.3223],[34.7308,-0.9135,1730.0488],[34.7286,-0.9128,1710.3492],[34.7281,-0.906,1706.3271],[34.725,-0.9025,1678.2711],[34.7254,-0.8983,1683.0282],[34.7208,-0.8922,1732.1721]]]]}
,"properties": {"GID_3": "KEN.16.2.4_1","GID_0": "KEN","country": "Kenya","GID_1": "KEN.16_1","province": "Kisii","NL_NAME_1": "NA","GID_2": "KEN.16.2_1","county": "BomachogeBorabu","NL_NAME_2": "NA","city": "Magenche","VARNAME_3": "NA","NL_NAME_3": "NA","TYPE_3": "Ward","ENGTYPE_3": "Ward","CC_3": "1314","HASC_3": "NA","name": "Magenche.city","area_km2": 29.08567,"hist_schema_id": "Elevation0-9000","hist_area_km2": {"1600": 0.2544,"1625": 0.63599,"1650": 1.12358,"1675": 1.97156,"1700": 2.39555,"1725": 2.03516,"1750": 2.01395,"1775": 2.94672,"1800": 3.4555,"1825": 3.03151,"1850": 2.28954,"1875": 1.99274,"1900": 1.58996,"1925": 1.10237,"1950": 0.86917,"1975": 0.67838,"2000": 0.63598,"2025": 0.0636}}}