{"type": "Feature","bbox": [34.2699,-0.7835,34.4215,-0.6185],"geometry": {"type": "MultiPolygon","coordinates": [[[[34.2907,-0.6685,1323.5607],[34.2699,-0.6831,1343.3809],[34.2701,-0.6856,1412.1007],[34.2843,-0.7045,1486.677],[34.2942,-0.7084,1448.193],[34.302,-0.7222,1395.3885],[34.3278,-0.7315,1363.7827],[34.3354,-0.7307,1327.9607],[34.342,-0.7319,1314.9806],[34.3494,-0.7303,1313.6174],[34.3588,-0.7328,1302.832],[34.3624,-0.7367,1295.8054],[34.3685,-0.7376,1296.8885],[34.3746,-0.7429,1297.1858],[34.3795,-0.7449,1287.3369],[34.3818,-0.7482,1288.4043],[34.3895,-0.7507,1282.7893],[34.3935,-0.7544,1269.7854],[34.3976,-0.7551,1277.0145],[34.3986,-0.7584,1264.0439],[34.3968,-0.7676,1271.3685],[34.3935,-0.7684,1275.8174],[34.3926,-0.7715,1263.9489],[34.3973,-0.7746,1258.793],[34.396,-0.7772,1258.0543],[34.3973,-0.779,1261.174],[34.4014,-0.7792,1272.0303],[34.4023,-0.7817,1263.7891],[34.4073,-0.7833,1263.6646],[34.4079,-0.7796,1274.2015],[34.413,-0.7815,1282.5679],[34.4148,-0.7795,1320.9706],[34.4182,-0.7793,1324.2654],[34.4204,-0.7803,1301.9392],[34.419,-0.7812,1301.9392],[34.4205,-0.7811,1301.9392],[34.4215,-0.7835,1268.8192],[34.4211,-0.7796,1269.5927],[34.4174,-0.7725,1303.9116],[34.4139,-0.7724,1328.5306],[34.4127,-0.7679,1296.881],[34.4102,-0.7671,1318.11],[34.4118,-0.7634,1302.4003],[34.4081,-0.7604,1318.7158],[34.4085,-0.7587,1306.9412],[34.4124,-0.7569,1312.7159],[34.4089,-0.7517,1308.531],[34.4097,-0.744,1298.7502],[34.414,-0.7424,1296.8268],[34.4109,-0.7379,1307.9268],[34.4134,-0.7371,1301.3983],[34.416,-0.7313,1313.238],[34.4154,-0.7286,1313.2035],[34.4191,-0.7249,1300.5248],[34.417,-0.7177,1320.078],[34.4142,-0.7173,1317.4084],[34.4147,-0.7115,1324.1995],[34.4116,-0.7043,1334.3571],[34.4126,-0.7027,1335.3267],[34.4109,-0.696,1341.7651],[34.4087,-0.6922,1344.9055],[34.4084,-0.6859,1342.2769],[34.406,-0.684,1339.0854],[34.4072,-0.6812,1342.2631],[34.4059,-0.6794,1340.8254],[34.4099,-0.671,1348.7617],[34.4084,-0.6654,1349.7162],[34.4011,-0.6645,1335.8586],[34.4003,-0.6659,1342.3879],[34.3921,-0.6603,1351.9115],[34.3881,-0.6545,1358.642],[34.3864,-0.6464,1370.1809],[34.3821,-0.6441,1364.5249],[34.3792,-0.6367,1366.803],[34.3757,-0.6346,1368.2831],[34.3715,-0.6345,1377.3201],[34.3722,-0.6317,1375.364],[34.3692,-0.6299,1375.7053],[34.3673,-0.6212,1347.3691],[34.358,-0.6215,1348.3962],[34.3533,-0.6185,1233.194],[34.3495,-0.6328,1367.9568],[34.3492,-0.647,1316.6545],[34.3476,-0.652,1362.5466],[34.3265,-0.6583,1292.2074],[34.2963,-0.6645,1382.8879],[34.2907,-0.6685,1323.5607]]]]}
,"properties": {"GID_3": "KEN.8.6.5_1","GID_0": "KEN","country": "Kenya","GID_1": "KEN.8_1","province": "HomaBay","NL_NAME_1": "NA","GID_2": "KEN.8.6_1","county": "Ndhiwa","NL_NAME_2": "NA","city": "KanyamwaKosewe","VARNAME_3": "NA","NL_NAME_3": "NA","TYPE_3": "Ward","ENGTYPE_3": "Ward","CC_3": "1251","HASC_3": "NA","name": "Kanyamwa_Kosewe.city","area_km2": 138.3978,"hist_schema_id": "Elevation0-9000","hist_area_km2": {"1250": 0.8056,"1275": 6.2329,"1300": 14.8615,"1325": 20.1193,"1350": 23.4479,"1375": 24.2112,"1400": 18.911,"1425": 12.2964,"1450": 5.703,"1475": 4.6429,"1500": 2.8409,"1525": 1.5689,"1550": 1.1236,"1575": 0.7632,"1600": 0.5724,"1625": 0.2968}}}