{"type": "Feature","bbox": [34.6884,0.4811,34.8204,0.5924],"geometry": {"type": "MultiPolygon","coordinates": [[[[34.6884,0.4909,1403.6025],[34.6887,0.4891,1398.6357],[34.6931,0.4862,1422.2327],[34.7041,0.4872,1447.6522],[34.7085,0.4914,1455.0743],[34.7153,0.491,1450.3494],[34.7169,0.4883,1443.481],[34.7215,0.4883,1453.5178],[34.7232,0.4862,1451.2644],[34.7304,0.4844,1474.0677],[34.7343,0.4811,1464.5872],[34.7407,0.485,1471.2755],[34.7423,0.4838,1480.3007],[34.7439,0.4862,1473.03],[34.7457,0.4855,1469.6875],[34.7492,0.49,1467.8105],[34.7535,0.5124,1479.8003],[34.7653,0.5255,1462.3654],[34.7695,0.5278,1469.1882],[34.7744,0.5281,1472.363],[34.7741,0.5297,1473.9675],[34.7756,0.5293,1476.5205],[34.7804,0.5331,1482.5422],[34.7834,0.5317,1483.865],[34.7842,0.533,1484.913],[34.7866,0.5305,1484.4019],[34.7926,0.5285,1486.6888],[34.7951,0.5401,1491.0276],[34.8007,0.5436,1483.6808],[34.8062,0.5511,1469.6123],[34.8067,0.5696,1488.0417],[34.8204,0.5807,1523.1917],[34.8192,0.5857,1534.8416],[34.8139,0.5881,1484.3325],[34.8102,0.5922,1496.1399],[34.8036,0.5924,1498.2792],[34.7965,0.589,1492.8755],[34.7881,0.5813,1452.2517],[34.7828,0.5817,1453.8577],[34.7733,0.5741,1446.5288],[34.7702,0.5697,1458.8877],[34.7645,0.5693,1474.4941],[34.7631,0.5657,1460.4518],[34.7656,0.5624,1435.824],[34.7595,0.5568,1464.0424],[34.7598,0.5526,1449.7188],[34.7545,0.5493,1443.3397],[34.7542,0.5463,1440.5491],[34.7505,0.5455,1440.0483],[34.7483,0.5408,1435.1367],[34.7453,0.5427,1454.7092],[34.7418,0.5421,1463.6799],[34.7413,0.5394,1448.551],[34.7372,0.5362,1439.4983],[34.734,0.5241,1428.3345],[34.7285,0.5213,1447.7056],[34.7273,0.517,1430.7483],[34.7209,0.5126,1426.7202],[34.7177,0.5157,1434.2385],[34.715,0.5151,1435.6604],[34.7089,0.5091,1425.5811],[34.701,0.5123,1427.1898],[34.6961,0.5077,1419.8284],[34.6937,0.5033,1409.0089],[34.6938,0.4998,1404.9211],[34.6894,0.4955,1407.1178],[34.6884,0.4909,1403.6025]]]]}
,"properties": {"GID_3": "KEN.11.4.1_1","GID_0": "KEN","country": "Kenya","GID_1": "KEN.11_1","province": "Kakamega","NL_NAME_1": "NA","GID_2": "KEN.11.4_1","county": "Lugari","NL_NAME_2": "NA","city": "Chevaywa","VARNAME_3": "NA","NL_NAME_3": "NA","TYPE_3": "Ward","ENGTYPE_3": "Ward","CC_3": "995","HASC_3": "NA","name": "Chevaywa.city","area_km2": 57.8159,"hist_schema_id": "Elevation0-9000","hist_area_km2": {"1400": 2.26855,"1425": 11.89395,"1450": 22.07053,"1475": 16.13416,"1500": 4.68547,"1525": 0.48763,"1550": 0.27561}}}