{"type":"Feature","properties":{"GID_3":"KEN.30.11.2_1","GID_0":"KEN","country":"Kenya","GID_1":"KEN.30_1","province":"Nairobi","NL_NAME_1":"NA","GID_2":"KEN.30.11_1","county":"Langata","NL_NAME_2":"NA","city":"Mugumu-Ini","VARNAME_3":"NA","NL_NAME_3":"NA","TYPE_3":"Ward","ENGTYPE_3":"Ward","CC_3":"1383","HASC_3":"NA","name":"Mugumu-Ini.city"},
"geometry":{"type": "MultiPolygon","coordinates": [[[[36.8899,-1.4123,1540.0248],[36.9314,-1.4305,1524.6731],[36.9428,-1.4306,1520.5773],[36.9501,-1.4356,1519.6985],[36.9558,-1.435,1518.4526],[36.9578,-1.4404,1508.9514],[36.961,-1.4421,1510.7031],[36.9621,-1.4364,1526.024],[36.9595,-1.4351,1522.5232],[36.9548,-1.4262,1521.655],[36.9477,-1.4213,1551.2739],[36.9453,-1.4065,1571.9996],[36.9421,-1.4012,1597.6196],[36.9364,-1.3968,1595.1729],[36.9316,-1.3963,1605.775],[36.9281,-1.392,1614.0391],[36.9227,-1.392,1607.3999],[36.921,-1.3845,1621.8542],[36.9134,-1.3707,1630.4226],[36.9076,-1.3705,1633.3274],[36.8949,-1.3565,1637.002],[36.8924,-1.3586,1636.7662],[36.8822,-1.3473,1637.3113],[36.851,-1.3269,1651.7004],[36.8517,-1.3256,1649.6213],[36.8494,-1.3242,1649.6863],[36.7985,-1.3318,1711.7698],[36.7961,-1.3219,1694.7334],[36.807,-1.3196,1687.5588],[36.8151,-1.3103,1665.6907],[36.8119,-1.3105,1677.5303],[36.8051,-1.3146,1696.8838],[36.8004,-1.3143,1704.5729],[36.7997,-1.3159,1690.7474],[36.7942,-1.3177,1708.6765],[36.7893,-1.3142,1712.1111],[36.7888,-1.3121,1733.7496],[36.782,-1.3149,1742.3816],[36.7725,-1.314,1772.543],[36.7787,-1.3272,1775.1136],[36.7726,-1.3274,1789.6694],[36.7719,-1.3312,1792.2491],[36.7749,-1.3338,1783.3431],[36.7657,-1.3403,1799.3367],[36.7609,-1.3529,1791.2328],[36.7617,-1.3582,1793.8708],[36.7667,-1.3649,1783.2983],[36.7687,-1.3727,1777.5409],[36.7703,-1.3836,1723.7462],[36.7679,-1.3864,1709.7682],[36.7725,-1.3865,1713.7686],[36.7801,-1.3839,1705.3407],[36.7829,-1.3868,1691.3035],[36.7868,-1.3848,1690.5618],[36.7896,-1.3858,1685.7479],[36.7937,-1.3829,1686.9253],[36.7954,-1.3834,1686.698],[36.796,-1.3859,1684.3677],[36.8002,-1.385,1683.152],[36.8026,-1.3864,1675.0571],[36.8051,-1.3844,1676.1184],[36.8059,-1.387,1666.7089],[36.8088,-1.3857,1657.3032],[36.8094,-1.383,1669.6899],[36.8116,-1.3843,1667.2456],[36.8148,-1.3797,1659.7058],[36.8197,-1.379,1650.4918],[36.8221,-1.383,1619.1532],[36.8282,-1.3855,1620.933],[36.8363,-1.3864,1626.2617],[36.837,-1.3846,1629.5983],[36.8395,-1.386,1630.1575],[36.8419,-1.3843,1632.3438],[36.8443,-1.3848,1624.4626],[36.8449,-1.3892,1621.0031],[36.8497,-1.3943,1605.9585],[36.8573,-1.3966,1614.7734],[36.8638,-1.4017,1603.9359],[36.8695,-1.4011,1601.0044],[36.8708,-1.4052,1548.2789],[36.8755,-1.4035,1566.323],[36.8785,-1.4048,1562.1732],[36.8819,-1.4037,1579.662],[36.8951,-1.4094,1559.7241],[36.8944,-1.411,1546.9141],[36.8902,-1.4105,1538.251],[36.8899,-1.4123,1540.0248]]]]}}