{"type": "Feature","bbox": [34.4024,-0.6566,34.4776,-0.5333],"geometry": {"type": "MultiPolygon","coordinates": [[[[34.4765,-0.5878,1285.678],[34.4698,-0.5856,1246.1412],[34.4658,-0.5795,1228.1312],[34.4643,-0.5751,1240.0704],[34.4696,-0.5666,1229.9565],[34.466,-0.5623,1199.3174],[34.4565,-0.5561,1226.631],[34.4509,-0.5565,1235.5894],[34.4422,-0.5526,1228.385],[34.4369,-0.5447,1198.1978],[34.4324,-0.5411,1174.998],[34.4127,-0.5333,1136.9053],[34.4024,-0.5491,1150.5112],[34.405,-0.5533,1151.5829],[34.4128,-0.5584,1171.3152],[34.4163,-0.5643,1183.6752],[34.419,-0.5653,1195.0693],[34.4261,-0.5841,1277.3008],[34.427,-0.5909,1324.2527],[34.4336,-0.5885,1312.7815],[34.433,-0.6,1325.0217],[34.439,-0.6095,1325.3671],[34.4387,-0.6183,1325.3683],[34.4412,-0.6274,1355.469],[34.4677,-0.6469,1362.8484],[34.471,-0.6531,1357.7633],[34.4734,-0.6522,1354.8716],[34.4776,-0.6566,1351.3785],[34.4768,-0.6488,1359.7043],[34.473,-0.6424,1361.576],[34.4734,-0.5976,1293.8342],[34.4765,-0.5878,1285.678]]]]}
,"properties": {"GID_3": "KEN.8.1.4_1","GID_0": "KEN","country": "Kenya","GID_1": "KEN.8_1","province": "HomaBay","NL_NAME_1": "NA","GID_2": "KEN.8.1_1","county": "HomaBayTown","NL_NAME_2": "NA","city": "HomaBayWest","VARNAME_3": "NA","NL_NAME_3": "NA","TYPE_3": "Ward","ENGTYPE_3": "Ward","CC_3": "1243","HASC_3": "NA","name": "Homa_Bay_West.city","area_km2": 48.44449,"hist_schema_id": "Elevation0-9000","hist_area_km2": {"1125": 0.59364,"1150": 3.62541,"1175": 2.54415,"1200": 5.49111,"1225": 7.9292299999999996,"1250": 5.17307,"1275": 4.70664,"1300": 5.15185,"1325": 5.72427,"1350": 6.08467,"1375": 1.42046}}}