{"type": "Feature","bbox": [34.747,-0.5236,34.8557,-0.3827],"geometry": {"type": "MultiPolygon","coordinates": [[[[34.7971,-0.3827,1397.4818],[34.7958,-0.3842,1430.4623],[34.7811,-0.3861,1434.1707],[34.7644,-0.3955,1371.6746],[34.7571,-0.3945,1336.2065],[34.7536,-0.3968,1354.6299],[34.7502,-0.3962,1328.1147],[34.747,-0.4067,1354.4722],[34.7478,-0.4124,1322.4561],[34.7569,-0.4175,1339.4453],[34.7581,-0.4161,1338.6268],[34.7629,-0.4181,1322.5314],[34.7679,-0.4256,1320.6814],[34.7727,-0.4287,1329.8333],[34.7766,-0.4385,1318.5549],[34.7866,-0.4462,1357.8246],[34.787,-0.461,1369.8289],[34.7945,-0.471,1426.1349],[34.7962,-0.4829,1461.4452],[34.7878,-0.4897,1423.85],[34.7899,-0.4923,1429.5438],[34.7862,-0.5008,1475.0344],[34.7829,-0.5044,1467.9591],[34.7857,-0.5121,1599.8596],[34.7798,-0.5147,1480.9839],[34.7887,-0.5197,1545.2709],[34.7919,-0.5236,1569.226],[34.7932,-0.5217,1584.5338],[34.7993,-0.522,1571.7188],[34.808,-0.5184,1621.5955],[34.8068,-0.5157,1585.556],[34.8079,-0.5143,1579.7933],[34.8043,-0.5106,1592.5769],[34.806,-0.5052,1589.9331],[34.8048,-0.5036,1611.7363],[34.806399999999996,-0.5001,1556.4712],[34.8108,-0.4987,1508.6943],[34.8094,-0.4938,1461.9683],[34.8145,-0.4924,1447.8342],[34.8127,-0.4875,1417.0352],[34.8222,-0.4839,1408.3605],[34.8223,-0.4777,1445.8088],[34.8244,-0.4769,1448.5475],[34.8204,-0.4766,1435.9667],[34.8207,-0.4707,1431.8046],[34.8435,-0.4676,1515.2245],[34.8445,-0.4618,1490.3063],[34.8478,-0.4598,1498.2744],[34.8557,-0.4431,1441.3147],[34.8512,-0.4397,1420.8853],[34.8412,-0.4368,1414.5769],[34.8362,-0.4318,1387.3168],[34.8338,-0.4268,1435.0076],[34.827,-0.4278,1422.2118],[34.8214,-0.4266,1385.3264],[34.8153,-0.4193,1398.9706],[34.81,-0.4187,1398.7421],[34.8104,-0.4034,1423.0344],[34.8054,-0.3958,1437.1167],[34.8002,-0.394,1446.9314],[34.7982,-0.3906,1449.5653],[34.7971,-0.3827,1397.4818]]]]}
,"properties": {"GID_3": "KEN.8.2.4_1","GID_0": "KEN","country": "Kenya","GID_1": "KEN.8_1","province": "HomaBay","NL_NAME_1": "NA","GID_2": "KEN.8.2_1","county": "KabondoKasipul","NL_NAME_2": "NA","city": "Kokwanyo/Kakelo","VARNAME_3": "NA","NL_NAME_3": "NA","TYPE_3": "Ward","ENGTYPE_3": "Ward","CC_3": "1228","HASC_3": "NA","name": "Kokwanyo_Kakelo.city","area_km2": 73.54824,"hist_schema_id": "Elevation0-9000","hist_area_km2": {"1300": 0.21202,"1325": 3.30745,"1350": 10.30399,"1375": 15.92241,"1400": 16.34643,"1425": 11.74567,"1450": 6.61488,"1475": 2.56538,"1500": 1.5689,"1525": 1.22968,"1550": 1.25088,"1575": 1.35689,"1600": 0.76325,"1625": 0.29682,"1650": 0.0636}}}