{"type": "Feature","bbox": [34.364,0.7017,34.4346,0.778],"geometry": {"type": "MultiPolygon","coordinates": [[[[34.3711,0.7764,1312.4111],[34.3737,0.7709,1294.6694],[34.373,0.7627,1330.6171],[34.3679,0.7523,1389.0056],[34.3682,0.75,1377.1263],[34.3666,0.7489,1367.7244],[34.3676,0.747,1377.5583],[34.3658,0.746,1367.2275],[34.3686,0.7398,1366.6487],[34.364,0.7351,1348.118],[34.3698,0.7298,1332.54],[34.3767,0.7199,1358.2073],[34.3752,0.7141,1337.7773],[34.3888,0.7135,1381.519],[34.3951,0.7117,1415.5153],[34.407,0.7017,1361.8319],[34.4111,0.7076,1377.3258],[34.4043,0.7307,1418.1079],[34.4074,0.7315,1443.3684],[34.4126,0.7282,1466.1002],[34.4152,0.73,1444.3137],[34.418,0.7281,1437.483],[34.4199,0.7302,1409.8997],[34.423,0.7296,1387.3955],[34.4272,0.7332,1368.7915],[34.4316,0.7306,1356.4059],[34.4346,0.7408,1370.3513],[34.4334,0.7492,1408.7375],[34.43,0.7561,1439.3],[34.4222,0.7629,1394.8229],[34.4118,0.7667,1378.3643],[34.4045,0.7603,1386.0258],[34.3984,0.7598,1369.5118],[34.3922,0.7644,1356.7051],[34.3826,0.7779,1347.4216],[34.3735,0.778,1308.9385],[34.3734,0.7766,1320.3752],[34.3711,0.7764,1312.4111]]]]}
,"properties": {"GID_3": "KEN.4.6.1_1","GID_0": "KEN","country": "Kenya","GID_1": "KEN.4_1","province": "Busia","NL_NAME_1": "NA","GID_2": "KEN.4.6_1","county": "TesoNorth","NL_NAME_2": "NA","city": "Ang'UraiEast","VARNAME_3": "NA","NL_NAME_3": "NA","TYPE_3": "Ward","ENGTYPE_3": "Ward","CC_3": "1125","HASC_3": "NA","name": "Ang'Urai_East.city","area_km2": 36.61314,"hist_schema_id": "Elevation0-9000","hist_area_km2": {"1300": 0.48761,"1325": 2.98925,"1350": 5.57571,"1375": 9.09498,"1400": 9.32819,"1425": 5.99973,"1450": 2.73486,"1475": 0.38161,"1500": 0.0212}}}