{"type":"Feature","properties":{"GID_3":"KEN.30.16.1_1","GID_0":"KEN","country":"Kenya","GID_1":"KEN.30_1","province":"Nairobi","NL_NAME_1":"NA","GID_2":"KEN.30.16_1","county":"Starehe","NL_NAME_2":"NA","city":"Landimawe","VARNAME_3":"NA","NL_NAME_3":"NA","TYPE_3":"Ward","ENGTYPE_3":"Ward","CC_3":"1443","HASC_3":"NA","name":"Landimawe.city"},
"geometry":{"type": "MultiPolygon","coordinates": [[[[36.8559,-1.3138,1635.418],[36.8606,-1.3093,1634.0269],[36.8562,-1.298,1641.7635],[36.8447,-1.2992,1652.5262],[36.8349,-1.2867,1650.3535],[36.8212,-1.293,1663.2302],[36.8281,-1.3076,1659.7461],[36.8301,-1.3041,1654.2744],[36.8345,-1.3039,1655.2043],[36.8362,-1.3057,1650.561],[36.8398,-1.3041,1653.7073],[36.8404,-1.3075,1642.2157],[36.8434,-1.3098,1641.6099],[36.8533,-1.3142,1638.0681],[36.8559,-1.3138,1635.418]]]]}}