{"type": "Feature","bbox": [40.0193,1.6873,40.1239,1.7711],"geometry": {"type": "MultiPolygon","coordinates": [[[[40.0193,1.7087,252.3644],[40.0235,1.6945,250.1689],[40.0781,1.6873,247.5043],[40.1177,1.7205,252.4361],[40.1239,1.7367,255.0951],[40.1233,1.7427,256.3323],[40.0945,1.7443,257.1208],[40.0969,1.7579,259.9686],[40.0949,1.7711,261.0544],[40.0813,1.7611,261.0372],[40.0669,1.7545,261.4075],[40.0641,1.7504,258.2648],[40.0341,1.7551,262.3528],[40.0349,1.7405,258.5878],[40.0399,1.7323,257.7213],[40.0193,1.7087,252.3644]]]]}
,"properties": {"GID_3": "KEN.46.3.3_1","GID_0": "KEN","country": "Kenya","GID_1": "KEN.46_1","province": "Wajir","NL_NAME_1": "NA","GID_2": "KEN.46.3_1","county": "WajirEast","NL_NAME_2": "NA","city": "Township","VARNAME_3": "NA","NL_NAME_3": "NA","TYPE_3": "Ward","ENGTYPE_3": "Ward","CC_3": "169","HASC_3": "NA","name": "Township.city","area_km2": 63.02682,"hist_schema_id": "Elevation0-9000","hist_area_km2": {"250": 62.92086,"275": 0.10596}}}