{"type":"Feature","properties":{"GID_2":"KEN.24.3_1","GID_0":"KEN","country":"Kenya","GID_1":"KEN.24_1","province":"Mandera","NL_NAME_1":"NA","county":"ManderaEast","VARNAME_2":"NA","NL_NAME_2":"NA","TYPE_2":"Constituency","ENGTYPE_2":"Constituency","CC_2":"43","HASC_2":"NA","name":"Mandera_East.county"},
"geometry":{"type": "MultiPolygon","coordinates": [[[[41.3829,3.2545,460.9785],[41.3919,3.2507,465.449],[41.6106,3.5641,450.3736],[41.6614,3.6392,343.8994],[41.7239,3.7256,316.9006],[41.7249,3.7236,317.4974],[41.8602,3.9127,250.6406],[41.8729,3.9366,217.0121],[41.8991,3.9755,194.9337],[41.9069,3.978,195.5829],[41.9131,3.9908,193.4716],[41.9214,3.9941,193.3619],[41.9262,4.0023,198.3691],[41.9139,3.9964,192.4818],[41.9007,3.9853,195.3165],[41.8836,3.9869,196.1357],[41.8589,3.9867,202.7146],[41.8436,3.9807,218.1472],[41.7988,3.975,205.2353],[41.7673,3.9804,208.2432],[41.752,3.9745,210.4415],[41.7245,3.9696,232.2027],[41.6976,3.9721,216.2618],[41.6774,3.9666,217.0353],[41.6528,3.9664,219.4334],[41.5769,3.9606,230.2645],[41.5781,3.9483,236.7771],[41.5675,3.9235,249.8104],[41.5541,3.9055,252.986],[41.5403,3.8909,261.6983],[41.5401,3.8838,261.7716],[41.5315,3.8683,271.1606],[41.5287,3.8577,272.5352],[41.5229,3.8525,273.9941],[41.5197,3.8455,280.3957],[41.5199,3.8407,281.2347],[41.5099,3.8311,285.5363],[41.5103,3.8175,296.3281],[41.5201,3.8053,302.3409],[41.5181,3.7883,309.7625],[41.5189,3.7726,315.9315],[41.5035,3.7409,338.2241],[41.4941,3.7277,348.0808],[41.4783,3.7121,360.4794],[41.4767,3.7071,364.8247],[41.4721,3.7009,373.6802],[41.4303,3.6783,403.9352],[41.4149,3.6667,414.5619],[41.4033,3.6475,423.6079],[41.3877,3.6357,432.7579],[41.3821,3.6289,436.635],[41.3765,3.6195,440.9282],[41.3771,3.6133,433.7339],[41.3583,3.6149,452.226],[41.3503,3.6181,465.6118],[41.2895,3.6651,616.9],[41.2561,3.6113,485.7187],[41.2527,3.5975,471.3883],[41.2535,3.5915,467.1325],[41.2595,3.5841,465.3605],[41.2675,3.5657,457.3102],[41.2745,3.5586,453.388],[41.2695,3.5578,454.4438],[41.26,3.5607,458.5854],[41.2465,3.5574,465.9191],[41.242,3.5607,467.949],[41.2385,3.5607,469.8863],[41.2336,3.5555,471.9324],[41.2207,3.5468,483.1304],[41.1917,3.5452,510.9972],[41.1727,3.5526,530.7281],[41.1529,3.5732,673.702],[41.1447,3.5787,566.1094],[41.1425,3.5775,564.1899],[41.1401,3.5681,575.936],[41.1355,3.5661,576.7903],[41.1289,3.5584,589.2186],[41.1172,3.5557,604.6688],[41.1061,3.5461,622.8209],[41.095,3.5449,702.0276],[41.0804,3.5381,648.1503],[41.0795,3.5332,682.1556],[41.0769,3.5291,675.8336],[41.0771,3.5239,759.0344],[41.0945,3.4877,644.7301],[41.1021,3.4601,739.025],[41.1009,3.4559,773.7646],[41.0933,3.4463,692.3843],[41.0915,3.4401,665.4829],[41.0849,3.4331,643.5933],[41.083,3.424,611.6793],[41.0845,3.4203,605.3474],[41.1043,3.409,612.1416],[41.1107,3.3976,574.3874],[41.1115,3.3816,549.1529],[41.1101,3.3717,533.8082],[41.1053,3.3587,517.2253],[41.1053,3.3539,515.0181],[41.1181,3.3395,501.6459],[41.123,3.3305,496.1987],[41.1319,3.3267,492.0417],[41.1405,3.3203,492.2986],[41.1441,3.3153,486.4555],[41.1485,3.2961,473.3084],[41.1555,3.2897,469.1208],[41.1671,3.2735,458.8395],[41.1877,3.2733,455.7433],[41.2013,3.2663,449.6503],[41.2049,3.2659,449.5606],[41.2315,3.2723,442.0616],[41.2447,3.2725,441.4465],[41.2595,3.2689,436.3653],[41.3501,3.2629,434.5976],[41.3613,3.2583,440.9456],[41.3757,3.2547,456.0156],[41.3829,3.2545,460.9785]]]]}}