{"type": "Feature","bbox": [34.4055,0.7913,34.5293,1.1071],"geometry": {"type": "MultiPolygon","coordinates": [[[[34.5293,1.1068,4014.5989],[34.5265,1.1071,4037.9741],[34.5262,1.1042,3941.8198],[34.5223,1.1024,4066.824],[34.5136,1.0816,3770.335],[34.5025,1.0706,3594.1567],[34.499,1.0619,3500.0298],[34.4997,1.0578,3383.4978],[34.497,1.0543,3451.0977],[34.4931,1.0427,3190.4268],[34.4886,1.0178,3074.9622],[34.487,1.0006,2903.4866],[34.4885,0.9983,2837.0281],[34.488,0.9894,2810.439],[34.4893,0.9829,2737.5225],[34.4827,0.9611,2578.7866],[34.4825,0.955,2534.3508],[34.4793,0.9449,2491.0532],[34.4799,0.9401,2475.5894],[34.4642,0.9117,2253.2527],[34.4586,0.908,2264.9856],[34.4563,0.9036,2200.6416],[34.4505,0.9004,2151.5525],[34.4517,0.8911,2140.2773],[34.4464,0.877,1942.5217],[34.4464,0.864,1771.5374],[34.4398,0.8566,1553.7045],[34.4298,0.8549,1522.7308],[34.4205,0.8501,1435.4824],[34.4206,0.8459,1441.1462],[34.4171,0.8423,1451.1538],[34.4141,0.8424,1458.5376],[34.4136,0.837,1421.973],[34.4152,0.8352,1409.4353],[34.4087,0.8323,1437.4539],[34.4055,0.8287,1416.002],[34.4082,0.8278,1409.376],[34.4094,0.8224,1400.3721],[34.4134,0.8202,1401.2723],[34.4136,0.8159,1385.6875],[34.4229,0.8176,1436.7633],[34.4366,0.814,1451.5851],[34.4468,0.8181,1538.6718],[34.4511,0.8079,1546.8807],[34.4627,0.8008,1600.0951],[34.4623,0.7938,1562.1595],[34.4644,0.7913,1534.8247],[34.4705,0.7916,1522.2871],[34.4688,0.7955,1549.0266],[34.4708,0.8025,1567.3051],[34.47,0.8076,1597.4003],[34.4659,0.8144,1637.149],[34.4693,0.8217,1701.4818],[34.4731,0.8258,1749.5123],[34.4727,0.8294,1800.5245],[34.4768,0.8395,1973.0739],[34.4746,0.8448,2030.0516],[34.4841,0.8423,2103.5156],[34.4855,0.8514,2193.5146],[34.4872,0.8531,2177.822],[34.4865,0.8561,2235.0012],[34.4886,0.8595,2180.7139],[34.4879,0.8651,2268.4741],[34.4842,0.8712,2325.1882],[34.4865,0.8786,2276.4836],[34.4831,0.8913,2327.4141],[34.4827,0.909,2441.0574],[34.4859,0.9179,2387.0513],[34.4898,0.9209,2458.5713],[34.4953,0.933,2572.833],[34.495,0.9353,2596.897],[34.489,0.9317,2467.8569],[34.4907,0.9357,2469.2922],[34.4898,0.9443,2590.6821],[34.493,0.9561,2720.5376],[34.4975,0.9616,2625.4946],[34.4962,0.9649,2726.5271],[34.4994,0.9724,2778.6499],[34.5046,0.9787,2692.9177],[34.504,0.9899,2857.5015],[34.5105,0.9961,2866.4197],[34.5105,0.9983,2896.1055],[34.5149,1.0041,2908.9651],[34.5144,1.0111,2976.2537],[34.5114,1.0159,3005.7549],[34.5116,1.0306,3143.3899],[34.5096,1.0406,3312.6475],[34.5116,1.0493,3377.7852],[34.5104,1.057,3577.9807],[34.5137,1.0636,3554.5889],[34.5132,1.0716,3656.6531],[34.5145,1.0761,3702.2268],[34.5188,1.081,3824.6497],[34.5293,1.1068,4014.5989]]]]}
,"properties": {"GID_3": "KEN.3.7.1_1","GID_0": "KEN","country": "Kenya","GID_1": "KEN.3_1","province": "Bungoma","NL_NAME_1": "NA","GID_2": "KEN.3.7_1","county": "Mt.Elgon","NL_NAME_2": "NA","city": "Cheptais","VARNAME_3": "NA","NL_NAME_3": "NA","TYPE_3": "Ward","ENGTYPE_3": "Ward","CC_3": "1076","HASC_3": "NA","name": "Cheptais.city","area_km2": 94.78305,"hist_schema_id": "Elevation0-9000","hist_area_km2": {"1375": 0.0212,"1400": 0.8056,"1425": 2.6712,"1450": 3.0316,"1475": 1.908,"1500": 1.9504,"1525": 2.12,"1550": 3.074,"1575": 3.4768,"1600": 2.7772,"1625": 1.5688,"1650": 1.3356,"1675": 1.06,"1700": 1.0388,"1725": 0.7208,"1750": 0.6572,"1775": 0.8904,"1800": 0.7632,"1825": 1.33559,"1850": 0.8692,"1875": 0.6996,"1900": 0.65719,"1925": 0.4452,"1950": 0.67839,"1975": 0.4028,"2000": 0.55119,"2025": 0.65719,"2050": 0.4452,"2075": 0.67839,"2100": 0.69959,"2125": 1.12359,"2150": 1.50518,"2175": 1.58998,"2200": 1.69598,"2225": 1.67478,"2250": 1.52638,"2275": 1.50518,"2300": 1.78077,"2325": 2.54396,"2350": 3.26474,"2375": 2.37435,"2400": 1.63236,"2425": 1.29317,"2450": 1.25077,"2475": 0.69958,"2500": 0.67838,"2525": 0.61478,"2550": 0.46639,"2575": 0.57238,"2600": 0.57238,"2625": 0.48758,"2650": 0.59358,"2675": 0.48758,"2700": 0.84797,"2725": 0.67837,"2750": 0.74197,"2775": 0.65717,"2800": 0.50878,"2825": 0.67837,"2850": 0.50878,"2875": 0.74197,"2900": 0.91156,"2925": 1.12355,"2950": 0.89036,"2975": 0.97515,"3000": 1.29313,"3025": 1.08114,"3050": 0.67837,"3075": 0.89035,"3100": 0.82675,"3125": 0.69956,"3150": 0.95395,"3175": 0.93275,"3200": 0.50876999999999994,"3225": 0.67836,"3250": 0.63596,"3275": 0.27558,"3300": 0.40278,"3325": 0.31798,"3350": 0.42397,"3375": 0.21199,"3400": 0.31798,"3425": 0.52997,"3450": 0.25438,"3475": 0.55116,"3500": 0.44517,"3525": 0.38157,"3550": 0.21199,"3575": 0.40277,"3600": 0.36038,"3625": 0.50876,"3650": 0.40277,"3675": 0.40277,"3700": 0.25438,"3750": 0.10599,"3775": 0.12719,"3800": 0.12719,"3825": 0.19079,"3850": 0.23318,"3875": 0.42397,"3900": 0.16959,"3925": 0.10599,"3950": 0.12719,"3975": 0.06359,"4025": 0.06359,"4050": 0.0212}}}