{"type": "Feature","bbox": [36.8778,-0.7037,37.1244,-0.6169],"geometry": {"type": "MultiPolygon","coordinates": [[[[37.1181,-0.7009,1361.3499],[37.1244,-0.7037,1273.6582],[37.1224,-0.7014,1286.566],[37.1227,-0.6949,1360.7574],[37.1165,-0.6869,1315.8445],[37.1143,-0.6869,1295.0023],[37.1144,-0.6822,1382.4747],[37.113,-0.6823,1382.4747],[37.1119,-0.6798,1371.7719],[37.1096,-0.6802,1372.4312],[37.1076,-0.6761,1431.9719],[37.103,-0.6729,1427.2172],[37.0998,-0.6725,1382.9796],[37.0997,-0.6739,1388.8727],[37.0962,-0.6725,1369.4149],[37.0974,-0.6695,1426.7311],[37.0956,-0.6671,1444.522],[37.0927,-0.6668,1362.7943],[37.0918,-0.6626,1479.8066],[37.0864,-0.6659,1475.3217],[37.0845,-0.6618,1471.6443],[37.0766,-0.6632,1432.8455],[37.0765,-0.6608,1505.6433],[37.0709,-0.6614,1412.8427],[37.0687,-0.6596,1413.9658],[37.0709,-0.658,1499.0712],[37.0615,-0.651,1531.5342],[37.0602,-0.648,1557.5465],[37.0541,-0.6484,1451.8724],[37.054,-0.6446,1535.1321],[37.0518,-0.6424,1564.2944],[37.0445,-0.6397,1614.8473],[37.0414,-0.6403,1557.4109],[37.0387,-0.6383,1592.1157],[37.0306,-0.6417,1599.5015],[37.027,-0.6406,1556.0223],[37.0258,-0.6367,1641.0031],[37.0216,-0.6349,1606.4752],[37.0122,-0.6338,1617.4312],[37.0096,-0.6366,1664.9061],[37.0061,-0.6348,1696.4701],[37.0015,-0.6354,1687.8087],[37.0007,-0.6338,1720.5409],[36.9941,-0.6313,1635.6472],[36.9908,-0.6268,1767.6912],[36.9855,-0.6245,1770.5247],[36.983,-0.6255,1741.5668],[36.9811,-0.6219,1749.4404],[36.9751,-0.624,1766.8938],[36.9668,-0.6209,1797.6885],[36.9637,-0.6211,1813.5184],[36.9637,-0.6229,1784.1132],[36.9617,-0.6211,1812.8677],[36.9619,-0.6235,1747.9753],[36.9595,-0.6242,1734.2538],[36.9579,-0.6206,1791.0674],[36.956,-0.6224,1747.0042],[36.9543,-0.6217,1747.0042],[36.9534,-0.6242,1722.8418],[36.9493,-0.6229,1781.9973],[36.9486,-0.6212,1805.6632],[36.946,-0.6221,1810.0326],[36.9439,-0.62,1810.8638],[36.9417,-0.6221,1836.2893],[36.9399,-0.6206,1833.7833],[36.9381,-0.6228,1830.8677],[36.9369,-0.6208,1822.5234],[36.9342,-0.6222,1850.9669],[36.93,-0.6211,1890.5273],[36.9266,-0.6242,1876.1067],[36.9218,-0.6245,1885.0082],[36.9203,-0.6261,1875.9338],[36.9191,-0.6248,1875.9338],[36.9168,-0.6276,1932.8854],[36.911,-0.6274,1909.2307],[36.9085,-0.6297,1897.5447],[36.8971,-0.6226,2018.6174],[36.891,-0.6219,2010.3289],[36.8838,-0.6169,2067.2197],[36.8803,-0.6171,2077.7092],[36.8788,-0.62,1971.9473],[36.8778,-0.6293,2035.8315],[36.8883,-0.6283,1929.2471],[36.8908,-0.6297,1923.7375],[36.8929,-0.6339,1999.5394],[36.8977,-0.635,1987.6445],[36.9005,-0.6384,1945.3674],[36.9032,-0.6371,1880.8473],[36.9154,-0.6413,1873.4556],[36.9227,-0.6405,1873.3],[36.9292,-0.644,1849.0349],[36.9404,-0.6422,1892.9127],[36.9442,-0.6433,1853.4166],[36.9468,-0.645,1817.5039],[36.9474,-0.6502,1743.3628],[36.9511,-0.6585,1835.0922],[36.9539,-0.6573,1803.4578],[36.9541,-0.6597,1774.7559],[36.9591,-0.6594,1726.519],[36.963,-0.6631,1760.8936],[36.9796,-0.6624,1633.064],[36.9857,-0.6604,1635.1694],[36.9871,-0.6565,1632.5405],[36.9933,-0.6577,1655.6287],[36.9946,-0.6563,1655.6287],[36.9932,-0.6548,1641.9601],[36.9983,-0.6519,1622.8276],[36.9992,-0.6541,1603.6573],[37.0,-0.6525,1638.3992],[37.0047,-0.6533,1664.51],[37.0075,-0.6592,1625.8774],[37.011,-0.6606,1625.124],[37.0112,-0.6623,1614.9042],[37.0141,-0.6619,1578.5775],[37.0147,-0.6657,1598.1506],[37.0171,-0.6679,1579.8418],[37.0204,-0.667,1539.498],[37.0259,-0.6698,1535.0649],[37.0312,-0.6669,1549.502],[37.0344,-0.6685,1565.5541],[37.0425,-0.6665,1514.5635],[37.0483,-0.6699,1528.807],[37.0507,-0.6697,1495.1963],[37.0519,-0.6721,1534.6232],[37.0744,-0.6741,1511.1594],[37.0825,-0.6784,1451.4031],[37.0836,-0.6804,1401.8431],[37.0918,-0.6816,1436.2255],[37.094,-0.6857,1390.6184],[37.0959,-0.6848,1390.6184],[37.1042,-0.6879,1352.4744],[37.1068,-0.6932,1363.5026],[37.1106,-0.6957,1376.3533],[37.1139,-0.6951,1349.145],[37.1178,-0.6981,1381.9679],[37.1181,-0.7009,1361.3499]]]]}
,"properties": {"GID_3": "KEN.29.7.1_1","GID_0": "KEN","country": "Kenya","GID_1": "KEN.29_1","province": "Murang'a","NL_NAME_1": "NA","GID_2": "KEN.29.7_1","county": "Mathioya","NL_NAME_2": "NA","city": "Gitugi","VARNAME_3": "NA","NL_NAME_3": "NA","TYPE_3": "Ward","ENGTYPE_3": "Ward","CC_3": "519","HASC_3": "NA","name": "Gitugi.city","area_km2": 67.41869,"hist_schema_id": "Elevation0-9000","hist_area_km2": {"1275": 0.16961,"1300": 0.86923,"1325": 1.14484,"1350": 1.52645,"1375": 1.71726,"1400": 1.90807,"1425": 1.71726,"1450": 1.88687,"1475": 2.35329,"1500": 2.37449,"1525": 2.6289,"1550": 2.79851,"1575": 3.20133,"1600": 3.37093,"1625": 3.87975,"1650": 3.66775,"1675": 4.70659,"1700": 4.26138,"1725": 3.79496,"1750": 2.92572,"1775": 2.81972,"1800": 2.16249,"1825": 1.88688,"1850": 2.03529,"1875": 2.05649,"1900": 2.3321,"1925": 1.61127,"1950": 0.55122,"1975": 0.40282,"2000": 0.33922,"2025": 0.16961,"2050": 0.106,"2075": 0.0424}}}