{"type": "Feature","bbox": [34.53,0.5933,34.6201,0.6729],"geometry": {"type": "MultiPolygon","coordinates": [[[[34.5945,0.6628,1545.5912],[34.5874,0.6632,1565.8811],[34.5816,0.6681,1574.7828],[34.578,0.6684,1580.2646],[34.5673,0.6667,1565.6455],[34.5634,0.6612,1572.5393],[34.5491,0.6729,1536.2976],[34.5396,0.6717,1527.3279],[34.53,0.6629,1494.0703],[34.5303,0.6572,1477.2153],[34.5372,0.6489,1493.1121],[34.5447,0.6265,1455.9799],[34.5476,0.6218,1451.7056],[34.5603,0.6096,1451.421],[34.5631,0.6031,1430.0332],[34.5706,0.5933,1424.2708],[34.5913,0.6101,1447.4451],[34.6015,0.6098,1469.5564],[34.6035,0.6057,1456.1046],[34.6108,0.6003,1482.6228],[34.6201,0.6047,1513.924],[34.6133,0.6302,1525.3671],[34.6148,0.6431,1534.3342],[34.6125,0.6521,1521.8518],[34.6071,0.6601,1537.3895],[34.5945,0.6628,1545.5912]]]]}
,"properties": {"GID_3": "KEN.3.2.4_1","GID_0": "KEN","country": "Kenya","GID_1": "KEN.3_1","province": "Bungoma","NL_NAME_1": "NA","GID_2": "KEN.3.2_1","county": "Kabuchai","NL_NAME_2": "NA","city": "WestNalondo","VARNAME_3": "NA","NL_NAME_3": "NA","TYPE_3": "Ward","ENGTYPE_3": "Ward","CC_3": "1086","HASC_3": "NA","name": "West_Nalondo.city","area_km2": 55.10113,"hist_schema_id": "Elevation0-9000","hist_area_km2": {"1425": 1.03885,"1450": 4.85503,"1475": 8.54398,"1500": 12.61454,"1525": 10.96085,"1550": 7.18709,"1575": 7.01747,"1600": 1.95048,"1625": 0.69963,"1650": 0.23321}}}