{"type":"Feature","properties":{"GID_2":"KEN.29.2_1","GID_0":"KEN","country":"Kenya","GID_1":"KEN.29_1","province":"Murang'a","NL_NAME_1":"NA","county":"Kandara","VARNAME_2":"NA","NL_NAME_2":"NA","TYPE_2":"Constituency","ENGTYPE_2":"Constituency","CC_2":"109","HASC_2":"NA","name":"Kandara.county"},
"geometry":{"type": "MultiPolygon","coordinates": [[[[37.0999,-0.9566,1503.2527],[37.1081,-0.9464,1512.7683],[37.1199,-0.9385,1531.9636],[37.1232,-0.9333,1527.5269],[37.1217,-0.9307,1534.4287],[37.1262,-0.9123,1452.1616],[37.1223,-0.9069,1391.1289],[37.1188,-0.894,1423.8088],[37.1325,-0.8874,1376.6924],[37.1401,-0.8857,1389.9431],[37.1482,-0.88,1366.7545],[37.1638,-0.8757,1382.7002],[37.1693,-0.8726,1362.823],[37.1695,-0.8709,1359.1212],[37.1584,-0.8756,1392.2892],[37.1428,-0.8753,1377.0945],[37.1341,-0.877,1376.3342],[37.1267,-0.8811,1439.9543],[37.1204,-0.8813,1448.2418],[37.103,-0.8728,1454.1472],[37.0956,-0.8716,1486.9146],[37.0918,-0.8734,1429.0343],[37.0812,-0.8713,1482.281],[37.0717,-0.8636,1472.4243],[37.0688,-0.8589,1465.8397],[37.0579,-0.853,1531.9694],[37.053,-0.8546,1524.3094],[37.0464,-0.8523,1553.3658],[37.0427,-0.8549,1580.938],[37.041,-0.852,1569.4142],[37.0363,-0.85,1602.4827],[37.0341,-0.8464,1640.828],[37.0318,-0.8463,1588.9805],[37.0299,-0.843,1651.0375],[37.0249,-0.8421,1648.7487],[37.0186,-0.8381,1675.2341],[37.0138,-0.8382,1667.5439],[37.0035,-0.8297,1674.5754],[36.9943,-0.8298,1705.9104],[36.9803,-0.8209,1749.1936],[36.9745,-0.8217,1747.3748],[36.9548,-0.8033,1786.1687],[36.9457,-0.7998,1831.8965],[36.9339,-0.7978,1873.9961],[36.9333,-0.7997,1864.1229],[36.9257,-0.8019,1916.9015],[36.92,-0.7995,1897.8883],[36.9177,-0.8007,1930.9342],[36.9137,-0.7985,1914.3746],[36.9107,-0.7997,1904.9856],[36.8997,-0.795,1975.0972],[36.8968,-0.7906,1949.7684],[36.8893,-0.7938,2024.3201],[36.8769,-0.7959,2031.9088],[36.8742,-0.7926,2005.944],[36.8724,-0.7928,2018.7527],[36.8702,-0.7948,2005.1384],[36.8702,-0.8029,2012.0781],[36.8641,-0.8015,2013.5605],[36.862,-0.7967,2064.5068],[36.8577,-0.7958,2090.0613],[36.8549,-0.8024,2061.7595],[36.862,-0.8138,2042.7091],[36.8631,-0.8192,2001.2507],[36.8656,-0.8179,2015.0554],[36.8693,-0.8186,1987.874],[36.8715,-0.8214,2014.0525],[36.8775,-0.8165,1964.5281],[36.883,-0.8191,1972.584],[36.8875,-0.8285,1948.1099],[36.89,-0.8293,1962.1823],[36.8901,-0.8329,1949.64],[36.8991,-0.8335,1898.6331],[36.9031,-0.8296,1924.2032],[36.9071,-0.8329,1909.9918],[36.9061,-0.8344,1904.1924],[36.9072,-0.8363,1885.7605],[36.9103,-0.8346,1895.4902],[36.9132,-0.8354,1892.1361],[36.9186,-0.8484,1792.8269],[36.9247,-0.8542,1819.1395],[36.9241,-0.8563,1740.7882],[36.9256,-0.8562,1844.3635],[36.927,-0.8584,1749.5979],[36.926,-0.8593,1749.5979],[36.9297,-0.8612,1800.0472],[36.9286,-0.865,1704.241],[36.9304,-0.8703,1686.8381],[36.9332,-0.8704,1745.4808],[36.9337,-0.873,1771.5669],[36.9376,-0.8757,1779.4836],[36.9384,-0.875,1779.4836],[36.943,-0.8799,1739.4053],[36.9474,-0.8793,1733.7087],[36.9513,-0.882,1697.3013],[36.9536,-0.8812,1725.5652],[36.9546,-0.8832,1765.9241],[36.9609,-0.8867,1715.103],[36.9625,-0.8911,1705.913],[36.9666,-0.8927,1683.5409],[36.966,-0.8954,1669.9617],[36.9722,-0.8955,1610.8401],[36.9739,-0.8979,1626.8733],[36.98,-0.8966,1610.6124],[36.9829,-0.8971,1609.6685],[36.9822,-0.898,1604.856],[36.9844,-0.8996,1602.9033],[36.9862,-0.8986,1604.4321],[36.9894,-0.9035,1602.3112],[36.9921,-0.9039,1624.0277],[36.9919,-0.9072,1642.1135],[36.9958,-0.9138,1620.1404],[37.005,-0.9277,1605.063],[37.0086,-0.9306,1601.6937],[37.0134,-0.9393,1602.3281],[37.0228,-0.9464,1589.436],[37.0293,-0.9563,1571.0256],[37.0324,-0.9567,1581.6545],[37.0353,-0.9607,1564.7781],[37.0639,-0.9424,1551.8794],[37.0662,-0.9455,1548.0811],[37.0796,-0.953,1516.0916],[37.0849,-0.959,1495.4846],[37.0938,-0.9636,1523.3093],[37.0963,-0.9609,1522.8977],[37.0963,-0.9585,1523.8616],[37.0999,-0.9566,1503.2527]]]]}}