{"type":"Feature","properties":{"GID_2":"KEN.28.1_1","GID_0":"KEN","country":"Kenya","GID_1":"KEN.28_1","province":"Mombasa","NL_NAME_1":"NA","county":"Changamwe","VARNAME_2":"NA","NL_NAME_2":"NA","TYPE_2":"Constituency","ENGTYPE_2":"Constituency","CC_2":"1","HASC_2":"NA","name":"Changamwe.county"},
"geometry":{"type": "MultiPolygon","coordinates": [[[[39.6413,-4.0396,0.8777],[39.6379,-4.0385,1.5232],[39.6387,-4.0346,0.0],[39.6443,-4.0335,3.1035],[39.6463,-4.0371,5.1387],[39.6479,-4.0371,0.0],[39.6518,-4.0307,0.0],[39.6322,-4.0276,51.7847],[39.6332,-4.0142,58.5293],[39.6303,-4.0101,35.2294],[39.6185,-4.0063,61.0918],[39.5998,-4.0052,65.4732],[39.5998,-4.0076,64.1598],[39.6021,-4.0086,62.4226],[39.6017,-4.0149,59.2636],[39.5998,-4.0141,51.5988],[39.5982,-4.021,44.9773],[39.5947,-4.0265,41.6525],[39.5924,-4.0262,15.5945],[39.5863,-4.03,1.8004],[39.5851,-4.0382,1.3144],[39.5835,-4.0401,0.0],[39.5835,-4.0463,0.0],[39.5871,-4.0507,0.0],[39.589,-4.0499,0.0],[39.5907,-4.0451,0.0],[39.6076,-4.0454,0.0],[39.6124,-4.0426,12.264099999999999],[39.6176,-4.0421,4.5815],[39.6213,-4.0438,10.317],[39.6207,-4.0463,0.0],[39.6263,-4.0465,0.0],[39.6274,-4.0479,0.0],[39.6312,-4.046,0.0],[39.631,-4.0435,2.3667],[39.634,-4.0449,0.0],[39.6407,-4.0426,0.0],[39.6413,-4.0396,0.8777]]]]}}