{"type":"Feature","properties":{"GID_3":"KEN.16.5.1_1","GID_0":"KEN","country":"Kenya","GID_1":"KEN.16_1","province":"Kisii","NL_NAME_1":"NA","GID_2":"KEN.16.5_1","county":"KitutuChacheNorth","NL_NAME_2":"NA","city":"Kegogi","VARNAME_3":"NA","NL_NAME_3":"NA","TYPE_3":"Ward","ENGTYPE_3":"Ward","CC_3":"1340","HASC_3":"NA","name":"Kegogi.city"},
"geometry":{"type": "MultiPolygon","coordinates": [[[[34.8225,-0.5124,1615.8044],[34.8231,-0.5205,1609.3799],[34.8188,-0.5322,1818.6309],[34.8201,-0.5359,1824.1603],[34.8172,-0.5395,1803.4832],[34.8136,-0.5497,1741.6481],[34.8157,-0.5533,1681.0642],[34.8168,-0.5608,1649.2053],[34.818,-0.5609,1649.2053],[34.8215,-0.5589,1693.1136],[34.8269,-0.5519,1706.4675],[34.8313,-0.5501,1708.877],[34.8373,-0.551,1728.449],[34.8551,-0.5354,1659.6864],[34.8548,-0.5307,1680.4446],[34.8571,-0.5226,1619.6],[34.8623,-0.5229,1645.5009],[34.8652,-0.5142,1670.2395],[34.8693,-0.5134,1664.8682],[34.8686,-0.5036,1585.3879],[34.8705,-0.5014,1591.0128],[34.8636,-0.497,1633.0923],[34.8578,-0.499,1629.3823],[34.8557,-0.4983,1608.6377],[34.8559,-0.5003,1610.5247],[34.851,-0.5062,1548.3513],[34.8498,-0.505,1542.7119],[34.8465,-0.5071,1545.1711],[34.8225,-0.5124,1615.8044]]]]}}