{"type":"Feature","properties":{"GID_3":"KEN.33.5.3_1","GID_0":"KEN","country":"Kenya","GID_1":"KEN.33_1","province":"Narok","NL_NAME_1":"NA","GID_2":"KEN.33.5_1","county":"NarokSouth","NL_NAME_2":"NA","city":"Majimoto/Naroosura","VARNAME_3":"NA","NL_NAME_3":"NA","TYPE_3":"Ward","ENGTYPE_3":"Ward","CC_3":"901","HASC_3":"NA","name":"Majimoto_Naroosura.city"},
"geometry":{"type": "MultiPolygon","coordinates": [[[[36.0709,-1.4631,1277.2458],[36.0685,-1.462,1277.9287],[36.0664,-1.4641,1276.5908],[36.0655,-1.4626,1277.9221],[36.0669,-1.4599,1280.3408],[36.0656,-1.4604,1280.3408],[36.0651,-1.458,1280.4614],[36.0623,-1.4575,1282.4583],[36.0644,-1.4552,1281.4695],[36.0666,-1.4551,1280.7286],[36.0674,-1.4523,1284.1106],[36.0634,-1.4451,1289.0164],[36.0612,-1.4455,1285.5914],[36.063,-1.4485,1284.9178],[36.0605,-1.448,1281.4342],[36.0587,-1.4441,1284.2437],[36.0597,-1.4419,1289.9457],[36.0559,-1.4354,1293.7534],[36.0475,-1.4311,1304.5499],[36.0411,-1.4327,1382.9839],[36.0357,-1.4312,1372.8458],[36.036,-1.4261,1448.314],[36.0331,-1.4258,1490.9115],[36.03,-1.4223,1438.1433],[36.0271,-1.4126,1534.967],[36.0246,-1.4102,1474.0055],[36.0182,-1.4089,1497.7992],[36.0173,-1.4063,1537.7336],[36.0215,-1.4067,1488.1332],[36.0231,-1.4049,1484.4998],[36.0215,-1.402,1533.4612],[36.0229,-1.3981,1493.0449],[36.0223,-1.3925,1552.4022],[36.0192,-1.3903,1544.278],[36.0146,-1.3903,1480.1288],[36.0148,-1.3849,1531.2914],[36.0117,-1.383,1539.2393],[36.0052,-1.3822,1547.897],[36.002,-1.3791,1584.9834],[35.9972,-1.3829,1599.5284],[35.986,-1.3851,1643.2046],[35.9822,-1.395,1618.2192],[35.9776,-1.3994,1659.7274],[35.9768,-1.4029,1667.6302],[35.9712,-1.4058,1691.0244],[35.9641,-1.4026,1742.3149],[35.9604,-1.4047,1788.5574],[35.953,-1.405,1806.0067],[35.9457,-1.4011,1815.0093],[35.9426,-1.3968,1830.7267],[35.9424,-1.3937,1817.0317],[35.9457,-1.3819,1835.6124],[35.9533,-1.3684,1782.573],[35.954,-1.3523,1816.7125],[35.9522,-1.3449,1727.4843],[35.9441,-1.3329,1637.3817],[35.9464,-1.3069,1617.3577],[35.9407,-1.3082,1605.9043],[35.9379,-1.3041,1606.5173],[35.9397,-1.2996,1686.46],[35.9429,-1.2969,1625.4983],[35.9468,-1.2995,1610.3416],[35.9509,-1.2953,1700.38],[35.9407,-1.2896,1635.3662],[35.9424,-1.2878,1616.7341],[35.9425,-1.2808,1647.078],[35.9382,-1.2787,1633.3589],[35.9378,-1.2716,1706.6487],[35.9358,-1.2682,1709.6938],[35.9343,-1.2675,1716.55],[35.932,-1.2691,1712.0546],[35.9184,-1.2628,1648.4031],[35.918,-1.2578,1701.8016],[35.9153,-1.2556,1772.2719],[35.9213,-1.2447,1747.1227],[35.9102,-1.2394,1760.5449],[35.9093,-1.2358,1755.9144],[35.912,-1.2297,1765.3955],[35.9051,-1.2252,1740.7533],[35.9041,-1.214,1826.3458],[35.8977,-1.2166,1771.6514],[35.8957,-1.2146,1764.5981],[35.8955,-1.2097,1792.1172],[35.8881,-1.2092,1803.4131],[35.8827,-1.2063,1790.3567],[35.8764,-1.2078,1795.9236],[35.8793,-1.2112,1792.6995],[35.876,-1.2134,1781.0503],[35.8739,-1.2099,1804.0469],[35.8699,-1.2078,1815.2467],[35.866,-1.2094,1816.9016],[35.8645,-1.2126,1804.299],[35.86,-1.2082,1811.8217],[35.8573,-1.2095,1811.4019],[35.8568,-1.2127,1807.172],[35.8532,-1.2146,1807.6899],[35.8474,-1.2129,1820.3781],[35.844,-1.2159,1815.5095],[35.844,-1.2189,1808.2195],[35.8471,-1.2201,1791.053],[35.846,-1.2234,1795.0007],[35.8403,-1.2242,1802.3805],[35.841,-1.2183,1812.6451],[35.8389,-1.2189,1814.3707],[35.8372,-1.2161,1818.3521],[35.8334,-1.2169,1805.9574],[35.8288,-1.212,1811.5811],[35.8284,-1.2069,1821.9893],[35.8208,-1.2014,1816.0276],[35.8211,-1.1984,1817.7942],[35.8184,-1.1974,1818.2445],[35.8188,-1.1945,1817.5621],[35.8173,-1.1937,1817.9102],[35.8182,-1.1879,1835.1982],[35.8138,-1.1858,1829.0911],[35.8107,-1.1801,1833.2838],[35.8066,-1.1799,1830.1177],[35.8045,-1.1765,1835.458],[35.802,-1.1766,1829.7085],[35.801,-1.1746,1832.1438],[35.7955,-1.1785,1835.2958],[35.7943,-1.1763,1841.8452],[35.7925,-1.1777,1841.1835],[35.7888,-1.1755,1844.8777],[35.786,-1.1762,1842.4869],[35.7854,-1.1746,1842.4869],[35.7813,-1.1752,1838.5005],[35.7779,-1.1732,1834.3335],[35.7764,-1.1683,1838.3579],[35.775,-1.1692,1838.3579],[35.7748,-1.1664,1840.3533],[35.7666,-1.1584,1848.9242],[35.7628,-1.1604,1845.3049],[35.7592,-1.1598,1841.6543],[35.7595,-1.1565,1843.196],[35.7567,-1.1526,1847.3086],[35.7589,-1.1513,1846.1174],[35.7578,-1.1483,1846.3318],[35.7595,-1.1447,1859.411],[35.7551,-1.1433,1855.3101],[35.7518,-1.1352,1865.178],[35.7493,-1.1344,1868.2419],[35.7474,-1.1357,1860.8955],[35.746,-1.1332,1865.0215],[35.7388,-1.131,1857.6217],[35.7364,-1.1287,1859.6025],[35.7374,-1.1265,1860.5607],[35.7339,-1.1217,1864.2068],[35.7354,-1.1199,1865.8977],[35.7317,-1.1177,1863.755],[35.733,-1.1156,1864.718],[35.7313,-1.1119,1871.2323],[35.7326,-1.1052,1888.5591],[35.7303,-1.1053,1883.0977],[35.7259,-1.0985,1877.101],[35.7239,-1.0941,1876.7172],[35.7253,-1.0897,1881.4353],[35.721,-1.088,1878.5476],[35.7214,-1.0852,1893.915],[35.7164,-1.0811,1887.8805],[35.7133,-1.0748,1900.4102],[35.7057,-1.0702,1901.283],[35.703,-1.0668,1911.3612],[35.7012,-1.0679,1904.902],[35.6963,-1.0655,1895.8458],[35.6973,-1.0611,1893.7551],[35.6948,-1.0585,1897.0753],[35.6968,-1.0567,1893.3601],[35.6956,-1.0547,1897.9828],[35.6964,-1.0452,1903.1979],[35.6884,-1.0421,1937.4924],[35.6835,-1.0421,1955.7445],[35.6772,-1.0368,1955.1188],[35.6707,-1.0348,1985.7146],[35.6621,-1.0291,1994.6172],[35.5669,-1.1213,1934.6003],[35.6114,-1.1773,1897.2704],[35.6192,-1.1914,1888.1581],[35.6502,-1.2346,1867.1814],[35.6646,-1.2493,1863.5601],[35.6727,-1.2643,1868.8748],[35.6745,-1.2707,1871.7876],[35.6548,-1.2974,1889.4847],[35.619,-1.3412,1922.7688],[35.6094,-1.3473,1915.0536],[35.6023,-1.3571,1911.7844],[35.5942,-1.3855,1918.2699],[35.5933,-1.4015,1915.1995],[35.5755,-1.4059,1894.0332],[35.5641,-1.4037,1896.8748],[35.556,-1.4512,1876.3313],[35.5627,-1.4537,1896.6227],[35.5651,-1.4561,1871.7424],[35.5719,-1.4577,1881.6873],[35.5781,-1.4618,1903.8875],[35.6858,-1.4792,2178.2271],[35.6887,-1.4755,2268.1169],[35.6962,-1.4756,2235.8257],[35.7091,-1.4851,2242.7773],[35.7108,-1.4874,2230.2219],[35.7115,-1.4938,2100.9023],[35.7146,-1.4959,2096.2185],[35.7236,-1.5091,2227.0195],[35.733,-1.5247,2149.0847],[35.7376,-1.536,2217.6165],[35.7435,-1.576,2432.0493],[35.7443,-1.5908,2332.835],[35.7429,-1.6064,2426.5676],[35.7441,-1.619,2346.3254],[35.7593,-1.6473,2421.6616],[35.7748,-1.6627,2446.6133],[35.7903,-1.6714,2402.2017],[35.8153,-1.6738,2581.8596],[35.825,-1.6722,2452.6438],[35.8474,-1.6639,2472.3345],[35.8532,-1.6634,2443.0259],[35.8603,-1.6693,2313.28],[35.8597,-1.6713,2270.3408],[35.8562,-1.6741,2339.8567],[35.8544,-1.6787,2262.9268],[35.8447,-1.6817,2326.8914],[35.8483,-1.6839,2243.4199],[35.8552,-1.6829,2214.7327],[35.8595,-1.6846,2186.6826],[35.8615,-1.6954,2144.9524],[35.8582,-1.7054,2134.322],[35.8683,-1.7145,2157.2056],[35.924,-1.722,2377.3457],[35.9663,-1.7227,2187.748],[35.9685,-1.726,2234.7908],[35.9716,-1.7274,2146.0291],[35.9807,-1.7215,2129.0386],[35.9831,-1.7238,2028.7678],[35.9835,-1.7215,2086.8789],[35.9857,-1.7211,2033.5511],[35.9876,-1.7181,2003.5245],[35.9923,-1.7164,1789.5122],[35.9938,-1.7185,1707.4827],[35.9965,-1.717,1790.7153],[35.9986,-1.7191,1722.3671],[35.9995,-1.717,1662.1273],[36.0168,-1.716,1481.9763],[36.0306,-1.7197,1548.1123],[36.0419,-1.7273,1450.4293],[36.0434,-1.7237,1470.9762],[36.0454,-1.7268,1465.8496],[36.0471,-1.7267,1465.6444],[36.0485,-1.7253,1465.7412],[36.0476,-1.717,1299.8367],[36.0441,-1.714,1400.9872],[36.043,-1.7045,1434.3345],[36.0457,-1.7031,1411.655],[36.0477,-1.6983,1402.5806],[36.0522,-1.6998,1419.7996],[36.0558,-1.7037,1432.126],[36.0579,-1.6963,1513.3414],[36.0617,-1.6926,1430.9426],[36.0642,-1.6924,1371.0674],[36.062,-1.6863,1279.38],[36.0571,-1.6838,1442.6964],[36.0588,-1.6809,1397.7103],[36.0573,-1.6789,1450.0564],[36.0588,-1.6769,1458.9612],[36.0574,-1.675,1459.8221],[36.0583,-1.6694,1330.9353],[36.0541,-1.6636,1338.1143],[36.0524,-1.6641,1436.4595],[36.0537,-1.659,1317.804],[36.0506,-1.6526,1317.071],[36.0477,-1.6519,1439.8939],[36.0488,-1.649,1372.0862],[36.0465,-1.6477,1456.6006],[36.0487,-1.6455,1414.1135],[36.0524,-1.6452,1409.9541],[36.0529,-1.6376,1379.7913],[36.0511,-1.6346,1420.3604],[36.0534,-1.634,1424.1692],[36.0565,-1.6292,1423.3115],[36.06,-1.6147,1411.7061],[36.0635,-1.6145,1411.1786],[36.0652,-1.6126,1346.9657],[36.063,-1.6071,1417.0908],[36.0651,-1.608,1415.3887],[36.0667,-1.6062,1419.2437],[36.07,-1.596,1417.8334],[36.0742,-1.5895,1412.4585],[36.0791,-1.5923,1408.9026],[36.0803,-1.5807,1415.0428],[36.084,-1.5785,1361.6196],[36.0863,-1.5713,1283.8782],[36.0845,-1.5587,1338.2515],[36.0743,-1.5408,1476.178],[36.0613,-1.5061,1349.9562],[36.0588,-1.4922,1421.627],[36.0492,-1.4859,1511.3372],[36.0709,-1.4631,1277.2458]]]]}}