{"type":"Feature","properties":{"GID_2":"KEN.13.1_1","GID_0":"KEN","country":"Kenya","GID_1":"KEN.13_1","province":"Kiambu","NL_NAME_1":"NA","county":"GatunduNorth","VARNAME_2":"NA","NL_NAME_2":"NA","TYPE_2":"Constituency","ENGTYPE_2":"Constituency","CC_2":"112","HASC_2":"NA","name":"Gatundu_North.county"},
"geometry":{"type": "MultiPolygon","coordinates": [[[[36.9755,-0.9834,1613.4095],[36.9815,-0.973,1617.5219],[36.9654,-0.9679,1631.6078],[36.9618,-0.9608,1633.4497],[36.9578,-0.9571,1616.075],[36.9552,-0.9499,1663.5212],[36.952,-0.95009999999999994,1661.4039],[36.9512,-0.9472,1659.889],[36.944,-0.9434,1657.9061],[36.9431,-0.9401,1656.8909],[36.932,-0.9343,1701.0146],[36.928,-0.9295,1721.5839],[36.9237,-0.9302,1725.288],[36.9189,-0.9241,1765.8293],[36.9161,-0.9249,1737.1782],[36.9114,-0.9177,1766.0408],[36.911,-0.9143,1780.4353],[36.9074,-0.9111,1747.0381],[36.9081,-0.9082,1773.2803],[36.9035,-0.9076,1796.0522],[36.903,-0.9054,1791.0062],[36.9012,-0.9071,1798.9542],[36.8931,-0.9055,1825.363],[36.8885,-0.8971,1738.9653],[36.8895,-0.8932,1845.8639],[36.8865,-0.89,1844.2368],[36.8805,-0.8924,1826.912],[36.8802,-0.8886,1797.8689],[36.8779,-0.887,1833.9683],[36.8751,-0.886,1849.8434],[36.8728,-0.8871,1868.597],[36.8694,-0.8836,1896.0035],[36.8676,-0.886,1882.5813],[36.8641,-0.8846,1862.7521],[36.8603,-0.8814,1886.296],[36.8616,-0.8798,1926.4025],[36.8592,-0.8772,1908.4642],[36.8494,-0.8767,1947.75],[36.8427,-0.8708,1987.4288],[36.8405,-0.8723,1946.7217],[36.8361,-0.8681,1982.5155],[36.8317,-0.8682,2003.5022],[36.8316,-0.866,1997.2375],[36.827,-0.8642,1995.6688],[36.8251,-0.8592,2044.4847],[36.8229,-0.8594,2054.239],[36.8186,-0.8565,2068.5576],[36.8158,-0.857,2043.3571],[36.8142,-0.8538,2030.7755],[36.8092,-0.8531,2023.5979],[36.8104,-0.8502,2081.7678],[36.806,-0.8512,2088.5652],[36.8025,-0.8463,2084.8599],[36.792,-0.8392,2124.0303],[36.7888,-0.8394,2114.771],[36.7843,-0.8345,2146.2898],[36.7819,-0.8355,2132.5408],[36.779,-0.831,2174.4226],[36.7711,-0.8267,2172.3931],[36.7577,-0.8277,2219.3848],[36.755,-0.8263,2194.0884],[36.7514,-0.8275,2240.5828],[36.7468,-0.8216,2203.9526],[36.7384,-0.8235,2240.4246],[36.7323,-0.8197,2381.4463],[36.7203,-0.8187,2407.2808],[36.7216,-0.8221,2343.9106],[36.7187,-0.8215,2330.7441],[36.7208,-0.8237,2304.7854],[36.7175,-0.8247,2321.5781],[36.7252,-0.8304,2371.9814],[36.7232,-0.8307,2381.2605],[36.724,-0.8348,2383.9573],[36.7198,-0.8343,2383.5916],[36.7094,-0.8221,2406.2581],[36.703,-0.8206,2445.4619],[36.6983,-0.8169,2451.4121],[36.6888,-0.8161,2487.729],[36.678,-0.8122,2481.2068],[36.6719,-0.8093,2524.7817],[36.6644,-0.8028,2517.6658],[36.6619,-0.8045,2530.0283],[36.6571,-0.8044,2525.2241],[36.6565,-0.8404,2551.3711],[36.6692,-0.8462,2513.4272],[36.6878,-0.848,2480.4043],[36.6974,-0.8527,2425.1838],[36.7084,-0.852,2388.5554],[36.7134,-0.8532,2384.9282],[36.7321,-0.8766,2295.4199],[36.7397,-0.8811,2245.801],[36.741,-0.8843,2261.1904],[36.7489,-0.8885,2215.2744],[36.7584,-0.8902,2171.8779],[36.7624,-0.8933,2155.332],[36.7646,-0.8993,2117.0312],[36.7688,-0.9045,2126.6904],[36.774,-0.9071,2109.4526],[36.7768,-0.9041,2078.4912],[36.7792,-0.9055,2051.0469],[36.7793,-0.9077,2096.8623],[36.7863,-0.9099,2059.7065],[36.7889,-0.9125,2056.1362],[36.7995,-0.9146,2004.9073],[36.8049,-0.9184,1993.8795],[36.8089,-0.9158,1925.8329],[36.815,-0.9181,1904.8273],[36.8207,-0.9225,1879.0331],[36.8209,-0.9251,1945.2169],[36.8263,-0.9278,1886.1472],[36.8294,-0.9324,1913.978],[36.8313,-0.9319,1916.1503],[36.8316,-0.934,1928.655],[36.8379,-0.9364,1884.3285],[36.839,-0.9417,1847.9227],[36.8408,-0.9414,1847.9227],[36.8406,-0.9435,1853.5062],[36.8439,-0.9442,1837.1003],[36.8448,-0.9469,1885.4297],[36.8485,-0.9457,1842.9509],[36.8547,-0.9467,1852.5767],[36.8627,-0.9516,1813.5894],[36.8679,-0.9523,1809.2212],[36.8675,-0.9561,1826.8387],[36.8646,-0.96,1820.4355],[36.8674,-0.9622,1834.9257],[36.8692,-0.9612,1814.6311],[36.8717,-0.9652,1829.3463],[36.8754,-0.9642,1776.2281],[36.8766,-0.9664,1807.5311],[36.8784,-0.9658,1775.835],[36.884,-0.9701,1762.3569],[36.8892,-0.9715,1775.7124],[36.8983,-0.9835,1741.7585],[36.9048,-0.9873,1682.0968],[36.9064,-0.9917,1707.8372],[36.9231,-1.0021,1650.1511],[36.9233,-1.0064,1663.8708],[36.9279,-1.0095,1640.3179],[36.9353,-1.0192,1638.7091],[36.94,-1.0192,1630.9741],[36.9425,-1.0218,1605.5925],[36.9463,-1.0204,1621.7458],[36.9484,-1.0212,1612.2615],[36.9578,-1.0073,1618.5437],[36.9656,-1.0136,1609.6841],[36.9818,-0.9886,1585.6191],[36.9755,-0.9834,1613.4095]]]]}}