{"type":"Feature","properties":{"GID_2":"KEN.11.9_1","GID_0":"KEN","country":"Kenya","GID_1":"KEN.11_1","province":"Kakamega","NL_NAME_1":"NA","county":"MumiasWest","VARNAME_2":"NA","NL_NAME_2":"NA","TYPE_2":"Constituency","ENGTYPE_2":"Constituency","CC_2":"204","HASC_2":"NA","name":"Mumias_West.county"},
"geometry":{"type": "MultiPolygon","coordinates": [[[[34.4561,0.2733,1375.9835],[34.4714,0.3041,1274.656],[34.4797,0.3128,1285.1487],[34.4829,0.3104,1282.7943],[34.4852,0.311,1294.7062],[34.4895,0.3171,1306.2318],[34.4899,0.3201,1314.4127],[34.4981,0.3279,1331.3772],[34.5015,0.3333,1309.6466],[34.5074,0.3289,1316.1917],[34.5219,0.3306,1351.8264],[34.5214,0.3331,1343.5062],[34.5168,0.3358,1331.2024],[34.5155,0.3396,1321.9329],[34.5107,0.3447,1320.3488],[34.5016,0.3478,1297.1602],[34.498,0.353,1298.4779],[34.5013,0.3577,1304.8083],[34.5014,0.3813,1314.1334],[34.4979,0.3804,1300.6818],[34.4943,0.3763,1281.0562],[34.4897,0.3741,1280.4517],[34.4817,0.3763,1290.6646],[34.4803,0.3578,1278.9502],[34.4788,0.356,1280.033],[34.4761,0.3547,1281.9651],[34.4697,0.3565,1281.7307],[34.4491,0.3459,1284.0693],[34.4421,0.3447,1291.7434],[34.4367,0.3399,1280.8074],[34.4197,0.3368,1261.3463],[34.41,0.325,1260.4226],[34.4079,0.3199,1251.5299],[34.4153,0.3146,1257.0265],[34.419,0.308,1250.5244],[34.414,0.2971,1245.3386],[34.4143,0.2926,1237.3762],[34.4057,0.2882,1248.2876],[34.4019,0.2891,1253.3335],[34.3957,0.2862,1244.8118],[34.3884,0.2787,1229.7695],[34.3903,0.2748,1224.0956],[34.4009,0.2661,1241.2435],[34.3975,0.254,1258.3723],[34.3976,0.248,1261.8704],[34.3998,0.2441,1273.0747],[34.3976,0.2378,1277.4335],[34.3836,0.2328,1262.3621],[34.3905,0.2209,1255.2723],[34.3921,0.2115,1276.0063],[34.3899,0.2042,1298.4425],[34.3904,0.1974,1311.8063],[34.3847,0.1852,1265.8374],[34.3853,0.1832,1265.6672],[34.3975,0.1878,1291.0726],[34.4013,0.1912,1290.623],[34.404,0.1912,1286.7449],[34.4079,0.1956,1277.4006],[34.4111,0.2031,1293.8313],[34.4208,0.2081,1305.1567],[34.428,0.2166,1319.238],[34.4362,0.2201,1330.0706],[34.4433,0.2222,1342.0007],[34.4462,0.2202,1346.3571],[34.4499,0.2119,1329.5173],[34.4545,0.2101,1316.8962],[34.4659,0.212,1321.3591],[34.467,0.2152,1341.9009],[34.4719,0.2174,1346.441],[34.4768,0.222,1345.4226],[34.4838,0.2232,1350.5653],[34.485,0.2325,1379.2542],[34.478,0.2451,1333.5807],[34.4561,0.2733,1375.9835]]]]}}