{"type": "Feature","bbox": [36.9134,-1.2719,36.9255,-1.2587],"geometry": {"type": "MultiPolygon","coordinates": [[[[36.92,-1.2719,1587.7313],[36.9204,-1.2701,1593.899],[36.9247,-1.2676,1586.9034],[36.9255,-1.265,1586.3884],[36.9235,-1.2587,1574.1056],[36.9134,-1.2686,1598.4211],[36.92,-1.2719,1587.7313]]]]}
,"properties": {"GID_3": "KEN.30.3.2_1","GID_0": "KEN","country": "Kenya","GID_1": "KEN.30_1","province": "Nairobi","NL_NAME_1": "NA","GID_2": "KEN.30.3_1","county": "EmbakasiCentral","NL_NAME_2": "NA","city": "KayoleNorth","VARNAME_3": "NA","NL_NAME_3": "NA","TYPE_3": "Ward","ENGTYPE_3": "Ward","CC_3": "1416","HASC_3": "NA","name": "Kayole_North.city","area_km2": 0.9538664,"hist_schema_id": "Elevation0-9000","hist_area_km2": {"1575": 0.3391528,"1600": 0.6147135}}}