{"type":"Feature","properties":{"GID_3":"KEN.13.4.4_1","GID_0":"KEN","country":"Kenya","GID_1":"KEN.13_1","province":"Kiambu","NL_NAME_1":"NA","GID_2":"KEN.13.4_1","county":"Juja","NL_NAME_2":"NA","city":"Theta","VARNAME_3":"NA","NL_NAME_3":"NA","TYPE_3":"Ward","ENGTYPE_3":"Ward","CC_3":"560","HASC_3":"NA","name":"Theta.city"},
"geometry":{"type": "MultiPolygon","coordinates": [[[[36.8969,-1.0562,1660.7677],[36.904,-1.0611,1631.9734],[36.9084,-1.0661,1626.0282],[36.917,-1.0663,1620.0137],[36.9218,-1.0738,1609.3811],[36.9282,-1.0754,1601.2859],[36.9323,-1.0796,1588.9886],[36.9366,-1.0792,1584.8193],[36.9416,-1.085,1565.8633],[36.9454,-1.0854,1569.6089],[36.9554,-1.0945,1561.1523],[36.9665,-1.1109,1548.728],[36.9724,-1.1128,1539.6548],[36.978,-1.1109,1533.624],[36.9948,-1.1213,1510.0206],[36.9935,-1.1137,1524.7036],[36.9852,-1.1044,1519.3562],[36.9849,-1.0996,1532.428],[36.9776,-1.0818,1545.4556],[36.9744,-1.0813,1548.3723],[36.9588,-1.0721,1562.746],[36.9568,-1.0671,1574.0664],[36.953,-1.0672,1569.1938],[36.9487,-1.0626,1579.3547],[36.9446,-1.0608,1580.3174],[36.9427,-1.0549,1599.8009],[36.9314,-1.0539,1604.2109],[36.928,-1.0551,1595.7141],[36.9284,-1.0584,1598.3171],[36.9259,-1.0592,1614.6832],[36.9181,-1.0563,1626.8779],[36.9171,-1.0532,1637.4321],[36.9136,-1.0504,1633.6127],[36.911,-1.0512,1643.5337],[36.9067,-1.0493,1628.5546],[36.8969,-1.0562,1660.7677]]]]}}