{"type":"Feature","properties":{"GID_3":"KEN.13.1.1_1","GID_0":"KEN","country":"Kenya","GID_1":"KEN.13_1","province":"Kiambu","NL_NAME_1":"NA","GID_2":"KEN.13.1_1","county":"GatunduNorth","NL_NAME_2":"NA","city":"Chania","VARNAME_3":"NA","NL_NAME_3":"NA","TYPE_3":"Ward","ENGTYPE_3":"Ward","CC_3":"557","HASC_3":"NA","name":"Chania.city"},
"geometry":{"type": "MultiPolygon","coordinates": [[[[36.9459,-0.945,1659.8912],[36.9431,-0.9401,1656.8909],[36.932,-0.9343,1701.0146],[36.9278,-0.9294,1721.5839],[36.923,-0.9298,1735.5845],[36.9187,-0.924,1765.8293],[36.9154,-0.9253,1737.1782],[36.9091,-0.9346,1725.3809],[36.9116,-0.9369,1725.4794],[36.9083,-0.9446,1773.6594],[36.9185,-0.9497,1687.7346],[36.9214,-0.9494,1718.0404],[36.9273,-0.962,1697.0706],[36.9364,-0.9647,1671.2623],[36.9431,-0.9762,1640.2344],[36.948,-0.9767,1636.097],[36.9495,-0.9785,1639.5836],[36.9535,-0.9767,1623.7904],[36.9571,-0.9775,1633.4944],[36.9565,-0.9751,1626.4092],[36.9587,-0.974,1633.1986],[36.9638,-0.9753,1626.9617],[36.9653,-0.9742,1567.9796],[36.9688,-0.9793,1620.0735],[36.9752,-0.9832,1613.4095],[36.9818,-0.9732,1617.5219],[36.9654,-0.9679,1631.6078],[36.9618,-0.9608,1633.4497],[36.9578,-0.9571,1616.075],[36.9558,-0.9505,1663.5212],[36.9522,-0.9502,1661.4039],[36.9512,-0.9472,1659.889],[36.9459,-0.945,1659.8912]]],
[[[36.906,-0.949,1762.1799],[36.9064,-0.9449,1786.6726],[36.9007,-0.9399,1734.0764],[36.9015,-0.9345,1799.7804],[36.8887,-0.9277,1799.2344],[36.8863,-0.9243,1787.2742],[36.8841,-0.9252,1807.3396],[36.8817,-0.9231,1809.9746],[36.8753,-0.9219,1846.5779],[36.8747,-0.9174,1827.8075],[36.8725,-0.9179,1826.6001],[36.8698,-0.9347,1828.0575],[36.8732,-0.9362,1804.9382],[36.876,-0.9353,1808.1355],[36.88,-0.9404,1812.1818],[36.8804,-0.9441,1818.514],[36.8823,-0.9437,1814.4064],[36.8897,-0.9503,1791.3555],[36.8895,-0.9522,1763.1777],[36.8939,-0.9541,1771.251],[36.8939,-0.9577,1751.7321],[36.8966,-0.9576,1772.986],[36.8978,-0.9593,1784.7916],[36.9044,-0.9568,1760.5673],[36.906,-0.949,1762.1799]]]]}}