{"type": "Feature","bbox": [36.3893,0.9738,36.641,1.2789],"geometry": {"type": "MultiPolygon","coordinates": [[[[36.6341,1.0217,1931.8274],[36.641,1.0225,1926.1174],[36.6291,1.0336,1983.1931],[36.6251,1.0468,2038.4503],[36.6227,1.0499,2037.98],[36.5984,1.0675,2068.4492],[36.5864,1.0799,2142.4673],[36.5825,1.0815,2142.2473],[36.5815,1.0984,2145.0532],[36.5768,1.1083,2171.2515],[36.5672,1.1197,2201.7356],[36.5588,1.1338,2263.9346],[36.5577,1.144,2252.7559],[36.5597,1.1572,2294.6909],[36.5513,1.1763,2350.2563],[36.5538,1.2008,2382.1921],[36.5465,1.2148,2449.9712],[36.5472,1.2236,2448.156],[36.5388,1.2254,2164.4351],[36.5089,1.2219,1952.5878],[36.506,1.22,1811.1525],[36.5031,1.2137,1581.9883],[36.4968,1.2082,1409.6221],[36.4927,1.2107,1358.1263],[36.4876,1.2084,1252.6438],[36.4844,1.2102,1362.0605],[36.4783,1.2048,1240.8225],[36.4714,1.2066,1173.7825],[36.4691,1.2088,1163.4475],[36.4606,1.2115,1098.8926],[36.4563,1.2166,1038.7869],[36.4569,1.2278,1038.8735],[36.4536,1.2345,984.4525],[36.4546,1.2374,1011.3595],[36.4502,1.2475,954.8483],[36.45,1.2529,980.3403],[36.4463,1.2526,942.2169],[36.4305,1.2668,934.2007],[36.4238,1.2671,912.5563],[36.4176,1.2744,1053.9758],[36.4096,1.2789,1117.0742],[36.4042,1.2734,932.8693],[36.3967,1.2769,1041.0411],[36.395,1.2699,924.0837],[36.3912,1.2705,946.8799],[36.3893,1.2674,1063.0563],[36.3966,1.2592,1049.6833],[36.4004,1.2589,1112.9187],[36.4045,1.2563,1090.9636],[36.4094,1.2633,1003.0948],[36.412,1.2642,980.636],[36.4144,1.2598,974.4132],[36.4142,1.2489,939.7728],[36.4212,1.2384,950.0425],[36.4171,1.2308,970.3596],[36.4119,1.2362,934.3375],[36.4057,1.2342,912.7983],[36.3951,1.2249,950.9628],[36.3974,1.2118,1073.8071],[36.3966,1.1948,1183.5701],[36.3901,1.1888,1046.5853],[36.3915,1.1796,1167.049],[36.3948,1.1771,1229.3921],[36.3979,1.1774,1239.5814],[36.4199,1.1907,1418.895],[36.4272,1.1874,1317.0101],[36.4333,1.1824,1316.8022],[36.438,1.1826,1352.9695],[36.4427,1.1792,1317.7286],[36.4413,1.1646,1359.0847],[36.4361,1.1547,1246.24],[36.4336,1.1436,1172.2955],[36.44,1.1378,1325.3121],[36.4447,1.1198,1493.0839],[36.4445,1.1115,1491.1819],[36.4398,1.1008,1427.1467],[36.439,1.087,1468.3052],[36.4434,1.0755,1411.5085],[36.4425,1.0616,1239.2175],[36.4443,1.0573,1289.8823],[36.4426,1.041,1265.6617],[36.4472,1.0346,1402.5081],[36.4484,1.0277,1383.6313],[36.4532,1.0191,1392.5913],[36.4508,1.0017,1301.4773],[36.4524,1.002,1257.8088],[36.4557,0.9992,1291.4868],[36.4587,1.0026,1261.8262],[36.4618,1.0019,1340.9307],[36.4647,0.9979,1363.5007],[36.4758,0.9933,1515.0411],[36.4782,0.9937,1523.4855],[36.4799,0.9961,1412.6035],[36.4838,0.9966,1354.3679],[36.4874,1.0018,1388.2463],[36.4898,0.9977,1498.9252],[36.4951,0.998,1539.9294],[36.496,0.9961,1464.9647],[36.4997,0.9949,1551.4788],[36.5045,0.9978,1614.2299],[36.5053,0.996,1628.3667],[36.5075,0.9973,1619.5928],[36.5082,0.9947,1639.6375],[36.5129,0.9995,1541.7976],[36.519,0.9963,1602.6523],[36.5195,0.9947,1562.6731],[36.5205,0.9958,1652.0247],[36.5284,0.995,1795.5466],[36.533,0.9891,1814.6536],[36.5321,0.9855,1605.7697],[36.5334,0.9836,1617.7947],[36.5316,0.9788,1788.8042],[36.5332,0.9751,1726.2617],[36.5359,0.9738,1883.8837],[36.5377,0.9848,1869.7842],[36.5457,0.9899,1958.6912],[36.5988,0.9916,2028.7339],[36.6128,1.017,1977.8444],[36.6167,1.0212,1972.92],[36.6213,1.0243,1968.5529],[36.6262,1.0246,1950.3514],[36.6341,1.0217,1931.8274]]]]}
,"properties": {"GID_3": "KEN.37.3.2_1","GID_0": "KEN","country": "Kenya","GID_1": "KEN.37_1","province": "Samburu","NL_NAME_1": "NA","GID_2": "KEN.37.3_1","county": "SamburuWest","NL_NAME_2": "NA","city": "Loosuk","VARNAME_3": "NA","NL_NAME_3": "NA","TYPE_3": "Ward","ENGTYPE_3": "Ward","CC_3": "664","HASC_3": "NA","name": "Loosuk.city","area_km2": 430.4722,"hist_schema_id": "Elevation0-9000","hist_area_km2": {"900": 0.2332,"925": 3.5399,"950": 4.1758,"975": 3.6671,"1000": 3.3704,"1025": 3.0736,"1050": 2.9252,"1075": 3.3916,"1100": 3.7731,"1125": 4.7058,"1150": 4.2819,"1175": 4.8754,"1200": 4.8755,"1225": 4.7271,"1250": 5.3207,"1275": 5.7023,"1300": 7.2497,"1325": 7.059,"1350": 6.6774,"1375": 7.801,"1400": 8.6277,"1425": 9.73,"1450": 10.472,"1475": 9.6028,"1500": 9.0305,"1525": 8.4369,"1550": 7.8646,"1575": 7.7374,"1600": 6.9531,"1625": 6.5927,"1650": 5.7236,"1675": 5.9991,"1700": 6.1899,"1725": 6.0839,"1750": 5.9143,"1775": 6.6775,"1800": 5.9991,"1825": 6.4867,"1850": 7.8646,"1875": 7.5254,"1900": 7.8858,"1925": 8.7337,"1950": 15.1358,"1975": 21.3895,"2000": 24.1453,"2025": 22.1314,"2050": 14.3302,"2075": 14.8177,"2100": 10.4295,"2125": 9.624,"2150": 6.6562,"2175": 5.9778,"2200": 5.5327,"2225": 4.8967,"2250": 3.858,"2275": 3.2221,"2300": 1.9714,"2325": 1.9078,"2350": 1.9502,"2375": 1.2931,"2400": 1.5474,"2425": 0.8903,"2450": 1.2083}}}