{"type":"Feature","properties":{"GID_3":"KEN.47.2.2_1","GID_0":"KEN","country":"Kenya","GID_1":"KEN.47_1","province":"WestPokot","NL_NAME_1":"NA","GID_2":"KEN.47.2_1","county":"Kapenguria","NL_NAME_2":"NA","city":"Kapenguria","VARNAME_3":"NA","NL_NAME_3":"NA","TYPE_3":"Ward","ENGTYPE_3":"Ward","CC_3":"642","HASC_3":"NA","name":"Kapenguria.city"},
"geometry":{"type": "MultiPolygon","coordinates": [[[[35.0593,1.3378,1509.0681],[35.0769,1.3295,1863.3024],[35.0791,1.3254,1718.6289],[35.0851,1.3226,1887.7925],[35.0877,1.3156,1906.674],[35.0918,1.3147,1937.512],[35.0925,1.3077,1907.3657],[35.096,1.3051,2032.9932],[35.0968,1.2978,1982.4565],[35.104,1.2853,2093.7061],[35.0966,1.2843,2065.0588],[35.0942,1.2754,2048.8149],[35.0964,1.2723,2034.1539],[35.0924,1.2661,2012.636],[35.0986,1.2616,2073.1472],[35.0936,1.259,2050.4509],[35.0932,1.2532,2042.391],[35.1004,1.2416,2032.0756],[35.1001,1.2346,1991.9094],[35.1028,1.2309,2025.1714],[35.1029,1.2229,1972.5333],[35.1091,1.2233,1997.8217],[35.1132,1.2268,1962.3566],[35.1141,1.2322,1996.9567],[35.1218,1.2309,2016.0221],[35.1257,1.2319,1988.1543],[35.1227,1.2415,2061.8569],[35.1246,1.2421,2072.8372],[35.125,1.2448,2097.6318],[35.1279,1.2437,2078.2126],[35.1401,1.2488,2103.4536],[35.149,1.2477,2084.4873],[35.1591,1.2508,2146.4668],[35.1622,1.2506,2152.7927],[35.1689,1.2467,2179.2576],[35.1707,1.2475,2200.1306],[35.1729,1.254,2391.9036],[35.1723,1.2586,2326.343],[35.1598,1.2662,2102.5015],[35.159,1.2647,2184.8462],[35.1569,1.2682,2176.4043],[35.1467,1.2742,2239.3672],[35.1423,1.2795,2177.8489],[35.1459,1.2774,2161.0198],[35.1463,1.2789,2124.0916],[35.1512,1.2809,2089.8628],[35.1551,1.2914,2118.9595],[35.1585,1.2924,2264.4155],[35.1604,1.2959,2161.458],[35.1497,1.309,2087.396],[35.1374,1.3177,1899.812],[35.1318,1.3319,1732.2512],[35.1332,1.3381,1695.3296],[35.1312,1.3387,1720.4556],[35.1313,1.3431,1723.4165],[35.1367,1.3452,1682.4216],[35.1368,1.3508,1638.8977],[35.1412,1.3497,1640.5491],[35.1397,1.3526,1642.5656],[35.1427,1.3555,1697.1331],[35.1391,1.3556,1687.6841],[35.1345,1.3618,1598.5371],[35.1336,1.3595,1600.2423],[35.1322,1.36,1591.1919],[35.13,1.3739,1515.0942],[35.1375,1.3757,1585.1254],[35.136,1.377,1562.9573],[35.1381,1.3781,1568.4183],[35.1391,1.3762,1579.665],[35.142,1.3761,1554.9285],[35.1424,1.3788,1582.897],[35.1453,1.379,1508.8038],[35.1468,1.3844,1481.5085],[35.1491,1.3848,1471.7686],[35.1473,1.3859,1466.9006],[35.1461,1.3901,1465.1481],[35.1477,1.3913,1458.7104],[35.1469,1.393,1462.7551],[35.149,1.398,1454.1415],[35.1464,1.3982,1454.3958],[35.146,1.3999,1452.9058],[35.1487,1.4025,1447.9877],[35.1459,1.4044,1447.5259],[35.1456,1.4093,1437.1199],[35.1449,1.4085,1429.3716],[35.143,1.4107,1427.0292],[35.1435,1.4152,1426.927],[35.1414,1.4167,1424.7991],[35.1417,1.42,1421.2407],[35.1392,1.4184,1420.6573],[35.1353,1.4222,1409.6565],[35.1273,1.4232,1388.6512],[35.1253,1.4254,1378.9965],[35.124,1.4197,1393.7166],[35.1171,1.4148,1415.7219],[35.1172,1.4093,1425.2653],[35.1122,1.4055,1458.3025],[35.113,1.403,1435.0161],[35.1083,1.4006,1458.0161],[35.1085,1.399,1472.8013],[35.1054,1.3958,1542.9021],[35.1051,1.3901,1488.9745],[35.102,1.3875,1612.5005],[35.0996,1.3805,1589.4277],[35.0995,1.3738,1583.0535],[35.0965,1.3724,1665.8739],[35.086,1.3727,1896.0764],[35.0862,1.368,1641.915],[35.0908,1.3644,1655.0288],[35.084,1.3547,1884.0587],[35.0728,1.3448,1569.9133],[35.0593,1.3378,1509.0681]]]]}}