{"type":"Feature","properties":{"GID_3":"KEN.11.6.5_1","GID_0":"KEN","country":"Kenya","GID_1":"KEN.11_1","province":"Kakamega","NL_NAME_1":"NA","GID_2":"KEN.11.6_1","county":"Malava","NL_NAME_2":"NA","city":"Shirugu-Mugai","VARNAME_3":"NA","NL_NAME_3":"NA","TYPE_3":"Ward","ENGTYPE_3":"Ward","CC_3":"1007","HASC_3":"NA","name":"Shirugu-Mugai.city"},
"geometry":{"type": "MultiPolygon","coordinates": [[[[34.7398,0.4841,1464.5151],[34.743,0.4824,1485.5031],[34.7457,0.4756,1481.8477],[34.7456,0.4715,1496.5797],[34.7483,0.4692,1516.2007],[34.7377,0.4581,1501.4989],[34.7415,0.4556,1510.3478],[34.7448,0.456,1507.8296],[34.7499,0.4519,1516.0931],[34.7606,0.4586,1531.0032],[34.7674,0.4579,1521.7977],[34.7707,0.4513,1557.5179],[34.7744,0.4482,1528.5005],[34.7748,0.4413,1511.701],[34.7776,0.4403,1510.1328],[34.7817,0.4413,1501.4863],[34.7825,0.4392,1502.579],[34.7856,0.4378,1487.9634],[34.7873,0.4321,1496.8893],[34.7942,0.4302,1515.7565],[34.7989,0.4341,1531.8062],[34.8051,0.4314,1543.7042],[34.806,0.4295,1532.917],[34.8111,0.4301,1527.1898],[34.8204,0.4272,1559.3279],[34.8235,0.4291,1562.6067],[34.8247,0.4273,1550.3303],[34.8327,0.427,1570.4905],[34.8352,0.4241,1557.6155],[34.8385,0.4241,1550.6818],[34.8521,0.4334,1628.6666],[34.8565,0.4286,1625.9253],[34.8559,0.4359,1619.119],[34.8513,0.4447,1621.595],[34.8507,0.4496,1639.4374],[34.8548,0.4559,1623.7302],[34.8512,0.4553,1629.2358],[34.8473,0.4519,1648.2134],[34.8399,0.4557,1592.0029],[34.8421,0.4605,1567.1824],[34.8443,0.4618,1577.4004],[34.8405,0.465,1562.1627],[34.8377,0.4751,1564.1467],[34.8268,0.476,1546.745],[34.8217,0.4786,1524.2822],[34.8206,0.4681,1546.4117],[34.8154,0.4689,1550.578],[34.8112,0.4664,1544.7957],[34.8043,0.4688,1546.4385],[34.7974,0.469,1583.9338],[34.7923,0.4801,1554.64],[34.7918,0.4951,1546.7098],[34.7853,0.5021,1530.8635],[34.7676,0.4992,1502.8215],[34.7638,0.5006,1486.6021],[34.7639,0.5021,1483.8286],[34.7601,0.5025,1489.2964],[34.7576,0.4995,1509.1143],[34.7563,0.5058,1489.946],[34.753,0.5095,1477.0757],[34.7492,0.49,1467.8105],[34.7457,0.4855,1469.6875],[34.7441,0.4862,1469.6875],[34.7424,0.4839,1480.3007],[34.7407,0.485,1471.2755],[34.7398,0.4841,1464.5151]]]]}}