{"type": "Feature","bbox": [34.9524,1.5245,35.1326,1.7216],"geometry": {"type": "MultiPolygon","coordinates": [[[[34.9956,1.7173,1228.4556],[34.9912,1.6645,1314.6094],[34.9672,1.6169,1284.4259],[34.9524,1.5914,1321.7515],[34.971,1.574,1338.7487],[34.981,1.5718,1340.7139],[34.9944,1.5625,1331.8328],[34.998,1.5538,1319.9023],[35.0025,1.5486,1311.5598],[35.0073,1.5479,1315.17],[35.0107,1.5441,1305.7822],[35.015,1.5433,1297.0414],[35.0191,1.5394,1290.8265],[35.0351,1.5352,1280.5667],[35.0394,1.5305,1276.4395],[35.0441,1.5291,1271.1233],[35.0474,1.5254,1264.4541],[35.0491,1.5249,1265.5881],[35.0515,1.5267,1265.7247],[35.0581,1.5245,1258.5948],[35.0601,1.5254,1249.6257],[35.0609,1.5287,1245.7736],[35.0637,1.5286,1245.1017],[35.0658,1.5313,1243.8479],[35.0686,1.531,1244.7643],[35.0679,1.535,1242.0518],[35.0723,1.5376,1235.0062],[35.072,1.5442,1242.0555],[35.0765,1.5418,1239.5835],[35.0796,1.5444,1230.9575],[35.0811,1.5487,1232.2516],[35.0786,1.5517,1241.8022],[35.0838,1.555,1233.1798],[35.0844,1.5593,1231.969],[35.0874,1.563,1228.0187],[35.0868,1.5794,1224.6095],[35.0902,1.5815,1220.3763],[35.0906,1.5839,1228.3779],[35.0928,1.5842,1224.1729],[35.0949,1.5876999999999999,1223.6412],[35.0995,1.589,1221.5576],[35.0994,1.5929,1218.2085],[35.1036,1.5943,1212.3943],[35.1019,1.5996,1229.1538],[35.1066,1.6032,1213.9442],[35.106,1.6064,1217.2878],[35.1076,1.6087,1217.99],[35.1121,1.608,1212.9469],[35.1114,1.6121,1212.031],[35.1152,1.6141,1210.6848],[35.1149,1.619,1214.3763],[35.1251,1.6228,1202.2037],[35.1276,1.628,1202.2419],[35.1315,1.6301,1196.1854],[35.1317,1.6408,1192.6863],[35.1304,1.643,1194.0629],[35.1273,1.6426,1205.2791],[35.132,1.6503,1189.4368],[35.1317,1.6525,1190.1262],[35.1278,1.6552,1196.4573],[35.1274,1.6611,1188.2043],[35.1326,1.6677,1193.651],[35.1286,1.6699,1185.0654],[35.1241,1.6782,1180.201],[35.1241,1.6817,1186.6112],[35.1202,1.6857,1190.6627],[35.1216,1.6932,1176.3823],[35.12,1.7019,1172.8246],[35.1155,1.7062,1185.2233],[35.1173,1.719,1193.8896],[35.1124,1.7203,1203.4121],[35.0994,1.7166,1202.4893],[35.0732,1.7216,1225.9048],[35.0438,1.7188,1224.0665],[34.9956,1.7173,1228.4556]]]]}
,"properties": {"GID_3": "KEN.47.1.5_1","GID_0": "KEN","country": "Kenya","GID_1": "KEN.47_1","province": "WestPokot","NL_NAME_1": "NA","GID_2": "KEN.47.1_1","county": "Kacheliba","NL_NAME_2": "NA","city": "Kodich","VARNAME_3": "NA","NL_NAME_3": "NA","TYPE_3": "Ward","ENGTYPE_3": "Ward","CC_3": "652","HASC_3": "NA","name": "Kodich.city","area_km2": 289.6105,"hist_schema_id": "Elevation0-9000","hist_area_km2": {"1175": 3.1789,"1200": 19.3705,"1225": 43.9336,"1250": 70.638,"1275": 74.178,"1300": 53.8112,"1325": 22.6988,"1350": 1.6955,"1375": 0.106}}}