{"type":"Feature","properties":{"GID_3":"KEN.17.5.3_1","GID_0":"KEN","country":"Kenya","GID_1":"KEN.17_1","province":"Kisumu","NL_NAME_1":"NA","GID_2":"KEN.17.5_1","county":"Nyakach","NL_NAME_2":"NA","city":"SouthEastNyakach","VARNAME_3":"NA","NL_NAME_3":"NA","TYPE_3":"Ward","ENGTYPE_3":"Ward","CC_3":"1220","HASC_3":"NA","name":"South_East_Nyakach.city"},
"geometry":{"type": "MultiPolygon","coordinates": [[[[35.0106,-0.3854,1521.734],[35.0068,-0.3701,1405.4943],[35.0062,-0.3567,1342.3403],[35.0043,-0.3507,1326.6062],[35.0059,-0.3487,1317.9727],[35.004,-0.3447,1326.9846],[35.006,-0.3428,1303.4637],[35.0048,-0.3322,1310.6652],[35.0059,-0.3308,1283.861],[34.9922,-0.3303,1344.4238],[34.9689,-0.336,1382.0256],[34.9665,-0.334,1347.8169],[34.9676,-0.3322,1311.7045],[34.9664,-0.3319,1311.7045],[34.9676,-0.3303,1285.1949],[34.9666,-0.3292,1272.7765],[34.9637,-0.3305,1277.5446],[34.9657,-0.3327,1305.2258],[34.9647,-0.3343,1328.4567],[34.9628,-0.3329,1291.0002],[34.9575,-0.3358,1300.8766],[34.9454,-0.3387,1325.282],[34.9336,-0.3391,1263.7719],[34.9288,-0.3437,1274.0626],[34.9299,-0.3477,1344.3376],[34.9349,-0.351,1392.4508],[34.9336,-0.3532,1453.1812],[34.9317,-0.3521,1422.3044],[34.9326,-0.357,1470.022],[34.9257,-0.3634,1549.9563],[34.9265,-0.3653,1556.3562],[34.9297,-0.3651,1554.3765],[34.9379,-0.3718,1572.4694],[34.9476,-0.3749,1576.8721],[34.9563,-0.389,1606.0371],[34.9603,-0.3886,1618.6736],[34.9637,-0.3965,1594.131],[34.9679,-0.3985,1531.6302],[34.9698,-0.4068,1472.7887],[34.9752,-0.4039,1522.3809],[34.9813,-0.4085,1501.4194],[34.9837,-0.4071,1520.7988],[34.9868,-0.4083,1484.7853],[34.9881,-0.4034,1530.5],[34.9979,-0.3993,1532.4521],[35.003,-0.3993,1505.7142],[35.0046,-0.3945,1540.8073],[35.0072,-0.3932,1514.7974],[35.007,-0.3894,1558.8523],[35.0106,-0.3854,1521.734]]]]}}