{"type": "Feature","bbox": [36.6391,-1.3698,36.6736,-1.3202],"geometry": {"type": "MultiPolygon","coordinates": [[[[36.6608,-1.3694,1953.8344],[36.6607,-1.3562,1924.0818],[36.6595,-1.3562,1926.3142],[36.6591,-1.3499,1920.8287],[36.6653,-1.3423,1907.6648],[36.6718,-1.3385,1886.1019],[36.6736,-1.3304,1878.1288],[36.6651,-1.3252,1899.0566],[36.6618,-1.3255,1900.4797],[36.6508,-1.3204,1989.5228],[36.6422,-1.3202,2004.417],[36.6432,-1.329,1994.2538],[36.6391,-1.3333,1993.1801],[36.6426,-1.3407,1964.4604],[36.6512,-1.3485,1949.165],[36.6529,-1.3561,1949.2229],[36.6467,-1.3562,1983.2178],[36.6467,-1.3698,2052.6541],[36.6608,-1.3694,1953.8344]]]]}
,"properties": {"GID_3": "KEN.10.3.1_1","GID_0": "KEN","country": "Kenya","GID_1": "KEN.10_1","province": "Kajiado","NL_NAME_1": "NA","GID_2": "KEN.10.3_1","county": "KajiadoNorth","NL_NAME_2": "NA","city": "Ngong","VARNAME_3": "NA","NL_NAME_3": "NA","TYPE_3": "Ward","ENGTYPE_3": "Ward","CC_3": "915","HASC_3": "NA","name": "Ngong.city","area_km2": 10.93734,"hist_schema_id": "Elevation0-9000","hist_area_km2": {"1875": 0.614697,"1900": 1.67452,"1925": 2.077246,"1950": 2.776722,"1975": 2.416393,"2000": 1.081015,"2025": 0.233158,"2050": 0.063588}}}