{"type": "Feature","id": "1197","bbox": [33.89481,-1.41241,35.32656,0.3066],"geometry": {"type": "Polygon","coordinates": [[[34.52883,-0.02098,1316.4589],[34.52154,-0.01974,1339.4792],[34.51534,-0.01586,1353.187],[34.5111,-0.0123,1392.3549],[34.50831,-0.00796,1420.2639],[34.5063,-0.00408,1393.4302],[34.50537,0.0,1413.6422],[34.50583,0.00367,1373.8633],[34.50831,0.01302,1318.7211],[34.51007,0.01783,1344.8081],[34.51488,0.02672,1369.7568],[34.51844,0.03695,1408.2726],[34.5186,0.06744,1338.3353],[34.52092,0.0786,1358.4294],[34.52139,0.08397,1369.6663],[34.5203,0.08925,1386.2053],[34.51813,0.09353,1399.0221],[34.51296,0.09829,1418.4526],[34.48661,0.11467,1444.9766],[34.46847,0.12191,1399.7648],[34.46056,0.12878,1357.4362],[34.45762,0.13493,1378.2759],[34.46072,0.15095,1327.7272],[34.46087,0.15591,1348.37],[34.45855,0.16046,1370.5836],[34.40408,0.21544,1289.5249],[34.4016,0.21963,1284.4491],[34.3999,0.22459,1260.7942],[34.39866,0.23022,1251.2266],[34.39814,0.24955,1262.8151],[34.39535,0.26789,1232.8643],[34.39194,0.27776,1230.2806],[34.38822,0.28345,1253.1891],[34.37023,0.30164,1250.3025],[34.36155,0.30551,1269.6521],[34.35427,0.3066,1284.604],[34.34868,0.30515,1276.5898],[34.33923,0.30086,1274.5015],[34.3308,0.29564,1282.2008],[34.32569,0.29378,1270.502],[34.31995,0.29332,1243.7476],[34.30817,0.29456,1257.7443],[34.25448,0.30494,1279.8225],[34.24626,0.30536,1252.0004],[34.23866,0.30494,1265.2035],[34.23288,0.30381,1272.027],[34.22761,0.30215,1284.3182],[34.22296,0.29993,1276.1833],[34.21598,0.29497,1283.283],[34.21412,0.29316,1285.2065],[34.21148,0.29016,1280.3406],[34.20916,0.28624,1261.8938],[34.20156,0.26701,1227.8834],[34.19893,0.26283,1239.0679],[34.19552,0.25885,1244.6616],[34.1921,0.25544,1236.4695],[34.18559,0.25337,1240.2979],[34.17686,0.25213,1252.8483],[34.15919,0.25347,1253.7881],[34.14988,0.25306,1267.5302],[34.14337,0.2511,1272.059],[34.1134,0.2327,1289.625],[34.09573,0.21404,1212.5387],[34.09371,0.21079,1215.3171],[34.09185,0.20665,1228.2744],[34.08782,0.19053,1195.4553],[34.08441,0.16893,1227.2502],[34.08317,0.13648,1145.2057],[34.08255,0.13214,1144.746],[34.08023,0.12418,1145.4691],[34.07805,0.12077,1143.1881],[34.07588,0.11875,1142.751],[34.05707,0.11209,1142.5717],[34.04777,0.10759,1142.8782],[34.03583,0.09927,1140.4852],[34.02576,0.09028,1142.1343],[34.02359,0.0878,1139.851],[34.02126,0.08408,1141.9169],[34.01956,0.07932,1137.8711],[34.01863,0.07369,1137.4446],[34.01863,0.06754,1138.3157],[34.02142,0.05018,1138.531],[34.02111,0.04449,1137.1978],[34.01987,0.03907,1137.4971],[34.01785,0.03426,1137.1641],[34.00281,0.00884,1133.0],[33.9996,0.00217,1137.0488],[33.95248,-0.1157,1133.0],[33.95351,-0.15436,1133.0],[33.93512,-0.31311,1133.0],[33.91135,-0.5193,1133.0],[33.89481,-0.66275,1133.0],[33.89853,-0.79907,1133.0],[33.90421,-1.00257,1133.0],[33.98039,-1.00257,1133.0],[33.98452,-1.00206,1133.0],[34.00002,-1.00257,1133.0],[34.00199,-1.02872,1133.0],[34.01542,-1.03751,1133.0],[34.05253,-1.0404,1133.0],[34.12746,-1.08226,1231.4331],[34.34212,-1.20215,1472.0425],[34.55689,-1.32193,1658.4768],[34.71889,-1.41241,1848.5669],[34.71734,-1.39883,1851.8363],[34.68029,-1.23238,1474.6233],[34.67326,-1.21486,1456.78],[34.65854,-1.18928,1430.1995],[34.63466,-1.17197,1425.1951],[34.63017,-1.1652,1418.9648],[34.61849,-1.11704,1494.8379],[34.60407,-1.09787,1469.2642],[34.59864,-1.08593,1489.6339],[34.5957,-1.07647,1502.3909],[34.59461,-1.06521,1512.0741],[34.59244,-1.05859,1499.2306],[34.57477,-1.02898,1477.4717],[34.57244,-1.01911,1472.7001],[34.57322,-1.00996,1489.4243],[34.57616,-1.00531,1489.3706],[34.57926,-1.00221,1496.5042],[34.5957,-0.9895,1503.3983],[34.61353,-0.97994,1510.9362],[34.63404,-0.9663,1503.4309],[34.63885,-0.96428,1518.698],[34.64412,-0.96304,1528.8276],[34.64939,-0.96371,1524.1533],[34.65404,-0.96552,1531.322],[34.65838,-0.96774,1544.5831],[34.66365,-0.96893,1562.5222],[34.7006,-0.97203,1774.7687],[34.70804,-0.97126,1787.1801],[34.97557,-0.89473,2010.3418],[34.98704,-0.89018,1979.1901],[34.99433,-0.88558,2081.2383],[34.99852,-0.87705,1951.9984],[35.00379,-0.85845,1903.0945],[35.01588,-0.82832,1871.7195],[35.02709,-0.81711,1850.3291],[35.03996,-0.80698,1807.1288],[35.05329,-0.79887,1823.7284],[35.06461,-0.78993,1798.4053],[35.07241,-0.78078,1788.4119],[35.0719,-0.76869,1813.7842],[35.06869,-0.75561,1809.8533],[35.04864,-0.70016,1846.0646],[35.04647,-0.68854,1887.7659],[35.04616,-0.67613,2035.708],[35.05252,-0.66027,1920.1843],[35.05422,-0.63159,1813.745],[35.04244,-0.52374,1734.2249],[35.04151,-0.51971,1702.9277],[35.0398,-0.51589,1727.6503],[35.03252,-0.50447,1653.5428],[35.03128,-0.50131,1645.7942],[35.03066,-0.49935,1588.0598],[35.02802,-0.48488,1610.6099],[35.02787,-0.47966,1650.0718],[35.0319,-0.44607,1665.6511],[35.03097,-0.44023,1612.7805],[35.02926,-0.43522,1567.7422],[35.01298,-0.41067,1568.6223],[35.01107,-0.40643,1578.002],[35.00797,-0.39558,1493.7397],[35.00146,-0.38106,1563.1825],[35.00007,-0.37662,1511.4674],[34.99914,-0.37088,1420.6337],[34.99867,-0.36065,1374.3558],[35.00022,-0.35047,1353.4161],[35.00146,-0.34768,1347.9119],[35.01014,-0.33574,1294.3594],[35.0136,-0.33238,1317.3237],[35.02523,-0.32303,1309.821],[35.02926,-0.31884,1287.9279],[35.0381,-0.30577,1261.7668],[35.04011,-0.2991,1248.7041],[35.04104,-0.29285,1246.6702],[35.04073,-0.28711,1246.0697],[35.04353,-0.27027,1252.8615],[35.04508,-0.22541,1239.582],[35.04678,-0.21756,1303.0822],[35.04911,-0.21151,1301.149],[35.05221,-0.20758,1279.8196],[35.05624,-0.20454,1271.4282],[35.06073,-0.20216,1248.9062],[35.07066,-0.19823,1239.2502],[35.07505,-0.1957,1235.001],[35.0845,-0.18521,1239.1797],[35.10776,-0.14092,1222.3217],[35.11458,-0.13146,1209.929],[35.12078,-0.12764,1225.7734],[35.1244,-0.13022,1223.5856],[35.1275,-0.13363,1228.8691],[35.1351,-0.14681,1269.2323],[35.1382,-0.15084,1270.8912],[35.14161,-0.15436,1251.9541],[35.15339,-0.16263,1251.6238],[35.1644,-0.17213,1288.4031],[35.16905,-0.17461,1299.5093],[35.17401,-0.17601,1283.5068],[35.17928,-0.17622,1296.9927],[35.18393,-0.17467,1299.2612],[35.19266,-0.17033,1295.9093],[35.19762,-0.16929,1291.4463],[35.20274,-0.16986,1295.7953],[35.20724,-0.17182,1290.9509],[35.21096,-0.17498,1295.8243],[35.21421,-0.17896,1306.2762],[35.2201,-0.19368,1306.4304],[35.22274,-0.19761,1317.0829],[35.22615,-0.20128,1340.7228],[35.23034,-0.20402,1361.7217],[35.23581,-0.20557,1405.0468],[35.24775,-0.20686,1339.4482],[35.25287,-0.20841,1352.7363],[35.25659,-0.21146,1415.7383],[35.25907,-0.21565,1401.8906],[35.26248,-0.22634,1368.6792],[35.26465,-0.23125,1439.2174],[35.26759,-0.23513,1382.631],[35.27457,-0.24138,1414.656],[35.27876,-0.24412,1449.3147],[35.28325,-0.24629,1525.1484],[35.28837,-0.24805,1570.157],[35.29379,-0.24908,1589.0553],[35.30036,-0.24955,1635.6533],[35.30718,-0.24908,1606.2452],[35.31509,-0.2466,1636.6372],[35.31912,-0.2421,1647.6949],[35.32144,-0.23688,1661.8347],[35.32625,-0.20376,1541.3026],[35.32656,-0.19782,1575.1581],[35.32563,-0.18862,1630.4806],[35.32377,-0.18397,1598.1873],[35.32082,-0.17973,1649.3944],[35.31772,-0.17606,1654.1704],[35.2724,-0.14004,1509.3079],[35.26961,-0.13519,1500.197],[35.26821,-0.12852,1521.9956],[35.26821,-0.11643,1696.3385],[35.26527,-0.11074,1852.4172],[35.26124,-0.10671,1684.4358],[35.2417,-0.09886,1490.7148],[35.23736,-0.09632,1501.0905],[35.23359,-0.09322,1483.2056],[35.23034,-0.0895,1487.7103],[35.22584,-0.05963,1491.4071],[35.22212,-0.0493,1397.2422],[35.21964,-0.0447,1392.0366],[35.21344,-0.03726,1381.478],[35.20941,-0.03462,1369.8331],[35.20476,-0.03271,1349.3979],[35.20011,-0.03152,1347.952],[35.19576,-0.03116,1340.2961],[35.19282,-0.03163,1341.3967],[35.1891,-0.03354,1338.7133],[35.18083,-0.03865,1367.53],[35.17602,-0.04093,1331.1211],[35.17075,-0.04201,1308.4355],[35.16517,-0.0416,1296.613],[35.16006,-0.04005,1286.6677],[35.15556,-0.03798,1277.3033],[35.13882,-0.02749,1295.6466],[35.12409,-0.02191,1276.4624],[35.11303,-0.01943,1275.4481],[35.10698,-0.01902,1270.8252],[35.10109,-0.01974,1261.1216],[35.09613,-0.0216,1259.8517],[35.0921,-0.02439,1261.7693],[35.08931,-0.02811,1260.1263],[35.08683,-0.03245,1254.6396],[35.08001,-0.04666,1219.5516],[35.07691,-0.05028,1212.135],[35.07252,-0.05292,1209.1454],[35.06787,-0.05509,1214.246],[35.05763,-0.0587,1211.2948],[35.05236,-0.05963,1209.2505],[35.04709,-0.05886,1216.8097],[35.04229,-0.05705,1216.4646],[35.03794,-0.05457,1223.7677],[35.02678,-0.04579,1246.7246],[35.02244,-0.04403,1250.9895],[35.01805,-0.04387,1248.3479],[35.0134,-0.04299,1235.856],[35.00952,-0.04093,1245.3092],[34.99976,-0.03039,1241.2681],[34.99572,-0.02759,1262.0206],[34.99107,-0.02563,1279.9143],[34.98518,-0.02548,1306.679],[34.97929,-0.02594,1324.2384],[34.9734,-0.02708,1314.6887],[34.96844,-0.02904,1307.8521],[34.95542,-0.03695,1307.4609],[34.95056,-0.03912,1297.5178],[34.9394,-0.04191,1274.1709],[34.9332,-0.04237,1268.7379],[34.88586,-0.03664,1220.2928],[34.85935,-0.0369,1197.7067],[34.84039,-0.03896,1195.9568],[34.82736,-0.03896,1191.2327],[34.8162,-0.03695,1193.2988],[34.81155,-0.03504,1192.7935],[34.80721,-0.03261,1203.2283],[34.79961,-0.02656,1213.8662],[34.78545,-0.01313,1285.0104],[34.78142,-0.01033,1301.9769],[34.77646,-0.00832,1356.2665],[34.77135,-0.00703,1348.1072],[34.76638,-0.00677,1409.2021],[34.75863,-0.00749,1403.2349],[34.73507,-0.01369,1531.8683],[34.72013,-0.01276,1477.0154],[34.69967,-0.00842,1395.9067],[34.69192,-0.00873,1415.4669],[34.68386,-0.01075,1414.6428],[34.66117,-0.01865,1385.8167],[34.65264,-0.01964,1435.543],[34.64582,-0.01902,1584.6692],[34.6221,-0.00749,1478.2031],[34.59942,-0.00103,1538.2382],[34.59337,-0.00072,1507.7371],[34.57678,-0.00506,1456.5042],[34.54976,-0.01648,1428.1564],[34.53735,-0.02041,1344.7423],[34.52883,-0.02098,1316.4589]]]}
,"properties": {"ISO3166-1-Alpha-3": "KEN","country": "Kenya","fill": "#FF0","name": "Nyanza","area_km2": 16651.34,"hist_schema_id": "Elevation0-9000","hist_area_km2": {"1125": 4213.75,"1150": 1359.22,"1175": 956.76,"1200": 885.52,"1225": 802.31,"1250": 726.34,"1275": 700.29,"1300": 648.31,"1325": 567.21,"1350": 564.17,"1375": 506.27,"1400": 439.38,"1425": 408.65,"1450": 372.7,"1475": 353.15,"1500": 316.9,"1525": 246.24,"1550": 186.73,"1575": 178.53,"1600": 152.15,"1625": 143.76,"1650": 123.68,"1675": 109.69,"1700": 100.85,"1725": 99.45,"1750": 107.33,"1775": 118.0,"1800": 113.14,"1825": 104.71,"1850": 109.65,"1875": 130.98,"1900": 140.41,"1925": 139.92,"1950": 125.25,"1975": 107.53,"2000": 89.95,"2025": 69.58,"2050": 49.38,"2075": 31.95,"2100": 22.3,"2125": 15.14,"2150": 9.65,"2175": 3.24,"2200": 1.0,"2225": 0.19}}}