{"type":"Feature","properties":{"GID_3":"KEN.3.1.7_1","GID_0":"KEN","country":"Kenya","GID_1":"KEN.3_1","province":"Bungoma","NL_NAME_1":"NA","GID_2":"KEN.3.1_1","county":"Bumula","NL_NAME_2":"NA","city":"WestBukusu","VARNAME_3":"NA","NL_NAME_3":"NA","TYPE_3":"Ward","ENGTYPE_3":"Ward","CC_3":"1094","HASC_3":"NA","name":"West_Bukusu.city"},
"geometry":{"type": "MultiPolygon","coordinates": [[[[34.4629,0.573,1294.927],[34.4703,0.5768,1292.481],[34.4733,0.582,1299.7407],[34.4747,0.5802,1293.5919],[34.4798,0.5815,1306.129],[34.4933,0.5795,1306.2413],[34.4993,0.5763,1325.7881],[34.5049,0.5777,1332.1582],[34.5085,0.5819,1346.598],[34.5098,0.5848,1359.1218],[34.5076,0.5907,1374.1342],[34.5074,0.6013,1388.2504],[34.504,0.6018,1354.8048],[34.4991,0.6001,1335.7117],[34.4982,0.5984,1339.439],[34.4972,0.5993,1345.6511],[34.4991,0.6039,1342.3409],[34.5005,0.6042,1342.3409],[34.4991,0.6129,1359.9594],[34.5008,0.6138,1360.1008],[34.5018,0.6182,1375.6907],[34.4983,0.622,1382.7366],[34.5025,0.6311,1442.7715],[34.5041,0.6314,1448.4326],[34.5099,0.6403,1475.6235],[34.5159,0.6535,1520.754],[34.4985,0.6469,1501.8193],[34.493899999999996,0.6469,1460.437],[34.4897,0.6438,1470.3665],[34.4812,0.6329,1442.9136],[34.4807,0.6291,1421.2654],[34.4758,0.6228,1413.7971],[34.4754,0.6189,1388.9427],[34.4678,0.611,1330.8005],[34.4639,0.6101,1323.0664],[34.4558,0.6048,1298.7175],[34.4552,0.6162,1322.5959],[34.4499,0.6177,1325.8005],[34.4452,0.6119,1298.0175],[34.4402,0.6118,1303.6097],[34.4412,0.6042,1287.8721],[34.4374,0.5864,1283.9037],[34.4381,0.5821,1275.8636],[34.4506,0.5748,1279.1659],[34.4629,0.573,1294.927]]]]}}