{"type":"Feature","properties":{"GID_3":"KEN.24.3.1_1","GID_0":"KEN","country":"Kenya","GID_1":"KEN.24_1","province":"Mandera","NL_NAME_1":"NA","GID_2":"KEN.24.3_1","county":"ManderaEast","NL_NAME_2":"NA","city":"Arabia","VARNAME_3":"NA","NL_NAME_3":"NA","TYPE_3":"Ward","ENGTYPE_3":"Ward","CC_3":"211","HASC_3":"NA","name":"Arabia.city"},
"geometry":{"type": "MultiPolygon","coordinates": [[[[41.2895,3.6651,616.9],[41.2561,3.6113,485.7187],[41.2527,3.5975,471.3883],[41.2535,3.5915,467.1325],[41.2595,3.5841,465.3605],[41.2675,3.5657,457.3102],[41.2815,3.5531,449.4957],[41.2841,3.5481,447.476],[41.2843,3.5357,442.4782],[41.2873,3.5327,440.8994],[41.2959,3.5297,439.6735],[41.3011,3.5317,439.1307],[41.3063,3.5311,436.7179],[41.3149,3.5147,430.7872],[41.3463,3.5151,421.6046],[41.3561,3.5049,416.5734],[41.3561,3.5005,415.8471],[41.3579,3.4973,414.6634],[41.368899999999996,3.4945,410.0868],[41.3807,3.4867,405.0829],[41.3841,3.4861,403.7966],[41.3939,3.4897,401.8833],[41.4809,3.3789,498.8604],[41.6106,3.5641,450.3736],[41.6614,3.6392,343.8994],[41.7239,3.7256,316.9006],[41.7249,3.7236,317.4974],[41.7403,3.7451,313.9911],[41.7393,3.7491,312.0884],[41.7309,3.7625,305.4777],[41.7303,3.7667,304.6883],[41.7355,3.7845,299.6529],[41.7299,3.7889,297.5832],[41.7175,3.7875,288.3398],[41.7139,3.7889,286.4467],[41.7069,3.7997,285.9309],[41.7051,3.8057,278.7235],[41.7109,3.8285,272.5027],[41.7133,3.8315,271.8938],[41.7175,3.8439,269.4992],[41.7149,3.8633,260.7729],[41.7213,3.8693,257.1544],[41.7209,3.8737,255.9377],[41.7255,3.8933,259.2164],[41.7245,3.8963,256.0624],[41.7189,3.9013,273.54],[41.7127,3.9003,268.2868],[41.7019,3.8949,267.0372],[41.6943,3.8977,271.9662],[41.6875,3.8981,275.3196],[41.6795,3.8961,280.6104],[41.6527,3.8825,313.1743],[41.5389,3.8809,262.9318],[41.5393,3.8819,262.9318],[41.5315,3.8683,271.1606],[41.5287,3.8577,272.5352],[41.5229,3.8525,273.9941],[41.5197,3.8455,280.3957],[41.5199,3.8407,281.2347],[41.5099,3.8311,285.5363],[41.5103,3.8175,296.3281],[41.5201,3.8053,302.3409],[41.5181,3.7883,309.7625],[41.5189,3.7726,315.9315],[41.5035,3.7409,338.2241],[41.4941,3.7277,348.0808],[41.4783,3.7121,360.4794],[41.4767,3.7071,364.8247],[41.4721,3.7009,373.6802],[41.4303,3.6783,403.9352],[41.4149,3.6667,414.5619],[41.4033,3.6475,423.6079],[41.3877,3.6357,432.7579],[41.3821,3.6289,436.635],[41.3765,3.6195,440.9282],[41.3771,3.6133,433.7339],[41.3583,3.6149,452.226],[41.3503,3.6181,465.6118],[41.2895,3.6651,616.9]]]]}}