{"type": "Feature","bbox": [36.8301,-1.2583,36.8932,-1.1985],"geometry": {"type": "MultiPolygon","coordinates": [[[[36.8333,-1.212,1689.6729],[36.8349,-1.2146,1686.2498],[36.8345,-1.2182,1696.5945],[36.8423,-1.2299,1662.9792],[36.8437,-1.2413,1661.9181],[36.8462,-1.2457,1638.8514],[36.8419,-1.2583,1653.3502],[36.8527,-1.2554,1644.1946],[36.8575,-1.2514,1636.6776],[36.8662,-1.2418,1626.537],[36.8702,-1.2341,1627.319],[36.8897,-1.2173,1609.7614],[36.8932,-1.2048,1572.283],[36.8927,-1.2028,1562.4493],[36.8851,-1.1985,1582.2224],[36.8789,-1.2011,1588.3755],[36.8721,-1.1997,1603.8478],[36.8687,-1.2012,1609.5171],[36.8603,-1.2093,1647.7241],[36.8548,-1.2091,1653.4873],[36.8494,-1.2102,1665.673],[36.8489,-1.2116,1652.5536],[36.8389,-1.2073,1685.3665],[36.8341,-1.2078,1691.3722],[36.8301,-1.2036,1700.9377],[36.8333,-1.212,1689.6729]]]]}
,"properties": {"GID_3": "KEN.30.14.4_1","GID_0": "KEN","country": "Kenya","GID_1": "KEN.30_1","province": "Nairobi","NL_NAME_1": "NA","GID_2": "KEN.30.14_1","county": "Roysambu","NL_NAME_2": "NA","city": "Roysambu","VARNAME_3": "NA","NL_NAME_3": "NA","TYPE_3": "Ward","ENGTYPE_3": "Ward","CC_3": "1394","HASC_3": "NA","name": "Roysambu.city","area_km2": 22.34203,"hist_schema_id": "Elevation0-9000","hist_area_km2": {"1550": 0.12719,"1575": 1.27185,"1600": 1.78059,"1625": 9.17846,"1650": 6.93152,"1675": 2.79806,"1700": 0.25437}}}