{"type": "Feature","bbox": [38.4171,-0.8059,39.5513,-0.0151],"geometry": {"type": "MultiPolygon","coordinates": [[[[38.7493,-0.0279,295.6943],[38.7497,-0.0336,291.645],[38.7527,-0.0385,289.8421],[38.7513,-0.0467,278.8251],[38.7609,-0.0506,275.9983],[38.7647,-0.0554,267.8352],[38.7597,-0.0621,262.5216],[38.7607,-0.0647,261.1656],[38.7659,-0.0691,257.0828],[38.7579,-0.0733,257.0734],[38.7379,-0.0707,260.5172],[38.7277,-0.0647,261.3297],[38.7136,-0.0624,276.7505],[38.6975,-0.0513,277.121],[38.6905,-0.042,275.757],[38.6877,-0.0411,280.9601],[38.6843,-0.0474,283.3304],[38.6847,-0.0521,274.125],[38.6811,-0.0554,283.7968],[38.6753,-0.0547,279.9308],[38.6551,-0.0466,286.2987],[38.6477,-0.0538,290.9931],[38.6391,-0.0547,286.6234],[38.6361,-0.0534,285.2562],[38.6259,-0.0418,287.0731],[38.6117,-0.0303,299.877],[38.6085,-0.0296,290.8169],[38.6009,-0.0342,306.4731],[38.5977,-0.0334,295.8663],[38.5922,-0.0305,302.8604],[38.5887,-0.0265,299.6721],[38.5803,-0.025,296.9048],[38.5705,-0.0198,293.0],[38.5696,-0.0151,297.3884],[38.5693,-0.0184,295.7402],[38.5611,-0.0196,299.9216],[38.5549,-0.0174,309.3225],[38.5485,-0.0197,321.9008],[38.5421,-0.0328,324.7051],[38.5405,-0.0434,330.0762],[38.5299,-0.0451,330.7079],[38.5303,-0.0556,311.9484],[38.5263,-0.057,310.4695],[38.5219,-0.062,307.6555],[38.5189,-0.063,309.2863],[38.5119,-0.0597,309.8106],[38.5021,-0.0634,313.0493],[38.4929,-0.0595,316.292],[38.4893,-0.0609,311.7332],[38.4877,-0.0701,311.5],[38.4829,-0.076,316.792],[38.4719,-0.0792,327.196],[38.4629,-0.0851,317.695],[38.4577,-0.0864,319.1317],[38.4527,-0.0849,319.8935],[38.4383,-0.0724,328.886],[38.4361,-0.0729,337.5638],[38.4329,-0.0769,337.7289],[38.4263,-0.075,333.9718],[38.4197,-0.0686,338.7437],[38.4171,-0.067,338.9931],[38.4193,-0.0689,338.7437],[38.4178,-0.0708,336.4501],[38.4193,-0.0702,331.6728],[38.4428,-0.1096,358.2525],[38.8064,-0.7263,476.8859],[38.8451,-0.8059,434.4835],[39.0265,-0.7749,354.1117],[39.3039,-0.7244,280.9279],[39.3063,-0.7261,279.9016],[39.3045,-0.7244,280.6004],[39.5363,-0.6838,210.1268],[39.5513,-0.6778,206.8136],[39.5447,-0.6663,208.5819],[39.5293,-0.6555,213.7136],[39.5033,-0.6605,219.4455],[39.4995,-0.66,220.3826],[39.4945,-0.6563,223.3553],[39.4867,-0.6551,225.4714],[39.4723,-0.6559,227.2143],[39.4629,-0.6539,229.4914],[39.4577,-0.6506,232.1601],[39.4289,-0.6402,239.6033],[39.4157,-0.6415,244.2829],[39.3995,-0.6517,247.7483],[39.3947,-0.6519,248.1508],[39.3857,-0.6475,249.4049],[39.3717,-0.6341,254.7948],[39.3611,-0.6201,260.0538],[39.3479,-0.6115,264.8754],[39.3407,-0.5894,271.4993],[39.3316,-0.5753,277.8169],[39.3259,-0.5709,279.9445],[39.3087,-0.5623,284.2729],[39.3025,-0.5548,286.3926],[39.2959,-0.5516,288.3059],[39.2865,-0.5355,294.2899],[39.2689,-0.5192,301.8386],[39.2653,-0.512,303.126],[39.2569,-0.5017,306.2586],[39.2773,-0.316,273.1206],[39.2971,-0.2927,261.3912],[39.2857,-0.2707,243.0094],[39.2733,-0.268,250.784],[39.2619,-0.254,251.9642],[39.2663,-0.2428,242.9191],[39.2771,-0.2315,232.5401],[39.2789,-0.2229,219.2526],[39.2719,-0.2066,204.7767],[39.2741,-0.1916,192.2177],[38.9207,-0.2572,290.0147],[38.9213,-0.2506,286.8881],[38.9197,-0.2403,289.2767],[38.9147,-0.2382,285.0272],[38.9165,-0.2332,282.9001],[38.9218,-0.2276,274.9877],[38.9197,-0.2247,277.7733],[38.9165,-0.2242,277.7322],[38.9183,-0.2197,270.1571],[38.9173,-0.2162,280.3382],[38.9249,-0.2093,262.833],[38.9239,-0.2019,260.2981],[38.9267,-0.1962,261.2983],[38.9375,-0.1924,257.832],[38.9451,-0.1941,249.8206],[38.9473,-0.1925,248.9616],[38.9485,-0.1857,244.9198],[38.9511,-0.1854,246.1069],[38.952,-0.1834,244.618],[38.9493,-0.1758,250.6991],[38.9528,-0.1677,238.7524],[38.9507,-0.1608,235.0664],[38.9475,-0.1578,235.5559],[38.9465,-0.1459,233.3099],[38.9487,-0.1432,232.0006],[38.9519,-0.1433,229.6257],[38.9557,-0.1405,226.538],[38.9565,-0.1381,226.5086],[38.9541,-0.1348,224.8226],[38.9531,-0.1202,221.0887],[38.9487,-0.1138,217.0402],[38.9457,-0.1125,216.5027],[38.9447,-0.1103,218.3669],[38.9463,-0.108,218.4589],[38.9343,-0.0811,221.1109],[38.9315,-0.0776,223.7597],[38.9269,-0.0609,243.7093],[38.9215,-0.056,240.2405],[38.9197,-0.0481,248.2912],[38.9205,-0.0426,257.4095],[38.9161,-0.04,263.3491],[38.9067,-0.0409,282.5306],[38.8837,-0.0513,282.3167],[38.8659,-0.0506,263.6724],[38.8579,-0.0473,276.8096],[38.8355,-0.0493,297.4402],[38.8107,-0.0394,319.7244],[38.7999,-0.0368,321.6744],[38.7923,-0.0321,329.3345],[38.7781,-0.0267,347.0018],[38.7625,-0.026,347.0384],[38.7493,-0.0279,295.6943]]]]}
,"properties": {"GID_3": "KEN.40.1.1_1","GID_0": "KEN","country": "Kenya","GID_1": "KEN.40_1","province": "TanaRiver","NL_NAME_1": "NA","GID_2": "KEN.40.1_1","county": "Bura","NL_NAME_2": "NA","city": "Bangale","VARNAME_3": "NA","NL_NAME_3": "NA","TYPE_3": "Ward","ENGTYPE_3": "Ward","CC_3": "98","HASC_3": "NA","name": "Bangale.city","area_km2": 5362.076,"hist_schema_id": "Elevation0-9000","hist_area_km2": {"200": 21.52,"225": 118.115,"250": 250.541,"275": 401.877,"300": 528.683,"325": 663.143,"350": 699.544,"375": 635.684,"400": 494.736,"425": 451.526,"450": 409.25,"475": 339.754,"500": 234.955,"525": 104.311,"550": 8.269,"575": 0.085,"625": 0.064}}}