{"type":"Feature","properties":{"GID_3":"KEN.46.1.1_1","GID_0":"KEN","country":"Kenya","GID_1":"KEN.46_1","province":"Wajir","NL_NAME_1":"NA","GID_2":"KEN.46.1_1","county":"Eldas","NL_NAME_2":"NA","city":"Della","VARNAME_3":"NA","NL_NAME_3":"NA","TYPE_3":"Ward","ENGTYPE_3":"Ward","CC_3":"181","HASC_3":"NA","name":"Della.city"},
"geometry":{"type": "MultiPolygon","coordinates": [[[[39.498,2.2663,373.6159],[39.5405,2.2366,366.6243],[39.6382,2.2758,362.4495],[39.6549,2.2717,359.868],[39.6885,2.2703,361.7528],[39.703,2.2663,362.5974],[39.7098,2.266,361.9426],[39.8105,2.2717,356.4116],[39.8523,2.2714,359.2086],[39.8547,2.2606,356.4935],[39.863667088607585,2.2275582278481481,351.8944],[39.8628,2.2312,352.863],[39.8599,2.2423,353.875],[39.8547,2.2609,356.4935],[39.8501,2.2867,361.5738],[39.8425,2.3045,365.557],[39.8299,2.3509,373.3829],[39.8271,2.3665,378.322],[39.8267,2.3865,387.2395],[39.8215,2.4105,399.8785],[39.8171,2.4731,429.0581],[39.8297,2.5767,452.7946],[39.7626,2.6299,484.388],[39.6726,2.6579,564.2083],[39.6771,2.6421,538.9002],[39.6835,2.5579,471.3099],[39.6855,2.5503,469.1936],[39.6788,2.5421,477.6182],[39.6686,2.5372,461.1127],[39.6069,2.4872,416.1839],[39.6059,2.4797,414.682],[39.5952,2.4622,411.4493],[39.596,2.4607,410.9429],[39.5894,2.445,406.0855],[39.5898,2.4408,405.4328],[39.5849,2.4347,404.6048],[39.5851,2.429,404.2946],[39.5787,2.42,400.8028],[39.5761,2.4202,400.2599],[39.5736,2.4152,400.5135],[39.5694,2.4135,399.5218],[39.5683,2.4082,399.0912],[39.5636,2.4054,396.8829],[39.5582,2.3958,396.2342],[39.5542,2.394,393.7644],[39.5532,2.3893,394.7087],[39.5497,2.385,392.4043],[39.5484,2.3767,389.7922],[39.5442,2.3729,388.9694],[39.5482,2.3683,388.5268],[39.5476,2.3631,387.3604],[39.55,2.3455,385.9847],[39.5472,2.3383,382.4727],[39.5476,2.3319,380.4512],[39.5456,2.3277,380.9363],[39.5467,2.3191,378.0366],[39.5515,2.3123,379.3652],[39.5514,2.3081,377.089],[39.5559,2.304,376.7072],[39.5322,2.2942,377.5173],[39.5241,2.2885,377.4919],[39.5079,2.2724,375.5392],[39.498,2.2663,373.6159]]],
[[[39.8642,2.22532,351.1827],[39.8709,2.1945,347.5938],[39.8706,2.1966,348.0284],[39.8668,2.2144,350.0338],[39.8642,2.22532,351.1827]]],
[[[39.8642,2.22532,351.1827],[39.8639,2.2267,351.6939],[39.863667088607585,2.2275582278481481,351.8944],[39.8642,2.22532,351.1827]]]]}}