{"type":"Feature","properties":{"GID_3":"KEN.40.3.6_1","GID_0":"KEN","country":"Kenya","GID_1":"KEN.40_1","province":"TanaRiver","NL_NAME_1":"NA","GID_2":"KEN.40.3_1","county":"Garsen","NL_NAME_2":"NA","city":"KipiniWest","VARNAME_3":"NA","NL_NAME_3":"NA","TYPE_3":"Ward","ENGTYPE_3":"Ward","CC_3":"88","HASC_3":"NA","name":"Kipini_West.city"},
"geometry":{"type": "MultiPolygon","coordinates": [[[[40.1876,-2.7314,0.0],[40.1888,-2.7346,0.0],[40.1932,-2.7368,0.0],[40.1963,-2.7365,0.0],[40.2001,-2.7332,1.017],[40.2032,-2.7251,5.7444],[40.216,-2.7054,2.6253],[40.2324,-2.6846,0.0],[40.2601,-2.656,3.0789],[40.2604,-2.6479,6.3234],[40.2685,-2.6432,1.0646],[40.2693,-2.6388,2.1056],[40.2696,-2.6424,4.2173],[40.2668,-2.6463,0.0],[40.2679,-2.6476,3.1317],[40.2721,-2.6457,1.8869],[40.3054,-2.6182,2.6775],[40.339,-2.5968,0.0],[40.3426,-2.5924,0.4327],[40.344,-2.5865,0.0],[40.3476,-2.5846,0.0],[40.3496,-2.5785,0.0],[40.3524,-2.576,1.0653],[40.3507,-2.5732,3.1749],[40.3543,-2.5771,0.4902],[40.3512,-2.579,0.0],[40.351,-2.5815,0.0],[40.3524,-2.5824,0.3961],[40.3479,-2.5875,13.9545],[40.3529,-2.5863,20.6836],[40.3901,-2.5654,12.4805],[40.3921,-2.5597,6.5195],[40.3911,-2.5565,19.744],[40.3873,-2.5533,9.9706],[40.3789,-2.557,1.4265],[40.3813,-2.5531,1.4373],[40.3813,-2.5495,8.9139],[40.3777,-2.5427,2.0732],[40.3775,-2.5347,1.6926],[40.3789,-2.5324,1.6819],[40.3779,-2.5299,1.6509],[40.3789,-2.525,2.042],[40.3829,-2.5201,1.9316],[40.3801,-2.512,4.873],[40.3809,-2.5096,2.0727],[40.3869,-2.5025,2.5403],[40.3887,-2.5039,3.0912],[40.3917,-2.5005,1.9959],[40.3937,-2.501,2.0466],[40.3943,-2.4952,2.1932],[40.3999,-2.4975,2.4404],[40.4067,-2.5046,2.7584],[40.4075,-2.5024,1.4774],[40.4123,-2.5035,2.0175],[40.4155,-2.5019,1.6496],[40.4195,-2.4967,1.7686],[40.4181,-2.4937,3.0822],[40.4221,-2.4866,2.0361],[40.4346,-2.4859,4.0916],[40.4397,-2.482,2.5608],[40.4327,-2.474,2.2842],[40.4285,-2.4745,2.5857],[40.4315,-2.4715,1.3477],[40.4277,-2.4619,1.5677],[40.4299,-2.4599,1.4073],[40.4295,-2.4563,2.0553],[40.4263,-2.4564,1.708],[40.4255,-2.4524,1.6098],[40.4229,-2.4535,2.0923],[40.4135,-2.4455,1.8019],[40.4115,-2.4409,3.4087],[40.4069,-2.4365,1.968],[40.4059,-2.4299,2.0365],[40.3969,-2.4302,1.9478],[40.3839,-2.4256,2.4507],[40.3811,-2.4218,2.2943],[40.3705,-2.4223,3.3141],[40.3655,-2.417,3.9029],[40.3577,-2.4146,3.1059],[40.3546,-2.4121,3.2895],[40.3483,-2.405,4.1312],[40.3489,-2.401,3.4762],[40.3453,-2.3986,3.9092],[40.2993,-2.3992,7.9435],[40.2961,-2.4158,3.504],[40.2581,-2.4513,6.2672],[40.2269,-2.4769,7.9096],[40.1631,-2.536,10.7675],[40.1205,-2.5839,16.065],[40.1029,-2.6076,20.4544],[40.1897,-2.7314,8.6194],[40.1876,-2.7314,0.0]]]]}}