{"type": "Feature","bbox": [37.1217,1.6515,37.7765,2.4795],"geometry": {"type": "MultiPolygon","coordinates": [[[[37.1593,1.9638,816.4235],[37.1613,1.9643,823.0797],[37.1637,1.9411,862.5057],[37.1733,1.9251,871.1467],[37.1868,1.9139,864.369],[37.2195,1.8915,779.3052],[37.2343,1.8719,923.4736],[37.2739,1.8697,721.4517],[37.3053,1.7517,1057.6255],[37.3589,1.7296,1458.9209],[37.4068,1.6544,741.4594],[37.4157,1.6515,651.2804],[37.4225,1.6543,634.2839],[37.4279,1.6587,628.4248],[37.4295,1.6631,623.0588],[37.4263,1.6727,620.7235],[37.4267,1.6833,619.0349],[37.4229,1.6975,615.3644],[37.4279,1.7131,630.0248],[37.4303,1.7153,673.1938],[37.4449,1.7209,603.288],[37.4847,1.7465,587.1687],[37.4933,1.7475,592.2095],[37.4983,1.7448,597.605],[37.4977,1.7457,604.0439],[37.5389,1.7629,1333.7417],[37.5501,1.7667,1115.808],[37.5561,1.7665,905.6434],[37.5671,1.7749,601.3794],[37.5747,1.7853,550.6089],[37.5917,1.8105,529.0386],[37.6045,1.8379,520.6558],[37.7573,2.1269,961.4288],[37.7765,2.3717,730.3831],[37.5211,2.4795,434.336],[37.5143,2.4533,436.5555],[37.5143,2.4209,442.1788],[37.5047,2.4081,446.2368],[37.4711,2.3953,455.632],[37.4511,2.3823,463.8914],[37.4379,2.3797,467.9545],[37.4291,2.3715,473.3138],[37.4267,2.3639,475.8144],[37.3951,2.3347,494.1313],[37.3923,2.3293,496.3994],[37.3827,2.3249,501.3756],[37.3657,2.3101,512.7206],[37.3373,2.2969,531.2751],[37.32,2.2848,544.3949],[37.3075,2.2705,555.4084],[37.2879,2.2231,587.1752],[37.2567,2.1973,613.2664],[37.2457,2.1917,621.2504],[37.2389,2.1839,627.2275],[37.2325,2.1809,632.6317],[37.2053,2.1845,652.5826],[37.1948,2.1816,661.0601],[37.1801,2.1679,678.4308],[37.1727,2.1665,682.0712],[37.1579,2.1585,699.491],[37.1469,2.1491,712.3923],[37.1447,2.1425,719.1001],[37.1361,2.1331,731.0474],[37.1217,2.1249,746.8109],[37.1225,2.1181,749.0989],[37.1277,2.1035,752.7952],[37.1329,2.0639,755.2272],[37.1377,2.0533,757.1531],[37.1399,2.0423,759.0223],[37.1421,2.0259,764.8482],[37.1409,2.0071,778.6177],[37.1453,1.9805,800.4517],[37.1527,1.9817,794.7683],[37.1593,1.9638,816.4235]]]]}
,"properties": {"GID_3": "KEN.25.1.2_1","GID_0": "KEN","country": "Kenya","GID_1": "KEN.25_1","province": "Marsabit","NL_NAME_1": "NA","GID_2": "KEN.25.1_1","county": "Laisamis","NL_NAME_2": "NA","city": "Korr/Ngurunit","VARNAME_3": "NA","NL_NAME_3": "NA","TYPE_3": "Ward","ENGTYPE_3": "Ward","CC_3": "238","HASC_3": "NA","name": "Korr_Ngurunit.city","area_km2": 3846.626,"hist_schema_id": "Elevation0-9000","hist_area_km2": {"425": 21.458,"450": 114.095,"475": 242.822,"500": 504.161,"525": 472.749,"550": 366.744,"575": 332.85,"600": 320.083,"625": 266.094,"650": 242.487,"675": 191.627,"700": 162.239,"725": 181.732,"750": 128.21,"775": 102.848,"800": 63.248,"825": 43.692,"850": 35.577,"875": 17.439,"900": 7.226,"925": 4.153,"950": 2.373,"975": 2.374,"1000": 2.056,"1025": 2.034,"1050": 1.801,"1075": 1.547,"1100": 1.314,"1125": 1.017,"1150": 0.932,"1175": 1.144,"1200": 1.102,"1225": 0.911,"1250": 0.975,"1275": 0.657,"1300": 0.593,"1325": 0.593,"1350": 0.297,"1375": 0.509,"1400": 0.318,"1425": 0.381,"1450": 0.254,"1475": 0.212,"1500": 0.297,"1525": 0.36,"1550": 0.233,"1575": 0.148,"1600": 0.212,"1625": 0.17,"1650": 0.085,"1675": 0.106,"1700": 0.085}}}