{"type": "Feature","bbox": [38.2472,-2.3516,38.7005,-1.8772],"geometry": {"type": "MultiPolygon","coordinates": [[[[38.7005,-2.3509,360.6606],[38.6936,-2.3392,363.9677],[38.6882,-2.3245,372.2582],[38.6876,-2.3156,379.2493],[38.6893,-2.3014,388.6715],[38.6763,-2.26,404.4642],[38.6749,-2.245,406.8139],[38.6646,-2.2365,411.9501],[38.6474,-2.2155,410.1461],[38.6457,-2.2119,409.8687],[38.6461,-2.2076,406.2701],[38.6388,-2.1964,412.0582],[38.6389,-2.1868,414.9815],[38.6295,-2.1848,418.1357],[38.6208,-2.1871,422.3757],[38.5996,-2.1799,430.0153],[38.5947,-2.1755,432.4247],[38.5854,-2.175,438.4471],[38.5778,-2.1765,440.0553],[38.5577,-2.1716,447.1227],[38.5483,-2.1738,449.4553],[38.5436,-2.1723,452.1899],[38.5329,-2.1611,463.0803],[38.5278,-2.1595,461.7544],[38.528,-2.1561,463.8441],[38.5245,-2.153,464.7658],[38.52,-2.142,470.2288],[38.5128,-2.1342,478.4846],[38.5072,-2.1309,481.6328],[38.5183,-2.1102,497.7769],[38.5196,-2.1059,496.4639],[38.519,-2.0985,495.1184],[38.5207,-2.0961,496.1623],[38.5189,-2.0877,502.331],[38.5205,-2.0744,514.6326],[38.518,-2.0605,515.5071],[38.5188,-2.0466,513.1419],[38.5155,-2.0425,518.2157],[38.513,-2.0277,524.7804],[38.5073,-2.0259,527.4062],[38.5056,-2.0235,526.6169],[38.4974,-2.0231,531.2386],[38.3859,-1.9276,700.3282],[38.3456,-1.8779,1043.2429],[38.3245,-1.8772,951.6716],[38.3173,-1.8885,847.4432],[38.3149,-1.8977,917.6634],[38.266,-1.8891,879.21],[38.2565,-1.896,828.4747],[38.2592,-1.9095,818.8619],[38.2659,-1.92,802.3186],[38.263,-1.9237,800.5136],[38.2596,-1.9246,797.7864],[38.2606,-1.9273,791.9174],[38.2548,-1.9312,785.9869],[38.2535,-1.9359,776.9506],[38.257,-1.9383,774.1472],[38.2604,-1.9441,773.4024],[38.258,-1.9512,761.4338],[38.2627,-1.9606,751.5496],[38.2629,-1.9662,746.478],[38.2659,-1.9676,748.9913],[38.2647,-1.969,733.6366],[38.2667,-1.9734,733.2318],[38.2642,-1.9738,741.7763],[38.2638,-1.9766,724.0188],[38.2618,-1.9777,734.3647],[38.2589,-1.9771,732.7321],[38.2595,-1.9803,712.9545],[38.2559,-1.9808,708.0287],[38.2496,-1.9848,701.0583],[38.25,-1.9901,682.9074],[38.2472,-1.9945,678.9415],[38.2514,-2.0031,671.0689],[38.2561,-2.0033,667.5663],[38.2579,-2.0059,666.0928],[38.2611,-2.0062,671.3765],[38.2612,-2.0092,661.7324],[38.2646,-2.0118,659.7374],[38.2661,-2.0186,653.5691],[38.2652,-2.0197,653.4716],[38.2702,-2.0229,652.0309],[38.2742,-2.0231,648.2664],[38.2766,-2.0304,642.8108],[38.2789,-2.0316,640.1721],[38.2792,-2.0368,635.0917],[38.282,-2.0421,630.4507],[38.2796,-2.0489,630.9542],[38.2827,-2.0546,626.215],[38.2857,-2.0673,617.6718],[38.2892,-2.0683,615.0795],[38.2899,-2.0707,613.4099],[38.297,-2.0748,609.2281],[38.3,-2.0855,602.2762],[38.3072,-2.0886,598.9122],[38.3071,-2.0913,600.2253],[38.3125,-2.0994,598.0323],[38.3117,-2.1018,594.2774],[38.3188,-2.111,587.5203],[38.3268,-2.1164,580.8],[38.3344,-2.117,578.7084],[38.3392,-2.1262,572.3317],[38.3462,-2.1342,569.6574],[38.3582,-2.1401,567.5632],[38.361,-2.1439,562.7798],[38.3629,-2.1512,555.6655],[38.3735,-2.1601,548.1171],[38.3803,-2.1734,541.4153],[38.3861,-2.1778,538.3276],[38.3901,-2.1781,536.5686],[38.3936,-2.1833,544.3327],[38.3963,-2.1926,555.4404],[38.4001,-2.1901,546.9434],[38.4029,-2.1916,540.8354],[38.416,-2.2009,532.5797],[38.4238,-2.2115,537.2177],[38.4369,-2.2206,533.479],[38.4528,-2.2415,515.6605],[38.4551,-2.2508,508.0736],[38.4546,-2.2548,501.4278],[38.4627,-2.2679,489.782],[38.4773,-2.2693,482.7783],[38.4852,-2.2783,474.6221],[38.4895,-2.2805,470.5185],[38.5056,-2.2782,463.0135],[38.5089,-2.2805,461.1774],[38.5128,-2.2884,454.3499],[38.5271,-2.2898,459.0049],[38.5427,-2.2954,449.8143],[38.5483,-2.2952,451.489],[38.5544,-2.3015,450.3765],[38.5676,-2.3097,438.5664],[38.5773,-2.3185,430.9551],[38.5884,-2.3196,420.2415],[38.5944,-2.3241,410.6612],[38.6322,-2.3312,392.077],[38.6677,-2.3503,372.6425],[38.6731,-2.3494,373.0799],[38.6794,-2.3514,368.7104],[38.6885,-2.3516,365.9794],[38.6974,-2.3495,361.6199],[38.7005,-2.3509,360.6606]]]]}
,"properties": {"GID_3": "KEN.18.4.4_1","GID_0": "KEN","country": "Kenya","GID_1": "KEN.18_1","province": "Kitui","NL_NAME_1": "NA","GID_2": "KEN.18.4_1","county": "KituiSouth","NL_NAME_2": "NA","city": "Kanziko","VARNAME_3": "NA","NL_NAME_3": "NA","TYPE_3": "Ward","ENGTYPE_3": "Ward","CC_3": "369","HASC_3": "NA","name": "Kanziko.city","area_km2": 1021.1206,"hist_schema_id": "Elevation0-9000","hist_area_km2": {"350": 0.3601,"375": 18.1976,"400": 54.4037,"425": 82.0527,"450": 83.6003,"475": 90.6991,"500": 91.3796,"525": 108.2269,"550": 76.7226,"575": 68.1845,"600": 67.592,"625": 62.7408,"650": 51.8926,"675": 48.6722,"700": 35.5775,"725": 24.0081,"750": 16.9095,"775": 12.1207,"800": 7.7556,"825": 5.4034,"850": 2.564,"875": 2.013,"900": 1.674,"925": 1.6528,"950": 1.1019,"975": 1.1443,"1000": 0.9112,"1025": 0.5086,"1050": 0.445,"1075": 0.4026,"1100": 0.5721,"1125": 0.4026,"1150": 0.3814,"1175": 0.3602,"1200": 0.1907,"1225": 0.0636,"1250": 0.106,"1275": 0.0848,"1300": 0.0424}}}