{"type": "Feature","bbox": [37.274,-0.5594,37.7356,0.2331],"geometry": {"type": "MultiPolygon","coordinates": [[[[37.4245,-0.4795,1512.4113],[37.427,-0.4704,1563.1666],[37.4256,-0.4689,1578.2839],[37.4269,-0.4624,1612.2097],[37.4287,-0.4605,1579.4348],[37.4263,-0.4588,1619.7815],[37.4281,-0.4412,1665.4166],[37.4256,-0.4418,1641.9934],[37.4226,-0.4395,1652.34],[37.4224,-0.4365,1675.8145],[37.4245,-0.4354,1690.7654],[37.4232,-0.4336,1696.4204],[37.4252,-0.4331,1696.4204],[37.424,-0.4305,1708.4921],[37.4259,-0.4297,1689.3529],[37.4263,-0.4273,1675.4875],[37.4245,-0.4208,1720.9817],[37.4251,-0.4171,1739.5187],[37.3078,-0.1457,4597.0439],[37.274,-0.4087,1987.0891],[37.2769,-0.4218,1901.7723],[37.2808,-0.4276,1880.6204],[37.2861,-0.431,1841.6909],[37.2885,-0.4366,1821.2721],[37.2877,-0.4407,1799.0881],[37.2854,-0.4435,1780.7799],[37.2864,-0.4461,1761.0891],[37.2851,-0.4465,1761.79],[37.2859,-0.45,1719.0927],[37.2914,-0.4571,1693.8],[37.2904,-0.4618,1665.8037],[37.2921,-0.4644,1646.752],[37.2932,-0.4735,1619.2178],[37.2912,-0.4853,1592.4333],[37.2971,-0.4878,1565.4604],[37.3036,-0.4977,1485.5115],[37.3029,-0.5028,1468.7332],[37.3068,-0.5123,1454.2278],[37.3055,-0.5167,1414.851],[37.3079,-0.5198,1390.0229],[37.3067,-0.5246,1395.3184],[37.3117,-0.5242,1421.4474],[37.3114,-0.5287,1390.8502],[37.3144,-0.5375,1368.1746],[37.3195,-0.5397,1361.3468],[37.3215,-0.5433,1323.5222],[37.3209,-0.5453,1322.3379],[37.3243,-0.5473,1338.7847],[37.3224,-0.5576,1298.7227],[37.3246,-0.5594,1290.6458],[37.326,-0.558,1290.6458],[37.3281,-0.5587,1303.8691],[37.3394,-0.5539,1335.3672],[37.3498,-0.5516,1345.6833],[37.3722,-0.5515,1353.4962],[37.3782,-0.5453,1349.1216],[37.3784,-0.5488,1339.9058],[37.3745,-0.5524,1330.1346],[37.3738,-0.5551,1326.6488],[37.3921,-0.5489,1361.4698],[37.4147,-0.5488,1353.7456],[37.4301,-0.5377,1390.0043],[37.4384,-0.54,1364.3733],[37.4449,-0.5382,1361.1781],[37.4478,-0.539,1318.9966],[37.4455,-0.5341,1369.6521],[37.4457,-0.5292,1332.8099],[37.4372,-0.5207,1435.5605],[37.4336,-0.5195,1413.9187],[37.4271,-0.5095,1481.91],[37.4254,-0.5029,1493.4417],[37.427,-0.4996,1491.3469],[37.4255,-0.4976,1491.5978],[37.4304,-0.4944,1503.8407],[37.425,-0.4861,1511.3116],[37.4245,-0.4795,1512.4113]]],
[[[37.6101,-0.3215,1561.1642],[37.6039,-0.3197,1589.3655],[37.3221,-0.1577,4749.0586],[37.6079,-0.3372,1555.09],[37.6093,-0.3404,1535.2312],[37.6261,-0.3514,1475.9045],[37.6321,-0.3521,1454.5278],[37.6355,-0.3493,1445.5259],[37.6376,-0.3494,1443.4385],[37.6469,-0.3543,1431.7267],[37.6477,-0.3582,1408.9824],[37.6533,-0.3615,1404.2971],[37.6567,-0.3599,1382.8843],[37.6675,-0.3601,1348.129],[37.6709,-0.3615,1346.2559],[37.6715,-0.3723,1363.4541],[37.6741,-0.3773,1355.6772],[37.6781,-0.3774,1337.4714],[37.6849,-0.3804,1300.8123],[37.7071,-0.3979,1186.7936],[37.7089,-0.4017,1170.7407],[37.7079,-0.4066,1164.7585],[37.7103,-0.4097,1148.0801],[37.7165,-0.4119,1123.5616],[37.7213,-0.4115,1103.7834],[37.7255,-0.4032,1060.7778],[37.7356,-0.3971,1060.5835],[37.7303,-0.395,1008.411],[37.7267,-0.3832,1071.6429],[37.7201,-0.3768,1136.231],[37.7107,-0.3628,1206.6136],[37.7038,-0.3592,1197.0251],[37.7033,-0.3551,1215.7844],[37.7053,-0.3479,1225.5415],[37.6919,-0.3416,1267.4261],[37.6745,-0.3425,1355.9194],[37.6691,-0.3397,1338.6547],[37.6711,-0.3384,1375.502],[37.6685,-0.3392,1374.1095],[37.6529,-0.3338,1399.2239],[37.6473,-0.3354,1424.0966],[37.6241,-0.3238,1518.7769],[37.6163,-0.3249,1516.2544],[37.6101,-0.3215,1561.1642]]],
[[[37.563,0.0691,2121.7957],[37.5573,0.0727,2154.0652],[37.5555,0.0757,2177.1765],[37.5549,0.0745,2170.2549],[37.5574,0.0725,2154.0652],[37.5649,0.0677,2104.8008],[37.563,0.0691,2121.7957]]],
[[[37.5528,0.1216,2028.7937],[37.5526,0.1213,2028.0946],[37.5524,0.1206,2028.0946],[37.5527,0.1214,2028.0946],[37.5528,0.1216,2028.7937]]],
[[[37.5516,0.1429,1945.4648],[37.5509,0.1444,1954.1428],[37.5553,0.1342,2008.967],[37.5537,0.1383,1953.6257],[37.5516,0.1429,1945.4648]]],
[[[37.55,0.1458,1993.7605],[37.5507,0.1447,1981.637],[37.5509,0.1444,1954.1428],[37.5495,0.147,1993.7605],[37.55,0.1458,1993.7605]]],
[[[37.5489,0.1482,1974.1454],[37.549,0.1478,1974.1454],[37.5492,0.1476,1974.1454],[37.549,0.148,1974.1454],[37.5489,0.1482,1974.1454]]],
[[[37.5387,0.1579,1890.1636],[37.5369,0.1557,1897.3209],[37.5373,0.1545,1904.469],[37.5374,0.1547,1904.469],[37.5387,0.1579,1890.1636]]],
[[[37.4961,0.1733,1795.7776],[37.4957,0.1741,1788.046],[37.4955,0.1705,1803.814],[37.4959,0.1722,1795.7776],[37.4961,0.1733,1795.7776]]],
[[[37.4899,0.1983,1721.8263],[37.4899,0.1982,1721.8263],[37.49,0.1986,1721.8263],[37.4899,0.1983,1721.8263]]],
[[[37.5308,0.2137,1615.7998],[37.5309,0.2137,1615.7998],[37.5277,0.2151,1617.3574],[37.5304,0.2137,1615.7998],[37.5308,0.2137,1615.7998]]],
[[[37.4963,0.2172,1663.9277],[37.4955,0.2161,1666.3566],[37.4959,0.2165,1666.3566],[37.4963,0.2172,1663.9277]]],
[[[37.5121,0.227,1605.4725],[37.5129,0.2275,1603.0686],[37.5097,0.2261,1612.8826],[37.5111,0.2265,1612.8826],[37.5121,0.227,1605.4725]]],
[[[37.5148,0.2314,1582.0621],[37.5149,0.2315,1582.0621],[37.5137,0.2331,1575.7616],[37.5146,0.2307,1582.0621],[37.5148,0.2314,1582.0621]]],
[[[37.52735,0.2153,1617.3574],[37.5275,0.2152,1617.3574],[37.5277,0.2151,1617.3574],[37.52735,0.2153,1617.3574]]],
[[[37.52735,0.2153,1617.3574],[37.5272,0.2154,1617.3574],[37.527,0.2155,1612.975],[37.52735,0.2153,1617.3574]]]]}
,"properties": {"GID_2": "KEN.15.1_1","GID_0": "KEN","country": "Kenya","GID_1": "KEN.15_1","province": "Kirinyaga","NL_NAME_1": "NA","county": "Gichugu","VARNAME_2": "NA","NL_NAME_2": "NA","TYPE_2": "Constituency","ENGTYPE_2": "Constituency","CC_2": "101","HASC_2": "NA","name": "Gichugu.county","area_km2": 543.9506,"hist_schema_id": "Elevation0-9000","hist_area_km2": {"1000": 0.1484,"1025": 0.424,"1050": 0.3604,"1075": 0.5724,"1100": 1.4841,"1125": 2.4382,"1150": 2.2474,"1175": 1.9082,"1200": 2.099,"1225": 2.6502,"1250": 2.6926,"1275": 3.3923,"1300": 3.6467,"1325": 4.9824,"1350": 11.0035,"1375": 18.4664,"1400": 19.5477,"1425": 15.0742,"1450": 12.318,"1475": 14.3746,"1500": 17.5336,"1525": 16.516,"1550": 14.7351,"1575": 12.8057,"1600": 13.3782,"1625": 13.8446,"1650": 13.251,"1675": 13.357,"1700": 11.6185,"1725": 9.9224,"1750": 8.2898,"1775": 7.357,"1800": 7.781,"1825": 6.8905,"1850": 7.1026,"1875": 8.5019,"1900": 8.6079,"1925": 8.3747,"1950": 9.244,"1975": 7.9719,"2000": 8.0355,"2025": 9.456,"2050": 8.0143,"2075": 6.7846,"2100": 6.2757,"2125": 5.5125,"2150": 6.2333,"2175": 4.9612,"2200": 5.9153,"2225": 5.1944,"2250": 5.4913,"2275": 4.5796,"2300": 5.1733,"2325": 4.728,"2350": 3.986,"2375": 3.9223,"2400": 4.1556,"2425": 3.7951,"2450": 3.0531,"2475": 3.1167,"2500": 3.0955,"2525": 3.1379,"2550": 3.0743,"2575": 3.0743,"2600": 3.6679,"2625": 3.1591,"2650": 2.3958,"2675": 2.3322,"2700": 2.6078,"2725": 2.4382,"2750": 2.7987,"2775": 2.4806,"2800": 2.2262,"2825": 1.9718,"2850": 1.8022,"2875": 1.6538,"2900": 1.4629,"2925": 1.8658,"2950": 1.6538,"2975": 1.3357,"3000": 1.4841,"3025": 1.5265,"3050": 1.7174,"3075": 1.3781,"3100": 1.1873,"3125": 1.2509,"3150": 1.2509,"3175": 1.2297,"3200": 1.4417,"3225": 1.1237,"3250": 1.0389,"3275": 0.9329,"3300": 0.7633,"3325": 0.7845,"3350": 1.0601,"3375": 1.0389,"3400": 0.8269,"3425": 0.7845,"3450": 0.9965,"3475": 0.8905,"3500": 0.8269,"3525": 0.8905,"3550": 0.8481,"3575": 0.8057,"3600": 0.8481,"3625": 0.7209,"3650": 0.9117,"3675": 0.8057,"3700": 0.7633,"3725": 0.7421,"3750": 0.6573,"3775": 0.8057,"3800": 0.8269,"3825": 0.8693,"3850": 0.7209,"3875": 0.5725,"3900": 0.7633,"3925": 0.5725,"3950": 0.4876,"3975": 0.4028,"4000": 0.4664,"4025": 0.5513,"4050": 0.8057,"4075": 0.8905,"4100": 0.7845,"4125": 0.7633,"4150": 0.5513,"4175": 0.4452,"4200": 0.3604,"4225": 0.3604,"4250": 0.4028,"4275": 0.6997,"4300": 0.4876,"4325": 0.2968,"4350": 0.2756,"4375": 0.4028,"4400": 0.2968,"4425": 0.2756,"4450": 0.2968,"4475": 0.3816,"4500": 0.4028,"4525": 0.2544,"4550": 0.3604,"4575": 0.2968,"4600": 0.2544,"4625": 0.2544,"4650": 0.2968,"4675": 0.1272,"4700": 0.1272,"4725": 0.106,"4750": 0.1696,"4775": 0.1272,"4800": 0.0424,"4850": 0.0424,"4875": 0.0424,"4950": 0.0424,"4975": 0.0212,"5000": 0.0212,"5025": 0.0212,"5075": 0.0424,"5125": 0.0212}}}