{"type":"Feature","properties":{"GID_3":"KEN.28.2.1_1","GID_0":"KEN","country":"Kenya","GID_1":"KEN.28_1","province":"Mombasa","NL_NAME_1":"NA","GID_2":"KEN.28.2_1","county":"Jomvu","NL_NAME_2":"NA","city":"JomvuKuu","VARNAME_3":"NA","NL_NAME_3":"NA","TYPE_3":"Ward","ENGTYPE_3":"Ward","CC_3":"6","HASC_3":"NA","name":"Jomvu_Kuu.city"},
"geometry":{"type": "MultiPolygon","coordinates": [[[[39.6039,-3.9522,11.875],[39.6033,-3.9531,18.4564],[39.5995,-3.9499,26.5006],[39.5837,-3.9654,71.1387],[39.5827,-3.9699,78.3239],[39.5693,-3.975,45.6807],[39.5689,-3.9795,36.2214],[39.5751,-3.9842,39.0859],[39.5688,-3.9908,51.9749],[39.5739,-3.9953,66.9145],[39.5748,-4.001,48.2795],[39.5835,-4.0065,64.3323],[39.6025,-4.0051,50.1614],[39.6069,-4.0064,46.2283],[39.6077,-4.0021,33.8523],[39.6147,-3.9986,23.4615],[39.6215,-3.9975,23.0857],[39.6246,-3.9947,13.1641],[39.6264,-3.9882,1.608],[39.6123,-3.9813,1.2179],[39.6142,-3.9691,1.4752],[39.6038,-3.9643,21.9116],[39.6088,-3.957,3.2099],[39.6039,-3.9522,11.875]]]]}}