{"type":"Feature","properties":{"GID_2":"KEN.26.5_1","GID_0":"KEN","country":"Kenya","GID_1":"KEN.26_1","province":"Meru","NL_NAME_1":"NA","county":"IgembeSouth","VARNAME_2":"NA","NL_NAME_2":"NA","TYPE_2":"Constituency","ENGTYPE_2":"Constituency","CC_2":"51","HASC_2":"NA","name":"Igembe_South.county"},
"geometry":{"type": "MultiPolygon","coordinates": [[[[38.3247,0.0827,462.4661],[38.3251,0.0887,467.5775],[38.3187,0.0955,477.5285],[38.3153,0.1037,480.7356],[38.3061,0.1031,485.7357],[38.3015,0.1099,491.6603],[38.2961,0.1123,497.9403],[38.2833,0.1277,519.5073],[38.2753,0.1289,526.3693],[38.2661,0.1265,525.671],[38.2611,0.1291,534.8263],[38.2569,0.1267,535.3447],[38.2489,0.1265,538.3943],[38.2421,0.1287,546.1017],[38.2339,0.1229,545.9624],[38.2329,0.1197,549.2109],[38.2169,0.1209,559.0463],[38.2071,0.1347,571.007],[38.2005,0.1471,582.4525],[38.2009,0.1499,582.4701],[38.1897,0.1579,596.2725],[38.1795,0.1571,613.8035],[38.1727,0.1587,615.0963],[38.1687,0.1631,621.1576],[38.1483,0.1683,638.0442],[38.1405,0.1737,645.2272],[38.1265,0.1711,667.3477],[38.1157,0.1747,685.616],[38.1089,0.1807,695.2358],[38.0929,0.1827,705.3867],[38.0845,0.1881,723.5591],[38.0763,0.1901,747.0868],[38.0683,0.1879,752.0227],[38.0551,0.1925,798.4225],[38.0477,0.1931,820.6022],[38.0389,0.1985,833.963],[38.0297,0.2139,880.6271],[38.0243,0.2155,889.3542],[38.0109,0.2297,957.1337],[38.0051,0.2327,993.2726],[37.9839,0.2201,1428.2964],[37.9811,0.2209,1414.1763],[37.9784,0.2308,1368.5039],[37.9794,0.2382,1275.1162],[37.9735,0.2397,1394.7118],[37.9659,0.2475,1483.1293],[37.9644,0.2561,1467.4401],[37.9488,0.257,1646.1947],[37.9415,0.2543,1620.6647],[37.9377,0.2549,1666.2382],[37.9367,0.2581,1641.4525],[37.9343,0.2551,1748.1008],[37.9279,0.2567,1833.6678],[37.9235,0.2527,1761.498],[37.9212,0.2526,1782.3486],[37.9145,0.2591,1976.7205],[37.9069,0.2539,2128.0173],[37.9011,0.2611,2013.7908],[37.9013,0.2563,2068.3081],[37.8931,0.2449,2102.0425],[37.8948,0.2425,2142.2048],[37.9027,0.2402,1985.8407],[37.9041,0.2367,1968.832],[37.9123,0.2321,1860.0371],[37.9097,0.2239,1930.3451],[37.9073,0.2249,2013.6632],[37.9029,0.2233,2002.5354],[37.9033,0.2189,1887.697],[37.9061,0.2175,1865.4995],[37.9055,0.2129,1803.3497],[37.9097,0.2101,1718.3086],[37.9055,0.2115,1788.8651],[37.9037,0.1999,1729.162],[37.9005,0.1961,1740.6259],[37.9107,0.1941,1612.4524],[37.9157,0.1905,1606.7745],[37.9157,0.1857,1771.3525],[37.9133,0.1853,1879.4487],[37.9119,0.1816,1746.4988],[37.9153,0.1493,1659.7996],[37.9171,0.1453,1537.519],[37.9199,0.1421,1516.5739],[37.9273,0.1389,1386.97],[37.9399,0.1263,1060.6042],[37.9499,0.1187,1133.9679],[37.9684,0.1094,970.172],[37.9773,0.0897,833.4561],[37.9815,0.0676,754.9462],[37.9875,0.0657,742.768],[37.9949,0.0677,739.5056],[37.9983,0.0669,736.2078],[38.0023,0.0631,735.7766],[38.0095,0.063,735.35],[38.0183,0.0589,720.7855],[38.0205,0.0535,711.8012],[38.0269,0.0517,709.0043],[38.0335,0.0433,705.9728],[38.0343,0.0375,692.9534],[38.0437,0.0275,684.6093],[38.0463,0.0283,687.4536],[38.0491,0.0265,676.3834],[38.0517,0.0283,672.9629],[38.0595,0.0243,665.1326],[38.0625,0.0269,663.1213],[38.0697,0.0245,658.7828],[38.0733,0.0281,656.3662],[38.0725,0.0305,654.4404],[38.0741,0.0317,652.5707],[38.0813,0.0287,649.7087],[38.0837,0.0301,636.0253],[38.0889,0.0417,626.038],[38.0939,0.0443,617.4706],[38.0961,0.0477,603.0165],[38.0989,0.0486,606.9523],[38.1051,0.0475,595.1547],[38.1113,0.0541,589.863],[38.1147,0.0545,583.5051],[38.1195,0.0493,576.7345],[38.1282,0.0507,555.1821],[38.1377,0.0477,557.4683],[38.1597,0.0287,532.9645],[38.1759,0.0241,527.9171],[38.1831,0.0181,520.0004],[38.1917,0.0143,509.2572],[38.2046,0.0172,500.8404],[38.2085,0.0167,501.4502],[38.2121,0.0135,490.3502],[38.2179,0.0133,487.6364],[38.2223,0.0095,481.4182],[38.2211,0.0051,475.1501],[38.2281,0.0026,473.2433],[38.2307,-0.0097,461.5181],[38.2373,-0.0115,454.8172],[38.2379,-0.0151,449.7276],[38.2433,-0.0195,448.8423],[38.2461,-0.0215,439.5886],[38.2505,-0.0174,428.2228],[38.2641,-0.0184,415.01],[38.2695,-0.0218,403.9166],[38.2821,-0.0244,387.2974],[38.2869,-0.027,381.118],[38.2915,-0.0364,381.958],[38.2965,-0.0392,373.5349],[38.2977,-0.0424,372.9816],[38.3019,-0.0452,363.6459],[38.3027,-0.0476,363.6641],[38.3003,-0.0522,357.9342],[38.3047,-0.0546,357.7527],[38.3126,-0.0519,362.3812],[38.3277,-0.0676,354.2539],[38.3311,-0.0683,355.7665],[38.339,-0.0624,352.1811],[38.3485,-0.0639,348.7057],[38.3683,-0.079,349.3765],[38.377,-0.0814,344.5935],[38.3805,-0.0865,341.0],[38.3833,-0.0872,344.6911],[38.3887,-0.0833,342.2346],[38.3923,-0.0742,342.0739],[38.3959,-0.0737,342.5378],[38.4033,-0.0762,348.0912],[38.4145,-0.0739,336.0355],[38.4193,-0.0689,338.7437],[38.4107,-0.0637,335.4671],[38.4119,-0.0599,340.6875],[38.4105,-0.0575,343.1794],[38.4131,-0.0514,341.3253],[38.4103,-0.0509,341.2094],[38.4109,-0.0478,344.7954],[38.4065,-0.0436,343.6541],[38.4055,-0.0292,351.032],[38.4001,-0.0236,357.1967],[38.4011,-0.017,353.0609],[38.3939,-0.0134,358.6311],[38.3939,-0.0099,358.5984],[38.3873,-0.0053,366.5062],[38.3801,-0.0032,374.1136],[38.3763,0.0049,384.9949],[38.3697,0.0067,392.9441],[38.3659,0.0137,404.1644],[38.3565,0.0203,420.6059],[38.3535,0.0305,426.7793],[38.3575,0.0369,430.6248],[38.3487,0.0431,435.8916],[38.3451,0.0433,434.9527],[38.3441,0.0465,442.1236],[38.3465,0.0505,440.5957],[38.3457,0.0539,444.2746],[38.3491,0.0594,446.2049],[38.3469,0.0613,447.2601],[38.3381,0.0625,453.2012],[38.3405,0.0653,449.7806],[38.3393,0.0681,454.3789],[38.3249,0.0745,459.3342],[38.3231,0.0789,465.0814],[38.3247,0.0827,462.4661]]]]}}