{"type":"Feature","properties":{"GID_3":"KEN.32.4.6_1","GID_0":"KEN","country":"Kenya","GID_1":"KEN.32_1","province":"Nandi","NL_NAME_1":"NA","GID_2":"KEN.32.4_1","county":"Mosop","NL_NAME_2":"NA","city":"Ndalat","VARNAME_3":"NA","NL_NAME_3":"NA","TYPE_3":"Ward","ENGTYPE_3":"Ward","CC_3":"778","HASC_3":"NA","name":"Ndalat.city"},
"geometry":{"type": "MultiPolygon","coordinates": [[[[35.1419,0.4776,1970.766],[35.1515,0.4895,1967.0398],[35.1582,0.5058,1905.8087],[35.158,0.5094,1904.1926],[35.1598,0.5094,1917.9088],[35.1667,0.5517,1938.157],[35.1633,0.5506,1947.4526],[35.1634,0.5485,1942.7911],[35.1567,0.5436,1939.2109],[35.1501,0.5426,1887.5015],[35.149,0.5442,1887.4775],[35.1484,0.5429,1885.1313],[35.1449,0.5438,1937.1653],[35.1437,0.5418,1888.4958],[35.1421,0.5426,1901.2623],[35.1408,0.5411,1890.8683],[35.1359,0.5436,1876.5667],[35.1332,0.5478,1873.7969],[35.1296,0.5473,1869.0967],[35.1264,0.5504,1904.2725],[35.1221,0.5496,1892.8402],[35.1093,0.5541,1870.8159],[35.1046,0.5616,1884.3174],[35.0996,0.5446,2051.8599],[35.0727,0.5556,1879.959],[35.0485,0.4787,1856.6604],[35.0515,0.4732,1876.1553],[35.051,0.4654,1864.8219],[35.0537,0.4654,1876.0876],[35.0551,0.4625,1890.7188],[35.0566,0.4669,1875.3271],[35.0628,0.4666,1875.3063],[35.06,0.473,1906.4867],[35.0647,0.4763,1916.4362],[35.0682,0.4857,1847.3485],[35.0682,0.4901,1849.1387],[35.0702,0.493,1875.6051],[35.0755,0.4859,1854.6857],[35.079,0.4856,1866.6328],[35.084,0.4824,1878.0403],[35.089,0.4835,1876.0745],[35.0971,0.4773,1874.6732],[35.1023,0.4802,1884.2423],[35.1142,0.5024,1952.2905],[35.1094,0.5084,1930.1768],[35.1024,0.5103,1926.7532],[35.1051,0.5166,1938.6167],[35.1041,0.5243,2045.3529],[35.1071,0.5268,1977.4817],[35.1133,0.5194,1958.2974],[35.1354,0.4761,1985.3925],[35.1419,0.4776,1970.766]]]]}}