{"type": "Feature","bbox": [36.842,-1.2651,36.8504,-1.2611],"geometry": {"type": "MultiPolygon","coordinates": [[[[36.8504,-1.2637,1625.4956],[36.8496,-1.2612,1644.6877],[36.842,-1.2611,1652.0953],[36.8431,-1.2651,1650.9524],[36.8504,-1.2637,1625.4956]]]]}
,"properties": {"GID_3": "KEN.30.13.5_1","GID_0": "KEN","country": "Kenya","GID_1": "KEN.30_1","province": "Nairobi","NL_NAME_1": "NA","GID_2": "KEN.30.13_1","county": "Mathare","NL_NAME_2": "NA","city": "MlangoKubwa","VARNAME_3": "NA","NL_NAME_3": "NA","TYPE_3": "Ward","ENGTYPE_3": "Ward","CC_3": "1449","HASC_3": "NA","name": "Mlango_Kubwa.city","area_km2": 0.2543647,"hist_schema_id": "Elevation0-9000","hist_area_km2": {"1625": 0.1483794,"1650": 0.1059853}}}