{"type": "Feature","bbox": [34.764,-0.8151,34.8355,-0.7478],"geometry": {"type": "MultiPolygon","coordinates": [[[[34.8355,-0.7927,1757.5782],[34.8013,-0.7617,1803.1581],[34.7816,-0.7478,1837.2107],[34.7773,-0.7559,1861.7489],[34.7694,-0.7577,1797.4258],[34.764,-0.7651,1830.1265],[34.7749,-0.7681,1955.6274],[34.7839,-0.7727,1909.3398],[34.788,-0.7785,1814.4364],[34.7948,-0.7834,1726.0891],[34.7947,-0.786,1721.2191],[34.7925,-0.7855,1731.0863],[34.7938,-0.7877,1708.4293],[34.7923,-0.7903,1707.5103],[34.7895,-0.7891,1732.7998],[34.7821,-0.7927,1706.5272],[34.779,-0.7916,1707.5593],[34.7781,-0.7933,1689.8328],[34.7749,-0.7896,1681.2322],[34.7732,-0.7904,1698.6188],[34.7719,-0.7887,1736.6084],[34.7664,-0.7917,1667.8888],[34.7688,-0.7961,1621.3215],[34.7731,-0.7974,1637.0682],[34.7822,-0.8082,1774.9965],[34.7867,-0.8095,1757.7084],[34.7954,-0.807,1738.2968],[34.8045,-0.8143,1773.3408],[34.8202,-0.8151,1818.1069],[34.8282,-0.8063,1796.3],[34.8271,-0.8017,1747.8988],[34.8197,-0.7937,1776.0721],[34.8222,-0.7928,1765.8574],[34.8315,-0.7942,1754.5659],[34.8355,-0.7927,1757.5782]]]]}
,"properties": {"GID_3": "KEN.16.1.3_1","GID_0": "KEN","country": "Kenya","GID_1": "KEN.16_1","province": "Kisii","NL_NAME_1": "NA","GID_2": "KEN.16.1_1","county": "Bobasi","NL_NAME_2": "NA","city": "BobasiBoitangare","VARNAME_3": "NA","NL_NAME_3": "NA","TYPE_3": "Ward","ENGTYPE_3": "Ward","CC_3": "1322","HASC_3": "NA","name": "Bobasi_Boitangare.city","area_km2": 27.98428,"hist_schema_id": "Elevation0-9000","hist_area_km2": {"1625": 0.2544,"1650": 0.53,"1675": 1.12361,"1700": 2.43802,"1725": 4.17643,"1750": 5.46964,"1775": 3.68883,"1800": 3.05283,"1825": 2.75604,"1850": 1.35682,"1875": 1.42042,"1900": 0.93281,"1925": 0.50881,"1950": 0.2544,"1975": 0.0212}}}