{"type":"Feature","properties":{"GID_3":"KEN.2.3.4_1","GID_0":"KEN","country":"Kenya","GID_1":"KEN.2_1","province":"Bomet","NL_NAME_1":"NA","GID_2":"KEN.2.3_1","county":"Chepalungu","NL_NAME_2":"NA","city":"Sigor","VARNAME_3":"NA","NL_NAME_3":"NA","TYPE_3":"Ward","ENGTYPE_3":"Ward","CC_3":"973","HASC_3":"NA","name":"Sigor.city"},
"geometry":{"type": "MultiPolygon","coordinates": [[[[35.3472,-0.9032,1843.9753],[35.3405,-0.894,1877.2649],[35.3276,-0.8874,2043.1129],[35.3223,-0.8796,2019.7715],[35.3115,-0.8858,1954.9116],[35.3117,-0.889,1926.2855],[35.3069,-0.8945,1933.1058],[35.3085,-0.898,1939.9856],[35.3073,-0.9011,1943.026],[35.3053,-0.8973,1953.0612],[35.3004,-0.8972,2088.2769],[35.2981,-0.8877,1925.6613],[35.3051,-0.872,1914.9587],[35.3132,-0.8708,1936.479],[35.3135,-0.859,1957.7559],[35.303,-0.8588,1894.8824],[35.2938,-0.8533,1902.9111],[35.2915,-0.8533,1901.5103],[35.2878,-0.86,1881.7954],[35.2819,-0.8651,1871.583],[35.2781,-0.8657,1861.4037],[35.2715,-0.8699,1838.9882],[35.2693,-0.8741,1846.8674],[35.2706,-0.8785,1829.7771],[35.2721,-0.8775,1832.2661],[35.2748,-0.8805,1841.1338],[35.2738,-0.8851,1824.3687],[35.2704,-0.8838,1829.4863],[35.2641,-0.8872,1839.8129],[35.2631,-0.8904,1830.9595],[35.2585,-0.8891,1833.6124],[35.2575,-0.8903,1835.7498],[35.2574,-0.8936,1827.1417],[35.2627,-0.895,1814.3384],[35.2623,-0.8976,1810.5009],[35.2594,-0.899,1806.9578],[35.2679,-0.905,1821.5959],[35.2646,-0.9053,1820.5654],[35.2625,-0.9077,1798.9713],[35.2614,-0.9068,1798.9713],[35.2604,-0.909,1817.2405],[35.2592,-0.9081,1817.2405],[35.2574,-0.9109,1823.2803],[35.2561,-0.9102,1824.272],[35.254,-0.913,1816.9111],[35.2525,-0.9127,1821.4275],[35.2505,-0.9157,1818.1362],[35.2465,-0.9158,1816.0544],[35.2452,-0.919,1798.0427],[35.2462,-0.9251,1783.8102],[35.2454,-0.9271,1782.4412],[35.242,-0.9269,1784.464],[35.2431,-0.9277,1784.464],[35.2414,-0.9368,1789.825],[35.2384,-0.9395,1802.7592],[35.2426,-0.9513,1784.2362],[35.2413,-0.9547,1761.688],[35.2435,-0.9573,1755.5508],[35.2457,-0.9571,1759.1697],[35.2467,-0.96,1773.3711],[35.2525,-0.9593,1772.5967],[35.2568,-0.9632,1758.9976],[35.2578,-0.9662,1753.2192],[35.2539,-0.9701,1749.8257],[35.2551,-0.9707,1745.0045],[35.2542,-0.9734,1744.6379],[35.257,-0.9777,1744.0667],[35.2558,-0.9793,1738.1912],[35.2597,-0.9816,1750.0541],[35.2614,-0.9895,1731.4836],[35.2708,-0.98,1751.53],[35.2732,-0.9749,1754.9524],[35.2725,-0.9728,1772.5339],[35.275,-0.9631,1786.1545],[35.2772,-0.9624,1801.1763],[35.2818,-0.9713,1791.4117],[35.2925,-0.9787,1744.5728],[35.2926,-0.9819,1739.802],[35.2896,-0.9833,1740.9902],[35.286,-0.9884,1742.2104],[35.2834,-0.9888,1754.9426],[35.2789,-0.9951,1757.0568],[35.2779,-0.9943,1764.9282],[35.2775,-0.9972,1743.6617],[35.2706,-1.0014,1733.8898],[35.2719,-1.0033,1722.2866],[35.2704,-1.0071,1715.2448],[35.2683,-1.0075,1724.1201],[35.2672,-1.0106,1716.728],[35.2642,-1.0113,1718.1135],[35.2619,-1.0156,1711.8524],[35.2647,-1.0148,1704.2778],[35.265,-1.0164,1701.7433],[35.2711,-1.0178,1709.7573],[35.2698,-1.0145,1705.7223],[35.2718,-1.0158,1708.183],[35.28,-1.0113,1708.9073],[35.282,-1.0076,1718.592],[35.2812,-1.0066,1718.592],[35.2845,-1.0087,1717.1592],[35.2864,-1.0058,1721.5592],[35.2889,-1.0069,1718.5531],[35.29,-1.0036,1721.5544],[35.2958,-1.0023,1721.4564],[35.2997,-0.9973,1736.3684],[35.3028,-0.9996,1727.5298],[35.3069,-0.9971,1723.7618],[35.3078,-0.9947,1735.1696],[35.3127,-0.9953,1719.6241],[35.3134,-0.9942,1724.9784],[35.311,-0.9917,1754.8191],[35.3112,-0.9899,1760.8573],[35.3125,-0.9909,1740.0054],[35.3156,-0.9898,1729.319],[35.3141,-0.9872,1754.5907],[35.3152,-0.985,1748.2045],[35.3177,-0.9851,1739.4878],[35.3196,-0.9834,1727.8148],[35.3191,-0.9819,1730.4725],[35.3219,-0.9832,1726.4772],[35.3239,-0.9804,1738.1084],[35.3275,-0.9809,1740.0233],[35.3298,-0.9779,1744.202],[35.3325,-0.9792,1725.8646],[35.3318,-0.9767,1736.767],[35.329,-0.9755,1747.5828],[35.3334,-0.9702,1756.2711],[35.3391,-0.9739,1744.9542],[35.3404,-0.9726,1751.7783],[35.3387,-0.9703,1755.0997],[35.3461,-0.9658,1754.7024],[35.3488,-0.9679,1751.8168],[35.3469,-0.9701,1748.1733],[35.3507,-0.9734,1742.9321],[35.3494,-0.9672,1746.6394],[35.3525,-0.9656,1752.8674],[35.3508,-0.9652,1749.8818],[35.3515,-0.9629,1755.1519],[35.35,-0.9624,1752.3982],[35.3512,-0.9606,1755.6218],[35.3478,-0.9567,1778.3538],[35.35,-0.9565,1761.9575],[35.3499,-0.954,1775.0345],[35.3482,-0.9521,1767.8865],[35.3472,-0.9397,1783.4989],[35.3449,-0.9345,1820.1366],[35.3469,-0.933,1809.351],[35.3496,-0.9258,1816.4867],[35.3478,-0.9236,1808.8458],[35.3475,-0.917,1818.9363],[35.3442,-0.9149,1824.1741],[35.3472,-0.9032,1843.9753]]]]}}