{"type":"Feature","properties":{"GID_3":"KEN.38.6.2_1","GID_0":"KEN","country":"Kenya","GID_1":"KEN.38_1","province":"Siaya","NL_NAME_1":"NA","GID_2":"KEN.38.6_1","county":"Ugunja","NL_NAME_2":"NA","city":"Sigomere","VARNAME_3":"NA","NL_NAME_3":"NA","TYPE_3":"Ward","ENGTYPE_3":"Ward","CC_3":"1161","HASC_3":"NA","name":"Sigomere.city"},
"geometry":{"type": "MultiPolygon","coordinates": [[[[34.3884,0.2787,1229.7695],[34.3836,0.2819,1241.5182],[34.3822,0.2759,1231.0266],[34.3791,0.2749,1225.448],[34.3748,0.2755,1225.5125],[34.3727,0.2791,1232.6432],[34.3698,0.2798,1234.2556],[34.3657,0.2768,1232.6188],[34.3664,0.2708,1218.6454],[34.3652,0.2684,1221.6292],[34.3545,0.2664,1227.9685],[34.3487,0.2618,1219.6393],[34.3463,0.2567,1221.2279],[34.3342,0.2569,1242.7644],[34.3303,0.2553,1230.7905],[34.3277,0.2273,1257.1038],[34.3358,0.2197,1270.9006],[34.3388,0.2142,1273.5438],[34.3451,0.2138,1271.009],[34.3474,0.2096,1292.9473],[34.3411,0.2047,1291.7168],[34.3368,0.2035,1278.8318],[34.3303,0.2045,1264.1082],[34.3207,0.2028,1250.9473],[34.32,0.1905,1255.1885],[34.3142,0.1874,1261.9771],[34.3128,0.1812,1243.2184],[34.3134,0.1656,1216.9285],[34.3227,0.1664,1215.8691],[34.3384,0.1727,1245.9194],[34.3405,0.175,1232.0751],[34.3422,0.1746,1229.4298],[34.3492,0.1797,1251.2087],[34.3554,0.1806,1261.569],[34.3651,0.1778,1264.9618],[34.3697,0.1797,1258.494],[34.3698,0.1816,1268.4824],[34.375,0.1819,1263.5435],[34.3753,0.1836,1268.0477],[34.3785,0.1851,1248.7742],[34.3847,0.1841,1265.8374],[34.3904,0.1974,1311.8063],[34.3899,0.2042,1298.4425],[34.3921,0.2115,1276.0063],[34.3905,0.2209,1255.2723],[34.3836,0.2328,1262.3621],[34.3976,0.2378,1277.4335],[34.3998,0.2441,1273.0747],[34.3976,0.248,1261.8704],[34.3975,0.254,1258.3723],[34.4009,0.2661,1241.2435],[34.3903,0.2748,1224.0956],[34.3884,0.2787,1229.7695]]]]}}