{"type":"Feature","properties":{"GID_3":"KEN.2.3.3_1","GID_0":"KEN","country":"Kenya","GID_1":"KEN.2_1","province":"Bomet","NL_NAME_1":"NA","GID_2":"KEN.2.3_1","county":"Chepalungu","NL_NAME_2":"NA","city":"Nyangores","VARNAME_3":"NA","NL_NAME_3":"NA","TYPE_3":"Ward","ENGTYPE_3":"Ward","CC_3":"972","HASC_3":"NA","name":"Nyangores.city"},
"geometry":{"type": "MultiPolygon","coordinates": [[[[35.2481,-0.7858,1952.8035],[35.2902,-0.8247,1885.1748],[35.2884,-0.826,1892.692],[35.2894,-0.8289,1882.192],[35.286,-0.8312,1895.4373],[35.287,-0.8369,1876.1671],[35.2828,-0.8372,1886.2001],[35.2829,-0.8404,1873.0317],[35.2777,-0.8464,1869.7087],[35.2794,-0.8491,1861.9857],[35.277,-0.8527,1855.4634],[35.277,-0.8572,1852.9729],[35.2706,-0.8618,1859.1241],[35.2726,-0.866,1848.6875],[35.2751,-0.8678,1845.5017],[35.2819,-0.8651,1871.583],[35.2878,-0.86,1881.7954],[35.2926,-0.853,1901.5103],[35.303,-0.8588,1894.8824],[35.3135,-0.859,1957.7559],[35.3132,-0.8708,1936.479],[35.3051,-0.872,1914.9587],[35.2981,-0.8877,1925.6613],[35.3004,-0.8972,2088.2769],[35.3053,-0.8973,1953.0612],[35.3073,-0.9011,1943.026],[35.3085,-0.898,1939.9856],[35.3069,-0.8945,1933.1058],[35.3117,-0.889,1926.2855],[35.3115,-0.8858,1954.9116],[35.3223,-0.8796,2019.7715],[35.3276,-0.8874,2043.1129],[35.3405,-0.894,1877.2649],[35.3472,-0.9032,1843.9753],[35.353,-0.8844,1859.0563],[35.3492,-0.871,1915.1107],[35.3538,-0.8661,2055.2358],[35.3605,-0.8538,2157.0525],[35.3631,-0.8377,1971.5121],[35.3623,-0.8322,1968.2521],[35.3546,-0.821,1988.3413],[35.3521,-0.8071,2001.5488],[35.3623,-0.7962,1973.817],[35.371,-0.7809,2048.9219],[35.3661,-0.779,1992.1704],[35.3502,-0.7784,1920.2939],[35.351,-0.7809,1917.7467],[35.3489,-0.7807,1922.8297],[35.3471,-0.7831,1916.4739],[35.343,-0.7843,1948.1506],[35.3433,-0.7892,1909.9299],[35.3407,-0.7869,1938.3829],[35.3406,-0.7907,1928.1277],[35.3393,-0.791,1928.1277],[35.3383,-0.7891,1942.5413],[35.3333,-0.7932,1904.7168],[35.3337,-0.7898,1918.8635],[35.3319,-0.7881,1910.4551],[35.3277,-0.7764,1947.4874],[35.3304,-0.7715,1940.8108],[35.3102,-0.7509,1955.3464],[35.2858,-0.7733,1938.7185],[35.2481,-0.7858,1952.8035]]]]}}