{"type":"Feature","properties":{"GID_3":"KEN.26.4.4_1","GID_0":"KEN","country":"Kenya","GID_1":"KEN.26_1","province":"Meru","NL_NAME_1":"NA","GID_2":"KEN.26.4_1","county":"IgembeNorth","NL_NAME_2":"NA","city":"Naathu","VARNAME_3":"NA","NL_NAME_3":"NA","TYPE_3":"Ward","ENGTYPE_3":"Ward","CC_3":"264","HASC_3":"NA","name":"Naathu.city"},
"geometry":{"type": "MultiPolygon","coordinates": [[[[37.9025,0.5921,872.4823],[37.8999,0.5799,889.4356],[37.9011,0.5721,891.272],[37.8953,0.5629,911.7426],[37.8943,0.555,921.8819],[37.8941,0.5481,927.6735],[37.8972,0.5452,934.4575],[37.8983,0.5339,954.0695],[37.8969,0.5307,957.6692],[37.8991,0.5245,963.7748],[37.8995,0.5161,981.3781],[37.9093,0.5003,1030.9043],[37.9069,0.4885,1058.9833],[37.9125,0.4803,1083.0316],[37.9123,0.4717,1107.02],[37.9197,0.4569,1150.3484],[37.9201,0.4465,1191.1464],[37.9261,0.4357,1252.1552],[37.9265,0.4301,1291.485],[37.9298,0.4248,1325.5427],[37.9443,0.4127,1515.1737],[37.9255,0.3995,1463.2949],[37.9443,0.3745,1833.676],[37.9415,0.3679,1784.6799],[37.9479,0.3575,1780.1289],[37.9505,0.3607,1848.8982],[37.9631,0.3527,1765.9073],[37.9933,0.3741,1534.9822],[37.9871,0.3849,1575.6555],[37.9833,0.4043,1712.2408],[37.9733,0.4103,1693.2188],[37.9723,0.4131,1685.4365],[37.9621,0.4187,1586.6177],[37.9603,0.4207,1543.7373],[37.9599,0.4251,1502.1707],[37.9651,0.4379,1400.0498],[37.9749,0.4497,1365.1802],[37.9783,0.4601,1307.6705],[37.9961,0.4809,1225.0575],[37.9999,0.4981,1162.3671],[37.9977,0.5199,1069.9497],[37.9783,0.5599,949.6448],[37.9539,0.6207,847.0667],[37.9017,0.5967,870.434],[37.9025,0.5921,872.4823]]]]}}