{"type": "Feature","bbox": [34.4249,0.6048,34.5098,0.6957],"geometry": {"type": "MultiPolygon","coordinates": [[[[34.4402,0.6118,1303.6097],[34.4452,0.6119,1298.0175],[34.4499,0.6177,1325.8005],[34.4552,0.6162,1322.5959],[34.4558,0.6048,1298.7175],[34.4639,0.6101,1323.0664],[34.4678,0.611,1330.8005],[34.4754,0.6189,1388.9427],[34.4758,0.6228,1413.7971],[34.4807,0.6291,1421.2654],[34.4812,0.6329,1442.9136],[34.4897,0.6438,1470.3665],[34.493899999999996,0.6469,1460.437],[34.4985,0.6469,1501.8193],[34.5098,0.6508,1516.8678],[34.5077,0.6536,1489.6527],[34.5055,0.6636,1486.6145],[34.5004,0.6662,1451.2908],[34.5056,0.6726,1435.0153],[34.5076,0.6788,1410.3652],[34.5098,0.6803,1418.0894],[34.5079,0.6845,1412.5303],[34.4914,0.6943,1408.5793],[34.4806,0.6957,1397.2101],[34.4777,0.695,1380.3311],[34.4749,0.6912,1382.7241],[34.4732,0.6845,1374.0686],[34.4696,0.6808,1380.8694],[34.4592,0.6847,1366.3267],[34.4504,0.6907,1356.5149],[34.4443,0.6897,1345.8878],[34.4402,0.6858,1341.5078],[34.4371,0.6866,1335.2222],[34.4318,0.6842,1322.7535],[34.4282,0.6819,1312.8097],[34.4283,0.6799,1312.6709],[34.4249,0.6792,1327.4685],[34.4298,0.6473,1320.2441],[34.4402,0.6118,1303.6097]]]]}
,"properties": {"GID_3": "KEN.3.1.5_1","GID_0": "KEN","country": "Kenya","GID_1": "KEN.3_1","province": "Bungoma","NL_NAME_1": "NA","GID_2": "KEN.3.1_1","county": "Bumula","NL_NAME_2": "NA","city": "Siboti","VARNAME_3": "NA","NL_NAME_3": "NA","TYPE_3": "Ward","ENGTYPE_3": "Ward","CC_3": "1095","HASC_3": "NA","name": "Siboti.city","area_km2": 59.9135,"hist_schema_id": "Elevation0-9000","hist_area_km2": {"1300": 1.37806,"1325": 11.19404,"1350": 12.65689,"1375": 11.42722,"1400": 10.8548,"1425": 6.93267,"1450": 4.34617,"1475": 0.84803,"1500": 0.27561}}}