{"type": "Feature","bbox": [35.3729,1.9741,35.7262,2.5954],"geometry": {"type": "MultiPolygon","coordinates": [[[[35.3891,2.4352,651.8738],[35.3927,2.4313,652.1958],[35.3937,2.4255,647.0505],[35.3988,2.4219,655.2141],[35.3956,2.4113,651.0745],[35.3955,2.4056,655.9444],[35.3962,2.4027,652.3912],[35.4019,2.3988,657.8418],[35.3989,2.3919,655.7681],[35.3993,2.3858,658.5569],[35.4031,2.3814,657.3387],[35.4003,2.3739,665.0244],[35.4154,2.3551,662.1921],[35.4197,2.3418,664.0226],[35.4194,2.336,665.9177],[35.4145,2.3202,675.6206],[35.4201,2.3041,681.1639],[35.419,2.2874,674.3141],[35.415,2.282,677.0217],[35.4068,2.2782,678.5815],[35.4069,2.2667,682.7822],[35.4008,2.2578,693.2117],[35.4072,2.2549,683.0469],[35.4094,2.2482,685.1266],[35.407,2.2429,685.3943],[35.4071,2.232,688.5836],[35.4041,2.2245,692.1403],[35.41,2.2181,691.2074],[35.4096,2.2048,699.073],[35.4072,2.195,697.7882],[35.418,2.1861,699.2728],[35.422,2.1751,703.6211],[35.425,2.1584,703.2912],[35.4311,2.1504,705.3519],[35.4316,2.141,707.9409],[35.4345,2.1296,710.2212],[35.4386,2.1273,714.2545],[35.4437,2.1277,722.5307],[35.4504,2.1217,728.9808],[35.4638,2.1213,743.7312],[35.4754,2.1174,749.3527],[35.4956,2.0999,764.0352],[35.4957,2.0886,772.9535],[35.487,2.0779,782.516],[35.4904,2.0673,792.3205],[35.4907,2.0552,808.1031],[35.4953,2.0483,824.6108],[35.505,2.0438,801.8831],[35.5219,2.0393,782.2115],[35.5259,2.036,778.8341],[35.5222,2.0351,783.5584],[35.5282,2.0306,779.1696],[35.5497,2.0273,792.8568],[35.566,2.0222,810.4971],[35.5777,2.0137,828.2675],[35.6126,1.9941,873.6658],[35.6169,1.9923,875.8413],[35.624,1.9925,885.598],[35.6323,1.9809,897.4023],[35.6427,1.9742,907.0625],[35.6451,1.9741,910.5413],[35.6541,1.9823,923.2787],[35.6661,1.9777,942.1027],[35.6873,1.9769,962.4734],[35.6934,1.9819,984.1537],[35.7069,1.9988,992.3693],[35.6925,2.007,1009.2446],[35.6837,2.0166,999.0073],[35.682,2.0223,993.9402],[35.6835,2.0342,1009.2286],[35.6928,2.0511,1097.1388],[35.6998,2.0595,1118.8567],[35.7156,2.0731,1132.1167],[35.7237,2.0843,1140.2688],[35.7262,2.0973,1109.0234],[35.7248,2.1091,1111.9099],[35.7167,2.123,1107.7686],[35.7092,2.13,1213.564],[35.7009,2.1337,1176.0801],[35.6875,2.1318,925.2543],[35.682,2.1335,935.7086],[35.6754,2.1471,979.5695],[35.6708,2.1509,1081.2633],[35.6435,2.1476,1149.7056],[35.6369,2.152,1159.6604],[35.6361,2.1553,1155.0977],[35.6374,2.161,1303.9567],[35.6507,2.1754,1070.0303],[35.6563,2.1898,898.0447],[35.6666,2.2033,865.4802],[35.669,2.2129,858.0896],[35.6688,2.2191,878.8863],[35.6672,2.2239,902.9698],[35.6637,2.2276,924.4429],[35.6429,2.2409,906.7188],[35.625,2.2561,869.2482],[35.6197,2.2625,893.6189],[35.6157,2.2708,879.8467],[35.6104,2.2895,890.2146],[35.6048,2.2988,1029.067],[35.5781,2.3607,799.6327],[35.5525,2.3866,783.6636],[35.5509,2.4002,776.9032],[35.5532,2.4248,800.7468],[35.5574,2.4336,815.6171],[35.566,2.4423,822.6089],[35.5714,2.451,848.8355],[35.5683,2.4558,852.201],[35.5556,2.4669,848.2292],[35.5445,2.4816,836.4846],[35.5403,2.4897,819.2949],[35.5378,2.4998,817.3806],[35.5345,2.5359,826.0439],[35.5283,2.5494,821.3418],[35.5177,2.5597,819.9925],[35.4685,2.5772,810.61],[35.4647,2.5732,821.6987],[35.4488,2.564,820.6135],[35.443,2.5615,761.6731],[35.439,2.5618,710.7738],[35.4355,2.5738,689.2911],[35.431,2.5805,672.7938],[35.4269,2.5828,665.8623],[35.4178,2.5831,656.0274],[35.3952,2.5943,627.1388],[35.3841,2.5916,615.2881],[35.3766,2.5954,613.6126],[35.3729,2.5946,614.1964],[35.3768,2.5887,612.8775],[35.3754,2.5787,613.7177],[35.3807,2.5775,615.2266],[35.3801,2.5705,619.7965],[35.3861,2.5671,620.9626],[35.3825,2.561,624.9161],[35.3871,2.5562,623.3295],[35.3884,2.5417,622.7745],[35.3918,2.5362,623.064],[35.3909,2.5335,629.5923],[35.3863,2.5316,628.178],[35.3822,2.5178,628.6653],[35.3887,2.5166,631.8716],[35.3902,2.5143,628.8855],[35.3852,2.5088,629.7681],[35.3847,2.5058,629.6812],[35.3896,2.4987,630.0833],[35.3904,2.4939,630.6819],[35.398,2.4931,634.0604],[35.3998,2.4844,635.566],[35.3996,2.4818,634.9138],[35.395,2.4816,635.8297],[35.3916,2.4792,638.6412],[35.3936,2.4645,647.8638],[35.3861,2.4584,650.9045],[35.3878,2.4467,652.0262],[35.3939,2.4396,641.4919],[35.3934,2.4373,642.9786],[35.3891,2.4352,651.8738]]]]}
,"properties": {"GID_3": "KEN.43.5.3_1","GID_0": "KEN","country": "Kenya","GID_1": "KEN.43_1","province": "Turkana","NL_NAME_1": "NA","GID_2": "KEN.43.5_1","county": "TurkanaSouth","NL_NAME_2": "NA","city": "Katilu","VARNAME_3": "NA","NL_NAME_3": "NA","TYPE_3": "Ward","ENGTYPE_3": "Ward","CC_3": "634","HASC_3": "NA","name": "Katilu.city","area_km2": 1360.198,"hist_schema_id": "Elevation0-9000","hist_area_km2": {"600": 0.254,"625": 24.634,"650": 63.357,"675": 95.624,"700": 131.41,"725": 135.819,"750": 149.337,"775": 151.519,"800": 122.154,"825": 87.793,"850": 64.809,"875": 51.209,"900": 46.907,"925": 32.373,"950": 30.17,"975": 32.078,"1000": 27.989,"1025": 19.111,"1050": 14.259,"1075": 10.403,"1100": 9.492,"1125": 10.446,"1150": 10.53,"1175": 7.776,"1200": 5.551,"1225": 5.339,"1250": 4.259,"1275": 3.983,"1300": 3.793,"1325": 2.479,"1350": 1.568,"1375": 1.292,"1400": 1.144,"1425": 0.508,"1450": 0.572,"1475": 0.064,"1500": 0.106,"1525": 0.085}}}