{"type":"Feature","properties":{"GID_2":"KEN.30.16_1","GID_0":"KEN","country":"Kenya","GID_1":"KEN.30_1","province":"Nairobi","NL_NAME_1":"NA","county":"Starehe","VARNAME_2":"NA","NL_NAME_2":"NA","TYPE_2":"Constituency","ENGTYPE_2":"Constituency","CC_2":"289","HASC_2":"NA","name":"Starehe.county"},
"geometry":{"type": "MultiPolygon","coordinates": [[[[36.852,-1.3139,1635.3882],[36.8559,-1.3138,1635.418],[36.8606,-1.3093,1634.0269],[36.8562,-1.298,1641.7635],[36.8447,-1.2992,1652.5262],[36.8377,-1.2895,1653.717],[36.8402,-1.2898,1650.6536],[36.8399,-1.2866,1640.416],[36.8315,-1.2834,1657.4829],[36.8394,-1.2843,1647.4397],[36.8379,-1.2825,1657.4281],[36.8437,-1.2805,1652.7681],[36.8438,-1.2779,1652.5634],[36.8458,-1.2778,1651.2251],[36.8421,-1.262,1645.1676],[36.8369,-1.2618,1645.895],[36.8317,-1.2649,1659.3405],[36.8152,-1.2671,1688.0005],[36.8117,-1.2727,1693.4509],[36.8303,-1.3119,1658.3252],[36.84,-1.3185,1651.5917],[36.8473,-1.3169,1640.2391],[36.852,-1.3139,1635.3882]]]]}}