{"type": "Feature","bbox": [37.2527,0.5707,38.0799,1.4593],"geometry": {"type": "MultiPolygon","coordinates": [[[[37.5793,0.5782,857.7363],[37.5823,0.5807,854.6331],[37.5824,0.5928,862.0342],[37.5899,0.5928,857.4078],[37.5963,0.5967,854.1285],[37.6042,0.5956,850.6893],[37.618,0.6051,848.5228],[37.623,0.6031,846.3987],[37.6271,0.6054,886.9706],[37.6309,0.6015,897.9117],[37.6345,0.603,856.2585],[37.6367,0.6063,850.0281],[37.6369,0.6131,844.3047],[37.6428,0.6182,841.9487],[37.6421,0.6195,840.7578],[37.6379,0.6194,839.3961],[37.6393,0.6268,842.789],[37.6442,0.6271,844.2445],[37.6464,0.6327,842.9556],[37.6507,0.6367,852.5417],[37.6566,0.6364,842.0969],[37.6611,0.6388,845.6454],[37.6662,0.6386,838.5831],[37.6747,0.6463,841.5389],[37.6764,0.644,840.4532],[37.678,0.6471,836.3531],[37.6818,0.6474,819.3735],[37.6833,0.6508,812.0795],[37.6826,0.6556,819.8743],[37.6851,0.6618,818.0088],[37.692,0.669,819.5382],[37.6974,0.6683,809.3909],[37.7047,0.6724,801.4296],[37.7094,0.6723,807.6321],[37.7125,0.67,806.5784],[37.7145,0.6648,801.4866],[37.7259,0.6595,796.1289],[37.7304,0.6664,798.4745],[37.7359,0.6665,790.612],[37.7377,0.6706,789.5637],[37.741,0.6718,784.9744],[37.7446,0.6792,796.6178],[37.7501,0.6815,876.4676],[37.7595,0.6768,788.04],[37.7688,0.6784,799.5586],[37.7767,0.6822,871.2375],[37.7845,0.6818,972.7471],[37.7928,0.676,831.6157],[37.8022,0.6804,888.1506],[37.8161,0.6807,787.1378],[37.8226,0.6843,783.3306],[37.8343,0.6844,771.8007],[37.8449,0.6963,745.3847],[37.8426,0.7027,759.3024],[37.844,0.7108,759.3631],[37.8482,0.7192,750.2205],[37.8571,0.7246,743.5143],[37.8595,0.7245,739.2955],[37.8673,0.7317,741.9989],[37.8743,0.7338,729.0224],[37.8765,0.7377,729.0669],[37.874,0.7412,731.0377],[37.8783,0.7486,741.4291],[37.8909,0.7422,757.5023],[37.8935,0.7347,732.2243],[37.896,0.7323,733.4233],[37.9023,0.7336,749.7739],[37.9035,0.7314,742.717],[37.9018,0.7268,726.5566],[37.9053,0.7251,734.4619],[37.9092,0.7264,772.8729],[37.9114,0.723,751.5845],[37.9115,0.7189,733.0684],[37.9149,0.7178,741.908],[37.9191,0.7241,797.0275],[37.9248,0.724,820.0012],[37.9296,0.7272,839.957],[37.9459,0.7491,715.5803],[37.9553,0.7498,706.8232],[37.9595,0.7561,703.2321],[37.9722,0.7595,690.7771],[37.9731,0.7642,700.6268],[37.9853,0.7794,687.8027],[37.9859,0.7822,694.444],[37.9945,0.7833,687.6431],[37.9999,0.7927,680.9118],[38.0052,0.7933,677.6267],[38.0085,0.797,663.9248],[38.0081,0.8062,674.7784],[38.0135,0.8099,683.2064],[38.0162,0.8085,669.5549],[38.0154,0.8013,670.3807],[38.0226,0.8034,685.2628],[38.0311,0.7963,720.4065],[38.0455,0.7918,685.8794],[38.0466,0.788,663.9481],[38.0533,0.7833,695.9692],[38.0599,0.7834,698.46],[38.0705,0.7877,680.7184],[38.0799,0.7875,635.1898],[38.0468,0.8095,732.5514],[38.0327,1.0895,624.424],[38.0003,1.1336,652.4604],[37.9492,1.1982,652.1949],[37.9463,1.2674,652.1277],[37.9515,1.3875,558.4886],[37.8535,1.4593,532.5812],[37.8513,1.4563,532.1199],[37.8502,1.4503,537.1284],[37.8466,1.4468,540.1292],[37.8471,1.4387,542.5953],[37.8443,1.4359,543.107],[37.8449,1.4323,542.7122],[37.8428,1.4294,544.0361],[37.8322,1.4292,558.3399],[37.8259,1.4244,553.0201],[37.8177,1.4268,561.2209],[37.8106,1.4219,563.669],[37.8005,1.4223,565.9849],[37.7951,1.4184,565.6787],[37.7888,1.4188,566.7129],[37.7828,1.4232,570.8203],[37.7782,1.4156,580.1372],[37.7701,1.4183,580.2302],[37.763,1.4179,581.9203],[37.7568,1.4156,583.6661],[37.7478,1.417,597.0546],[37.7364,1.4108,596.9704],[37.7136,1.4118,603.3418],[37.6931,1.4066,606.9777],[37.6852,1.403,613.1908],[37.6834,1.4028,615.6601],[37.6769,1.4073,619.452],[37.6728,1.4059,615.7174],[37.6704,1.4031,613.97],[37.6624,1.4022,619.0586],[37.6587,1.3989,622.7909],[37.654,1.4048,620.8774],[37.6477,1.4023,624.2843],[37.6403,1.3951,629.3678],[37.6334,1.3916,628.9382],[37.6303,1.3875,648.5911],[37.6242,1.3873,668.7448],[37.6229,1.3815,637.0132],[37.6177,1.3816,638.6193],[37.6112,1.3789,642.1698],[37.6049,1.3823,647.7185],[37.5989,1.3952,674.6421],[37.5971,1.3881,650.2551],[37.59,1.3816,657.869],[37.5883,1.372,654.475],[37.5823,1.3691,664.0513],[37.5823,1.376,664.2496],[37.5778,1.3837,695.5163],[37.5742,1.3844,680.2906],[37.5706,1.3924,690.4795],[37.5645,1.3937,682.6619],[37.5585,1.4004,683.4061],[37.5516,1.3964,689.4782],[37.5365,1.3914,696.8156],[37.5338,1.3942,698.7531],[37.5332,1.3924,692.7501],[37.5254,1.3883,694.3169],[37.5233,1.3887,694.7466],[37.5206,1.3956,700.0475],[37.5173,1.3947,699.2448],[37.514,1.3969,702.8983],[37.505,1.3982,705.4451],[37.4994,1.4018,708.1313],[37.4972,1.4089,717.9832],[37.4981,1.4106,740.1727],[37.4908,1.4109,729.7933],[37.477,1.4093,732.0425],[37.4764,1.4067,722.5172],[37.4788,1.4052,717.5151],[37.4796,1.4016,716.6448],[37.4732,1.3994,719.0779],[37.4704,1.3928,735.5851],[37.4668,1.392,737.7363],[37.4656,1.389,735.2027],[37.4577,1.3855,739.9844],[37.4595,1.3804,731.8807],[37.4582,1.378,733.3179],[37.4553,1.3786,739.7972],[37.4489,1.3766,752.481],[37.4451,1.3787,750.3896],[37.4388,1.3768,750.1748],[37.4317,1.3711,752.6563],[37.427,1.3704,747.8332],[37.4193,1.3719,753.0691],[37.4163,1.3749,760.9275],[37.4111,1.3767,765.0217],[37.4049,1.3763,776.2125],[37.4027,1.3735,767.4852],[37.3964,1.3741,764.6218],[37.3905,1.3726,775.448],[37.3873,1.3687,766.6182],[37.3793,1.3666,777.1525],[37.3717,1.3578,781.0405],[37.3697,1.3573,781.0405],[37.3712,1.3525,775.8641],[37.3692,1.3512,776.4439],[37.3671,1.3448,794.8785],[37.3649,1.3307,809.8762],[37.363,1.3272,817.8009],[37.3638,1.3229,824.6595],[37.3665,1.3207,824.0343],[37.3701,1.3125,844.7983],[37.3876,1.2992,870.2773],[37.4092,1.2971,852.8001],[37.4239,1.2846,837.1091],[37.443,1.2771,801.3136],[37.488,1.266,776.2491],[37.5178,1.2552,765.9102],[37.5341,1.2346,780.834],[37.5547,1.1888,794.8254],[37.5589,1.1825,786.9822],[37.5733,1.1716,777.4354],[37.5813,1.1689,771.3262],[37.5831,1.1659,774.4998],[37.5906,1.163,763.125],[37.5973,1.1572,753.6667],[37.5964,1.1479,743.7612],[37.5985,1.1428,736.4662],[37.5993,1.1315,732.2665],[37.5866,1.11,756.7425],[37.5743,1.0989,767.8111],[37.57,1.0809,790.8015],[37.5605,1.0621,798.1245],[37.5596,1.05,808.0872],[37.5623,1.0192,835.4067],[37.5671,1.0035,846.6345],[37.5747,0.9932,854.5154],[37.579,0.9819,867.3171],[37.569,0.9292,897.0663],[37.5629,0.9188,900.4795],[37.559,0.9044,911.5212],[37.569,0.8553,1003.0896],[37.5612,0.8406,1021.1125],[37.5487,0.8068,993.8175],[37.5562,0.7785,906.1292],[37.5514,0.7778,908.088],[37.5297,0.7828,920.8972],[37.5017,0.7954,939.3545],[37.5002,0.7982,941.2362],[37.4981,0.7983,942.8873],[37.4816,0.8108,970.315],[37.4539,0.8338,1074.0122],[37.4513,0.8401,1093.762],[37.4445,0.8459,1147.6749],[37.4429,0.8566,1115.3462],[37.4382,0.865,1097.1697],[37.428,0.8626,1140.8109],[37.4183,0.8572,1245.9873],[37.3913,0.8645,1194.6604],[37.3822,0.8693,1198.8309],[37.3506,0.8801,1206.6481],[37.3321,0.8802,1187.5802],[37.3178,0.8779,1169.4138],[37.3151,0.8803,1175.6497],[37.3131,0.8784,1175.1949],[37.314,0.8765,1168.8237],[37.3086,0.8742,1161.6248],[37.3064,0.8701,1147.896],[37.3017,0.8702,1145.5493],[37.2951,0.8652,1136.9834],[37.2888,0.8666,1127.6392],[37.2843,0.8582,1106.1853],[37.2787,0.8538,1096.2063],[37.2775,0.8496,1081.196],[37.2757,0.8494,1080.1702],[37.2752,0.846,1077.9056],[37.2673,0.846,1045.7075],[37.2642,0.8391,1040.7229],[37.2646,0.8364,1037.3619],[37.2609,0.8341,1043.1157],[37.2623,0.8291,1033.9725],[37.2681,0.8256,1037.4846],[37.2659,0.8239,1032.9672],[37.2669,0.8204,1020.1012],[37.2648,0.8197,1024.048],[37.2658,0.8163,1027.0066],[37.2693,0.8136,1023.5701],[37.2661,0.8089,1020.243],[37.2586,0.8083,1019.8221],[37.2593,0.804,1008.7881],[37.2527,0.8041,1016.1132],[37.2537,0.799,1000.5235],[37.2561,0.7972,989.4016],[37.2546,0.7938,994.9141],[37.2577,0.7849,976.0173],[37.2564,0.7803,980.6685],[37.2579,0.7777,974.6091],[37.2588,0.7664,956.4238],[37.2615,0.769,978.5125],[37.263,0.775,997.6613],[37.2711,0.7784,1020.0461],[37.2759,0.793,1040.202],[37.2841,0.8016,1052.8422],[37.3126,0.8118,1097.9858],[37.3227,0.8115,1115.8058],[37.3389,0.8066,1086.4203],[37.3578,0.7899,1063.4426],[37.362,0.7882,1063.2953],[37.3618,0.7777,1055.53],[37.3739,0.7582,1040.1694],[37.3796,0.754,1037.0215],[37.415,0.7417,1026.9601],[37.431,0.7254,1056.9651],[37.4351,0.7129,1289.9468],[37.439,0.7088,1353.8281],[37.4433,0.7055,1226.9841],[37.4571,0.7018,1140.401],[37.4591,0.6996,1125.5338],[37.4602,0.6974,1115.2729],[37.4561,0.6835,1334.8403],[37.4561,0.6773,1348.9785],[37.4495,0.669,1263.7896],[37.4501,0.6552,1233.1243],[37.4538,0.6484,1097.5527],[37.4582,0.6336,992.0573],[37.4613,0.6289,975.4121],[37.4735,0.6224,946.1931],[37.4772,0.5973,895.1968],[37.4822,0.5948,894.9113],[37.4896,0.5949,887.5898],[37.4924,0.5933,885.5992],[37.493,0.5899,883.3662],[37.4907,0.5837,881.2695],[37.5028,0.5799,887.2913],[37.5067,0.5749,883.015],[37.515,0.5718,884.6816],[37.523,0.5755,914.0399],[37.5322,0.5707,877.4167],[37.5345,0.5719,872.037],[37.538,0.5785,876.7781],[37.5448,0.5829,879.6575],[37.557,0.5756,876.1219],[37.5637,0.5773,876.6411],[37.5661,0.5757,870.7157],[37.5737,0.5796,860.4336],[37.5793,0.5782,857.7363]]]]}
,"properties": {"GID_3": "KEN.37.1.4_1","GID_0": "KEN","country": "Kenya","GID_1": "KEN.37_1","province": "Samburu","NL_NAME_1": "NA","GID_2": "KEN.37.1_1","county": "SamburuEast","NL_NAME_2": "NA","city": "Waso","VARNAME_3": "NA","NL_NAME_3": "NA","TYPE_3": "Ward","ENGTYPE_3": "Ward","CC_3": "672","HASC_3": "NA","name": "Waso.city","area_km2": 4705.623,"hist_schema_id": "Elevation0-9000","hist_area_km2": {"525": 9.305,"550": 35.609,"575": 48.115,"600": 81.224,"625": 119.379,"650": 190.966,"675": 324.433,"700": 475.727,"725": 504.194,"750": 512.973,"775": 436.158,"800": 281.755,"825": 188.165,"850": 213.948,"875": 283.549,"900": 224.849,"925": 139.244,"950": 104.9,"975": 85.501,"1000": 60.506,"1025": 49.821,"1050": 45.369,"1075": 43.482,"1100": 43.736,"1125": 42.527,"1150": 37.863,"1175": 28.874,"1200": 20.331,"1225": 10.77,"1250": 9.731,"1275": 8.289,"1300": 6.593,"1325": 5.597,"1350": 4.961,"1375": 4.367,"1400": 3.074,"1425": 3.307,"1450": 2.247,"1475": 1.908,"1500": 2.014,"1525": 2.184,"1550": 1.908,"1575": 1.972,"1600": 0.912,"1625": 0.996,"1650": 0.657,"1675": 0.721,"1700": 0.488,"1725": 0.297,"1750": 0.127}}}