{"type":"Feature","properties":{"GID_3":"KEN.1.4.2_1","GID_0":"KEN","country":"Kenya","GID_1":"KEN.1_1","province":"Baringo","NL_NAME_1":"NA","GID_2":"KEN.1.4_1","county":"BaringoSouth","NL_NAME_2":"NA","city":"Marigat","VARNAME_3":"NA","NL_NAME_3":"NA","TYPE_3":"Ward","ENGTYPE_3":"Ward","CC_3":"798","HASC_3":"NA","name":"Marigat.city"},
"geometry":{"type": "MultiPolygon","coordinates": [[[[35.7996,0.3483,2144.5525],[35.7975,0.3322,2081.8286],[35.807,0.3324,1874.8638],[35.8037,0.3248,1995.5179],[35.8054,0.3164,1922.1404],[35.8132,0.3164,1866.2253],[35.8123,0.3107,1962.0505],[35.8158,0.3002,2037.3],[35.8002,0.2999,1903.5637],[35.7964,0.3021,1967.2144],[35.7851,0.3034,1793.1846],[35.7834,0.3054,1712.1414],[35.7783,0.3031,1691.5698],[35.7775,0.3008,1670.9639],[35.7793,0.2947,1682.8425],[35.7763,0.2893,1699.1162],[35.7779,0.2828,1701.6184],[35.7764,0.2766,1763.0964],[35.7777,0.2704,1804.606],[35.7793,0.2663,1845.4395],[35.813,0.2662,1838.3674],[35.8156,0.2629,1773.4425],[35.8231,0.2616,1647.4751],[35.8299,0.2639,1591.6433],[35.8331,0.2636,1575.5922],[35.8343,0.2619,1574.5435],[35.8421,0.2676,1527.504],[35.8451,0.2668,1530.046],[35.8529,0.2692,1530.5459],[35.8525,0.2704,1530.5459],[35.8587,0.2743,1475.7974],[35.862,0.274,1460.207],[35.8716,0.2794,1442.8593],[35.8775,0.2771,1463.0266],[35.8824,0.2791,1485.4683],[35.8835,0.2777,1473.7836],[35.8854,0.2794,1469.908],[35.8883,0.2787,1433.2834],[35.8883,0.2765,1420.7812],[35.8901,0.2772,1433.2834],[35.893,0.2753,1520.8142],[35.8943,0.2776,1519.9473],[35.8981,0.2779,1513.5237],[35.8978,0.2803,1504.4818],[35.9029,0.2853,1480.7378],[35.9055,0.2848,1491.3574],[35.9067,0.2871,1492.8225],[35.909,0.2861,1477.4108],[35.9101,0.2908,1468.0817],[35.9185,0.2985,1449.9619],[35.9208,0.3052,1381.1411],[35.9182,0.3063,1363.7769],[35.9173,0.3094,1386.8569],[35.9191,0.3118,1407.5497],[35.9148,0.3132,1461.1753],[35.9193,0.3216,1433.7108],[35.9225,0.3229,1347.8259],[35.922,0.3292,1316.5476],[35.917,0.3307,1452.8079],[35.9182,0.3326,1436.2644],[35.9199,0.3322,1375.9777],[35.9198,0.3352,1376.4158],[35.9217,0.3357,1387.8328],[35.9215,0.3375,1385.4421],[35.9236,0.3394,1325.0511],[35.9915,0.3345,1163.59],[35.993899999999996,0.3538,1124.5107],[35.9915,0.3618,1103.0918],[35.9929,0.3694,1091.084],[35.9896,0.3791,1156.8633],[35.9933,0.38,1083.7092],[35.9964,0.3868,1064.4105],[35.9985,0.4001,1061.6383],[35.9973,0.405,1070.2385],[35.9895,0.4183,1051.3279],[35.9869,0.4298,1023.8277],[35.9902,0.4354,1017.2514],[35.9936,0.4359,1015.3201],[35.999,0.4723,1011.7004],[36.0033,0.4731,1010.0757],[36.0064,0.4706,1006.9265],[36.0071,0.4669,1010.63],[36.0085,0.4663,1011.7356],[36.0102,0.4679,1007.0612],[36.0137,0.4636,1001.8638],[36.0175,0.4628,1000.861],[36.0215,0.4652,999.9042],[36.031,0.4655,1000.0989],[36.0334,0.4647,994.6731],[36.0341,0.4619,992.5715],[36.0379,0.4606,991.5527],[36.041,0.4774,988.1868],[36.044,0.4807,984.9413],[36.0406,0.4821,985.4913],[36.0482,0.4955,981.8414],[36.0398,0.5014,986.8765],[36.028,0.5162,990.3102],[36.0176,0.5255,996.001],[36.0092,0.5384,1002.2709],[36.0063,0.5463,1001.68],[36.0053,0.5616,1003.0926],[36.0082,0.5663,995.0284],[36.0145,0.5698,988.4957],[36.0162,0.575,986.2748],[36.012,0.579,987.7794],[36.0031,0.5791,998.6508],[35.9983,0.584,1014.4698],[35.9982,0.6172,1103.7264],[35.971,0.6157,1151.8164],[35.9406,0.5975,1205.6382],[35.9385,0.5894,1215.964],[35.9329,0.58,1192.2245],[35.9255,0.5735,1211.4227],[35.9221,0.5726,1220.9427],[35.908,0.5752,1244.1431],[35.8904,0.5814,1340.5659],[35.8832,0.5877,1329.4865],[35.8833,0.5901,1335.803],[35.8818,0.59,1340.2531],[35.8779,0.5958,1351.1798],[35.8727,0.5988,1374.8461],[35.8653,0.6009,1404.2529],[35.8495,0.6015,1495.5627],[35.8442,0.6047,1626.4968],[35.8387,0.6051,1679.6171],[35.8163,0.5768,2056.6128],[35.8093,0.5622,1909.8068],[35.8087,0.5581,1780.5441],[35.8132,0.5499,1711.1021],[35.8139,0.5452,1521.7017],[35.8119,0.5433,1585.3785],[35.8131,0.5395,1478.7297],[35.8155,0.5375,1473.9963],[35.8214,0.5374,1574.5281],[35.8264,0.5345,1577.6345],[35.8293,0.5363,1543.2617],[35.8337,0.5356,1572.8459],[35.8357,0.5376,1651.0629],[35.8394,0.5375,1483.6272],[35.8474,0.5296,1366.6243],[35.8515,0.5287,1349.9811],[35.85,0.5063,1340.4056],[35.8515,0.4834,1371.0959],[35.8523,0.4781,1367.1395],[35.8584,0.4698,1326.7639],[35.8567,0.441,1369.783],[35.8526,0.4296,1380.2313],[35.8539,0.4209,1396.917],[35.869,0.3966,1382.903],[35.8691,0.3889,1440.2944],[35.8718,0.3802,1410.0377],[35.8778,0.3719,1412.4434],[35.8546,0.3654,1744.6284],[35.8426,0.3654,1665.1628],[35.8416,0.3765,1447.0867],[35.8396,0.3784,1511.8032],[35.8379,0.3779,1491.7334],[35.833,0.37,1633.7886],[35.8136,0.3507,1749.7528],[35.7996,0.3483,2144.5525]]]]}}