{"type":"Feature","properties":{"GID_3":"KEN.11.6.3_1","GID_0":"KEN","country":"Kenya","GID_1":"KEN.11_1","province":"Kakamega","NL_NAME_1":"NA","GID_2":"KEN.11.6_1","county":"Malava","NL_NAME_2":"NA","city":"EastKabras","VARNAME_3":"NA","NL_NAME_3":"NA","TYPE_3":"Ward","ENGTYPE_3":"Ward","CC_3":"1004","HASC_3":"NA","name":"East_Kabras.city"},
"geometry":{"type": "MultiPolygon","coordinates": [[[[34.8546,0.3956,1624.6807],[34.8529,0.3862,1624.4565],[34.8534,0.3755,1636.4794],[34.8628,0.3709,1593.3533],[34.8754,0.3706,1552.2721],[34.8739,0.3809,1561.8025],[34.8818,0.387,1565.6212],[34.894,0.3855,1617.5171],[34.9013,0.3935,1613.4113],[34.904,0.3934,1599.1313],[34.9082,0.4023,1594.1472],[34.9135,0.4029,1590.374],[34.9167,0.4009,1589.5027],[34.9198,0.4016,1602.7393],[34.9221,0.4044,1597.5498],[34.926,0.4044,1614.0156],[34.9344,0.395,1638.042],[34.9384,0.3939,1673.2717],[34.937,0.3915,1653.3582],[34.9394,0.3895,1655.8684],[34.9411,0.384,1650.105],[34.9403,0.3798,1659.6719],[34.9452,0.3725,1704.0928],[34.9443,0.3645,1704.7515],[34.9499,0.3616,1764.8555],[34.9553,0.3759,1757.7709],[34.9566,0.42,1999.1484],[34.952,0.4298,1913.0162],[34.9498,0.43,1887.3807],[34.9437,0.4294,1720.2368],[34.9386,0.4262,1663.4661],[34.9302,0.4283,1657.2437],[34.9076,0.4241,1622.4688],[34.8941,0.4291,1589.957],[34.8915,0.4284,1584.4581],[34.8848,0.4306,1584.7988],[34.8752,0.4265,1614.1782],[34.8762,0.4248,1603.8402],[34.8741,0.4224,1598.6584],[34.8734,0.4238,1620.5375],[34.8704,0.4239,1627.7269],[34.8657,0.4222,1628.4011],[34.8645,0.4242,1641.5466],[34.8628,0.4233,1642.2114],[34.8566,0.4255,1625.697],[34.8574,0.4114,1618.4316],[34.8542,0.4087,1683.8362],[34.8511,0.4025,1633.3306],[34.8544,0.3988,1636.7972],[34.8546,0.3956,1624.6807]]]]}}