{"type": "Feature","bbox": [37.0773,0.0618,37.3956,0.5319],"geometry": {"type": "MultiPolygon","coordinates": [[[[37.3683,0.5143,959.0195],[37.3333,0.5165,1041.0178],[37.1964,0.5319,1159.2649],[37.1935,0.5182,1184.0765],[37.1886,0.5136,1190.7024],[37.1876,0.5099,1201.2445],[37.1854,0.4917,1248.1416],[37.1878,0.4846,1286.1426],[37.1806,0.4848,1328.3999],[37.1765,0.4709,1600.3723],[37.1759,0.46,1804.4685],[37.1742,0.4585,1820.2871],[37.1753,0.4528,1836.3569],[37.1715,0.4504,1819.4563],[37.1711,0.4298,1838.4985],[37.1741,0.426,1838.0448],[37.1742,0.4198,1902.4146],[37.1703,0.4112,1873.3512],[37.166,0.4085,1841.2314],[37.1593,0.4129,1833.2787],[37.1587,0.4162,1841.1471],[37.1543,0.4218,1882.964],[37.1543,0.4251,1843.7681],[37.1494,0.4357,1779.5443],[37.1464,0.4388,1850.7175],[37.1426,0.4395,1809.0676],[37.1398,0.4468,1782.2532],[37.1393,0.4592,1783.5856],[37.1355,0.4737,1854.7543],[37.1014,0.4903,1605.5095],[37.0977,0.4916,1603.0613],[37.0971,0.4905,1603.0613],[37.1003,0.4795,1560.7852],[37.0994,0.4751,1559.4331],[37.1006,0.474,1553.6973],[37.0985,0.4689,1579.2969],[37.0951,0.4639,1697.2402],[37.089,0.4653,1642.0807],[37.0881,0.4603,1597.5894],[37.0855,0.46,1612.0616],[37.0825,0.4558,1635.5874],[37.082,0.4518,1613.2],[37.0797,0.4503,1640.4484],[37.0822,0.4483,1618.3727],[37.08,0.4462,1637.5815],[37.0816,0.442,1619.5022],[37.079,0.4375,1648.0768],[37.0811,0.4301,1634.6169],[37.0773,0.4209,1680.5134],[37.0788,0.4152,1649.1909],[37.0809,0.4142,1669.2144],[37.0779,0.4096,1657.0092],[37.0823,0.4098,1683.0039],[37.0848,0.4063,1716.9976],[37.0863,0.4071,1731.6837],[37.0859,0.4028,1712.8688],[37.0902,0.3959,1730.5695],[37.0961,0.3965,1731.9],[37.0975,0.3995,1750.676],[37.1028,0.3963,1760.6648],[37.1126,0.3995,1775.9097],[37.1163,0.3958,1763.2485],[37.1158,0.3916,1730.6791],[37.0975,0.3523,1779.0974],[37.2415,0.2869,2052.8855],[37.2398,0.2511,1967.9723],[37.2204,0.2259,2055.3628],[37.198,0.217,2004.6338],[37.1956,0.1911,1958.1005],[37.195,0.117,2077.3984],[37.1903,0.1176,2064.7583],[37.1937,0.087,2082.5029],[37.188,0.0618,2129.9619],[37.1987,0.0679,2148.7615],[37.2017,0.0656,2164.6958],[37.2103,0.0713,2175.9746],[37.2201,0.0733,2200.9321],[37.2301,0.0791,2203.479],[37.2325,0.0815,2200.8477],[37.2351,0.1045,2187.3623],[37.2461,0.1089,2235.2527],[37.2525,0.0967,2238.1265],[37.2643,0.1139,2255.0305],[37.2809,0.1299,2268.96],[37.2827,0.1522,2222.1921],[37.3081,0.1779,2148.3254],[37.3197,0.1831,2096.9824],[37.3325,0.1809,2049.5742],[37.3395,0.1835,2023.3119],[37.3409,0.1855,1946.0295],[37.3367,0.1939,1906.3374],[37.3441,0.1939,1860.3142],[37.3479,0.1955,1842.5129],[37.3485,0.2109,1781.8527],[37.3511,0.2119,1773.2751],[37.3551,0.2209,1746.5576],[37.3577,0.2387,1715.6803],[37.3637,0.2407,1673.8585],[37.3629,0.2484,1628.5789],[37.366,0.2509,1635.528],[37.3666,0.2542,1611.4561],[37.3623,0.2547,1615.632],[37.3611,0.2563,1669.4788],[37.3651,0.2611,1656.5767],[37.3723,0.2653,1581.6163],[37.3737,0.2721,1581.4302],[37.3759,0.2747,1537.5531],[37.3857,0.2775,1465.2329],[37.3879,0.2819,1331.9578],[37.3865,0.2837,1337.4023],[37.3882,0.2852,1302.1643],[37.3881,0.2881,1394.1532],[37.3931,0.2915,1280.5251],[37.3947,0.2951,1278.2876],[37.3923,0.2977,1220.2437],[37.3953,0.3017,1197.7778],[37.3942,0.3047,1186.3682],[37.3956,0.3063,1187.0923],[37.3919,0.3159,1166.7102],[37.3941,0.3191,1156.8075],[37.3917,0.3275,1147.01],[37.3934,0.3405,1126.1675],[37.3913,0.3489,1115.8953],[37.392,0.3593,1132.931],[37.3908,0.3613,1133.9374],[37.3837,0.3623,1112.6473],[37.3824,0.3678,1110.2832],[37.3793,0.3682,1092.8021],[37.3776,0.3739,1085.2841],[37.3786,0.381,1096.0151],[37.3701,0.3847,1074.759],[37.3691,0.3989,1065.5154],[37.3663,0.4045,1076.224],[37.3619,0.4109,1068.6438],[37.3533,0.4145,1036.3313],[37.3517,0.4398,1027.8317],[37.3485,0.4478,1010.508],[37.3483,0.452,1013.0804],[37.3505,0.4567,1004.4777],[37.3499,0.4617,1011.6677],[37.3575,0.4697,990.781],[37.3579,0.4747,993.1411],[37.3601,0.4777,983.4423],[37.3597,0.4893,977.8667],[37.3623,0.4922,975.2228],[37.3602,0.4951,974.6637],[37.3598,0.5019,972.1604],[37.3687,0.5093,960.7164],[37.3683,0.5143,959.0195]]]]}
,"properties": {"GID_3": "KEN.20.2.1_1","GID_0": "KEN","country": "Kenya","GID_1": "KEN.20_1","province": "Laikipia","NL_NAME_1": "NA","GID_2": "KEN.20.2_1","county": "LaikipiaNorth","NL_NAME_2": "NA","city": "MugogodoEast","VARNAME_3": "NA","NL_NAME_3": "NA","TYPE_3": "Ward","ENGTYPE_3": "Ward","CC_3": "825","HASC_3": "NA","name": "Mugogodo_East.city","area_km2": 959.4446,"hist_schema_id": "Elevation0-9000","hist_area_km2": {"950": 0.0424,"975": 1.9929,"1000": 6.5512,"1025": 14.1838,"1050": 20.8411,"1075": 19.8235,"1100": 21.0108,"1125": 21.456,"1150": 19.9507,"1175": 18.4242,"1200": 16.516,"1225": 14.2898,"1250": 12.2333,"1275": 9.8163,"1300": 8.3958,"1325": 8.8623,"1350": 6.6573,"1375": 7.5266,"1400": 7.251,"1425": 8.8623,"1450": 8.5867,"1475": 8.8623,"1500": 7.4842,"1525": 8.6291,"1550": 8.3111,"1575": 10.9401,"1600": 11.5761,"1625": 12.4242,"1650": 14.5656,"1675": 16.2829,"1700": 17.7034,"1725": 20.3112,"1750": 26.0145,"1775": 33.732,"1800": 38.3752,"1825": 34.7497,"1850": 34.2409,"1875": 42.4248,"1900": 34.0713,"1925": 37.8665,"1950": 43.8032,"1975": 35.7465,"2000": 26.3752,"2025": 18.7001,"2050": 18.7214,"2075": 23.6191,"2100": 26.1422,"2125": 27.69,"2150": 26.0786,"2175": 15.4988,"2200": 9.3925,"2225": 6.3818,"2250": 6.5939,"2275": 2.8623}}}