{"type": "Feature","bbox": [39.6407,-4.0796,39.6829,-4.0296],"geometry": {"type": "MultiPolygon","coordinates": [[[[39.6735,-4.036,3.3063],[39.6699,-4.0346,23.0556],[39.6668,-4.0299,2.0418],[39.6585,-4.0296,0.7618],[39.6496,-4.0382,3.27],[39.644,-4.0376,0.0],[39.6413,-4.039,0.0],[39.6407,-4.0438,0.0],[39.6465,-4.0515,2.1375],[39.6476,-4.0613,0.0],[39.651,-4.0624,0.0],[39.6571,-4.0713,0.0],[39.6593,-4.0715,0.0],[39.6629,-4.0779,1.1986],[39.6657,-4.0796,0.0],[39.6729,-4.0796,0.0],[39.6829,-4.0721,0.0],[39.6826,-4.0643,0.0],[39.681,-4.0632,0.0],[39.6796,-4.0576,0.0],[39.676,-4.0557,10.5128],[39.6751,-4.0529,5.0183],[39.679,-4.0474,1.0584],[39.6776,-4.0457,0.0],[39.6738,-4.0468,7.7276],[39.6715,-4.0449,13.9765],[39.6712,-4.041,3.551],[39.6757,-4.0379,6.6237],[39.6735,-4.036,3.3063]]]]}
,"properties": {"GID_2": "KEN.28.5_1","GID_0": "KEN","country": "Kenya","GID_1": "KEN.28_1","province": "Mombasa","NL_NAME_1": "NA","county": "Mvita","VARNAME_2": "NA","NL_NAME_2": "NA","TYPE_2": "Constituency","ENGTYPE_2": "Constituency","CC_2": "6","HASC_2": "NA","name": "Mvita.county","area_km2": 15.90416,"hist_schema_id": "Elevation0-9000","hist_area_km2": {"0": 3.4473,"25": 12.45685}}}