{"type":"Feature","properties":{"GID_3":"KEN.33.5.7_1","GID_0":"KEN","country":"Kenya","GID_1":"KEN.33_1","province":"Narok","NL_NAME_1":"NA","GID_2":"KEN.33.5_1","county":"NarokSouth","NL_NAME_2":"NA","city":"Sogoo","VARNAME_3":"NA","NL_NAME_3":"NA","TYPE_3":"Ward","ENGTYPE_3":"Ward","CC_3":"905","HASC_3":"NA","name":"Sogoo.city"},
"geometry":{"type": "MultiPolygon","coordinates": [[[[35.6389,-0.7703,2197.1133],[35.6106,-0.7411,2343.8491],[35.6015,-0.7474,2257.1211],[35.5957,-0.7542,2326.0674],[35.5842,-0.7806,2251.4971],[35.5744,-0.7933,2248.1113],[35.5471,-0.8176,2119.8826],[35.529,-0.8284,2078.0823],[35.5463,-0.8456,2117.9531],[35.5511,-0.8484,2066.7129],[35.5551,-0.8538,2068.2114],[35.556399999999996,-0.8588,2037.6089],[35.5548,-0.8634,2028.9158],[35.5635,-0.8652,2097.9604],[35.5727,-0.8604,2134.4199],[35.5825,-0.847,2185.6216],[35.5945,-0.8389,2068.8318],[35.601,-0.8459,2124.1536],[35.6083,-0.849,2064.9497],[35.6293,-0.8397,2188.0171],[35.6473,-0.8285,2070.0823],[35.6481,-0.8252,2140.6709],[35.6448,-0.8231,2070.6089],[35.6423,-0.8161,2167.9126],[35.6336,-0.8092,2090.8357],[35.6343,-0.8065,2094.7102],[35.632,-0.8051,2111.8806],[35.6345,-0.7945,2228.4263],[35.6395,-0.7915,2120.0825],[35.6418,-0.7869,2217.3411],[35.638,-0.784,2190.8572],[35.6365,-0.7785,2149.875],[35.6334,-0.7754,2231.7651],[35.635,-0.7745,2275.1414],[35.6344,-0.7727,2266.6482],[35.6372,-0.7722,2179.7576],[35.6385,-0.7734,2189.3848],[35.6389,-0.7703,2197.1133]]]]}}