{"type":"Feature","properties":{"GID_3":"KEN.18.6.5_1","GID_0":"KEN","country":"Kenya","GID_1":"KEN.18_1","province":"Kitui","NL_NAME_1":"NA","GID_2":"KEN.18.6_1","county":"MwingiCentral","NL_NAME_2":"NA","city":"Nguni","VARNAME_3":"NA","NL_NAME_3":"NA","TYPE_3":"Ward","ENGTYPE_3":"Ward","CC_3":"342","HASC_3":"NA","name":"Nguni.city"},
"geometry":{"type": "MultiPolygon","coordinates": [[[[38.9635,-1.0774,318.2938],[38.9612,-1.0512,319.8269],[38.8185,-0.7499,467.3193],[38.7865,-0.6926,477.1673],[38.7868,-0.6948,475.9565],[38.785,-0.6967,478.8315],[38.7783,-0.7021,481.5021],[38.7736,-0.7034,483.3109],[38.7704,-0.7034,484.4583],[38.7616,-0.6987,488.6636],[38.7586,-0.6992,490.775],[38.7538,-0.6935,498.2779],[38.7435,-0.6941,496.3087],[38.7347,-0.697,501.0176],[38.7321,-0.6985,502.5017],[38.7293,-0.7034,502.1727],[38.7195,-0.7089,506.6321],[38.7008,-0.7235,531.4487],[38.6988,-0.7259,533.4561],[38.6982,-0.733,528.592],[38.6949,-0.7362,529.2682],[38.6747,-0.7435,532.1539],[38.6689,-0.7438,533.0519],[38.6537,-0.7342,545.1725],[38.6513,-0.7282,546.4495],[38.6508,-0.7203,549.5667],[38.6464,-0.7136,556.3947],[38.6399,-0.7121,559.6537],[38.6282,-0.7162,566.9039],[38.6215,-0.7122,572.397],[38.61,-0.7123,578.7235],[38.6067,-0.7099,577.2441],[38.6051,-0.7058,582.361],[38.5848,-0.7001,592.0598],[38.5776,-0.7006,596.0869],[38.5726,-0.7039,599.8656],[38.5596,-0.7013,605.5457],[38.555,-0.7018,609.6064],[38.5435,-0.6953,618.9159],[38.5309,-0.696,633.0881],[38.5228,-0.6946,632.7496],[38.5161,-0.6954,636.7927],[38.5072,-0.702,646.1877],[38.4761,-0.6889,670.7426],[38.4398,-0.6875,661.7203],[38.4347,-0.69,664.7043],[38.43,-0.6865,669.7993],[38.4194,-0.6882,676.9026],[38.4104,-0.6957,684.1902],[38.3993,-0.6982,687.1899],[38.3914,-0.7044,696.9388],[38.3833,-0.7024,702.5933],[38.3824,-0.6996,704.4613],[38.3799,-0.7032,703.3286],[38.3753,-0.7008,712.5087],[38.3675,-0.7035,713.1649],[38.355,-0.7024,724.7852],[38.3507,-0.7008,727.5964],[38.3474,-0.6964,732.7769],[38.3407,-0.6984,734.9332],[38.3358,-0.6896,746.6914],[38.3408,-0.6759,746.9934],[38.3465,-0.6658,733.3371],[38.3254,-0.669,766.3235],[38.311,-0.6735,778.8452],[38.3022,-0.679,792.9996],[38.297,-0.6646,777.0529],[38.297,-0.659,768.0734],[38.2851,-0.6585,776.2046],[38.28,-0.6523,791.6501],[38.2738,-0.6501,794.5553],[38.2682,-0.6506,798.434],[38.2487,-0.6753,834.7262],[38.2319,-0.689,830.2025],[38.1896,-0.7066,1006.0971],[38.2007,-0.7244,830.9762],[38.221,-0.7492,751.4857],[38.2271,-0.7596,740.8624],[38.2299,-0.7677,725.4161],[38.248,-0.7965,723.0502],[38.2473,-0.8024,714.0252],[38.2505,-0.8093,710.8345],[38.2513,-0.816,700.6318],[38.2617,-0.8255,659.7288],[38.267,-0.8392,685.8286],[38.2907,-0.8812,684.6988],[38.2966,-0.8982,898.9009],[38.298,-0.9157,847.0526],[38.2972,-0.9258,950.4419],[38.304,-0.9221,700.5314],[38.3091,-0.9132,686.261],[38.3193,-0.9171,647.9429],[38.3285,-0.9148,624.9539],[38.3361,-0.9162,618.2722],[38.3284,-0.9011,634.132],[38.3317,-0.9001,637.605],[38.3412,-0.9023,648.7235],[38.3467,-0.9011,636.658],[38.3596,-0.9027,617.3807],[38.4205,-0.9002,631.2672],[38.4373,-0.9039,609.9078],[38.4459,-0.9006,593.6497],[38.4471,-0.9033,594.2363],[38.4534,-0.9021,593.1964],[38.4687,-0.9056,584.0438],[38.4736,-0.9047,579.2439],[38.4806,-0.9004,571.9178],[38.4859,-0.9045,570.3987],[38.4909,-0.9046,562.3362],[38.5,-0.9092,557.4354],[38.5055,-0.908,554.8166],[38.5093,-0.9124,552.1129],[38.5172,-0.9119,544.4829],[38.5193,-0.914,544.4559],[38.5197,-0.9187,542.6284],[38.5247,-0.9212,540.2383],[38.525,-0.9256,537.2467],[38.5226,-0.9293,534.8863],[38.5296,-0.9354,530.2336],[38.5272,-0.9409,535.0219],[38.6396,-0.9414,510.0525],[38.6446,-0.9582,499.7796],[38.6437,-0.9668,500.4012],[38.646,-0.9741,499.9136],[38.6518,-0.983,493.679],[38.6552,-1.0104,479.5294],[38.6548,-1.018,464.0822],[38.6573,-1.0249,456.6366],[38.6625,-1.0315,456.3453],[38.6633,-1.0356,450.7687],[38.6637,-1.0444,448.597],[38.6564,-1.0602,471.5295],[38.6584,-1.0672,470.6512],[38.6588,-1.082,468.9944],[38.665,-1.0819,499.3861],[38.6796,-1.0917,843.6082],[38.6989,-1.0935,686.6834],[38.7258,-1.0808,419.4924],[38.7314,-1.083,418.5067],[38.7382,-1.0892,416.9559],[38.7418,-1.0894,416.5013],[38.7523,-1.0881,410.9846],[38.7588,-1.0838,411.3604],[38.7618,-1.0844,410.1618],[38.7676,-1.0815,408.3062],[38.77,-1.0848,404.7159],[38.7751,-1.0838,404.6573],[38.7781,-1.0849,403.7053],[38.7782,-1.0877,403.0688],[38.7798,-1.0886,401.7331],[38.7826,-1.088,401.718],[38.7883,-1.0829,404.7466],[38.7921,-1.0824,403.1519],[38.7939,-1.0841,397.8868],[38.812,-1.0811,396.8519],[38.8154,-1.0813,387.4661],[38.8179,-1.0858,384.26369999999997],[38.824,-1.0888,384.6799],[38.8276,-1.0939,380.1486],[38.8299,-1.0928,382.8448],[38.8349,-1.0953,376.9491],[38.8399,-1.0944,378.7211],[38.8461,-1.0964,373.9915],[38.8495,-1.0953,373.7703],[38.8516,-1.0977,371.4032],[38.8544,-1.0979,371.9528],[38.8577,-1.0955,365.6081],[38.8644,-1.0962,364.7405],[38.8667,-1.0949,362.4446],[38.8659,-1.0924,363.8048],[38.8686,-1.0916,362.7075],[38.8781,-1.0951,356.7139],[38.8797,-1.0924,357.9903],[38.8826,-1.0921,354.8758],[38.8842,-1.0948,354.1381],[38.8875,-1.0899,353.3029],[38.8902,-1.0906,352.3829],[38.8923,-1.0866,349.3939],[38.8941,-1.0865,348.4804],[38.8939,-1.0845,351.7198],[38.897,-1.0847,347.5706],[38.8995,-1.0813,348.4683],[38.901,-1.0832,345.5265],[38.9026,-1.0813,346.0032],[38.907,-1.0817,344.862],[38.9112,-1.0793,342.1029],[38.9192,-1.079,337.186],[38.9202,-1.0768,337.2459],[38.9232,-1.0793,336.919],[38.9276,-1.0791,334.7683],[38.9317,-1.0813,332.9897],[38.9371,-1.0796,330.8091],[38.9414,-1.0753,328.519],[38.9459,-1.0777,326.228],[38.9558,-1.0752,321.9687],[38.9575,-1.0774,321.7128],[38.9628,-1.0786,318.2417],[38.9635,-1.0774,318.2938]]]]}}