{"type": "Feature","bbox": [34.541,-1.069,34.5986,-0.9786],"geometry": {"type": "MultiPolygon","coordinates": [[[[34.5562,-0.9786,1447.6047],[34.5509,-0.9799,1464.3325],[34.547,-0.9865,1456.3679],[34.5423,-0.9879,1475.8469],[34.5449,-0.9997,1409.5071],[34.541,-1.0105,1437.9487],[34.5443,-1.0119,1419.7072],[34.5429,-1.0188,1430.9943],[34.5466,-1.0349,1486.1975],[34.5459,-1.0453,1501.3942],[34.5543,-1.044,1518.9534],[34.5583,-1.045,1512.7648],[34.5711,-1.0547,1509.8497],[34.5763,-1.0615,1522.5613],[34.5832,-1.0628,1518.923],[34.5913,-1.0678,1522.6105],[34.5962,-1.0676,1514.7734],[34.5984,-1.069,1513.2902],[34.5972,-1.0619,1516.202],[34.5986,-1.0592,1519.5336],[34.5962,-1.0549,1515.9121],[34.5967,-1.0449,1497.6027],[34.5929,-1.0378,1467.7566],[34.5885,-1.005,1502.0417],[34.5744,-1.0008,1499.5911],[34.5661,-1.0058,1494.9651],[34.5643,-1.0053,1488.7811],[34.5611,-0.9896,1480.9938],[34.5562,-0.9786,1447.6047]]]]}
,"properties": {"GID_3": "KEN.27.8.2_1","GID_0": "KEN","country": "Kenya","GID_1": "KEN.27_1","province": "Migori","NL_NAME_1": "NA","GID_2": "KEN.27.8_1","county": "Uriri","NL_NAME_2": "NA","city": "EastKanyamkago","VARNAME_3": "NA","NL_NAME_3": "NA","TYPE_3": "Ward","ENGTYPE_3": "Ward","CC_3": "1281","HASC_3": "NA","name": "East_Kanyamkago.city","area_km2": 35.35961,"hist_schema_id": "Elevation0-9000","hist_area_km2": {"1400": 0.27559,"1425": 2.54388,"1450": 5.61771,"1475": 10.7478,"1500": 12.95245,"1525": 3.2222}}}