{"type": "Feature","bbox": [36.5418,-0.7068,36.7094,-0.5413],"geometry": {"type": "MultiPolygon","coordinates": [[[[36.7079,-0.6297,3816.8374],[36.7076,-0.6212,3633.8394],[36.7007,-0.6154,3568.3301],[36.6892,-0.5976,3398.1421],[36.6714,-0.5831,3031.9741],[36.6669,-0.5751,3067.0959],[36.6616,-0.5733,2871.4512],[36.6526,-0.5734,2784.4822],[36.6467,-0.5679,2703.9126],[36.6407,-0.5663,2653.4727],[36.6343,-0.5622,2587.6272],[36.6314,-0.564,2593.0518],[36.6313,-0.5684,2620.2222],[36.6283,-0.5697,2586.8413],[36.6198,-0.5683,2561.8147],[36.6158,-0.5653,2548.6104],[36.6044,-0.5627,2526.1509],[36.5983,-0.5643,2500.5491],[36.5905,-0.5631,2484.2717],[36.5856,-0.5658,2488.415],[36.5781,-0.5641,2476.4075],[36.5682,-0.5588,2447.9617],[36.5622,-0.5514,2424.9883],[36.5624,-0.5487,2445.1572],[36.5607,-0.5471,2444.0156],[36.5566,-0.5457,2437.6775],[36.5542,-0.5469,2436.4731],[36.5477,-0.5413,2420.3604],[36.5438,-0.5418,2421.5042],[36.5453,-0.5451,2414.1643],[36.5418,-0.5496,2421.7764],[36.6057,-0.6396,2567.1494],[36.6048,-0.6476,2551.5439],[36.6097,-0.6505,2574.5088],[36.616,-0.6586,2599.0886],[36.6182,-0.6685,2594.7913],[36.6167,-0.6757,2585.7783],[36.6206,-0.6811,2587.1326],[36.609,-0.6877,2550.7339],[36.6096,-0.6901,2559.741],[36.6169,-0.6919,2563.3855],[36.6202,-0.7068,2550.4607],[36.6369,-0.6995,2572.5913],[36.6422,-0.6939,2595.3413],[36.6424,-0.669,2712.3008],[36.6543,-0.6798,2724.1812],[36.6532,-0.6744,2758.5737],[36.6553,-0.6666,2891.9409],[36.667,-0.6496,3257.6577],[36.6731,-0.6444,3065.1387],[36.6718,-0.6545,3088.3313],[36.7066,-0.6912,3011.8198],[36.7087,-0.681,3146.3696],[36.7078,-0.6718,3291.9844],[36.7094,-0.6578,3409.1382],[36.7058,-0.6405,3519.2842],[36.7079,-0.6297,3816.8374]]]]}
,"properties": {"GID_3": "KEN.35.1.2_1","GID_0": "KEN","country": "Kenya","GID_1": "KEN.35_1","province": "Nyandarua","NL_NAME_1": "NA","GID_2": "KEN.35.1_1","county": "Kinangop","NL_NAME_2": "NA","city": "Gathara","VARNAME_3": "NA","NL_NAME_3": "NA","TYPE_3": "Ward","ENGTYPE_3": "Ward","CC_3": "442","HASC_3": "NA","name": "Gathara.city","area_km2": 150.018,"hist_schema_id": "Elevation0-9000","hist_area_km2": {"2400": 0.2968,"2425": 3.159,"2450": 4.8127,"2475": 7.2084,"2500": 7.8232,"2525": 6.8691,"2550": 7.0599,"2575": 9.5616,"2600": 7.8655,"2625": 6.4663,"2650": 4.9186,"2675": 4.325,"2700": 3.3073,"2725": 3.0953,"2750": 2.8409,"2775": 2.3745,"2800": 2.5229,"2825": 2.4593,"2850": 2.4805,"2875": 2.6925,"2900": 2.6925,"2925": 3.1801,"2950": 2.7773,"2975": 2.9045,"3000": 2.9257,"3025": 3.0953,"3050": 3.5618,"3075": 2.9257,"3100": 2.7561,"3125": 2.6289,"3150": 2.7349,"3175": 2.6077,"3200": 2.4381,"3225": 1.9929,"3250": 1.9505,"3275": 2.0565,"3300": 1.8233,"3325": 1.6113,"3350": 1.2297,"3375": 1.1661,"3400": 0.848,"3425": 1.0176,"3450": 0.8268,"3475": 0.636,"3500": 0.6996,"3525": 0.5512,"3550": 0.2968,"3575": 0.6572,"3600": 0.5724,"3625": 0.5512,"3650": 0.4876,"3675": 0.4664,"3700": 0.3816,"3725": 0.318,"3750": 0.212,"3775": 0.1696,"3800": 0.0848,"3825": 0.0424}}}