{"type": "Feature","bbox": [38.2187,0.9927,39.4625,2.0998],"geometry": {"type": "MultiPolygon","coordinates": [[[[39.4625,0.9935,200.4441],[39.4593,1.0051,201.7326],[39.4435,1.0472,206.4427],[39.4349,1.0647,209.1953],[39.2769,1.4733,305.6353],[39.3705,1.5093,286.9207],[39.4483,1.5357,260.905],[39.4391,1.5379,262.0088],[39.4125,1.5601,264.1133],[39.4037,1.5591,265.0871],[39.3971,1.5643,265.5372],[39.3939,1.5741,266.5009],[39.3873,1.5737,267.09],[39.3851,1.5817,267.6772],[39.3827,1.5847,267.853],[39.3769,1.5875,268.6249],[39.3669,1.6039,270.2316],[39.3583,1.6133,271.6616],[39.3515,1.6253,272.6123],[39.3459,1.6283,273.5032],[39.3411,1.6403,274.4613],[39.3373,1.6393,274.7786],[39.3313,1.6479,276.5865],[39.3215,1.6499,276.7745],[39.3157,1.6603,278.5557],[39.3107,1.6577,277.8365],[39.3085,1.6611,277.6413],[39.3073,1.6681,279.8203],[39.2981,1.6687,279.7437],[39.2843,1.6767,280.8875],[39.2835,1.6803,280.9778],[39.2713,1.6895,284.0323],[39.2607,1.6885,284.6733],[39.2471,1.6992,286.2265],[39.2305,1.7033,288.3308],[39.2265,1.7071,288.9583],[39.2225,1.7084,289.4144],[39.2137,1.7093,290.4506],[39.2037,1.7161,291.9543],[39.1895,1.7449,296.0508],[39.1801,1.7577,298.1255],[39.1719,1.7887,301.0207],[39.1679,1.7981,302.2221],[39.1649,1.8005,302.5677],[39.1618,1.8067,303.5083],[39.1603,1.8133,304.4513],[39.1515,1.8223,305.8716],[39.1479,1.8313,306.7864],[39.1417,1.8376,307.1476],[39.1433,1.8533,309.7596],[39.1391,1.8555,309.8682],[39.1293,1.8737,313.9984],[39.1181,1.886,315.0993],[39.1029,1.8931,317.4124],[39.0955,1.9018,318.9198],[39.0879,1.9039,320.626],[39.0821,1.9105,320.8712],[39.0732,1.9148,321.824],[39.0599,1.9273,323.7227],[39.0577,1.9407,325.1601],[39.0469,1.9485,326.4786],[39.0437,1.9569,327.2316],[39.0336,1.9696,329.3301],[39.0305,1.9776,330.6347],[39.0248,1.9837,331.469],[39.0131,1.9917,333.1749],[39.0041,2.0029,335.3511],[38.9945,2.0067,336.4465],[38.9897,2.0297,339.4507],[38.9927,2.0397,340.5348],[38.9897,2.0463,341.2514],[38.9847,2.0507,342.346],[38.9847,2.0706,344.1497],[38.9612,2.0998,349.567],[38.8355,2.0261,344.6694],[38.7887,1.9949,341.1783],[38.3847,1.7619,349.9947],[38.3415,1.5787,359.62],[38.2329,1.4933,361.0865],[38.2231,1.4853,358.8749],[38.2187,1.4797,358.0151],[38.2289,1.4729,356.7474],[38.2505,1.4687,353.8295],[38.2551,1.4649,353.1266],[38.2677,1.4595,353.2587],[38.2809,1.4565,350.1976],[38.2861,1.4533,348.1931],[38.2951,1.4539,349.2778],[38.3079,1.4443,344.5089],[38.3201,1.4385,342.4483],[38.3313,1.4375,340.7963],[38.3383,1.4309,338.8433],[38.3481,1.4291,336.0402],[38.3569,1.4299,334.7378],[38.3869,1.4161,329.2796],[38.4165,1.4057,322.788],[38.4281,1.4061,321.3066],[38.4507,1.4107,316.2795],[38.4739,1.3727,321.9203],[38.4967,1.3407,323.588],[38.5031,1.3323,323.779],[38.5141,1.3255,323.0284],[38.4937,1.3121,330.6011],[38.4919,1.3053,332.1995],[38.4875,1.3001,333.9588],[38.4821,1.2985,336.9913],[38.4735,1.2905,340.0812],[38.4579,1.2825,346.2589],[38.4511,1.2713,350.3855],[38.4427,1.2631,355.3087],[38.4369,1.2621,357.6039],[38.4821,1.1895,383.1521],[38.5083,1.1545,367.5314],[38.5309,1.1357,359.8575],[38.5549,1.1199,351.868],[38.5801,1.0615,363.1592],[38.5845,1.0487,480.1345],[38.5885,1.0273,308.6906],[38.5943,1.0239,310.515],[38.6043,1.0235,306.718],[38.6079,1.0201,307.9608],[38.6097,1.0217,306.7041],[38.6133,1.0165,306.8878],[38.6165,1.0155,305.3741],[38.6201,1.0175,304.3208],[38.6255,1.0151,304.2551],[38.6297,1.0193,304.2302],[38.6311,1.0165,303.5068],[38.6349,1.0173,303.8758],[38.6351,1.0205,303.4712],[38.6409,1.0219,301.7025],[38.6453,1.0207,300.2155],[38.651,1.0255,299.0024],[38.6537,1.0241,299.5905],[38.6559,1.0303,298.8267],[38.6597,1.0275,300.3389],[38.6605,1.0305,294.2104],[38.6573,1.0341,297.0941],[38.6571,1.0369,299.623],[38.6605,1.0383,295.0387],[38.6617,1.0425,294.1659],[38.6641,1.0451,294.473],[38.6697,1.0467,291.3789],[38.6718,1.0446,292.3039],[38.6701,1.0497,291.0219],[38.6875,1.0597,288.86],[38.6889,1.0615,288.8915],[38.6885,1.0652,289.3615],[38.6941,1.0687,289.6024],[38.6965,1.0725,288.6806],[38.6995,1.0709,285.8151],[38.7025,1.0733,284.6581],[38.7099,1.0749,283.5233],[38.7155,1.0707,282.3633],[38.7191,1.0721,281.9735],[38.7231,1.0777,281.1922],[38.7239,1.0925,278.8472],[38.7289,1.0941,279.0086],[38.7321,1.0985,277.5686],[38.7285,1.1049,276.6467],[38.7367,1.1093,275.6695],[38.7411,1.1055,275.4454],[38.7435,1.1073,275.3081],[38.7443,1.1251,273.1068],[38.7467,1.1265,273.3989],[38.7493,1.1321,272.3904],[38.7565,1.1339,271.6668],[38.7549,1.1373,270.9667],[38.758,1.1413,270.374],[38.7641,1.1407,270.6151],[38.7657,1.1441,269.9445],[38.7717,1.1475,269.3959],[38.7717,1.1451,270.3713],[38.7739,1.1439,269.9385],[38.7777,1.1475,271.1497],[38.7771,1.1501,268.4963],[38.7789,1.1533,267.8734],[38.7825,1.1531,267.8524],[38.7839,1.1553,267.7128],[38.7863,1.1543,267.6797],[38.7875,1.1567,267.5385],[38.7915,1.1569,267.6777],[38.7927,1.1611,267.2023],[38.7963,1.1601,265.6304],[38.7977,1.1639,264.637],[38.8084,1.1655,263.5103],[38.8113,1.1695,263.4049],[38.8151,1.1705,263.7516],[38.8195,1.1783,263.2102],[38.8219,1.1779,264.3194],[38.8217,1.1815,263.0296],[38.8291,1.1841,263.0402],[38.8299,1.1797,264.9651],[38.8413,1.1887,263.0333],[38.8494,1.19,263.554],[38.8513,1.1921,260.6523],[38.8511,1.1945,260.9655],[38.8577,1.1929,259.8454],[38.8589,1.1991,258.3223],[38.8614,1.1957,260.881],[38.8742,1.1965,256.8983],[38.8835,1.1991,257.2347],[38.8931,1.1939,253.355],[38.9001,1.1921,253.2619],[38.9013,1.1899,254.6078],[38.9069,1.1901,252.0312],[38.9143,1.1927,251.8234],[38.9251,1.2037,251.5615],[38.9329,1.1953,252.1151],[38.9351,1.1959,249.2753],[38.9403,1.1921,249.0296],[38.9425,1.1923,248.3497],[38.9591,1.1967,246.5323],[38.9667,1.2037,247.656],[38.9673,1.2065,246.4847],[38.9693,1.2055,246.5078],[38.9771,1.2107,245.602],[38.9855,1.2069,244.7424],[39.0021,1.2091,244.6915],[39.0087,1.2077,244.7102],[39.0185,1.2037,242.9448],[39.0203,1.2013,244.4277],[39.0269,1.2035,243.7919],[39.0366,1.2024,239.8923],[39.0407,1.2005,239.6083],[39.0421,1.1977,239.3535],[39.0481,1.1965,238.5859],[39.0655,1.1855,237.7735],[39.0841,1.1863,237.5067],[39.0935,1.1795,234.5271],[39.1167,1.1779,231.9074],[39.1207,1.1713,233.2048],[39.1237,1.1701,232.3058],[39.1365,1.1703,230.5126],[39.1379,1.1667,230.6742],[39.1449,1.1625,229.9606],[39.1601,1.1425,227.267],[39.1661,1.1383,227.4448],[39.1759,1.1353,226.689],[39.1795,1.1301,225.783],[39.1771,1.1243,225.7262],[39.1869,1.1093,224.0549],[39.1895,1.1095,223.5401],[39.1947,1.1051,223.097],[39.2075,1.1047,222.0576],[39.2109,1.1029,222.055],[39.2225,1.1065,221.0979],[39.2293,1.1049,220.2487],[39.2387,1.1057,220.1762],[39.2481,1.1005,219.1506],[39.2641,1.1035,217.4781],[39.2709,1.1011,216.8463],[39.2781,1.0959,216.0911],[39.2839,1.0967,216.0806],[39.2973,1.0937,215.3026],[39.3005,1.0951,214.8509],[39.3205,1.0837,213.3292],[39.3271,1.0767,214.1625],[39.3329,1.0797,213.9942],[39.3381,1.0723,214.607],[39.3497,1.0637,211.3564],[39.3559,1.0627,211.0842],[39.3667,1.0645,209.4572],[39.3719,1.0621,209.9861],[39.3759,1.0575,210.4171],[39.3829,1.0577,207.7616],[39.3939,1.0531,207.3082],[39.3961,1.0501,207.7388],[39.4087,1.0421,207.8248],[39.4217,1.0293,204.7013],[39.4373,1.0205,203.4341],[39.4473,1.0129,202.3559],[39.4535,1.0035,201.4908],[39.4615,0.9955,200.976],[39.4595,0.9927,201.0969],[39.4621,0.9949,200.8953],[39.4625,0.9935,200.4441]]]]}
,"properties": {"GID_3": "KEN.9.1.4_1","GID_0": "KEN","country": "Kenya","GID_1": "KEN.9_1","province": "Isiolo","NL_NAME_1": "NA","GID_2": "KEN.9.1_1","county": "IsioloNorth","NL_NAME_2": "NA","city": "Cherab","VARNAME_3": "NA","NL_NAME_3": "NA","TYPE_3": "Ward","ENGTYPE_3": "Ward","CC_3": "244","HASC_3": "NA","name": "Cherab.city","area_km2": 9026.88,"hist_schema_id": "Elevation0-9000","hist_area_km2": {"200": 77.247,"225": 866.311,"250": 1210.047,"275": 1419.473,"300": 1906.75,"325": 2655.119,"350": 841.907,"375": 24.8,"400": 6.444,"425": 7.991,"450": 3.964,"475": 6.826}}}