{"type":"Feature","properties":{"GID_3":"KEN.36.5.1_1","GID_0":"KEN","country":"Kenya","GID_1":"KEN.36_1","province":"Nyeri","NL_NAME_1":"NA","GID_2":"KEN.36.5_1","county":"Othaya","NL_NAME_2":"NA","city":"Chinga","VARNAME_3":"NA","NL_NAME_3":"NA","TYPE_3":"Ward","ENGTYPE_3":"Ward","CC_3":"485","HASC_3":"NA","name":"Chinga.city"},
"geometry":{"type": "MultiPolygon","coordinates": [[[[36.7086,-0.6195,3597.6543],[36.7104,-0.6136,3552.915],[36.7095,-0.6053,3429.4482],[36.7122,-0.6017,3361.0659],[36.7093,-0.596,3286.0107],[36.7102,-0.5889,3206.5732],[36.7081,-0.581,3142.355],[36.7134,-0.577,3076.7266],[36.717,-0.5715,3065.501],[36.7221,-0.5692,3087.0505],[36.7243,-0.5649,3089.0762],[36.7351,-0.5604,3029.6548],[36.7492,-0.565,2979.4543],[36.7581,-0.5624,2823.1855],[36.7629,-0.5632,2829.9021],[36.7783,-0.5608,2721.5989],[36.7941,-0.5648,2540.082],[36.8028,-0.563,2474.5898],[36.8092,-0.5651,2447.9573],[36.8102,-0.5742,2447.8735],[36.8116,-0.5756,2420.9707],[36.8227,-0.5778,2382.8564],[36.8382,-0.5887,2275.4883],[36.8462,-0.5882,2212.137],[36.8613,-0.601,2082.929],[36.867,-0.5991,2036.7295],[36.8767,-0.6006,1990.726],[36.8824,-0.6024,2038.5193],[36.8846,-0.6054,2067.1052],[36.8942,-0.6028,2033.0775],[36.9137,-0.6042,1993.0808],[36.9201,-0.5981,1890.9293],[36.9243,-0.5992,1856.9233],[36.9371,-0.5922,1859.6985],[36.9496,-0.5891,1800.7318],[36.9557,-0.5836,1812.8655],[36.9671,-0.5813,1828.8818],[36.9699,-0.578,1802.49],[36.9778,-0.5734,1794.8613],[36.9729,-0.5631,1780.363],[36.9681,-0.5662,1836.6758],[36.9584,-0.5638,1808.4727],[36.9572,-0.5669,1795.0636],[36.9517,-0.5643,1858.5841],[36.9478,-0.566,1834.5264],[36.9465,-0.5685,1837.0601],[36.9453,-0.5662,1857.8169],[36.9467,-0.5648,1834.5264],[36.94,-0.5649,1862.6637],[36.9376,-0.5635,1875.9817],[36.938,-0.5616,1884.078],[36.9328,-0.5594,1881.2941],[36.925,-0.5658,1892.7974],[36.9256,-0.5677,1890.5874],[36.9224,-0.5659,1898.6907],[36.9179,-0.5679,1928.8647],[36.9148,-0.5653,1921.9812],[36.9082,-0.5675,1928.9447],[36.9062,-0.5714,1970.886],[36.9016,-0.5718,1983.1899],[36.8981,-0.5691,1994.9984],[36.8946,-0.5689,1999.2161],[36.8945,-0.5675,1992.9656],[36.8868,-0.5669,2000.629],[36.8832,-0.5625,1942.3942],[36.8744,-0.5616,1981.8447],[36.872,-0.5632,2023.7351],[36.8643,-0.5613,2117.3718],[36.8597,-0.563,2121.0723],[36.8569,-0.5613,2155.896],[36.854,-0.5624,2144.9692],[36.8501,-0.5584,2187.5728],[36.8428,-0.5556,2144.7034],[36.8426,-0.5515,2176.5044],[36.8404,-0.5506,2176.814],[36.8405,-0.5481,2187.9705],[36.8381,-0.5454,2228.1772],[36.8338,-0.544,2247.0032],[36.8206,-0.5429,2419.7178],[36.8104,-0.5464,2444.6721],[36.8002,-0.5463,2557.2456],[36.7945,-0.5432,2674.7432],[36.7918,-0.5439,2671.7683],[36.7869,-0.5391,2680.8865],[36.783,-0.542,2658.73],[36.7754,-0.5392,2777.6396],[36.7709,-0.5411,2826.0928],[36.7636,-0.5414,2925.9058],[36.7594,-0.5443,2898.2292],[36.7488,-0.5377,2687.2947],[36.7481,-0.5393,2801.48],[36.6806,-0.5728,3191.2661],[36.6796,-0.5817,3286.3975],[36.6844,-0.5924,3336.1089],[36.6898,-0.5983,3422.6772],[36.7013,-0.6161,3495.9336],[36.7076,-0.6212,3633.8394],[36.7086,-0.6195,3597.6543]]]]}}