{"type": "Feature","bbox": [40.2391,0.8127,40.7901,1.642],"geometry": {"type": "MultiPolygon","coordinates": [[[[40.5005,1.0521,153.6987],[40.5065,1.0661,153.1417],[40.5069,1.0731,152.6774],[40.5035,1.0843,152.005],[40.5029,1.0921,151.988],[40.5071,1.1013,151.2879],[40.5161,1.1067,150.7712],[40.5265,1.1095,150.9956],[40.5449,1.1075,148.2743],[40.5597,1.1083,146.9498],[40.5747,1.1151,146.5551],[40.5821,1.1155,145.7246],[40.5899,1.1195,144.8624],[40.6093,1.1251,142.5036],[40.6159,1.1305,140.2209],[40.6185,1.1351,140.1321],[40.6205,1.1489,141.6006],[40.6437,1.1521,138.8152],[40.6677,1.1507,136.3671],[40.6913,1.1343,131.8278],[40.7113,1.1287,129.7298],[40.7291,1.1173,127.5307],[40.7533,1.1057,124.1944],[40.7679,1.0963,122.2849],[40.7747,1.0947,121.9142],[40.7837,1.0997,120.908],[40.7725,1.0997,121.9298],[40.7593,1.1083,124.0323],[40.7581,1.1137,124.8079],[40.7521,1.1203,126.2273],[40.7483,1.1281,127.7345],[40.7473,1.1405,128.5368],[40.7425,1.1481,129.344],[40.7411,1.1569,130.3084],[40.7425,1.1647,130.4187],[40.7505,1.1815,128.9028],[40.7623,1.1963,124.2927],[40.7685,1.2079,126.7698],[40.7737,1.2339,129.9241],[40.7775,1.2417,127.7647],[40.7845,1.2471,129.6077],[40.7875,1.2607,132.6282],[40.7869,1.2705,133.8508],[40.7889,1.2787,135.0275],[40.7901,1.2983,138.5105],[40.7861,1.3097,137.4446],[40.7879,1.3217,139.7163],[40.7817,1.3491,142.3802],[40.7857,1.3961,150.1073],[40.7817,1.4151,150.7126],[40.7901,1.4651,159.0867],[40.7893,1.4831,162.2502],[40.7869,1.4961,164.5536],[40.7817,1.5029,165.6945],[40.7673,1.5073,168.2917],[40.7605,1.5029,165.9817],[40.7531,1.4917,163.7274],[40.7473,1.4871,166.1105],[40.7403,1.4845,167.4102],[40.7233,1.4839,169.9789],[40.7163,1.4755,169.3983],[40.7095,1.4717,169.6317],[40.7039,1.4715,169.544],[40.7015,1.4881,172.0362],[40.6913,1.5019,173.9577],[40.6859,1.5133,175.5397],[40.6765,1.5221,177.1956],[40.6727,1.5367,179.1339],[40.6689,1.5417,179.7764],[40.6529,1.5527,180.0688],[40.6423,1.5563,176.5927],[40.6303,1.5639,175.7075],[40.6167,1.5661,183.5267],[40.5451,1.5863,192.6855],[40.5307,1.5867,192.9529],[40.5029,1.5813,190.8465],[40.4937,1.5717,187.9378],[40.4907,1.5621,186.6243],[40.4837,1.5521,184.0781],[40.4799,1.5635,188.6428],[40.4775,1.5665,190.4464],[40.4611,1.5769,187.3808],[40.4533,1.5841,190.3324],[40.4343,1.5953,196.9054],[40.4269,1.6021,199.2239],[40.4165,1.5965,199.4562],[40.4047,1.5925,200.4424],[40.3857,1.5915,202.4242],[40.3739,1.5969,204.4109],[40.3631,1.6141,210.724],[40.3581,1.6303,214.8492],[40.3571,1.6403,216.7122],[40.355,1.642,218.653],[40.3397,1.6331,216.3942],[40.3101,1.6287,212.7836],[40.2937,1.6179,217.474],[40.2747,1.5991,217.4162],[40.2717,1.5917,217.5199],[40.2597,1.5375,204.5098],[40.2579,1.5335,203.3116],[40.2447,1.5225,202.4716],[40.2391,1.5157,201.701],[40.2453,1.5011,199.617],[40.2463,1.4887,198.794],[40.2515,1.4759,196.2005],[40.2555,1.4573,193.3345],[40.2557,1.4275,187.4587],[40.2549,1.4197,186.3028],[40.2507,1.4103,188.2941],[40.2513,1.3995,185.3203],[40.2607,1.3913,184.4724],[40.2637,1.3815,184.8028],[40.2671,1.3791,184.7046],[40.2735,1.3689,184.1018],[40.2717,1.3541,185.0974],[40.2737,1.3497,184.9229],[40.2731,1.3445,185.034],[40.2777,1.3347,184.303],[40.3019,1.1133,168.9101],[40.2963,1.1105,169.1469],[40.2853,1.1083,170.5736],[40.2779,1.1111,171.5869],[40.2715,1.1103,171.2055],[40.2633,1.1121,171.9246],[40.2565,1.1103,171.7314],[40.2607,1.1031,175.0646],[40.2637,1.0913,179.5374],[40.2627,1.0701,183.017],[40.2663,1.0559,183.9955],[40.2699,1.0301,181.5618],[40.2699,1.0265,181.0727],[40.2679,1.0241,181.3914],[40.2703,1.0263,181.0727],[40.2733,1.0117,182.2773],[40.2797,0.9983,181.0107],[40.2803,0.9791,180.8044],[40.2833,0.9759,180.3071],[40.2849,0.9677,180.7088],[40.2915,0.9609,180.3853],[40.3007,0.9445,179.2338],[40.3075,0.9217,178.2829],[40.3109,0.9177,175.9591],[40.3135,0.9107,173.7657],[40.3253,0.8941,169.1282],[40.3383,0.8863,166.4878],[40.3447,0.8753,162.8571],[40.3605,0.8701,155.6255],[40.3711,0.8611,150.5959],[40.3847,0.8561,143.8948],[40.3913,0.8485,139.2887],[40.3945,0.8419,137.6091],[40.4077,0.8329,131.3938],[40.4139,0.8223,128.034],[40.4247,0.8127,123.8044],[40.4309,0.8175,123.948],[40.4383,0.8261,124.4256],[40.4421,0.8343,125.4736],[40.4469,0.8377,125.9801],[40.4623,0.8385,124.293],[40.4647,0.8401,124.1552],[40.4633,0.8597,129.5806],[40.4601,0.8767,134.4238],[40.4643,0.8833,137.2117],[40.4643,0.8915,140.5895],[40.4681,0.9001,140.6651],[40.4679,0.9071,144.083],[40.4703,0.9185,146.7958],[40.4655,0.9285,148.3282],[40.4545,0.9377,151.4935],[40.4487,0.9465,153.8762],[40.4423,0.9789,158.4766],[40.4475,0.9949,160.041],[40.4535,1.0031,159.147],[40.4559,1.0253,157.8677],[40.4603,1.0437,156.9936],[40.4655,1.0577,152.3408],[40.4677,1.0587,152.2062],[40.4707,1.0585,151.6947],[40.4767,1.0529,151.3937],[40.4801,1.0517,154.3401],[40.4845,1.0513,154.1292],[40.4949,1.0551,154.1756],[40.5005,1.0521,153.6987]]]]}
,"properties": {"GID_3": "KEN.46.5.2_1","GID_0": "KEN","country": "Kenya","GID_1": "KEN.46_1","province": "Wajir","NL_NAME_1": "NA","GID_2": "KEN.46.5_1","county": "WajirSouth","NL_NAME_2": "NA","city": "Burder","VARNAME_3": "NA","NL_NAME_3": "NA","TYPE_3": "Ward","ENGTYPE_3": "Ward","CC_3": "185","HASC_3": "NA","name": "Burder.city","area_km2": 3382.635,"hist_schema_id": "Elevation0-9000","hist_area_km2": {"125": 200.956,"150": 1177.042,"175": 1651.77,"200": 334.344,"225": 18.523}}}