{"type":"Feature","properties":{"GID_3":"KEN.34.2.4_1","GID_0":"KEN","country":"Kenya","GID_1":"KEN.34_1","province":"Nyamira","NL_NAME_1":"NA","GID_2":"KEN.34.2_1","county":"KitutuMasaba","NL_NAME_2":"NA","city":"Magombo","VARNAME_3":"NA","NL_NAME_3":"NA","TYPE_3":"Ward","ENGTYPE_3":"Ward","CC_3":"1349","HASC_3":"NA","name":"Magombo.city"},
"geometry":{"type": "MultiPolygon","coordinates": [[[[34.8879,-0.6069,1946.8101],[34.8824,-0.6194,1989.5088],[34.8843,-0.6262,1983.1274],[34.8834,-0.6318,1997.161],[34.8811,-0.6342,1988.4415],[34.8825,-0.6365,2027.7446],[34.8819,-0.6422,1989.6373],[34.8881,-0.6419,2043.5653],[34.8899,-0.6515,1978.6326],[34.8989,-0.6547,1978.4556],[34.8991,-0.6623,1987.0286],[34.8935,-0.6633,1970.1979],[34.889,-0.6596,2052.0664],[34.8828,-0.6614,1992.2104],[34.8741,-0.6583,2043.2759],[34.8744,-0.6555,2078.3005],[34.8695,-0.655,2055.4563],[34.8689,-0.6527,2012.9764],[34.865,-0.6515,1923.3469],[34.8618,-0.6517,1906.5133],[34.86,-0.6607,1958.2262],[34.8671,-0.6623,1956.0967],[34.8721,-0.6686,2059.3743],[34.8723,-0.6748,2040.4],[34.8773,-0.679,1932.0347],[34.8856,-0.6762,1887.6899],[34.8876,-0.673,1944.4257],[34.8913,-0.6756,1978.1907],[34.8936,-0.6806,1912.3999],[34.8995,-0.6738,1896.2781],[34.9027,-0.6775,1894.6826],[34.9065,-0.6776,1936.2002],[34.9076,-0.6873,1919.4468],[34.9094,-0.6904,1873.515],[34.9124,-0.688,1872.4949],[34.9124,-0.6863,1888.6001],[34.9178,-0.6875,1856.5381],[34.9196,-0.6845,1852.334],[34.925,-0.6855,1869.5803],[34.9308,-0.683,1873.9126],[34.936,-0.6776,1868.5087],[34.9424,-0.6619,1861.2368],[34.9318,-0.6578,1934.3744],[34.9082,-0.6406,2017.8994],[34.9011,-0.6295,2012.8271],[34.9027,-0.619,1999.0917],[34.9,-0.6134,1975.9214],[34.8895,-0.6053,1989.7003],[34.8879,-0.6069,1946.8101]]]]}}