{"type":"Feature","properties":{"GID_2":"KEN.30.7_1","GID_0":"KEN","country":"Kenya","GID_1":"KEN.30_1","province":"Nairobi","NL_NAME_1":"NA","county":"EmbakasiWest","VARNAME_2":"NA","NL_NAME_2":"NA","TYPE_2":"Constituency","ENGTYPE_2":"Constituency","CC_2":"286","HASC_2":"NA","name":"Embakasi_West.county"},
"geometry":{"type": "MultiPolygon","coordinates": [[[[36.8859,-1.2923,1626.4635],[36.8922,-1.2889,1623.5614],[36.902,-1.2795,1611.5863],[36.8973,-1.2695,1609.1816],[36.9084,-1.2583,1591.4999],[36.9137,-1.2564,1589.7849],[36.9091,-1.2546,1584.6421],[36.8974,-1.2543,1602.1315],[36.8884,-1.2583,1607.0138],[36.8783,-1.2599,1613.8184],[36.8783,-1.2635,1604.7698],[36.8773,-1.2656,1609.1316],[36.8745,-1.2658,1615.3661],[36.8699,-1.2782,1615.1318],[36.8644,-1.281,1629.7733],[36.8666,-1.285,1630.6289],[36.8739,-1.2787,1621.2053],[36.8755,-1.2813,1623.9043],[36.8777,-1.2795,1621.4027],[36.8805,-1.2797,1621.6226],[36.8785,-1.2755,1617.751],[36.8816,-1.2746,1615.9371],[36.8859,-1.2923,1626.4635]]]]}}