{"type": "Feature","bbox": [36.7747,-1.2721,36.8262,-1.2447],"geometry": {"type": "MultiPolygon","coordinates": [[[[36.8114,-1.2721,1693.4509],[36.8152,-1.2671,1688.0005],[36.82,-1.2665,1685.3923],[36.8226,-1.2639,1679.1841],[36.8262,-1.2563,1678.135],[36.8245,-1.2529,1686.2354],[36.8196,-1.2507,1690.4562],[36.8078,-1.2512,1698.5881],[36.7998,-1.2474,1705.4263],[36.7787,-1.2447,1750.1279],[36.7747,-1.2528,1745.5149],[36.7753,-1.2569,1774.5345],[36.7795,-1.2562,1741.4362],[36.7987,-1.2591,1720.391],[36.8114,-1.2721,1693.4509]]]]}
,"properties": {"GID_3": "KEN.30.17.5_1","GID_0": "KEN","country": "Kenya","GID_1": "KEN.30_1","province": "Nairobi","NL_NAME_1": "NA","GID_2": "KEN.30.17_1","county": "Westlands","NL_NAME_2": "NA","city": "Parklands/Highridge","VARNAME_3": "NA","NL_NAME_3": "NA","TYPE_3": "Ward","ENGTYPE_3": "Ward","CC_3": "1367","HASC_3": "NA","name": "Parklands_Highridge.city","area_km2": 8.266874,"hist_schema_id": "Elevation0-9000","hist_area_km2": {"1650": 0.021197,"1675": 1.229431,"1700": 3.6459,"1725": 2.268094,"1750": 1.059858,"1775": 0.042394}}}