{"type":"Feature","properties":{"GID_3":"KEN.26.2.3_1","GID_0":"KEN","country":"Kenya","GID_1":"KEN.26_1","province":"Meru","NL_NAME_1":"NA","GID_2":"KEN.26.2_1","county":"CentralImenti","NL_NAME_2":"NA","city":"Mwanganthia","VARNAME_3":"NA","NL_NAME_3":"NA","TYPE_3":"Ward","ENGTYPE_3":"Ward","CC_3":"285","HASC_3":"NA","name":"Mwanganthia.city"},
"geometry":{"type": "MultiPolygon","coordinates": [[[[37.3107,-0.1483,4707.9248],[37.5733,-0.0271,2044.5743],[37.5781,-0.0229,1990.9921],[37.5869,-0.0214,1949.8663],[37.6019,-0.0232,1884.2646],[37.6173,-0.0272,1759.8076],[37.6213,-0.0266,1723.7896],[37.6279,-0.0311,1678.1375],[37.6331,-0.032,1656.1046],[37.6353,-0.0348,1623.3643],[37.6513,-0.0348,1544.7972],[37.6471,-0.0313,1580.8927],[37.6497,-0.0289,1553.5067],[37.6465,-0.0276,1613.1089],[37.6433,-0.0222,1596.7664],[37.6385,-0.0203,1628.4033],[37.6415,-0.0172,1608.4951],[37.6393,-0.0134,1629.8185],[37.6419,-0.0035,1632.5372],[37.6413,-0.0006,1669.2629],[37.6351,0.0067,1669.5974],[37.6331,0.0137,1710.7213],[37.6187,0.0211,1782.2211],[37.6105,0.0297,1811.889],[37.6047,0.0309,1862.7866],[37.5977,0.0351,1915.8856],[37.5929,0.0489,1940.3381],[37.5767,0.0449,2026.6243],[37.5605,0.0383,2128.7568],[37.5119,0.0157,2444.9856],[37.4941,0.0051,2672.0698],[37.4005,-0.075,3507.9937],[37.3107,-0.1483,4707.9248]]]]}}