{"type": "Feature","bbox": [33.9096,-0.0239,34.4346,0.7802],"geometry": {"type": "MultiPolygon","coordinates": [[[[34.0292,-0.0142,1137.8571],[34.0421,0.0043,1139.9589],[34.066,0.095,1140.6893],[34.0732,0.1068,1142.9718],[34.0735,0.1163,1143.8606],[34.0719,0.1244,1144.4453],[34.0751,0.1243,1144.5123],[34.0809,0.1271,1145.4202],[34.0842,0.1267,1143.5826],[34.0859,0.1308,1144.7473],[34.09,0.1293,1147.5798],[34.0933,0.1349,1145.6224],[34.0994,0.1404,1154.6055],[34.1051,0.1401,1172.1664],[34.1027,0.1354,1206.9655],[34.1026,0.1298,1210.6744],[34.1113,0.1398,1150.0157],[34.115,0.154,1157.1072],[34.1128,0.1535,1151.1499],[34.1108,0.1669,1165.8397],[34.1119,0.1798,1175.6846],[34.1051,0.191,1186.3958],[34.1106,0.2046,1183.9136],[34.1092,0.2099,1193.3954],[34.1134,0.2142,1217.9734],[34.1162,0.223,1235.2694],[34.1165,0.2464,1269.2103],[34.1329,0.2558,1235.199],[34.1384,0.2614,1246.2172],[34.1475,0.2745,1314.5183],[34.1586,0.2949,1434.856],[34.1594,0.3051,1363.2471],[34.1737,0.3003,1344.395],[34.1777,0.2935,1295.5983],[34.1824,0.2907,1273.2627],[34.1855,0.2806,1257.4523],[34.1914,0.2764,1267.7194],[34.2008,0.2732,1244.442],[34.2027,0.2702,1238.7806],[34.2032,0.265,1224.9481],[34.205,0.2678,1224.877],[34.2041,0.2745,1241.4216],[34.2059,0.2797,1234.1963],[34.205,0.2902,1253.5139],[34.2361,0.2963,1257.7065],[34.2404,0.3017,1253.9967],[34.247,0.3158,1268.6858],[34.2507,0.3175,1258.0415],[34.2562,0.3168,1260.6705],[34.2657,0.3119,1283.8],[34.2765,0.3149,1301.3699],[34.2888,0.3118,1286.7902],[34.2947,0.3135,1273.2672],[34.2948,0.3123,1273.2672],[34.3139,0.3119,1293.0853],[34.3344,0.314,1270.8259],[34.3676,0.3069,1251.9927],[34.3794,0.3164,1270.6769],[34.3829,0.3217,1267.4305],[34.3856,0.3391,1269.9937],[34.3858,0.3565,1298.0581],[34.4,0.3659,1281.9211],[34.4153,0.3703,1291.1162],[34.4225,0.3756,1285.9565],[34.4129,0.3833,1276.4164],[34.4078,0.3895,1267.2798],[34.3922,0.3996,1264.145],[34.3847,0.4013,1247.6248],[34.3779,0.4092,1257.922],[34.3685,0.409,1250.4543],[34.3661,0.4077,1245.0913],[34.3598,0.4098,1225.6517],[34.3505,0.4226,1225.7955],[34.3431,0.429,1230.8187],[34.3564,0.4407,1236.8932],[34.3644,0.4451,1240.0814],[34.3682,0.4614,1224.5898],[34.3761,0.4649,1231.6055],[34.3822,0.4628,1235.735],[34.3868,0.4664,1242.939],[34.3896,0.4656,1238.4647],[34.3911,0.4724,1250.1804],[34.3887,0.4756,1259.3462],[34.3859,0.4892,1253.1514],[34.3859,0.4989,1227.4417],[34.3896,0.5034,1247.6338],[34.4029,0.5046,1252.5212],[34.4085,0.5094,1257.0851],[34.4067,0.5161,1263.522],[34.401,0.5215,1257.119],[34.3908,0.5428,1241.2404],[34.382,0.5482,1256.2531],[34.379,0.5537,1259.3434],[34.3682,0.5657,1254.5332],[34.3768,0.5831,1263.5592],[34.3707,0.593,1257.6494],[34.3697,0.6097,1233.8545],[34.3709,0.6118,1239.844],[34.3758,0.6117,1259.6543],[34.3785,0.6173,1315.8947],[34.3787,0.6285,1290.0389],[34.3837,0.6381,1233.3148],[34.3831,0.6467,1241.4371],[34.386,0.6479,1244.5488],[34.3859,0.6497,1239.4158],[34.3903,0.651,1288.786],[34.3916,0.6495,1272.4187],[34.3944,0.6531,1314.937],[34.3926,0.6536,1320.8333],[34.3934,0.6547,1324.1982],[34.3958,0.6537,1314.937],[34.4059,0.6591,1321.6763],[34.4145,0.6615,1326.2291],[34.4172,0.664,1330.8855],[34.409,0.6857,1432.8237],[34.4154,0.6941,1356.0027],[34.4043,0.7307,1418.1079],[34.4074,0.7315,1443.3684],[34.4126,0.7282,1466.1002],[34.4152,0.73,1444.3137],[34.418,0.7281,1437.483],[34.4199,0.7302,1409.8997],[34.423,0.7296,1387.3955],[34.4272,0.7332,1368.7915],[34.4316,0.7306,1356.4059],[34.4346,0.7408,1370.3513],[34.4335,0.749,1408.7375],[34.43,0.7561,1439.3],[34.423,0.7625,1398.1086],[34.4118,0.7667,1378.3643],[34.4045,0.7603,1386.0258],[34.3984,0.7598,1369.5118],[34.3922,0.7644,1356.7051],[34.3826,0.7779,1347.4216],[34.3735,0.778,1308.9385],[34.3732,0.7765,1320.3752],[34.3707,0.7763,1312.4111],[34.3635,0.7802,1287.989],[34.361,0.777,1273.2889],[34.3588,0.7786,1284.0845],[34.354,0.7763,1292.8745],[34.354,0.7741,1279.2448],[34.3453,0.7747,1266.8839],[34.3419,0.7715,1250.064],[34.3369,0.7715,1268.8545],[34.3373,0.7704,1250.8184],[34.3344,0.7684,1243.3535],[34.3276,0.769,1243.1449],[34.3214,0.7678,1234.0586],[34.3221,0.7663,1230.8259],[34.3185,0.7675,1251.0986],[34.3176,0.765,1235.8516],[34.3141,0.7641,1243.9166],[34.3145,0.7607,1226.6362],[34.3124,0.759,1239.6991],[34.3081,0.7641,1274.681],[34.3043,0.7654,1272.4191],[34.2988,0.7617,1310.9348],[34.297,0.7579,1315.2717],[34.3036,0.7551,1285.7108],[34.305,0.75,1253.9633],[34.3109,0.7489,1222.699],[34.3072,0.732,1214.6259],[34.3091,0.7286,1207.2637],[34.307,0.7233,1200.0734],[34.3082,0.7166,1198.7437],[34.3098,0.7157,1217.8815],[34.3091,0.7083,1192.8715],[34.3136,0.7008,1187.3015],[34.312,0.697,1181.1287],[34.3075,0.6978,1196.9672],[34.3029,0.6936,1181.7247],[34.3002,0.6926,1183.1458],[34.298,0.6937,1188.6202],[34.297,0.6906,1187.9849],[34.2942,0.691,1190.3455],[34.2953,0.6875,1184.0818],[34.2934,0.6888,1186.1379],[34.2932,0.687,1179.5842],[34.2881,0.6855,1179.9968],[34.2889,0.6845,1181.1958],[34.2867,0.683,1164.0201],[34.2838,0.6833,1167.7358],[34.2833,0.6848,1175.5968],[34.2778,0.6816,1177.605],[34.2774,0.6731,1159.9673],[34.2807,0.6669,1154.1093],[34.2795,0.667,1154.1093],[34.2795,0.6643,1152.715],[34.2776,0.6639,1158.303],[34.2794,0.6591,1153.2045],[34.2761,0.6585,1168.0841],[34.2785,0.6566,1151.568],[34.2774,0.6545,1150.0034],[34.2789,0.6517,1148.5231],[34.2768,0.643,1143.5197],[34.2731,0.6429,1148.0312],[34.2726,0.6417,1142.8396],[34.2717,0.6436,1152.8396],[34.2701,0.6426,1156.1472],[34.2713,0.6403,1139.2266],[34.2692,0.6423,1156.1472],[34.267,0.6396,1148.868],[34.2609,0.6397,1150.1495],[34.2605,0.6379,1140.2988],[34.2572,0.6369,1143.7516],[34.2571,0.6354,1138.8401],[34.251,0.6315,1135.5071],[34.2476,0.6316,1134.8993],[34.2405,0.6357,1130.511],[34.2397,0.6314,1126.7761],[34.2355,0.6296,1126.3035],[34.2354,0.6283,1125.0482],[34.2331,0.6304,1124.7209],[34.2288,0.6281,1122.1295],[34.2242,0.6322,1128.39],[34.2201,0.6328,1125.2079],[34.2167,0.6299,1122.5234],[34.2155,0.6247,1117.9771],[34.2148,0.6262,1121.1683],[34.2113,0.6253,1118.5469],[34.2071,0.6287,1116.5845],[34.2055,0.6281,1115.3029],[34.2053,0.6249,1115.7615],[34.2028,0.6248,1115.1184],[34.1996,0.6287,1116.9531],[34.1952,0.6244,1114.1711],[34.1963,0.6213,1113.7948],[34.1939,0.6205,1112.545],[34.1914,0.6229,1112.2946],[34.1915,0.6186,1112.4834],[34.1895,0.6187,1113.3539],[34.1908,0.6157,1112.0917],[34.1889,0.6164,1111.8345],[34.1888,0.614,1111.4254],[34.1868,0.6148,1112.1056],[34.1839,0.6125,1118.4226],[34.1866,0.6096,1110.6033],[34.1857,0.6068,1110.8418],[34.1846,0.6077,1110.765],[34.1825,0.6066,1109.5236],[34.1823,0.608,1110.6218],[34.1775,0.6093,1114.4819],[34.1756,0.6067,1110.1791],[34.1745,0.6081,1114.5732],[34.1732,0.6037,1108.6886],[34.1718,0.6053,1110.5742],[34.1716,0.6041,1110.5742],[34.17,0.6046,1110.5742],[34.1706,0.6024,1107.0817],[34.1657,0.6027,1112.4637],[34.165,0.5998,1105.6176],[34.1638,0.6003,1105.6176],[34.1627,0.5982,1104.7234],[34.1617,0.5995,1106.5973],[34.1593,0.5968,1105.5566],[34.1601,0.5957,1105.2483],[34.153,0.5912,1103.2485],[34.1529,0.5874,1102.2627],[34.1485,0.5883,1102.2184],[34.1465,0.585,1100.4882],[34.1444,0.5861,1100.3503],[34.1439,0.5836,1099.9852],[34.1425,0.5843,1099.8431],[34.142,0.5831,1099.5784],[34.1376,0.5857,1099.4215],[34.1274,0.5586,1155.7844],[34.1261,0.5393,1192.915],[34.116,0.5231,1125.4352],[34.1204,0.5217,1129.0817],[34.123,0.5173,1133.6519],[34.1178,0.5113,1139.0237],[34.1189,0.4966,1144.8036],[34.1175,0.493,1153.6736],[34.1195,0.4834,1158.1047],[34.1118,0.4784,1200.7285],[34.1037,0.4705,1221.7865],[34.0988,0.4682,1223.4796],[34.0882,0.4567,1196.3569],[34.0916,0.4425,1189.8911],[34.0894,0.4387,1189.0652],[34.09,0.427,1176.5426],[34.1003,0.4139,1166.9646],[34.1086,0.3809,1157.866],[34.1079,0.3694,1155.7688],[34.1027,0.3641,1155.1138],[34.0974,0.3546,1154.6909],[34.0989,0.3498,1151.6509],[34.094,0.3463,1151.1841],[34.0914,0.3464,1150.8127],[34.0914,0.3445,1150.6914],[34.0903,0.3451,1150.6914],[34.0893,0.3425,1150.3196],[34.085,0.3397,1149.3949],[34.084,0.3365,1149.2046],[34.0808,0.3369,1148.8434],[34.0819,0.3356,1149.0763],[34.0802,0.3356,1148.8434],[34.081,0.3315,1148.6714],[34.0784,0.3318,1148.454],[34.0751,0.329,1147.7498],[34.0743,0.33,1147.7498],[34.0746,0.3284,1147.8534],[34.0733,0.3284,1147.8534],[34.0718,0.3252,1147.6007],[34.0647,0.3261,1146.8916],[34.06,0.3237,1146.3478],[34.0582,0.3252,1146.1877],[34.0562,0.3238,1151.6934],[34.0579,0.3213,1146.4636],[34.0582,0.3153,1145.5328],[34.0604,0.3135,1148.3047],[34.0539,0.3091,1144.8682],[34.0504,0.3087,1144.8668],[34.0514,0.3064,1144.3778],[34.0483,0.3035,1143.9056],[34.05,0.2967,1143.5559],[34.0479,0.2936,1142.9784],[34.0423,0.2925,1143.0264],[34.0428,0.2883,1142.5585],[34.0401,0.2861,1143.1395],[34.0398,0.2812,1143.2478],[34.0421,0.2783,1141.1873],[34.041,0.2766,1141.0656],[34.0381,0.2756,1141.1294],[34.0377,0.2727,1140.7633],[34.0291,0.2692,1139.7366],[34.0277,0.2706,1139.4473],[34.0249,0.2684,1139.42],[34.0219,0.2613,1138.9586],[34.0221,0.2555,1138.637],[34.0158,0.2517,1137.9941],[34.0074,0.2435,1136.3256],[33.9969,0.2262,1133.0],[33.912,0.111,1133.0],[33.9101,0.1067,1133.0],[33.9096,0.102,1133.0],[33.9127,0.0995,1155.3978],[33.9413,0.0019,1133.0],[33.9499,-0.0225,1133.0],[34.0073,-0.0222,1133.0],[34.0158,-0.0239,1139.7903],[34.0292,-0.0142,1137.8571]]]]}
,"properties": {"GID_1": "KEN.4_1","GID_0": "KEN","country": "Kenya","province": "Busia","VARNAME_1": "NA","NL_NAME_1": "NA","TYPE_1": "County","ENGTYPE_1": "County","CC_1": "40","HASC_1": "KE.BS","ISO_1": "KE-04","name": "Busia.province","area_km2": 1808.241,"hist_schema_id": "Elevation0-9000","hist_area_km2": {"1100": 13.463,"1125": 225.504,"1150": 259.213,"1175": 202.602,"1200": 274.137,"1225": 311.599,"1250": 197.068,"1275": 113.598,"1300": 63.117,"1325": 35.194,"1350": 33.603,"1375": 30.126,"1400": 24.444,"1425": 15.858,"1450": 6.848,"1475": 1.357,"1500": 0.382,"1525": 0.085,"1550": 0.042}}}