{"type":"Feature","properties":{"GID_3":"KEN.26.3.1_1","GID_0":"KEN","country":"Kenya","GID_1":"KEN.26_1","province":"Meru","NL_NAME_1":"NA","GID_2":"KEN.26.3_1","county":"IgembeCentral","NL_NAME_2":"NA","city":"Akirang'Ondu","VARNAME_3":"NA","NL_NAME_3":"NA","TYPE_3":"Ward","ENGTYPE_3":"Ward","CC_3":"256","HASC_3":"NA","name":"Akirang'Ondu.city"},
"geometry":{"type": "MultiPolygon","coordinates": [[[[37.9501,0.3031,1651.1145],[37.9507,0.3103,1702.2003],[37.9409,0.3159,1732.795],[37.9375,0.3233,1759.2347],[37.9269,0.3289,1848.2755],[37.9205,0.3301,1897.2726],[37.9195,0.3319,1858.9292],[37.9111,0.3357,1719.8682],[37.9096,0.3409,1575.4309],[37.9059,0.3459,1553.7521],[37.9005,0.3463,1535.2786],[37.8983,0.3497,1583.3081],[37.8923,0.3531,1458.3888],[37.8825,0.3559,1419.229],[37.8777,0.3539,1389.8809],[37.8741,0.3553,1385.0167],[37.8723,0.3583,1363.8042],[37.8113,0.4097,1141.8162],[37.8117,0.3941,1166.6389],[37.8101,0.3871,1179.3804],[37.8147,0.3651,1209.8026],[37.8133,0.3617,1214.5032],[37.8175,0.3517,1233.8625],[37.8237,0.3441,1256.1747],[37.8295,0.3415,1279.4821],[37.8363,0.3289,1317.5575],[37.8607,0.3171,1426.1898],[37.8721,0.3347,1403.5338],[37.8765,0.3327,1488.2874],[37.9365,0.2785,1702.9867],[37.9411,0.2795,1698.0142],[37.9447,0.2771,1611.2788],[37.9431,0.2739,1617.3835],[37.9469,0.2779,1583.1559],[37.9463,0.2817,1595.2156],[37.9501,0.3031,1651.1145]]]]}}