{"type":"Feature","properties":{"GID_3":"KEN.11.9.1_1","GID_0":"KEN","country":"Kenya","GID_1":"KEN.11_1","province":"Kakamega","NL_NAME_1":"NA","GID_2":"KEN.11.9_1","county":"MumiasWest","NL_NAME_2":"NA","city":"Etenje","VARNAME_3":"NA","NL_NAME_3":"NA","TYPE_3":"Ward","ENGTYPE_3":"Ward","CC_3":"1022","HASC_3":"NA","name":"Etenje.city"},
"geometry":{"type": "MultiPolygon","coordinates": [[[[34.4797,0.3128,1285.1487],[34.472,0.3142,1273.2778],[34.4689,0.3187,1284.6902],[34.4678,0.3175,1282.755],[34.4613,0.3176,1277.1139],[34.4584,0.3189,1276.0537],[34.4542,0.3182,1261.1077],[34.4537,0.3168,1265.7737],[34.4517,0.3193,1279.501],[34.4466,0.319,1279.4575],[34.444,0.3168,1257.0155],[34.4273,0.3147,1255.1095],[34.4225,0.3101,1255.4656],[34.4226,0.3074,1250.8108],[34.4172,0.3043,1232.9962],[34.4138,0.2965,1242.3446],[34.4141,0.2922,1237.3762],[34.4057,0.2882,1248.2876],[34.4013,0.2889,1253.3335],[34.3923,0.284,1250.486],[34.3884,0.2787,1229.7695],[34.3893,0.2763,1227.7501],[34.4009,0.2661,1241.2435],[34.3975,0.254,1258.3723],[34.3976,0.248,1261.8704],[34.3998,0.2441,1273.0747],[34.3974,0.2373,1277.4335],[34.4089,0.234,1295.4248],[34.4115,0.2365,1299.6747],[34.4199,0.2375,1284.3318],[34.4236,0.2419,1297.8518],[34.4319,0.2439,1299.436],[34.4388,0.2482,1292.7754],[34.4459,0.2631,1330.9658],[34.4593,0.2795,1346.1411],[34.4714,0.3041,1274.656],[34.4797,0.3128,1285.1487]]]]}}