{"type":"Feature","properties":{"GID_3":"KEN.32.1.3_1","GID_0":"KEN","country":"Kenya","GID_1":"KEN.32_1","province":"Nandi","NL_NAME_1":"NA","GID_2":"KEN.32.1_1","county":"Aldai","NL_NAME_2":"NA","city":"Kemeloi-Maraba","VARNAME_3":"NA","NL_NAME_3":"NA","TYPE_3":"Ward","ENGTYPE_3":"Ward","CC_3":"757","HASC_3":"NA","name":"Kemeloi-Maraba.city"},
"geometry":{"type": "MultiPolygon","coordinates": [[[[34.8101,0.0,1395.635],[34.808,-0.005,1239.007],[34.81,-0.0059,1233.3191],[34.8102,-0.0082,1260.6019],[34.8062,-0.011,1213.5887],[34.8077,-0.0152,1222.4482],[34.8276,-0.0218,1494.788],[34.8912,-0.0188,1597.6218],[34.909,-0.0222,1741.3561],[34.922,-0.0196,1760.4192],[34.9195,-0.0269,1384.0001],[34.9233,-0.0302,1494.455],[34.934,-0.0297,1447.209],[34.9407,-0.0276,1493.9045],[34.9414,-0.0238,1654.3849],[34.9381,-0.0201,1780.077],[34.9373,-0.0159,1838.6855],[34.9429,-0.0132,1864.7745],[34.9482,-0.0073,1842.417],[34.9477,-0.0046,1846.5758],[34.9429,-0.001,1823.3724],[34.9409,0.0052,1824.1179],[34.944,0.0112,1831.2213],[34.9423,0.017,1773.8195],[34.9436,0.0192,1852.0029],[34.9393,0.0246,1768.4901],[34.9399,0.0304,1756.0107],[34.9375,0.0349,1764.0676],[34.9327,0.0377,1757.658],[34.9249,0.0345,1701.0967],[34.9248,0.0462,1759.5515],[34.9282,0.0571,1832.6123],[34.9254,0.0685,1871.9889],[34.9323,0.0816,1838.028],[34.9306,0.0876,1813.2468],[34.9284,0.0891,1812.7242],[34.9243,0.0879,1863.1041],[34.9201,0.0915,1835.6625],[34.9039,0.0777,1837.8651],[34.8945,0.0829,1803.8372],[34.8913,0.0815,1801.7034],[34.8902,0.0784,1810.0115],[34.8863,0.0801,1767.9626],[34.8832,0.0846,1781.4709],[34.8782,0.0855,1752.469],[34.8659,0.0838,1736.0449],[34.8625,0.0816,1727.7581],[34.8551,0.0841,1720.9628],[34.8534,0.0784,1749.9369],[34.8489,0.075,1724.6744],[34.847,0.0685,1681.6604],[34.8497,0.064,1672.1678],[34.8562,0.0634,1672.7849],[34.8585,0.055,1646.7112],[34.8633,0.0591,1692.1171],[34.8725,0.0626,1721.0542],[34.8742,0.0564,1716.3081],[34.8847,0.0528,1690.1833],[34.8872,0.0429,1695.5966],[34.8865,0.0281,1611.8494],[34.8785,0.0256,1718.9543],[34.8761,0.0232,1704.2831],[34.8668,0.0218,1669.7424],[34.863,0.0228,1727.6848],[34.8592,0.0184,1669.2839],[34.8539,0.0176,1735.8748],[34.8499,0.015,1669.512],[34.8433,0.0146,1605.0168],[34.8366,0.0102,1527.0083],[34.8347,0.0071,1526.641],[34.8287,0.0085,1514.752],[34.8262,0.0068,1486.1742],[34.8243,0.0086,1497.0977],[34.8136,0.0051,1560.1157],[34.8101,0.0,1395.635]]]]}}