{"type":"Feature","properties":{"GID_3":"KEN.22.9.5_1","GID_0":"KEN","country":"Kenya","GID_1":"KEN.22_1","province":"Machakos","NL_NAME_1":"NA","GID_2":"KEN.22.9_1","county":"Yatta","NL_NAME_2":"NA","city":"Ndalani","VARNAME_3":"NA","NL_NAME_3":"NA","TYPE_3":"Ward","ENGTYPE_3":"Ward","CC_3":"376","HASC_3":"NA","name":"Ndalani.city"},
"geometry":{"type": "MultiPolygon","coordinates": [[[[37.3626,-1.0935,1286.3518],[37.3727,-1.0986,1259.9133],[37.3757,-1.1025,1256.5663],[37.3811,-1.1006,1258.6284],[37.383,-1.1035,1261.1357],[37.3825,-1.107,1249.5564],[37.3882,-1.109,1253.6263],[37.3909,-1.1119,1254.4281],[37.3965,-1.1122,1258.1312],[37.3984,-1.1165,1261.0868],[37.3994,-1.1141,1254.6389],[37.404,-1.1152,1254.8818],[37.4056,-1.1196,1240.8531],[37.4095,-1.12,1248.1057],[37.413,-1.125,1235.9727],[37.416,-1.1258,1234.0485],[37.4172,-1.124,1232.343],[37.4135,-1.1169,1241.0208],[37.4149,-1.1148,1251.8813],[37.4176,-1.1134,1222.8043],[37.4203,-1.1148,1218.6479],[37.4208,-1.113,1230.1128],[37.4228,-1.1131,1221.9381],[37.423,-1.1096,1224.5598],[37.43,-1.1106,1180.7776],[37.432,-1.1054,1174.5216],[37.4364,-1.1064,1167.9849],[37.4406,-1.1052,1161.1848],[37.4425,-1.1025,1170.7756],[37.4447,-1.1028,1148.4731],[37.4454,-1.1005,1156.0574],[37.4487,-1.1014,1143.6619],[37.4529,-1.0966,1141.3843],[37.4559,-1.0997,1144.1925],[37.4657,-1.104,1179.859],[37.4641,-1.117,1194.9744],[37.4659,-1.1216,1223.7953],[37.478,-1.1276,1210.0198],[37.4843,-1.1333,1195.0708],[37.4931,-1.1277,1207.8534],[37.5104,-1.105,1179.2117],[37.5196,-1.0679,1209.1248],[37.5203,-1.0568,1211.8451],[37.5126,-1.0421,1193.8636],[37.5431,-0.9938,1122.6201],[37.4728,-0.9861,1259.1627],[37.4703,-0.9972,1204.8369],[37.4512,-1.0016,1056.4125],[37.4525,-1.0023,1068.53],[37.452,-1.0049,1058.2549],[37.4466,-1.0078,1074.8628],[37.4477,-1.0105,1057.814],[37.4211,-1.0339,1267.6896],[37.3877,-1.0573,1282.2371],[37.3626,-1.0935,1286.3518]]]]}}