{"type":"Feature","properties":{"GID_3":"KEN.46.6.3_1","GID_0":"KEN","country":"Kenya","GID_1":"KEN.46_1","province":"Wajir","NL_NAME_1":"NA","GID_2":"KEN.46.6_1","county":"WajirWest","NL_NAME_2":"NA","city":"Ganyure/Wagalla","VARNAME_3":"NA","NL_NAME_3":"NA","TYPE_3":"Ward","ENGTYPE_3":"Ward","CC_3":"179","HASC_3":"NA","name":"Ganyure_Wagalla.city"},
"geometry":{"type": "MultiPolygon","coordinates": [[[[39.8061,1.885,285.6841],[39.5921,1.9096,302.6983],[39.5601,1.9113,303.3141],[39.5647,1.8953,300.4916],[39.5651,1.8807,298.3873],[39.5727,1.8735,296.9291],[39.5749,1.8685,296.0962],[39.5739,1.8417,291.7102],[39.5771,1.8179,288.0773],[39.5861,1.7921,284.037],[39.5879,1.7695,280.4257],[39.5919,1.7603,278.9915],[39.5925,1.7497,277.5745],[39.5977,1.7399,275.9777],[39.6063,1.7103,271.4061],[39.6093,1.6935,268.755],[39.6099,1.6797,267.0591],[39.6185,1.6567,263.7207],[39.6279,1.6451,261.7476],[39.6371,1.6135,257.8965],[39.6649,1.4649,241.4464],[39.6729,1.4417,238.1351],[39.6755,1.4223,235.7653],[39.6823,1.4195,234.9381],[39.6879,1.4125,234.2089],[39.6939,1.4095,233.9682],[39.6961,1.4019,233.0582],[39.6999,1.3999,232.4919],[39.7037,1.3943,231.8915],[39.7105,1.3885,231.5526],[39.7081,1.3815,230.2957],[39.7123,1.3775,230.4059],[39.7149,1.3699,229.3598],[39.7191,1.3681,228.7108],[39.7241,1.3623,227.8838],[39.7333,1.3581,227.7456],[39.7401,1.3603,226.9576],[39.7471,1.3583,225.9723],[39.7733,1.3445,223.307],[39.7789,1.3401,222.6208],[39.7909,1.3359,221.9813],[39.7973,1.3289,221.2814],[39.8049,1.3261,220.6996],[39.8131,1.3189,219.9635],[39.8261,1.3123,218.4788],[39.8303,1.3029,217.1406],[39.8415,1.2965,217.7402],[39.8655,1.3605,221.0563],[39.8739,1.3877,223.5908],[39.9123,1.4747,225.8937],[39.9241,1.5207,230.088],[39.9319,1.5319,229.7795],[39.9457,1.5427,229.7328],[39.9619,1.5627,230.2541],[39.9723,1.5721,231.0029],[39.9913,1.5941,231.9293],[39.9979,1.6081,233.3369],[40.0133,1.6323,237.4154],[40.0153,1.6391,234.1882],[40.0309,1.6617,241.5799],[40.0417,1.6921,248.8712],[40.0235,1.6945,250.1689],[40.0095,1.7373,259.5454],[40.0037,1.7607,262.9684],[40.0039,1.7719,265.3619],[40.0101,1.7829,267.712],[39.935,1.8428,279.8486],[39.8613,1.7296,259.5345],[39.8594,1.733,260.091],[39.8535,1.7351,260.7176],[39.8526,1.7373,261.098],[39.8545,1.7427,261.7834],[39.8511,1.7502,262.9158],[39.8519,1.7559,263.4251],[39.8386,1.7816,266.5338],[39.8405,1.7891,268.0148],[39.832,1.8182,271.9737],[39.8244,1.8252,273.7157],[39.8147,1.8435,277.9557],[39.8135,1.8757,283.4272],[39.8061,1.885,285.6841]]]]}}