{"type":"Feature","properties":{"GID_3":"KEN.30.3.3_1","GID_0":"KEN","country":"Kenya","GID_1":"KEN.30_1","province":"Nairobi","NL_NAME_1":"NA","GID_2":"KEN.30.3_1","county":"EmbakasiCentral","NL_NAME_2":"NA","city":"KayoleSouth","VARNAME_3":"NA","NL_NAME_3":"NA","TYPE_3":"Ward","ENGTYPE_3":"Ward","CC_3":"1418","HASC_3":"NA","name":"Kayole_South.city"},
"geometry":{"type": "MultiPolygon","coordinates": [[[[36.9078,-1.2757,1612.6171],[36.906,-1.2774,1611.8253],[36.9119,-1.2884,1605.4526],[36.9145,-1.2884,1600.0077],[36.9148,-1.2851,1605.8701],[36.9181,-1.2801,1591.0106],[36.9078,-1.2757,1612.6171]]]]}}