{"type":"Feature","properties":{"GID_3":"KEN.3.4.2_1","GID_0":"KEN","country":"Kenya","GID_1":"KEN.3_1","province":"Bungoma","NL_NAME_1":"NA","GID_2":"KEN.3.4_1","county":"Kimilili","NL_NAME_2":"NA","city":"Kibingei","VARNAME_3":"NA","NL_NAME_3":"NA","TYPE_3":"Ward","ENGTYPE_3":"Ward","CC_3":"1111","HASC_3":"NA","name":"Kibingei.city"},
"geometry":{"type": "MultiPolygon","coordinates": [[[[34.658,0.7327,1513.1277],[34.6609,0.7291,1502.4496],[34.6657,0.7292,1517.6589],[34.6667,0.7265,1513.6495],[34.6715,0.7246,1507.7585],[34.6718,0.7271,1515.9183],[34.6733,0.7256,1514.3142],[34.6834,0.7334,1534.5598],[34.6856,0.7379,1543.0602],[34.6847,0.7396,1550.0531],[34.6888,0.7434,1560.5288],[34.6878,0.7461,1576.988],[34.6943,0.7476,1559.8074],[34.6947,0.754,1590.4917],[34.6927,0.7561,1579.5731],[34.6919,0.7611,1595.7268],[34.7073,0.7911,1712.6952],[34.7038,0.8025,1705.6926],[34.713,0.8061,1690.4891],[34.721,0.8034,1670.9164],[34.7209,0.8107,1682.7474],[34.7193,0.8117,1682.7474],[34.7185,0.8208,1711.3408],[34.7172,0.8211,1687.6934],[34.7181,0.8241,1735.3624],[34.7144,0.8281,1711.1549],[34.7036,0.8191,1802.697],[34.703,0.8172,1768.7471],[34.7011,0.8175,1755.392],[34.6777,0.8054,1678.8032],[34.6741,0.8156,1736.8972],[34.6688,0.819,1750.8615],[34.6604,0.8202,1831.7644],[34.66,0.8146,1811.3624],[34.6461,0.8251,1841.8152],[34.6433,0.8226,1898.8138],[34.6417,0.8139,1719.062],[34.6449,0.81,1669.5643],[34.6453,0.8065,1660.125],[34.6432,0.8006,1633.0469],[34.6452,0.798,1618.2838],[34.652,0.7958,1644.1404],[34.6525,0.7912,1612.6758],[34.6556,0.7876,1618.5391],[34.6533,0.7801,1606.0221],[34.656,0.7761,1593.1245],[34.6544,0.7668,1576.0942],[34.6585,0.7623,1572.9202],[34.6591,0.7591,1557.9485],[34.6574,0.7564,1534.3645],[34.6606,0.7558,1539.1837],[34.6611,0.7504,1526.5186],[34.6628,0.7496,1532.8551],[34.6605,0.7473,1525.389],[34.6612,0.7441,1528.1814],[34.6595,0.7411,1525.3778],[34.661,0.7369,1509.037],[34.658,0.7327,1513.1277]]]]}}