{"type":"Feature","properties":{"GID_2":"KEN.45.4_1","GID_0":"KEN","country":"Kenya","GID_1":"KEN.45_1","province":"Vihiga","NL_NAME_1":"NA","county":"Sabatia","VARNAME_2":"NA","NL_NAME_2":"NA","TYPE_2":"Constituency","ENGTYPE_2":"Constituency","CC_2":"212","HASC_2":"NA","name":"Sabatia.county"},
"geometry":{"type": "MultiPolygon","coordinates": [[[[34.7781,0.0823,1610.1198],[34.7865,0.0834,1675.8839],[34.7914,0.0862,1655.0922],[34.7951,0.0852,1666.1746],[34.7984,0.0893,1648.5146],[34.8046,0.0895,1698.5891],[34.8083,0.0962,1673.6707],[34.8135,0.0985,1650.342],[34.8102,0.1057,1636.9077],[34.814,0.1065,1636.3635],[34.8167,0.1119,1644.5034],[34.8206,0.123,1644.731],[34.8187,0.1252,1637.3716],[34.8252,0.1336,1586.4497],[34.8241,0.143,1559.0883],[34.8279,0.1464,1528.5763],[34.8269,0.1491,1525.3545],[34.8195,0.1516,1561.037],[34.8186,0.1535,1558.324],[34.8199,0.1548,1541.6918],[34.8255,0.1532,1539.0195],[34.8272,0.1544,1521.4753],[34.8279,0.1562,1521.7808],[34.8256,0.1574,1530.2612],[34.8253,0.1624,1568.1072],[34.8168,0.164,1534.6509],[34.8167,0.1584,1515.5701],[34.8114,0.1568,1535.0887],[34.8076,0.1595,1515.0748],[34.8061,0.1649,1512.7644],[34.8038,0.167,1517.6796],[34.7965,0.1673,1523.3337],[34.7939,0.1632,1518.9729],[34.7905,0.1616,1488.3428],[34.7878,0.1625,1472.0786],[34.788,0.1643,1476.9308],[34.7851,0.1639,1461.7577],[34.7811,0.1613,1483.8933],[34.781,0.1579,1469.1423],[34.7764,0.1533,1489.783],[34.77,0.1573,1447.511],[34.7657,0.1547,1468.8276],[34.7669,0.1502,1501.9897],[34.7601,0.143,1509.8555],[34.7554,0.1454,1476.0725],[34.7516,0.1433,1514.7592],[34.7455,0.1436,1511.8774],[34.7402,0.147,1476.1841],[34.7387,0.1463,1466.8303],[34.7367,0.1484,1478.4803],[34.7383,0.1502,1458.9475],[34.7375,0.154,1450.187],[34.7294,0.1492,1466.5909],[34.7254,0.1493,1486.2948],[34.7227,0.1453,1521.3323],[34.7178,0.1477,1495.7759],[34.7094,0.1433,1534.1277],[34.7036,0.1442,1512.8931],[34.7041,0.1361,1490.6099],[34.6963,0.1372,1493.4414],[34.6954,0.1386,1493.4414],[34.6873,0.1292,1524.9377],[34.6813,0.1287,1548.5486],[34.6804,0.13,1532.8851],[34.6778,0.1263,1543.4619],[34.6807,0.1235,1563.967],[34.6783,0.1134,1516.8477],[34.6727,0.1077,1518.347],[34.6777,0.1018,1474.2064],[34.6747,0.0909,1487.4365],[34.6875,0.0896,1526.0906],[34.6991,0.0862,1554.2831],[34.7132,0.0892,1581.7448],[34.7324,0.0884,1586.134],[34.741,0.0901,1551.416],[34.7491,0.0758,1616.3036],[34.7484,0.0706,1626.5093],[34.7644,0.0753,1632.981],[34.772,0.0795,1692.9104],[34.774,0.0788,1701.4102],[34.7781,0.0823,1610.1198]]]]}}