{"type": "Feature","bbox": [38.9977,0.2461,39.5057,0.8969],"geometry": {"type": "MultiPolygon","coordinates": [[[[39.3488,0.3731,238.8189],[39.341,0.4133,240.4342],[39.334,0.4388,243.0293],[39.3413,0.4379,241.001],[39.3465,0.4391,240.378],[39.3513,0.4425,239.0622],[39.3546,0.4475,238.3525],[39.3721,0.4497,233.0109],[39.3833,0.4493,229.8211],[39.3951,0.4597,226.6324],[39.4011,0.4619,223.8416],[39.4027,0.4663,221.8802],[39.4107,0.4753,219.3859],[39.4207,0.4785,216.488],[39.4262,0.4865,214.2653],[39.4477,0.5045,205.2962],[39.4607,0.5063,201.5333],[39.4754,0.5198,197.0329],[39.4837,0.5251,194.7133],[39.4875,0.5317,192.676],[39.5057,0.547,186.3415],[39.4967,0.6621,181.1285],[39.2871,0.8969,216.0049],[39.2679,0.8759,223.438],[39.2497,0.8597,228.7708],[39.2371,0.8443,234.218],[39.2247,0.8177,241.3561],[39.2153,0.8051,245.381],[39.2005,0.7895,251.1594],[39.1789,0.7481,257.9335],[39.1757,0.7279,263.4065],[39.1809,0.7231,266.8227],[39.1855,0.7147,262.856],[39.1893,0.7141,259.2475],[39.1961,0.7145,257.1971],[39.2067,0.7175,253.2602],[39.2123,0.7217,250.6379],[39.2165,0.7219,248.6898],[39.2259,0.7165,247.2426],[39.2313,0.7103,244.9633],[39.2367,0.7091,243.3957],[39.2439,0.7049,241.5392],[39.2521,0.7047,240.1964],[39.2545,0.7033,239.4818],[39.2637,0.6887,235.7245],[39.2729,0.6849,233.6042],[39.2879,0.6747,229.3409],[39.3073,0.6677,224.5266],[39.3147,0.6607,221.986],[39.3267,0.6551,218.9174],[39.3355,0.6525,217.8137],[39.3577,0.6601,212.1131],[39.3753,0.6589,208.3762],[39.3975,0.6509,203.4039],[39.4145,0.6397,198.9186],[39.4275,0.6401,195.5114],[39.4371,0.6363,193.4243],[39.4459,0.6325,191.4724],[39.4521,0.6253,189.4779],[39.4531,0.6209,189.3405],[39.4517,0.6153,190.512],[39.4377,0.6045,195.0107],[39.4311,0.5967,198.9656],[39.4145,0.5883,204.603],[39.4121,0.5839,207.2511],[39.4095,0.5831,207.7743],[39.3999,0.5849,210.3302],[39.3929,0.5811,212.5072],[39.3779,0.5821,217.5674],[39.3713,0.5843,219.1964],[39.3639,0.5813,221.1337],[39.3593,0.5833,223.0164],[39.3507,0.5831,225.2604],[39.3453,0.5791,226.5929],[39.3311,0.5729,231.7949],[39.3181,0.5715,236.4416],[39.3141,0.5661,238.7229],[39.3125,0.5583,238.6013],[39.2979,0.5523,243.8861],[39.2865,0.5537,247.0431],[39.2715,0.5437,253.8111],[39.2575,0.5453,256.5871],[39.2497,0.5483,259.0398],[39.2407,0.5427,261.3787],[39.2345,0.5445,262.3054],[39.2273,0.5355,265.9799],[39.2225,0.5353,268.0815],[39.2159,0.5425,270.3626],[39.2103,0.5419,271.9586],[39.2047,0.5471,273.4579],[39.1999,0.5459,274.545],[39.1947,0.5475,275.9685],[39.1811,0.5463,278.54],[39.1567,0.5541,287.2697],[39.1539,0.5533,288.3723],[39.1385,0.5389,294.9079],[39.1383,0.5351,297.9362],[39.1213,0.5281,299.9667],[39.1109,0.5333,304.6221],[39.0981,0.5351,307.0304],[39.0915,0.5391,310.6737],[39.0861,0.5375,310.2164],[39.0829,0.5337,312.2564],[39.0747,0.5327,315.8364],[39.0727,0.5279,315.9937],[39.0673,0.5261,317.2568],[39.0637,0.5229,319.4681],[39.0509,0.5203,323.084],[39.0449,0.5173,325.051],[39.0389,0.5173,328.9939],[39.0293,0.5143,331.3271],[39.0137,0.5177,339.8074],[39.0033,0.5161,340.6511],[38.9995,0.5133,340.5693],[38.9977,0.5143,341.0132],[38.9993,0.5133,341.1995],[38.9999,0.4433,352.95],[38.998,0.293,351.0037],[39.0011,0.2881,348.5645],[39.0033,0.2875,348.0396],[39.0123,0.2907,345.7032],[39.0191,0.2905,343.3778],[39.0335,0.2969,342.1856],[39.0435,0.2945,336.3105],[39.0497,0.2983,334.4777],[39.0557,0.2977,332.922],[39.0661,0.2893,329.1833],[39.0769,0.2727,323.5781],[39.0849,0.2697,321.4131],[39.0913,0.2601,319.0102],[39.0983,0.2583,316.2163],[39.1047,0.2501,313.4114],[39.1095,0.2471,312.7828],[39.1075,0.2461,312.8696],[39.1347,0.2483,307.0503],[39.1397,0.2529,304.7696],[39.1439,0.2531,304.397],[39.1577,0.2591,300.2725],[39.1663,0.2695,297.1498],[39.1747,0.2739,295.0493],[39.1843,0.2849,291.8751],[39.1916,0.2984,288.1999],[39.1929,0.3081,285.7859],[39.1915,0.3151,284.5852],[39.1943,0.3327,280.5579],[39.1965,0.3351,279.0817],[39.1969,0.3391,278.2595],[39.2029,0.3467,275.9232],[39.2037,0.3539,274.4378],[39.2121,0.3641,271.075],[39.2205,0.3815,267.0691],[39.2457,0.3855,262.1215],[39.2521,0.3797,259.4254],[39.2595,0.3777,257.8391],[39.2682,0.3788,256.955],[39.2763,0.3765,254.7319],[39.3011,0.3807,249.4218],[39.3273,0.3719,243.2644],[39.3401,0.3731,240.2231],[39.3465,0.3719,239.5699],[39.3488,0.3731,238.8189]]]]}
,"properties": {"GID_3": "KEN.7.6.4_1","GID_0": "KEN","country": "Kenya","GID_1": "KEN.7_1","province": "Garissa","NL_NAME_1": "NA","GID_2": "KEN.7.6_1","county": "Lagdera","NL_NAME_2": "NA","city": "Maalimin","VARNAME_3": "NA","NL_NAME_3": "NA","TYPE_3": "Ward","ENGTYPE_3": "Ward","CC_3": "143","HASC_3": "NA","name": "Maalimin.city","area_km2": 1688.463,"hist_schema_id": "Elevation0-9000","hist_area_km2": {"175": 51.794,"200": 240.905,"225": 341.562,"250": 243.367,"275": 185.111,"300": 235.338,"325": 224.971,"350": 145.041,"375": 20.375}}}