{"type": "Feature","bbox": [35.0838,-0.4706,35.1889,-0.3807],"geometry": {"type": "MultiPolygon","coordinates": [[[[35.1643,-0.4507,1749.0459],[35.1758,-0.443,1793.5731],[35.1826,-0.4426,1810.9304],[35.1889,-0.4334,1837.4524],[35.188,-0.4318,1842.3513],[35.1726,-0.4278,1762.4952],[35.1648,-0.4219,1737.5333],[35.1675,-0.4079,1811.9384],[35.1745,-0.3985,1768.8879],[35.1752,-0.3936,1799.3323],[35.1683,-0.3921,1879.0436],[35.1631,-0.3877,1887.3262],[35.1496,-0.3849,1872.0525],[35.1465,-0.3826,1851.4011],[35.1416,-0.3865,1868.5479],[35.1402,-0.3922,1870.0525],[35.1351,-0.3934,1851.2297],[35.1351,-0.3827,1843.9675],[35.1277,-0.3807,1846.9011],[35.1184,-0.3822,1816.632],[35.1153,-0.3874,1823.6505],[35.1067,-0.3934,1814.9128],[35.1059,-0.3981,1792.2653],[35.0973,-0.408,1783.6229],[35.0924,-0.4157,1771.4805],[35.0927,-0.4189,1760.1295],[35.0892,-0.4228,1759.3269],[35.0897,-0.4259,1736.3384],[35.0872,-0.4353,1696.5195],[35.0889,-0.4413,1684.3267],[35.0846,-0.4469,1709.1436],[35.0869,-0.4529,1685.0884],[35.0842,-0.4586,1711.245],[35.0838,-0.4671,1676.6611],[35.0868,-0.4704,1673.5881],[35.0891,-0.4706,1689.6561],[35.0913,-0.4659,1736.2668],[35.0941,-0.465,1720.6193],[35.0975,-0.4685,1677.6211],[35.1002,-0.4616,1707.8046],[35.1039,-0.4637,1663.2789],[35.1073,-0.4612,1717.4026],[35.1094,-0.4622,1707.9077],[35.1116,-0.4604,1671.2468],[35.1122,-0.4573,1705.6392],[35.1201,-0.4537,1716.4106],[35.1296,-0.4543,1720.4336],[35.1302,-0.4559,1707.5934],[35.1332,-0.4561,1724.3595],[35.1362,-0.4607,1712.694],[35.1364,-0.4579,1734.1023],[35.1415,-0.4506,1721.6958],[35.1443,-0.4549,1683.3217],[35.1502,-0.4575,1735.6089],[35.1501,-0.4611,1718.6741],[35.1526,-0.4598,1728.2588],[35.1541,-0.461,1736.6708],[35.1583,-0.4588,1716.7206],[35.1574,-0.4568,1733.6733],[35.1614,-0.4529,1731.8357],[35.1607,-0.4515,1731.8357],[35.1643,-0.4507,1749.0459]]]]}
,"properties": {"GID_3": "KEN.12.2.3_1","GID_0": "KEN","country": "Kenya","GID_1": "KEN.12_1","province": "Kericho","NL_NAME_1": "NA","GID_2": "KEN.12.2_1","county": "Belgut","NL_NAME_2": "NA","city": "Kabianga","VARNAME_3": "NA","NL_NAME_3": "NA","TYPE_3": "Ward","ENGTYPE_3": "Ward","CC_3": "958","HASC_3": "NA","name": "Kabianga.city","area_km2": 70.5166,"hist_schema_id": "Elevation0-9000","hist_area_km2": {"1650": 0.10601,"1675": 0.82686,"1700": 4.89756,"1725": 10.98241,"1750": 12.93297,"1775": 10.21918,"1800": 8.75628,"1825": 8.24745,"1850": 5.91527,"1875": 4.45236,"1900": 3.18026}}}