{"type":"Feature","properties":{"GID_3":"KEN.11.1.2_1","GID_0":"KEN","country":"Kenya","GID_1":"KEN.11_1","province":"Kakamega","NL_NAME_1":"NA","GID_2":"KEN.11.1_1","county":"Butere","NL_NAME_2":"NA","city":"MaramaNorth","VARNAME_3":"NA","NL_NAME_3":"NA","TYPE_3":"Ward","ENGTYPE_3":"Ward","CC_3":"1035","HASC_3":"NA","name":"Marama_North.city"},
"geometry":{"type": "MultiPolygon","coordinates": [[[[34.5369,0.2151,1379.0229],[34.5391,0.2092,1355.2507],[34.5475,0.2012,1388.8821],[34.5527,0.189,1380.3817],[34.5555,0.1862,1414.3054],[34.5599,0.1846,1439.1721],[34.5661,0.1902,1436.5461],[34.579,0.1909,1408.1599],[34.5807,0.1941,1379.2539],[34.5841,0.1902,1388.9829],[34.5907,0.1898,1394.0422],[34.5932,0.186,1418.0553],[34.5962,0.1906,1412.1694],[34.6034,0.1905,1464.5924],[34.6042,0.1919,1475.2388],[34.6094,0.1924,1489.9785],[34.607,0.2152,1449.8445],[34.6085,0.2163,1457.9639],[34.6085,0.2216,1447.4698],[34.6154,0.2297,1439.3767],[34.6159,0.2351,1447.3738],[34.6069,0.2445,1418.4861],[34.6055,0.2417,1425.6033],[34.6035,0.2412,1421.4208],[34.6021,0.2356,1429.1655],[34.5931,0.2308,1439.7534],[34.5825,0.2341,1409.9912],[34.5788,0.2371,1400.5104],[34.5751,0.2367,1412.1721],[34.5667,0.2283,1410.1746],[34.5609,0.2264,1387.7435],[34.5567,0.2162,1389.8765],[34.5462,0.2183,1360.6782],[34.5369,0.2151,1379.0229]]]]}}