{"type": "Feature","bbox": [34.6254,-0.7726,34.6851,-0.6993],"geometry": {"type": "MultiPolygon","coordinates": [[[[34.6822,-0.7726,1743.1263],[34.6824,-0.7594,1704.735],[34.6775,-0.751,1639.1084],[34.6746,-0.7391,1611.809],[34.6792,-0.7308,1557.2504],[34.6802,-0.7181,1533.7542],[34.6851,-0.7095,1483.516],[34.6575,-0.7088,1510.7528],[34.6486,-0.7063,1460.7175],[34.6419,-0.6993,1424.2556],[34.6282,-0.7253,1454.9529],[34.6303,-0.7348,1493.2804],[34.6282,-0.7411,1507.6085],[34.6287,-0.7465,1500.8835],[34.6256,-0.7511,1467.7886],[34.6254,-0.7554,1491.4512],[34.6356,-0.7616,1523.9644],[34.6426,-0.7581,1537.2803],[34.648,-0.7586,1577.7078],[34.6542,-0.7555,1602.5996],[34.6595,-0.7559,1660.2793],[34.6693,-0.7615,1701.8217],[34.6755,-0.7629,1707.4426],[34.6822,-0.7726,1743.1263]]]]}
,"properties": {"GID_3": "KEN.16.9.6_1","GID_0": "KEN","country": "Kenya","GID_1": "KEN.16_1","province": "Kisii","NL_NAME_1": "NA","GID_2": "KEN.16.9_1","county": "SouthMugirango","NL_NAME_2": "NA","city": "Tabaka","VARNAME_3": "NA","NL_NAME_3": "NA","TYPE_3": "Ward","ENGTYPE_3": "Ward","CC_3": "1305","HASC_3": "NA","name": "Tabaka.city","area_km2": 32.11871,"hist_schema_id": "Elevation0-9000","hist_area_km2": {"1425": 0.27561,"1450": 1.44164,"1475": 2.73487,"1500": 4.62171,"1525": 4.68531,"1550": 4.00689,"1575": 2.77726,"1600": 1.78084,"1625": 2.16244,"1650": 1.84444,"1675": 2.05644,"1700": 1.65363,"1725": 1.59003,"1750": 0.42401,"1775": 0.0636}}}