{"type":"Feature","properties":{"GID_2":"KEN.44.6_1","GID_0":"KEN","country":"Kenya","GID_1":"KEN.44_1","province":"UasinGishu","NL_NAME_1":"NA","county":"Turbo","VARNAME_2":"NA","NL_NAME_2":"NA","TYPE_2":"Constituency","ENGTYPE_2":"Constituency","CC_2":"142","HASC_2":"NA","name":"Turbo.county"},
"geometry":{"type": "MultiPolygon","coordinates": [[[[35.2741,0.5196,2089.4023],[35.2756,0.5191,2088.3706],[35.2766,0.5242,2099.8455],[35.2611,0.5282,2075.6208],[35.2616,0.5367,2099.7949],[35.2584,0.5524,2118.8936],[35.2549,0.5527,2093.7998],[35.2513,0.5574,2057.0034],[35.2626,0.5871,2083.4512],[35.2628,0.5949,2059.2021],[35.2671,0.5964,2056.9114],[35.2646,0.6292,2038.001],[35.2829,0.6296,2050.2163],[35.2782,0.6707,2039.5304],[35.2739,0.6679,2031.1016],[35.2716,0.6703,2033.4385],[35.2727,0.673,2040.2251],[35.2694,0.6775,2042.9517],[35.2667,0.6747,2035.3171],[35.2643,0.6754,2021.1034],[35.2641,0.6807,2035.1477],[35.2622,0.6823,2033.4369],[35.2579,0.6854,2027.6995],[35.2516,0.6846,2018.5673],[35.2506,0.6873,2020.4832],[35.2481,0.6876,2014.2122],[35.2459,0.6904,2013.3518],[35.2414,0.6895,2009.2336],[35.2402,0.6826,2005.2841],[35.2284,0.6759,2001.2947],[35.227,0.6783,1996.043],[35.226,0.6762,1995.9614],[35.2246,0.6772,1989.6886],[35.2233,0.6763,1986.2018],[35.2194,0.6797,1986.9656],[35.2173,0.6763,1981.3423],[35.2064,0.6794,1970.1544],[35.2016,0.6786,1958.449],[35.2001,0.6765,1953.697],[35.1942,0.6762,1953.2986],[35.1906,0.6793,1962.9929],[35.1859,0.6778,1953.9869],[35.1845,0.6803,1957.3354],[35.1782,0.6776,1950.2468],[35.1706,0.6794,1945.165],[35.1666,0.6756,1933.6271],[35.1647,0.6765,1924.3674],[35.1636,0.6751,1933.4456],[35.1592,0.6746,1939.6798],[35.1546,0.6693,1937.3496],[35.155,0.6668,1930.7006],[35.1535,0.6655,1930.7006],[35.1465,0.6643,1919.667],[35.1414,0.6661,1931.7144],[35.1341,0.6603,1907.6718],[35.125,0.6594,1916.1802],[35.1195,0.654,1908.0259],[35.1174,0.6542,1903.6425],[35.1163,0.6464,1865.8694],[35.113,0.6464,1898.3226],[35.1067,0.651,1854.5767],[35.1033,0.6517,1878.6586],[35.0963,0.6417,1849.7374],[35.0918,0.6399,1846.082],[35.0863,0.6343,1880.4277],[35.0834,0.6358,1893.5436],[35.0697,0.6339,1825.0785],[35.0685,0.6367,1822.1327],[35.0629,0.6382,1844.741],[35.0613,0.6381,1844.741],[35.0611,0.6364,1825.9904],[35.0538,0.6369,1844.3782],[35.0527,0.6408,1885.5253],[35.0393,0.6453,1856.5319],[35.041,0.6371,1809.895],[35.0352,0.6331,1798.1676],[35.0351,0.629,1782.9468],[35.0313,0.6214,1794.4297],[35.0272,0.6184,1806.3452],[35.0,0.6432,1823.6632],[34.9941,0.6349,1807.6189],[34.9903,0.6352,1830.469],[34.9859,0.6327,1764.7307],[34.9807,0.6322,1747.1523],[34.9769,0.6295,1756.8279],[34.9707,0.6188,1686.8484],[34.9686,0.6188,1686.6567],[34.9658,0.6152,1666.4358],[34.9627,0.6142,1655.1421],[34.9578,0.6156,1654.1254],[34.953,0.613,1673.1471],[34.9435,0.6127,1730.1526],[34.9356,0.6088,1757.9133],[34.9202,0.5966,1775.4585],[34.9081,0.6012,1736.5581],[34.8992,0.6101,1714.754],[34.8908,0.6123,1723.5731],[34.8976,0.6055,1733.4739],[34.8521,0.5518,1699.1522],[35.0454,0.5672,1990.8585],[35.0996,0.5446,2051.8599],[35.1046,0.5616,1884.3174],[35.1093,0.5541,1870.8159],[35.1221,0.5496,1892.8402],[35.1264,0.5504,1904.2725],[35.1296,0.5473,1869.0967],[35.1332,0.5478,1873.7969],[35.1359,0.5436,1876.5667],[35.1414,0.5411,1888.6671],[35.1449,0.5438,1937.1653],[35.1484,0.5429,1885.1313],[35.149,0.5442,1887.4775],[35.1501,0.5426,1887.5015],[35.1567,0.5436,1939.2109],[35.1634,0.5485,1942.7911],[35.1635,0.5508,1947.4526],[35.1667,0.5517,1938.157],[35.1691,0.5493,1909.2825],[35.1762,0.5528,1955.3387],[35.1775,0.5575,1973.4229],[35.1822,0.5589,1973.5665],[35.1841,0.5624,1967.9757],[35.1855,0.5629,1961.2544],[35.1863,0.5611,1959.8895],[35.1891,0.5617,1964.3087],[35.1899,0.5654,1966.2458],[35.1919,0.5638,1974.7173],[35.1968,0.5684,1980.3032],[35.2058,0.5696,1977.7144],[35.2089,0.566,1964.3618],[35.2123,0.5652,1967.2578],[35.2115,0.5631,1969.8196],[35.2133,0.5607,1975.9102],[35.212,0.5585,1964.0829],[35.2167,0.5547,1979.8481],[35.2164,0.5519,1972.1019],[35.2215,0.5488,1985.632],[35.2229,0.5498,1985.632],[35.2233,0.5483,1986.48],[35.2278,0.5496,1984.7852],[35.2233,0.5427,1968.6832],[35.2251,0.5412,1973.308],[35.23,0.5425,1977.4817],[35.2312,0.5393,1992.1577],[35.2341,0.5405,2030.291],[35.2412,0.5313,2025.7539],[35.2391,0.5301,2005.5424],[35.2396,0.5286,2006.7787],[35.2473,0.5254,2056.6768],[35.2491,0.5285,2060.1848],[35.253,0.5215,2048.9326],[35.2589,0.522,2070.1252],[35.261,0.5193,2081.2112],[35.2658,0.5201,2087.7468],[35.2687,0.5227,2090.3081],[35.2741,0.5196,2089.4023]]]]}}