{"type":"Feature","properties":{"GID_3":"KEN.33.5.1_1","GID_0":"KEN","country":"Kenya","GID_1":"KEN.33_1","province":"Narok","NL_NAME_1":"NA","GID_2":"KEN.33.5_1","county":"NarokSouth","NL_NAME_2":"NA","city":"Ildamat","VARNAME_3":"NA","NL_NAME_3":"NA","TYPE_3":"Ward","ENGTYPE_3":"Ward","CC_3":"898","HASC_3":"NA","name":"Ildamat.city"},
"geometry":{"type": "MultiPolygon","coordinates": [[[[36.1449,-0.9711,2439.9453],[36.1492,-0.957,2478.9109],[36.1483,-0.9545,2492.4294],[36.1416,-0.9495,2488.9407],[36.1371,-0.9301,2533.3726],[36.1418,-0.9216,2520.9792],[36.1419,-0.9009,2618.4241],[36.1392,-0.9004,2596.8818],[36.1347,-0.8953,2763.4172],[36.1296,-0.894,2760.6775],[36.1201,-0.881,2725.95],[36.1157,-0.884,2785.9673],[36.1064,-0.8844,2954.8513],[36.1108,-0.84,2908.0276],[36.1025,-0.827,2947.6836],[36.0986,-0.8241,3040.6309],[36.0977,-0.8192,2954.0867],[36.0958,-0.8177,3012.9763],[36.0785,-0.8265,2954.7505],[36.07,-0.8352,2911.207],[36.0686,-0.8524,2841.5544],[36.0534,-0.8646,2706.9253],[36.0475,-0.8722,2709.1577],[36.0412,-0.8772,2663.2339],[36.0178,-0.8923,2537.3875],[36.0144,-0.8985,2502.292],[36.0156,-0.9029,2446.2991],[36.0012,-0.9248,2408.8394],[36.0028,-0.9335,2296.5178],[35.9957,-0.9416,2344.6433],[35.9972,-0.9489,2292.1057],[35.993899999999996,-0.9559,2254.9526],[35.9881,-0.9595,2262.5662],[35.981,-0.9802,2132.5195],[35.976,-0.9852,2131.9272],[35.9665,-0.9889,2081.4514],[35.9647,-0.9914,2053.8398],[35.9651,-0.9946,2043.3604],[35.9627,-0.9953,2069.1841],[35.9618,-0.9981,2068.1758],[35.958,-0.9982,2065.5693],[35.956,-1.0078,2034.4583],[35.9518,-1.0105,2040.514],[35.952,-1.0174,2006.2969],[35.9508,-1.0189,2019.3376],[35.9568,-1.0253,2024.478],[35.9583,-1.0279,2013.5997],[35.9576,-1.0299,1977.5222],[35.9634,-1.0329,2010.0819],[35.9631,-1.0351,1986.3932],[35.9646,-1.0355,1975.7374],[35.9634,-1.0409,1951.8766],[35.966,-1.0424,1951.9303],[35.9681,-1.0497,1940.4214],[35.9657,-1.0539,1945.6691],[35.9677,-1.0575,1927.9237],[35.9658,-1.0597,1930.1631],[35.9664,-1.0653,1917.3717],[35.9635,-1.0672,1938.1384],[35.9651,-1.0701,1913.4574],[35.9683,-1.0718,1903.6211],[35.9579,-1.0763,1897.4055],[35.9559,-1.0824,1891.8621],[35.9532,-1.0854,1884.1265],[35.9561,-1.0873,1858.377],[35.9539,-1.0893,1849.4133],[35.9556,-1.0913,1843.5708],[35.9562,-1.0988,1835.7538],[35.9551,-1.1004,1834.022],[35.9598,-1.113,1805.1599],[35.9147,-1.1731,1905.6224],[35.882,-1.2064,1790.3567],[35.8881,-1.2092,1803.4131],[35.8955,-1.2097,1792.1172],[35.8957,-1.2146,1764.5981],[35.8983,-1.2168,1771.6514],[35.9041,-1.214,1826.3458],[35.9051,-1.2252,1740.7533],[35.912,-1.2297,1765.3955],[35.9093,-1.2358,1755.9144],[35.9102,-1.2394,1760.5449],[35.9213,-1.2447,1747.1227],[35.9153,-1.2556,1772.2719],[35.918,-1.2578,1701.8016],[35.9184,-1.2628,1648.4031],[35.932,-1.2691,1712.0546],[35.9343,-1.2675,1716.55],[35.9358,-1.2682,1709.6938],[35.9378,-1.2716,1706.6487],[35.9382,-1.2787,1633.3589],[35.9425,-1.2808,1647.078],[35.9424,-1.2878,1616.7341],[35.9407,-1.2896,1635.3662],[35.9509,-1.2953,1700.38],[35.9468,-1.2995,1610.3416],[35.9429,-1.2969,1625.4983],[35.9397,-1.2996,1686.46],[35.9379,-1.3041,1606.5173],[35.9407,-1.3082,1605.9043],[35.9464,-1.3069,1617.3577],[35.9441,-1.3329,1637.3817],[35.9522,-1.3449,1727.4843],[35.954,-1.3523,1816.7125],[35.9533,-1.3684,1782.573],[35.9457,-1.3819,1835.6124],[35.9424,-1.3937,1817.0317],[35.9429,-1.3974,1830.7267],[35.9486,-1.4032,1785.2686],[35.9539,-1.4052,1806.0067],[35.9604,-1.4047,1788.5574],[35.9642,-1.4026,1742.3149],[35.9712,-1.4058,1691.0244],[35.9768,-1.4029,1667.6302],[35.9776,-1.3994,1659.7274],[35.9822,-1.395,1618.2192],[35.986,-1.3851,1643.2046],[35.9972,-1.3829,1599.5284],[36.002,-1.3791,1584.9834],[36.0052,-1.3822,1547.897],[36.0117,-1.383,1539.2393],[36.0136,-1.3851,1531.2914],[36.0168,-1.3796,1523.5757],[36.0152,-1.3702,1560.6686],[36.0093,-1.3687,1545.2886],[36.0075,-1.3736,1513.9061],[36.0046,-1.373,1505.8352],[36.0049,-1.3664,1516.1243],[36.0028,-1.3617,1533.6007],[36.0008,-1.3608,1542.1962],[36.0029,-1.3573,1515.4033],[36.0008,-1.3501,1512.8297],[36.0038,-1.3467,1545.3479],[35.9976,-1.3469,1515.5729],[36.0002,-1.3423,1540.1357],[35.9979,-1.3412,1544.7231],[35.9968,-1.3382,1521.0963],[35.9926,-1.3376,1552.142],[35.9965,-1.3358,1527.5913],[35.9941,-1.3318,1539.5503],[35.9976,-1.3291,1532.5217],[35.9966,-1.3189,1562.2075],[35.9986,-1.3172,1557.2422],[35.9993,-1.3123,1556.5498],[36.0015,-1.3111,1552.9467],[36.0014,-1.3058,1579.5475],[36.0071,-1.3022,1594.24],[36.0098,-1.2984,1583.1074],[36.0105,-1.2953,1575.1683],[36.012,-1.2951,1565.3568],[36.0122,-1.2904,1605.9182],[36.0079,-1.2855,1605.7285],[36.0079,-1.283,1661.3353],[36.0055,-1.2821,1607.0692],[36.0054,-1.2774,1596.9115],[36.0013,-1.2708,1707.6146],[35.9999,-1.2712,1638.968],[35.9982,-1.2669,1623.7018],[35.9987,-1.2629,1721.6543],[35.9964,-1.2623,1617.926],[35.9966,-1.2597,1629.2526],[35.9934,-1.2574,1641.0488],[35.9933,-1.2538,1681.5946],[35.9897,-1.2513,1628.1235],[35.988,-1.2469,1716.7543],[35.9823,-1.2451,1666.2196],[35.9821,-1.2428,1738.1597],[35.9769,-1.2409,1624.6494],[35.9777,-1.2382,1626.3854],[35.975,-1.2355,1642.3762],[35.9759,-1.2318,1666.0286],[35.9736,-1.231,1626.625],[35.9713,-1.2266,1657.1401],[35.975,-1.2218,1645.3307],[35.9733,-1.2155,1660.3933],[35.976,-1.2086,1641.9202],[35.9733,-1.203,1736.6045],[35.9793,-1.2009,1649.2842],[35.9802,-1.1977,1658.564],[35.9776,-1.1948,1702.9163],[35.9813,-1.1935,1658.0361],[35.9805,-1.1912,1680.8489],[35.9836,-1.1866,1710.5537],[35.9817,-1.1852,1734.8698],[35.9869,-1.1782,1707.4119],[35.9848,-1.1758,1703.5374],[35.9862,-1.1727,1716.5027],[35.9839,-1.1712,1715.7162],[35.9821,-1.1658,1755.5239],[35.986,-1.164,1769.8513],[35.9874,-1.1606,1784.4661],[35.991,-1.1602,1787.1],[35.9914,-1.1581,1792.9282],[35.9952,-1.1576,1794.3512],[35.9969,-1.1533,1800.629],[35.9996,-1.1519,1773.0652],[35.9979,-1.145,1789.0487],[35.9993,-1.1418,1800.272],[35.9987,-1.1386,1821.6393],[36.0015,-1.1356,1818.5343],[36.0004,-1.1333,1833.6899],[36.0022,-1.1322,1831.2401],[36.0029,-1.1274,1854.5092],[36.0071,-1.121,1853.9734],[36.0076,-1.1151,1872.6252],[36.0113,-1.109,1903.3186],[36.0171,-1.1059,1902.2402],[36.0196,-1.1011,1926.1305],[36.0217,-1.1005,1913.6809],[36.0236,-1.0964,1909.2646],[36.0218,-1.0885,1942.2983],[36.0228,-1.0693,1987.9241],[36.0246,-1.0626,1991.0591],[36.027,-1.0602,1992.3427],[36.027,-1.0565,2019.4117],[36.0302,-1.0528,2018.9329],[36.0303,-1.0481,2046.2761],[36.0351,-1.0425,2078.0298],[36.0398,-1.0433,2082.75],[36.0424,-1.0414,2079.9172],[36.042,-1.0388,2094.6377],[36.048,-1.027,2157.9124],[36.0538,-1.0194,2242.2156],[36.056,-1.0195,2243.4985],[36.0603,-1.0147,2173.6733],[36.0594,-1.0116,2212.1345],[36.0618,-1.0018,2313.8645],[36.069,-0.9999,2264.5349],[36.0783,-0.9903,2379.2026],[36.0812,-0.9899,2423.3262],[36.1021,-0.9774,2579.6506],[36.1091,-0.9678,2583.9885],[36.1162,-0.9618,2667.5273],[36.1241,-0.961,2673.0593],[36.1416,-0.9625,2509.7798],[36.1449,-0.9711,2439.9453]]]]}}