{"type":"Feature","properties":{"GID_3":"KEN.26.7.1_1","GID_0":"KEN","country":"Kenya","GID_1":"KEN.26_1","province":"Meru","NL_NAME_1":"NA","GID_2":"KEN.26.7_1","county":"SouthImenti","NL_NAME_2":"NA","city":"AbogetaEast","VARNAME_3":"NA","NL_NAME_3":"NA","TYPE_3":"Ward","ENGTYPE_3":"Ward","CC_3":"293","HASC_3":"NA","name":"Abogeta_East.city"},
"geometry":{"type": "MultiPolygon","coordinates": [[[[37.6519,-0.1326,1377.1251],[37.6531,-0.1339,1361.54],[37.6518,-0.1352,1343.8556],[37.6595,-0.1441,1301.6882],[37.6755,-0.1481,1214.0558],[37.6807,-0.1524,1225.2258],[37.6873,-0.1488,1212.4062],[37.6917,-0.149,1185.0959],[37.6937,-0.1517,1177.9834],[37.6965,-0.1522,1167.3481],[37.7013,-0.1501,1169.1387],[37.7069,-0.1512,1169.9769],[37.7163,-0.1487,1079.8243],[37.7173,-0.1458,1101.0372],[37.7301,-0.1517,1017.7969],[37.7403,-0.1507,978.4991],[37.7457,-0.1464,954.9687],[37.7491,-0.1478,990.916],[37.7505,-0.1518,949.983],[37.7577,-0.1573,938.0971],[37.7611,-0.1581,930.4987],[37.7627,-0.1576,942.3116],[37.7648,-0.1532,950.9082],[37.7692,-0.1506,927.8572],[37.7729,-0.1543,935.6826],[37.7779,-0.1543,911.4883],[37.7847,-0.1581,911.163],[37.7875,-0.162,911.0045],[37.7907,-0.1628,918.2136],[37.7927,-0.1693,900.9121],[37.7971,-0.1712,891.2391],[37.7958,-0.1841,871.9257],[37.7985,-0.186,878.0519],[37.8035,-0.1825,868.2631],[37.8023,-0.1756,875.0027],[37.7957,-0.1613,903.0427],[37.7849,-0.154,906.2846],[37.7823,-0.1503,915.7953],[37.7823,-0.1451,939.2836],[37.7799,-0.1395,948.8704],[37.7671,-0.1276,992.2703],[37.7637,-0.1201,1016.9454],[37.7583,-0.1188,1024.4905],[37.7527,-0.1101,1080.1084],[37.7451,-0.1109,1093.7078],[37.7401,-0.1076,1139.5786],[37.7283,-0.1139,1113.5297],[37.7179,-0.1132,1126.4794],[37.7129,-0.0899,1272.6705],[37.7105,-0.0885,1282.8013],[37.7073,-0.0822,1303.7251],[37.7023,-0.0804,1322.3586],[37.6843,-0.0811,1405.5089],[37.6783,-0.0875,1410.8274],[37.6707,-0.0873,1442.4248],[37.6657,-0.0852,1471.031],[37.6633,-0.0816,1503.6135],[37.6519,-0.0802,1541.6678],[37.6515,-0.0736,1554.9167],[37.6401,-0.0738,1610.2804],[37.6349,-0.082,1642.0741],[37.6363,-0.0857,1626.5265],[37.6455,-0.0878,1563.7581],[37.6479,-0.0981,1519.3257],[37.6559,-0.094,1483.0149],[37.6584,-0.0938,1480.5118],[37.6595,-0.0958,1450.4495],[37.6561,-0.1019,1455.9539],[37.6571,-0.109,1458.34],[37.6535,-0.109,1498.7656],[37.6569,-0.1152,1392.2678],[37.6545,-0.1185,1470.795],[37.6589,-0.1252,1351.9246],[37.6535,-0.1326,1377.1251],[37.6519,-0.1326,1377.1251]]]]}}