{"type": "Feature","bbox": [37.4609,-2.0195,37.648,-1.8045],"geometry": {"type": "MultiPolygon","coordinates": [[[[37.4609,-1.8834,1441.7458],[37.4728,-1.9226,1567.9514],[37.4776,-1.9295,1475.6884],[37.4803,-1.9371,1359.2246],[37.4871,-1.9389,1325.5455],[37.4938,-1.9476,1395.9307],[37.5083,-1.9577,1228.6841],[37.5085,-1.956,1217.4474],[37.5106,-1.9554,1191.0704],[37.5168,-1.9558,1129.0664],[37.5201,-1.9581,1132.3146],[37.5232,-1.9649,1104.9521],[37.5266,-1.9674,1101.6545],[37.5271,-1.9774,1093.0037],[37.5301,-1.9791,1104.0906],[37.5333,-1.9911,1107.1108],[37.5339,-2.0012,1102.7069],[37.536,-2.0031,1109.1196],[37.5391,-2.0029,1115.2419],[37.5414,-2.006,1140.005],[37.5662,-2.0195,1110.9316],[37.5681,-2.0048,1100.4216],[37.5595,-2.0046,1327.5745],[37.5634,-1.9903,1085.1508],[37.5687,-1.9837,1048.6482],[37.5768,-1.9824,1045.2026],[37.578,-1.9788,1060.947],[37.5806,-1.9806,1052.4604],[37.5816,-1.987,1040.8475],[37.5845,-1.985,1047.0602],[37.5875,-1.9857,1053.4858],[37.5882,-1.9871,1044.7471],[37.5862,-1.9889,1038.3597],[37.5872,-1.9905,1038.499],[37.5891,-1.9879,1044.7471],[37.5945,-1.9882,1039.4579],[37.5981,-1.9928,1043.8298],[37.5958,-1.9951,1037.6799],[37.5985,-1.9958,1032.0721],[37.5968,-1.998,1031.7981],[37.6004,-1.997,1034.9563],[37.6023,-2.0002,1029.8801],[37.6037,-2.0104,1057.3115],[37.6064,-2.0094,1059.8387],[37.607,-2.0034,1047.1022],[37.6031,-1.9936,1024.7806],[37.6007,-1.993,1036.3783],[37.6005,-1.9915,1044.683],[37.6068,-1.9915,1028.0747],[37.608,-1.9833,1048.1516],[37.6143,-1.9836,1036.3907],[37.6081,-1.967,1043.9301],[37.61,-1.9659,1041.9926],[37.6102,-1.9607,1047.549],[37.6085,-1.9568,1048.5171],[37.6102,-1.9513,1052.1755],[37.609,-1.9494,1061.7898],[37.6155,-1.948,1072.8088],[37.63,-1.9522,1070.3083],[37.6444,-1.9661,1031.6213],[37.648,-1.9622,1016.1173],[37.6428,-1.9596,1024.71],[37.6445,-1.958,1013.9822],[37.6432,-1.9557,1017.677],[37.6414,-1.9561,1017.677],[37.6396,-1.9443,1042.6172],[37.6365,-1.9454,1033.0654],[37.637,-1.9428,1029.3622],[37.6356,-1.9429,1029.3622],[37.6362,-1.9409,1028.8312],[37.634,-1.939,1036.1057],[37.6359,-1.9367,1032.7673],[37.6334,-1.9344,1057.8618],[37.6313,-1.9367,1037.9675],[37.6278,-1.9375,1043.6816],[37.6272,-1.9403,1041.333],[37.6251,-1.9385,1045.7799],[37.6254,-1.9341,1053.7675],[37.6226,-1.9336,1050.907],[37.6227,-1.9279,1054.1045],[37.6195,-1.9263,1058.6537],[37.6167,-1.9277,1056.0381],[37.6144,-1.9238,1065.2336],[37.6112,-1.9243,1057.745],[37.6095,-1.9214,1081.3746],[37.6129,-1.9184,1065.9535],[37.6119,-1.9149,1075.7744],[37.6096,-1.9156,1068.9546],[37.6057,-1.9139,1078.3447],[37.6065,-1.9077,1079.2317],[37.6009,-1.9057,1091.3911],[37.6004,-1.9018,1087.632],[37.5927,-1.8959,1106.0054],[37.5929,-1.89,1111.0051],[37.5864,-1.8832,1136.223],[37.5722,-1.8772,1169.7388],[37.5691,-1.8773,1193.0483],[37.5678,-1.8805,1211.5377],[37.5647,-1.8817,1279.7341],[37.5628,-1.8811,1305.9619],[37.5623,-1.8788,1300.4824],[37.5571,-1.8766,1370.5615],[37.5525,-1.8679,1318.8174],[37.555,-1.8648,1276.5081],[37.5521,-1.8588,1264.3997],[37.5533,-1.8517,1251.3578],[37.5495,-1.8502,1261.2078],[37.5455,-1.8549,1170.6221],[37.5421,-1.8502,1157.4305],[37.5381,-1.8522,1171.5398],[37.5308,-1.8472,1182.2139],[37.5252,-1.8478,1156.1387],[37.5262,-1.8301,1252.8972],[37.5219,-1.8283,1442.4012],[37.5233,-1.8165,1346.9915],[37.5169,-1.8114,1423.7538],[37.5126,-1.8045,1410.887],[37.4869,-1.83,1518.5718],[37.4826,-1.8364,1323.3408],[37.482,-1.8401,1321.6882],[37.4744,-1.8474,1444.5122],[37.4704,-1.8492,1390.6411],[37.4673,-1.8692,1244.9414],[37.4609,-1.8834,1441.7458]]]]}
,"properties": {"GID_3": "KEN.23.5.6_1","GID_0": "KEN","country": "Kenya","GID_1": "KEN.23_1","province": "Makueni","NL_NAME_1": "NA","GID_2": "KEN.23.5_1","county": "Makueni","NL_NAME_2": "NA","city": "Nzaui/Kilili/Kalamba","VARNAME_3": "NA","NL_NAME_3": "NA","TYPE_3": "Ward","ENGTYPE_3": "Ward","CC_3": "429","HASC_3": "NA","name": "Nzaui_Kilili_Kalamba.city","area_km2": 219.9135,"hist_schema_id": "Elevation0-9000","hist_area_km2": {"1000": 0.0636,"1025": 1.8859,"1050": 14.2395,"1075": 33.0562,"1100": 32.6538,"1125": 24.1782,"1150": 17.9061,"1175": 15.0878,"1200": 11.337,"1225": 8.4339,"1250": 7.4167,"1275": 5.9122,"1300": 6.2089,"1325": 5.8698,"1350": 5.001,"1375": 4.6407,"1400": 3.6024,"1425": 3.3269,"1450": 3.0091,"1475": 2.2038,"1500": 2.0343,"1525": 2.0131,"1550": 1.4622,"1575": 1.2503,"1600": 1.2715,"1625": 0.9112,"1650": 1.0172,"1675": 1.0807,"1700": 1.0172,"1725": 0.6569,"1750": 0.5934,"1775": 0.4026,"1800": 0.106,"1825": 0.0636}}}