{"type": "Feature","bbox": [36.2762,-1.7726,36.8389,-1.3974],"geometry": {"type": "MultiPolygon","coordinates": [[[[36.827,-1.7726,1705.4996],[36.8341,-1.7504,1718.5232],[36.8389,-1.7433,1702.1854],[36.8198,-1.6623,1670.2021],[36.8051,-1.5897,1709.2424],[36.7955,-1.5741,1709.3578],[36.7982,-1.5657,1718.8303],[36.7981,-1.5615,1718.3665],[36.7847,-1.5359,1712.6328],[36.76,-1.5016,1738.2275],[36.7177,-1.43,1756.6626],[36.7091,-1.43,1822.0057],[36.7038,-1.4369,1790.2283],[36.697,-1.4341,1832.6584],[36.6946,-1.4379,1799.0349],[36.6894,-1.441,1823.2805],[36.6886,-1.4362,1807.9585],[36.6838,-1.434,1825.4518],[36.6866,-1.4277,1832.6035],[36.6845,-1.4217,1848.6351],[36.6871,-1.4112,1873.905],[36.6868,-1.3988,1878.0369],[36.6633,-1.3974,2000.5858],[36.6529,-1.3985,2140.2095],[36.6459,-1.4001,2216.8057],[36.6359,-1.4056,2278.1741],[36.6396,-1.4283,2342.8174],[36.6376,-1.4449,2016.606],[36.629,-1.4481,1825.5908],[36.6243,-1.4712,1725.2432],[36.6025,-1.4897,1632.0559],[36.5893,-1.4951,1736.2463],[36.5387,-1.5085,1662.5347],[36.5077,-1.5099,1177.1282],[36.4076,-1.5067,1190.579],[36.4089,-1.498,1064.6653],[36.4075,-1.4919,1198.8903],[36.4095,-1.4856,1175.3771],[36.2813,-1.4863,1078.7949],[36.2769,-1.5829,1028.8983],[36.2788,-1.6055,1005.1552],[36.2762,-1.6172,1064.6898],[36.2766,-1.6231,1035.0955],[36.28,-1.6329,887.4858],[36.3517,-1.6445,1094.5209],[36.3789,-1.6507,888.3472],[36.4037,-1.6737,1269.9143],[36.4272,-1.6919,1616.9048],[36.4571,-1.7034,1254.7205],[36.5156,-1.7135,1061.3916],[36.5627,-1.716,1334.0537],[36.6253,-1.7224,1535.3115],[36.6358,-1.7422,1784.6238],[36.6466,-1.7549,1782.1698],[36.6695,-1.7382,1964.4504],[36.7066,-1.7572,1807.7903],[36.7173,-1.7597,1796.0355],[36.7586,-1.7669,1740.0081],[36.8117,-1.7702,1745.8773],[36.827,-1.7726,1705.4996]]]]}
,"properties": {"GID_3": "KEN.10.5.3_1","GID_0": "KEN","country": "Kenya","GID_1": "KEN.10_1","province": "Kajiado","NL_NAME_1": "NA","GID_2": "KEN.10.5_1","county": "KajiadoWest","NL_NAME_2": "NA","city": "Keekonyokie","VARNAME_3": "NA","NL_NAME_3": "NA","TYPE_3": "Ward","ENGTYPE_3": "Ward","CC_3": "926","HASC_3": "NA","name": "Keekonyokie.city","area_km2": 1510.236,"hist_schema_id": "Elevation0-9000","hist_area_km2": {"725": 0.466,"750": 1.695,"775": 1.95,"800": 8.393,"825": 12.716,"850": 8.668,"875": 12.377,"900": 19.371,"925": 19.583,"950": 19.562,"975": 30.753,"1000": 74.18,"1025": 80.306,"1050": 62.056,"1075": 58.346,"1100": 40.014,"1125": 36.326,"1150": 21.152,"1175": 22.699,"1200": 17.993,"1225": 20.558,"1250": 12.229,"1275": 7.524,"1300": 7.884,"1325": 15.959,"1350": 19.71,"1375": 13.967,"1400": 30.349,"1425": 31.472,"1450": 33.062,"1475": 25.093,"1500": 21.342,"1525": 16.171,"1550": 13.077,"1575": 10.915,"1600": 10.322,"1625": 9.41,"1650": 17.315,"1675": 56.226,"1700": 66.335,"1725": 58.282,"1750": 56.672,"1775": 54.638,"1800": 50.993,"1825": 54.745,"1850": 56.758,"1875": 54.193,"1900": 33.593,"1925": 23.568,"1950": 19.18,"1975": 22.91,"2000": 18.248,"2025": 5.807,"2050": 1.886,"2075": 1.399,"2100": 1.251,"2125": 1.166,"2150": 1.272,"2175": 0.954,"2200": 0.827,"2225": 0.954,"2250": 0.848,"2275": 0.551,"2300": 0.466,"2325": 0.488,"2350": 0.424,"2375": 0.254,"2400": 0.297,"2425": 0.085}}}