{"type": "Feature","bbox": [34.7867,1.3065,35.0687,1.5914],"geometry": {"type": "MultiPolygon","coordinates": [[[[34.9524,1.5914,1321.7515],[34.9436,1.5768,1397.7898],[34.9235,1.5627,1470.6041],[34.9066,1.5532,1437.9879],[34.8902,1.5554,1462.6099],[34.864,1.5285,1468.2501],[34.8442,1.4572,1506.3907],[34.8417,1.4546,1530.4989],[34.831,1.4519,1426.187],[34.8269,1.448,1454.0928],[34.8167,1.431,1471.3298],[34.8008,1.4233,1506.5782],[34.7942,1.4147,1540.4911],[34.7944,1.4104,1559.2333],[34.7993,1.4043,1552.0658],[34.8049,1.3924,1548.6055],[34.8065,1.384,1563.9034],[34.7867,1.3664,1967.9969],[34.8286,1.3106,1635.9097],[34.8293,1.3065,1613.5132],[34.8389,1.3092,1583.9767],[34.8527,1.3087,1544.2914],[34.8524,1.318,1530.3359],[34.8562,1.3161,1563.4126],[34.8571,1.3194,1507.3259],[34.8626,1.3192,1506.9591],[34.8651,1.3208,1441.9983],[34.8614,1.3278,1439.2714],[34.8642,1.3285,1448.1324],[34.8677,1.3326,1418.5718],[34.8745,1.335,1378.8053],[34.8734,1.3441,1380.0281],[34.8776,1.3513,1380.2815],[34.8805,1.3517,1369.1499],[34.8825,1.3542,1373.3613],[34.8855,1.3541,1360.8773],[34.8851,1.3562,1359.7122],[34.8877,1.3574,1363.2334],[34.8877,1.3599,1368.2146],[34.889,1.3594,1360.8074],[34.8929,1.3633,1349.3135],[34.8925,1.3665,1352.2703],[34.8957,1.3664,1348.7124],[34.8961,1.3697,1356.1272],[34.9017,1.3705,1345.2162],[34.9021,1.3727,1345.2899],[34.9047,1.3754,1344.827],[34.9068,1.3747,1341.5079],[34.908,1.3782,1343.8586],[34.9109,1.3805,1338.2341],[34.9162,1.4019,1326.3684],[34.9163,1.4119,1328.4321],[34.9223,1.4103,1318.1813],[34.9225,1.4136,1319.1211],[34.9244,1.413,1321.5464],[34.9255,1.4159,1318.6545],[34.9279,1.416,1314.8402],[34.9268,1.4182,1320.2135],[34.9309,1.4247,1318.0104],[34.9331,1.4244,1318.1785],[34.9343,1.4225,1316.5928],[34.9359,1.426,1313.0352],[34.9396,1.4266,1309.4161],[34.9393,1.4343,1309.3743],[34.9409,1.4365,1308.5874],[34.9436,1.4357,1307.4707],[34.9494,1.4405,1305.7153],[34.9515,1.4451,1300.0718],[34.949,1.4466,1303.2738],[34.9515,1.4505,1301.2979],[34.9536,1.4497,1300.2701],[34.9544,1.4565,1298.0129],[34.957,1.4606,1297.1289],[34.9566,1.4662,1296.4545],[34.9619,1.4683,1294.337],[34.9619,1.4662,1294.6736],[34.969,1.4681,1291.854],[34.9712,1.4672,1290.1929],[34.9722,1.4693,1289.4988],[34.9755,1.4692,1290.0099],[34.9768,1.4792,1292.9058],[34.9824,1.4826,1293.0374],[34.985,1.481,1285.7828],[34.9872,1.4824,1283.9913],[34.9905,1.4805,1278.9744],[34.993,1.4817,1282.8492],[34.9963,1.4796,1280.8829],[34.9983,1.4807,1280.0681],[35.0001,1.4797,1278.3884],[35.0008,1.4817,1278.6414],[35.0043,1.4827,1278.5349],[35.0049,1.4802,1274.5421],[35.0086,1.4822,1284.2738],[35.0176,1.4794,1278.277],[35.0384,1.4849,1263.1693],[35.0442,1.4915,1263.5674],[35.0477,1.4923,1259.4438],[35.0538,1.4977,1251.8124],[35.0544,1.5003,1252.1017],[35.0579,1.5014,1249.2024],[35.058,1.5093,1250.1411],[35.063,1.5097,1245.3993],[35.0628,1.5136,1244.2391],[35.065,1.5169,1242.9645],[35.0621,1.5175,1245.9506],[35.0618,1.519,1244.1786],[35.0634,1.5242,1245.5381],[35.0687,1.5254,1238.2137],[35.0675,1.5285,1238.0428],[35.0686,1.531,1244.7643],[35.0658,1.5313,1243.8479],[35.0637,1.5286,1245.1017],[35.0609,1.5287,1245.7736],[35.0601,1.5254,1249.6257],[35.0581,1.5245,1258.5948],[35.0515,1.5267,1265.7247],[35.0488,1.5249,1265.5881],[35.0441,1.5291,1271.1233],[35.0394,1.5305,1276.4395],[35.035,1.5353,1280.5667],[35.0189,1.5395,1290.8265],[35.015,1.5433,1297.0414],[35.0107,1.5441,1305.7822],[35.0073,1.5479,1315.17],[35.0023,1.5487,1311.5598],[34.998,1.5538,1319.9023],[34.9944,1.5625,1331.8328],[34.9866,1.5689,1338.1058],[34.9835,1.5692,1337.896],[34.9775,1.5734,1349.8848],[34.971,1.574,1338.7487],[34.9524,1.5914,1321.7515]]]]}
,"properties": {"GID_3": "KEN.47.1.6_1","GID_0": "KEN","country": "Kenya","GID_1": "KEN.47_1","province": "WestPokot","NL_NAME_1": "NA","GID_2": "KEN.47.1_1","county": "Kacheliba","NL_NAME_2": "NA","city": "Suam","VARNAME_3": "NA","NL_NAME_3": "NA","TYPE_3": "Ward","ENGTYPE_3": "Ward","CC_3": "651","HASC_3": "NA","name": "Suam.city","area_km2": 393.5334,"hist_schema_id": "Elevation0-9000","hist_area_km2": {"1250": 5.3199,"1275": 15.3239,"1300": 42.6867,"1325": 59.8971,"1350": 66.0861,"1375": 53.327,"1400": 37.77,"1425": 21.9162,"1450": 15.3669,"1475": 12.6963,"1500": 9.9197,"1525": 7.6306,"1550": 7.2915,"1575": 5.8714,"1600": 7.6731,"1625": 7.4399,"1650": 6.5285,"1675": 4.4936,"1700": 2.0348,"1725": 0.8478,"1750": 0.6783,"1775": 0.3815,"1800": 0.3815,"1825": 0.3603,"1850": 0.4663,"1875": 0.2544,"1900": 0.1484,"1925": 0.1908,"1950": 0.1272,"1975": 0.1696,"2000": 0.0636,"2025": 0.0636,"2050": 0.0424,"2075": 0.0424,"2125": 0.0424}}}