{"type":"Feature","properties":{"GID_3":"KEN.30.12.4_1","GID_0":"KEN","country":"Kenya","GID_1":"KEN.30_1","province":"Nairobi","NL_NAME_1":"NA","GID_2":"KEN.30.12_1","county":"Makadara","NL_NAME_2":"NA","city":"Viwandani","VARNAME_3":"NA","NL_NAME_3":"NA","TYPE_3":"Ward","ENGTYPE_3":"Ward","CC_3":"1431","HASC_3":"NA","name":"Viwandani.city"},
"geometry":{"type": "MultiPolygon","coordinates": [[[[36.8859,-1.2937,1626.7546],[36.8562,-1.298,1641.7635],[36.8606,-1.3093,1634.0269],[36.8559,-1.3138,1635.418],[36.8572,-1.315,1630.9397],[36.8611,-1.3144,1629.3994],[36.8666,-1.3102,1626.6929],[36.8723,-1.3112,1626.6686],[36.8883,-1.3049,1616.4058],[36.8859,-1.2937,1626.7546]]]]}}