{"type": "Feature","bbox": [40.1053,2.2197,40.5793,2.9829],"geometry": {"type": "MultiPolygon","coordinates": [[[[40.4931,2.8639,448.5592],[40.4931,2.8687,449.0211],[40.2701,2.9717,513.8856],[40.2681,2.9805,488.8261],[40.2639,2.9803,489.6411],[40.2622,2.9829,490.7942],[40.255,2.9756,491.7458],[40.2409,2.9713,496.7783],[40.2202,2.9602,498.4246],[40.2111,2.9508,499.5634],[40.1949,2.928,501.6362],[40.1894,2.9145,503.5894],[40.1819,2.9024,501.8595],[40.1853,2.8713,502.2216],[40.1937,2.863,506.2301],[40.1924,2.851,507.9374],[40.1972,2.8345,508.8546],[40.1943,2.7939,487.3233],[40.1853,2.7743,478.8474],[40.1599,2.7325,463.4803],[40.1471,2.7077,459.8549],[40.1351,2.6945,457.457],[40.1241,2.6733,454.8847],[40.1095,2.6567,452.6192],[40.1053,2.6349,447.1803],[40.1321,2.6029,461.5473],[40.1205,2.5727,454.8494],[40.1171,2.5583,453.1541],[40.1253,2.5401,457.6166],[40.1552,2.5185,474.8038],[40.1861,2.4835,492.4156],[40.1981,2.4657,504.1138],[40.1993,2.4529,531.9907],[40.1955,2.4159,532.0657],[40.2053,2.3901,524.3824],[40.2145,2.3805,512.6951],[40.2173,2.3623,510.8281],[40.1763,2.2979,474.1502],[40.174,2.2969,473.7328],[40.1727,2.2923,474.5755],[40.1277,2.2215,422.8363],[40.1372,2.2245,429.9572],[40.1523,2.2197,438.7693],[40.1615,2.2209,438.7169],[40.1667,2.2233,439.2256],[40.1725,2.2295,444.2131],[40.1795,2.2337,447.8373],[40.1897,2.2373,450.4909],[40.1999,2.2381,448.3535],[40.2043,2.2419,448.6704],[40.2051,2.2449,451.1569],[40.2051,2.2663,464.7758],[40.2069,2.2691,466.9427],[40.2269,2.2713,479.3444],[40.2359,2.2795,497.1376],[40.2435,2.2803,499.4614],[40.2627,2.2649,495.4691],[40.2695,2.2627,496.5359],[40.2757,2.2653,502.2116],[40.2841,2.2743,505.5734],[40.2875,2.2749,503.1013],[40.3013,2.2667,488.3578],[40.3105,2.2663,480.4377],[40.3159,2.2641,476.6042],[40.3221,2.2643,469.8744],[40.3381,2.2725,460.2127],[40.3455,2.2789,462.8201],[40.3511,2.2871,459.9091],[40.3579,2.3059,454.4941],[40.3923,2.3289,440.2434],[40.5791,2.5463,370.6029],[40.5793,2.5427,369.611],[40.5793,2.5497,368.4136],[40.5779,2.5521,366.6288],[40.5689,2.5651,369.5634],[40.5653,2.5667,374.9434],[40.5629,2.5727,375.1657],[40.5581,2.5787,381.0684],[40.5599,2.5891,375.9645],[40.5539,2.5935,384.6046],[40.5491,2.6023,385.8184],[40.5499,2.6111,385.857],[40.5357,2.6529,393.3422],[40.5269,2.6661,401.696],[40.5267,2.6739,396.4969],[40.5195,2.6963,404.2879],[40.4999,2.7201,410.13],[40.4997,2.7229,413.5784],[40.5065,2.7257,416.8083],[40.5121,2.7351,416.6738],[40.5199,2.7403,418.043],[40.5193,2.7527,423.3089],[40.5179,2.7555,423.5816],[40.5193,2.7659,423.5216],[40.5179,2.7701,425.9036],[40.5185,2.7739,421.5734],[40.5207,2.7761,422.5301],[40.5187,2.7779,424.0934],[40.5129,2.7787,425.6342],[40.5083,2.7845,428.7575],[40.5035,2.7843,430.9407],[40.5011,2.7873,432.5211],[40.5021,2.7955,429.6078],[40.4957,2.7979,429.7271],[40.4943,2.7999,430.6628],[40.4963,2.8049,430.9643],[40.5031,2.8103,436.8608],[40.4955,2.8191,433.9287],[40.4985,2.8213,434.2852],[40.4965,2.8269,436.1763],[40.4991,2.8343,439.1941],[40.4947,2.8391,440.0384],[40.4945,2.8455,441.9767],[40.4973,2.8515,441.6497],[40.4939,2.8563,442.2444],[40.4953,2.8583,442.7868],[40.4931,2.8639,448.5592]]]]}
,"properties": {"GID_3": "KEN.46.2.1_1","GID_0": "KEN","country": "Kenya","GID_1": "KEN.46_1","province": "Wajir","NL_NAME_1": "NA","GID_2": "KEN.46.2_1","county": "Tarbaj","NL_NAME_2": "NA","city": "Elben","VARNAME_3": "NA","NL_NAME_3": "NA","TYPE_3": "Ward","ENGTYPE_3": "Ward","CC_3": "172","HASC_3": "NA","name": "Elben.city","area_km2": 2680.562,"hist_schema_id": "Elevation0-9000","hist_area_km2": {"375": 31.581,"400": 114.927,"425": 214.823,"450": 386.512,"475": 445.735,"500": 455.913,"525": 463.755,"550": 318.528,"575": 163.705,"600": 61.741,"625": 18.152,"650": 5.041,"675": 0.148}}}