{"type":"Feature","properties":{"GID_3":"KEN.7.1.4_1","GID_0":"KEN","country":"Kenya","GID_1":"KEN.7_1","province":"Garissa","NL_NAME_1":"NA","GID_2":"KEN.7.1_1","county":"Balambala","NL_NAME_2":"NA","city":"Saka","VARNAME_3":"NA","NL_NAME_3":"NA","TYPE_3":"Ward","ENGTYPE_3":"Ward","CC_3":"138","HASC_3":"NA","name":"Saka.city"},
"geometry":{"type": "MultiPolygon","coordinates": [[[[39.1033,-0.0148,233.8312],[39.1013,-0.0178,230.7256],[39.1037,-0.0218,229.6488],[39.1255,-0.0501,214.8301],[39.1391,-0.0665,201.257],[39.1479,-0.0743,193.3326],[39.1553,-0.0783,190.976],[39.1725,-0.0823,196.716],[39.1857,-0.0882,201.109],[39.1969,-0.0906,201.4925],[39.2281,-0.0854,216.6891],[39.2613,-0.0931,218.8658],[39.2939,-0.0913,215.9376],[39.3121,-0.0877,224.0229],[39.3265,-0.0896,222.7173],[39.3357,-0.0942,219.8326],[39.3621,-0.1144,205.0626],[39.3753,-0.1201,203.7401],[39.3831,-0.1216,203.3103],[39.3843,-0.1059,216.7055],[39.3793,-0.0911,229.4362],[39.3785,-0.0842,234.4782],[39.3871,-0.0635,251.8226],[39.3859,-0.0422,272.1678],[39.3961,-0.0235,288.7169],[39.4041,-0.0155,288.8248],[39.4089,-0.006,286.1986],[39.4191,0.0059,283.1178],[39.4247,0.0155,282.6868],[39.3549,0.0425,301.1136],[39.3283,0.0543,307.4714],[39.2277,0.0909,332.8461],[39.2121,0.0971,335.404],[39.2055,0.1013,337.4067],[39.1651,0.1139,336.4317],[39.1555,0.0985,342.939],[39.1503,0.0939,345.8578],[39.1369,0.0897,351.442],[39.1295,0.0845,353.6483],[39.1275,0.0767,355.7137],[39.1283,0.0677,352.7015],[39.1387,0.0495,317.3112],[39.1395,0.0403,300.894],[39.1253,0.0101,263.9731],[39.1167,0.0039,252.2219],[39.1137,-0.0042,243.4884],[39.1033,-0.0148,233.8312]]]]}}