{"type": "Feature","bbox": [34.1738,-1.0224,34.3572,-0.9117],"geometry": {"type": "MultiPolygon","coordinates": [[[[34.2787,-1.0213,1217.5575],[34.2833,-1.0203,1227.1719],[34.2842,-1.017,1217.0348],[34.2865,-1.0152,1189.1475],[34.2915,-1.0154,1200.3979],[34.2984,-1.0186,1258.5284],[34.3042,-1.0091,1266.0555],[34.3095,-1.0093,1270.0894],[34.3261,-0.9974,1277.2378],[34.3296,-0.9931,1239.3123],[34.3331,-0.9929,1212.5378],[34.3353,-0.9905,1233.3455],[34.3351,-0.9869,1261.1753],[34.3445,-0.9829,1259.3997],[34.3468,-0.9794,1251.7024],[34.3514,-0.9802,1282.953],[34.3572,-0.9734,1351.1975],[34.3497,-0.9699,1345.9056],[34.3468,-0.9595,1294.9661],[34.34,-0.9596,1285.0817],[34.3381,-0.9564,1271.5842],[34.3416,-0.9515,1298.2788],[34.3367,-0.9478,1299.8351],[34.3362,-0.9439,1307.309],[34.3353,-0.9352,1314.7039],[34.338,-0.9277,1294.5382],[34.3365,-0.9199,1213.6926],[34.3385,-0.9177,1217.3163],[34.337,-0.9117,1239.884],[34.3241,-0.9162,1232.9688],[34.3218,-0.9194,1241.5769],[34.3223,-0.9222,1222.0017],[34.3162,-0.9228,1229.5475],[34.3129,-0.9271,1214.2671],[34.3118,-0.9238,1220.9901],[34.3097,-0.9238,1225.3728],[34.3077,-0.9262,1225.3712],[34.2934,-0.931,1198.4469],[34.2922,-0.9256,1206.5858],[34.2887,-0.928,1198.3821],[34.2859,-0.9246,1207.913],[34.2805,-0.9234,1203.4801],[34.2805,-0.9279,1188.1741],[34.2768,-0.9327,1201.0574],[34.2786,-0.9344,1189.2715],[34.2785,-0.9391,1179.4994],[34.2733,-0.9442,1189.5817],[34.2733,-0.9517,1167.4603],[34.267,-0.9539,1198.9279],[34.2678,-0.9557,1191.9897],[34.2666,-0.9574,1179.5562],[34.2693,-0.9616,1174.6638],[34.2653,-0.9594,1186.6149],[34.2646,-0.9629,1179.0287],[34.2603,-0.9638,1195.7675],[34.261,-0.9673,1178.9031],[34.2596,-0.9705,1180.5654],[34.2571,-0.971,1191.0543],[34.2583,-0.9739,1173.8586],[34.2564,-0.9787,1158.2021],[34.2463,-0.9807,1189.4669],[34.2412,-0.9855,1173.7706],[34.2333,-0.981,1175.2327],[34.2316,-0.985,1156.6863],[34.2298,-0.9855,1151.5474],[34.2281,-0.9798,1175.4009],[34.2233,-0.9795,1162.1614],[34.2219,-0.9757,1153.0874],[34.2174,-0.9734,1151.7242],[34.2167,-0.9673,1147.3815],[34.2097,-0.9615,1147.4238],[34.2142,-0.9567,1146.1298],[34.2112,-0.9526,1144.2085],[34.2115,-0.948,1159.1351],[34.2036,-0.9393,1143.9729],[34.2033,-0.9363,1143.6149],[34.1988,-0.9342,1143.4811],[34.1989,-0.9292,1142.7839],[34.1971,-0.9265,1142.2655],[34.1919,-0.9286,1142.1038],[34.1909,-0.9263,1141.647],[34.1881,-0.9266,1141.1182],[34.1854,-0.9246,1140.7482],[34.1819,-0.9286,1140.9049],[34.181399999999996,-0.9339,1141.1958],[34.1788,-0.9348,1140.8838],[34.1751,-0.9326,1139.5258],[34.1773,-0.9364,1140.4021],[34.1738,-0.961,1137.9255],[34.1755,-0.9687,1140.3606],[34.1833,-0.9754,1172.3186],[34.1847,-0.9796,1171.1096],[34.1819,-0.9919,1181.702],[34.1892,-0.9991,1200.3379],[34.1884,-1.0029,1185.5066],[34.1927,-1.0086,1185.8956],[34.2015,-1.0139,1199.431],[34.2044,-1.0218,1218.25],[34.2099,-1.0224,1232.8428],[34.2154,-1.0206,1234.0771],[34.2198,-1.0224,1215.8104],[34.2266,-1.0217,1178.6547],[34.2296,-1.0188,1205.3629],[34.2404,-1.0209,1217.0498],[34.248,-1.0197,1212.9086],[34.2567,-1.0121,1214.7804],[34.2597,-1.0054,1195.7651],[34.2645,-1.0028,1171.6917],[34.2668,-0.9995,1199.2029],[34.2684,-1.0012,1192.7515],[34.2688,-1.012,1192.1605],[34.2787,-1.0213,1217.5575]]]]}
,"properties": {"GID_3": "KEN.27.4.5_1","GID_0": "KEN","country": "Kenya","GID_1": "KEN.27_1","province": "Migori","NL_NAME_1": "NA","GID_2": "KEN.27.4_1","county": "Nyatike","NL_NAME_2": "NA","city": "Macalder/Kanyarwanda","VARNAME_3": "NA","NL_NAME_3": "NA","TYPE_3": "Ward","ENGTYPE_3": "Ward","CC_3": "1285","HASC_3": "NA","name": "Macalder_Kanyarwanda.city","area_km2": 133.8302,"hist_schema_id": "Elevation0-9000","hist_area_km2": {"1125": 0.1272,"1150": 32.3287,"1175": 22.3226,"1200": 29.2124,"1225": 23.4887,"1250": 14.1186,"1275": 6.6778,"1300": 3.6675,"1325": 1.5687,"1350": 0.1484,"1375": 0.106,"1400": 0.0636}}}