{"type": "Feature","bbox": [34.4127,-0.6575,34.487,-0.4984],"geometry": {"type": "MultiPolygon","coordinates": [[[[34.4776,-0.6564,1351.3785],[34.4824,-0.6575,1355.9111],[34.4815,-0.653,1358.9869],[34.4832,-0.6496,1362.3401],[34.4815,-0.6473,1363.708],[34.4842,-0.645,1361.4119],[34.487,-0.638,1362.0549],[34.4848,-0.6229,1308.3301],[34.4814,-0.6171,1303.9377],[34.4839,-0.6107,1299.1394],[34.4806,-0.5988,1282.0706],[34.4812,-0.5961,1280.0],[34.4786,-0.5884,1288.21],[34.4768,-0.5877,1285.678],[34.4734,-0.5976,1293.8342],[34.473,-0.6424,1361.576],[34.4768,-0.6488,1359.7043],[34.4776,-0.6564,1351.3785]]],
[[[34.4732,-0.5874,1276.4548],[34.4715,-0.5756,1269.5509],[34.4769,-0.5731,1261.6937],[34.4734,-0.5621,1260.3054],[34.4642,-0.5539,1178.808],[34.4622,-0.5482,1176.9104],[34.4641,-0.5431,1184.1636],[34.4696,-0.5395,1335.8433],[34.4678,-0.5337,1210.8365],[34.4544,-0.5353,1189.4761],[34.4544,-0.5229,1133.6206],[34.453,-0.5228,1133.0],[34.4515,-0.5119,1133.0],[34.4433,-0.4984,1133.0],[34.418,-0.5229,1133.0],[34.4127,-0.5333,1136.9053],[34.4324,-0.5411,1174.998],[34.4369,-0.5447,1198.1978],[34.4422,-0.5526,1228.385],[34.4501,-0.5563,1235.5894],[34.4588,-0.5571,1210.0791],[34.4682,-0.5642,1207.2637],[34.4695,-0.5676,1229.9565],[34.4643,-0.5751,1240.0704],[34.4679,-0.5836,1232.0081],[34.4732,-0.5874,1276.4548]]]]}
,"properties": {"GID_3": "KEN.8.1.1_1","GID_0": "KEN","country": "Kenya","GID_1": "KEN.8_1","province": "HomaBay","NL_NAME_1": "NA","GID_2": "KEN.8.1_1","county": "HomaBayTown","NL_NAME_2": "NA","city": "HomaBayArujo","VARNAME_3": "NA","NL_NAME_3": "NA","TYPE_3": "Ward","ENGTYPE_3": "Ward","CC_3": "1242","HASC_3": "NA","name": "Homa_Bay_Arujo.city","area_km2": 30.2329,"hist_schema_id": "Elevation0-9000","hist_area_km2": {"1125": 9.71021,"1150": 2.20493,"1175": 2.48055,"1200": 3.15899,"1225": 2.62895,"1250": 1.71729,"1275": 0.80564,"1300": 1.86569,"1325": 2.39571,"1350": 2.09889,"1375": 1.16605}}}