{"type": "Feature","bbox": [34.6746,-0.8923,34.7611,-0.7077],"geometry": {"type": "MultiPolygon","coordinates": [[[[34.7398,-0.8458,1682.8342],[34.7446,-0.8469,1684.498],[34.748,-0.8456,1682.6432],[34.7496,-0.8504,1695.0789],[34.7611,-0.8516,1675.4385],[34.7602,-0.8458,1686.9365],[34.7566,-0.8386,1699.6851],[34.751,-0.8327,1674.3121],[34.7501,-0.8273,1673.2302],[34.7412,-0.8227,1664.3632],[34.7358,-0.8137,1629.4204],[34.7353,-0.8052,1585.3203],[34.7318,-0.8022,1589.575],[34.7348,-0.7996,1580.5193],[34.7351,-0.7956,1645.8127],[34.7341,-0.7805,1667.0994],[34.7292,-0.7687,1657.4315],[34.73,-0.7585,1649.5211],[34.7169,-0.7421,1560.2744],[34.7164,-0.7296,1642.1425],[34.7128,-0.7146,1708.5894],[34.7015,-0.7188,1627.7269],[34.6985,-0.7158,1570.6786],[34.6924,-0.714,1523.4497],[34.6897,-0.7148,1479.8254],[34.6871,-0.7077,1464.994],[34.6802,-0.7181,1533.7542],[34.6792,-0.7308,1557.2504],[34.6746,-0.7391,1611.809],[34.6775,-0.751,1639.1084],[34.6824,-0.7594,1704.735],[34.6828,-0.7773,1709.5968],[34.686,-0.7835,1665.3481],[34.6888,-0.7855,1695.135],[34.691,-0.7922,1653.6525],[34.6988,-0.8015,1562.5442],[34.6955,-0.8068,1575.5975],[34.6961,-0.81,1547.7667],[34.692,-0.8107,1573.3848],[34.692,-0.813,1568.9332],[34.69,-0.8119,1584.3822],[34.69,-0.8135,1574.845],[34.6868,-0.8146,1591.1083],[34.6848,-0.8203,1565.085],[34.6802,-0.8216,1598.0924],[34.6794,-0.8255,1602.7983],[34.6763,-0.8291,1577.849],[34.6819,-0.8338,1528.0967],[34.6851,-0.8411,1616.2676],[34.6833,-0.8501,1648.0729],[34.6871,-0.8559,1763.3142],[34.6869,-0.8625,1920.8351],[34.6887,-0.8656,1958.4138],[34.6866,-0.89,1716.5266],[34.6944,-0.8907,1680.7776],[34.6951,-0.8923,1676.9912],[34.7117,-0.8894,1742.4069],[34.7202,-0.8923,1732.1721],[34.7238,-0.8908,1726.6292],[34.7258,-0.8879,1714.0125],[34.7245,-0.8863,1745.0024],[34.727,-0.8823,1723.1542],[34.7277,-0.8761,1761.0514],[34.7244,-0.8705,1767.5844],[34.7257,-0.8655,1746.427],[34.7292,-0.8597,1728.4492],[34.7328,-0.858,1702.4115],[34.7398,-0.8458,1682.8342]]]]}
,"properties": {"GID_2": "KEN.16.3_1","GID_0": "KEN","country": "Kenya","GID_1": "KEN.16_1","province": "Kisii","NL_NAME_1": "NA","county": "BomachogeChache","VARNAME_2": "NA","NL_NAME_2": "NA","TYPE_2": "Constituency","ENGTYPE_2": "Constituency","CC_2": "265","HASC_2": "NA","name": "Bomachoge_Chache.county","area_km2": 102.79929,"hist_schema_id": "Elevation0-9000","hist_area_km2": {"1475": 0.38161,"1500": 1.16603,"1525": 2.65004,"1550": 5.53327,"1575": 7.4413,"1600": 8.8617,"1625": 11.13011,"1650": 13.50451,"1675": 12.12647,"1700": 8.01361,"1725": 7.58959,"1750": 9.13715,"1775": 7.92875,"1800": 3.96437,"1825": 1.06,"1850": 0.4876,"1875": 0.50879,"1900": 0.50879,"1925": 0.55119,"1950": 0.2544}}}