{"type":"Feature","properties":{"GID_3":"KEN.16.1.6_1","GID_0":"KEN","country":"Kenya","GID_1":"KEN.16_1","province":"Kisii","NL_NAME_1":"NA","GID_2":"KEN.16.1_1","county":"Bobasi","NL_NAME_2":"NA","city":"MasigeWest","VARNAME_3":"NA","NL_NAME_3":"NA","TYPE_3":"Ward","ENGTYPE_3":"Ward","CC_3":"1315","HASC_3":"NA","name":"Masige_West.city"},
"geometry":{"type": "MultiPolygon","coordinates": [[[[34.8109,-0.8444,2003.1699],[34.806399999999996,-0.8426,1980.6229],[34.7891,-0.8444,1910.4111],[34.7887,-0.8381,1947.7261],[34.7761,-0.824,1825.5806],[34.7655,-0.8148,1847.8138],[34.7633,-0.8054,1736.3365],[34.7546,-0.7984,1596.4315],[34.7523,-0.7916,1689.4069],[34.7495,-0.7941,1659.4636],[34.7435,-0.7933,1684.8784],[34.7343,-0.7963,1629.301],[34.7348,-0.7996,1580.5193],[34.7318,-0.8022,1589.575],[34.7353,-0.8052,1585.3203],[34.7371,-0.817,1632.71],[34.7395,-0.8184,1649.7274],[34.7412,-0.8227,1664.3632],[34.7501,-0.8273,1673.2302],[34.751,-0.8327,1674.3121],[34.7566,-0.8386,1699.6851],[34.7602,-0.8458,1686.9365],[34.7613,-0.8541,1669.8951],[34.7696,-0.8574,1714.3667],[34.7738,-0.855,1733.9263],[34.7704,-0.851,1804.4403],[34.7746,-0.8489,1851.9291],[34.7781,-0.8593,1826.7308],[34.7843,-0.8612,1878.3267],[34.7855,-0.8647,1817.6715],[34.7892,-0.8668,1881.4418],[34.7947,-0.8688,1867.3575],[34.8001,-0.8664,1921.9421],[34.803,-0.8626,1897.2366],[34.8098,-0.867,1803.1897],[34.8142,-0.8605,1813.3667],[34.8105,-0.8547,1960.4183],[34.8109,-0.8444,2003.1699]]]]}}