{"type": "Feature","bbox": [36.794,-1.3148,36.8157,-1.3064],"geometry": {"type": "MultiPolygon","coordinates": [[[[36.794,-1.3116,1710.5356],[36.7969,-1.3139,1710.1912],[36.8042,-1.3148,1696.8838],[36.8157,-1.3095,1668.8416],[36.806,-1.3064,1718.0618],[36.8034,-1.3128,1716.0115],[36.7943,-1.3075,1730.5204],[36.794,-1.3116,1710.5356]]]]}
,"properties": {"GID_3": "KEN.30.10.4_1","GID_0": "KEN","country": "Kenya","GID_1": "KEN.30_1","province": "Nairobi","NL_NAME_1": "NA","GID_2": "KEN.30.10_1","county": "Kibra","NL_NAME_2": "NA","city": "NyayoHighrise","VARNAME_3": "NA","NL_NAME_3": "NA","TYPE_3": "Ward","ENGTYPE_3": "Ward","CC_3": "1385","HASC_3": "NA","name": "Nyayo_Highrise.city","area_km2": 1.0598328,"hist_schema_id": "Elevation0-9000","hist_area_km2": {"1675": 0.2967533,"1700": 0.3179497,"1725": 0.4451298}}}