{"type":"Feature","properties":{"GID_3":"KEN.43.6.2_1","GID_0":"KEN","country":"Kenya","GID_1":"KEN.43_1","province":"Turkana","NL_NAME_1":"NA","GID_2":"KEN.43.6_1","county":"TurkanaWest","NL_NAME_2":"NA","city":"Kalobeyei","VARNAME_3":"NA","NL_NAME_3":"NA","TYPE_3":"Ward","ENGTYPE_3":"Ward","CC_3":"621","HASC_3":"NA","name":"Kalobeyei.city"},
"geometry":{"type": "MultiPolygon","coordinates": [[[[34.744,3.9042,577.0298],[34.7264,3.9111,580.6921],[34.7166,3.9176,584.0227],[34.7035,3.93,587.2794],[34.6996,3.9308,588.3584],[34.6686,3.91,607.1228],[34.6556,3.8981,615.0882],[34.6449,3.8941,623.4011],[34.6351,3.8878,626.4291],[34.633,3.8904,628.454],[34.6283,3.8888,632.3574],[34.6201,3.8817,636.7511],[34.615,3.8809,638.096],[34.6049,3.8844,645.2002],[34.5964,3.8833,647.6393],[34.5903,3.885,652.2845],[34.5788,3.8815,660.251],[34.5671,3.8985,669.0558],[34.5646,3.9129,668.0157],[34.5581,3.9311,658.6003],[34.557,3.9512,643.9258],[34.5533,3.965,643.5526],[34.5295,4.001,819.0805],[34.5159,4.0123,945.8559],[34.5146,4.0299,902.5934],[34.509,4.0425,859.522],[34.4975,4.0611,719.1258],[34.4783,4.0852,607.9103],[34.4565,4.0904,641.1046],[34.4429,4.0976,635.434],[34.441,4.1024,644.071],[34.4415,4.1085,682.8468],[34.4489,4.1145,648.4319],[34.4497,4.1184,632.3574],[34.4282,4.1425,630.9518],[34.423,4.1514,627.1544],[34.4146,4.1568,627.6833],[34.407,4.158,630.201],[34.3866,4.1572,669.5286],[34.3643,4.1603,665.6829],[34.3036,4.1762,668.0662],[34.3003,4.1759,667.6318],[34.2974,4.1795,667.755],[34.295,4.1797,670.0204],[34.2864,4.178,676.1506],[34.2812,4.1729,679.9522],[34.273,4.1717,685.5381],[34.271,4.1695,687.5994],[34.2683,4.1696,690.069],[34.2647,4.1673,691.7864],[34.2583,4.1721,699.4878],[34.2522,4.1727,696.9158],[34.246,4.1716,701.8508],[34.2335,4.165,711.4621],[34.2255,4.1634,714.2023],[34.1115,4.1943,765.7586],[34.0791,4.209,768.757],[34.072,4.1921,789.782],[34.0642,4.1902,810.7214],[34.0479,4.1827,861.4441],[34.0464,4.1804,878.496],[34.0657,4.1444,984.71],[34.0495,4.1215,1060.7747],[34.0631,4.0946,968.7914],[34.0797,4.0858,928.8013],[34.0916,4.0617,1009.145],[34.0913,4.0495,1006.2852],[34.0876,4.037,1026.4023],[34.0588,4.0281,1040.3599],[34.06,4.0099,1019.0814],[34.0821,4.0026,1000.6813],[34.1057,3.977,1021.0728],[34.1346,3.9617,973.9261],[34.1199,3.9012,1121.4464],[34.1163,3.8978,1127.6207],[34.0914,3.8856,1145.5831],[34.0884,3.8616,1215.061],[34.0926,3.8602,1163.0239],[34.1094,3.8688,1170.2472],[34.1278,3.8725,1100.1299],[34.1526,3.8692,1063.4888],[34.1669,3.8702,1095.7339],[34.1707,3.8769,1071.3555],[34.175,3.88,1063.2804],[34.2046,3.8825,1040.2488],[34.2155,3.8812,1030.5956],[34.225,3.8525,1190.6321],[34.226,3.8314,1116.5646],[34.18,3.8319,1270.4064],[34.1686,3.8187,1213.7314],[34.1639,3.8108,1155.2981],[34.1583,3.8079,1243.1016],[34.1532,3.8073,1217.2792],[34.1537,3.8003,1152.5334],[34.159,3.8018,1150.7911],[34.1635,3.7981,1151.6327],[34.1705,3.8006,1118.7056],[34.1886,3.7955,1139.4315],[34.1882,3.7906,1234.4865],[34.1901,3.7832,1146.759],[34.166,3.7739,1195.0232],[34.1709,3.7681,1110.6162],[34.1761,3.7688,1098.6438],[34.2203,3.7845,1027.7235],[34.226,3.7829,1021.6923],[34.2268,3.7745,1076.41],[34.229,3.7745,1038.7168],[34.2332,3.7811,1011.2941],[34.2456,3.7842,995.575],[34.2579,3.7669,1031.0164],[34.2664,3.7486,1061.7402],[34.2833,3.7311,1038.6761],[34.2975,3.7215,1028.1755],[34.3079,3.7117,1059.8774],[34.3158,3.7166,991.3567],[34.3234,3.7285,976.5917],[34.331,3.7334,1015.3911],[34.365,3.7355,950.8649],[34.3823,3.7279,953.0181],[34.3942,3.7181,928.4991],[34.4028,3.7056,1105.2444],[34.4049,3.6931,933.582],[34.422,3.6889,914.6798],[34.4558,3.6766,951.4138],[34.4632,3.6698,840.2732],[34.4531,3.6115,1005.1321],[34.4566,3.5758,976.212],[34.4553,3.5632,962.796],[34.4692,3.5583,930.8447],[34.4772,3.5574,854.2076],[34.4793,3.5587,853.488],[34.4861,3.5708,823.2656],[34.4855,3.5798,811.738],[34.4882,3.583,805.7919],[34.4884,3.5874,812.2016],[34.4925,3.5942,805.5497],[34.5076,3.6012,776.0016],[34.5142,3.6021,765.6823],[34.5189,3.6071,757.4994],[34.5211,3.6123,758.3718],[34.5336,3.6182,742.9401],[34.5381,3.6182,742.8721],[34.5396,3.6271,734.971],[34.5438,3.6317,731.9617],[34.5443,3.636,727.5546],[34.548,3.6373,725.6077],[34.5476,3.6406,725.8217],[34.5555,3.6463,718.3265],[34.565,3.6504,712.9908],[34.5646,3.6542,708.1016],[34.5682,3.6551,706.993],[34.5686,3.6589,703.5262],[34.5787,3.6709,692.0156],[34.5813,3.6766,689.2057],[34.5851,3.6787,688.2942],[34.588,3.683,683.8105],[34.588,3.6872,680.5277],[34.5926,3.6887,681.9369],[34.6011,3.6985,673.8411],[34.6048,3.7059,673.8277],[34.6084,3.7245,669.553],[34.6071,3.7368,660.6353],[34.61,3.7494,651.8698],[34.6095,3.758,651.0139],[34.6134,3.7689,647.5215],[34.6203,3.7793,639.0396],[34.6251,3.7828,640.9668],[34.6285,3.7907,636.7002],[34.6325,3.7954,630.7423],[34.6328,3.8031,630.4286],[34.6374,3.8028,644.9218],[34.6416,3.8065,656.6504],[34.6424,3.8171,624.0957],[34.6412,3.8216,622.4753],[34.6433,3.8288,624.5259],[34.6424,3.8347,616.4081],[34.6442,3.838,622.8022],[34.6475,3.84,616.9178],[34.6532,3.8373,617.2009],[34.6591,3.839,613.2927],[34.6633,3.8466,609.8568],[34.6676,3.8476,608.3156],[34.6703,3.8525,607.1682],[34.672,3.8533,605.2795],[34.675,3.8519,606.0222],[34.6832,3.861,600.8904],[34.6886,3.8633,598.4874],[34.6955,3.8709,599.1011],[34.7055,3.8744,594.3193],[34.7089,3.8806,593.8621],[34.7249,3.8921,586.2322],[34.7289,3.9011,580.1359],[34.744,3.9042,577.0298]]]]}}