{"type": "Feature","bbox": [36.3847,0.1845,36.5738,0.4337],"geometry": {"type": "MultiPolygon","coordinates": [[[[36.4411,0.4277,1959.1212],[36.3855,0.4017,2038.2231],[36.3893,0.3957,2024.7373],[36.3847,0.3741,1977.2407],[36.3863,0.3659,1975.8812],[36.385,0.3594,1976.4047],[36.4017,0.3627,1979.6338],[36.4252,0.3613,1941.5],[36.4615,0.2994,1921.5979],[36.4862,0.2347,1925.8735],[36.4752,0.234,1941.8059],[36.4715,0.2286,1934.2832],[36.4654,0.226,1951.8477],[36.4638,0.2212,1942.0565],[36.4614,0.2217,1956.3623],[36.4612,0.2118,1952.115],[36.4566,0.1958,1978.4712],[36.4546,0.1939,1984.9979],[36.5024,0.1845,1904.9456],[36.5348,0.1949,1868.6654],[36.5505,0.2182,1841.2546],[36.5738,0.2455,1827.4481],[36.5578,0.2586,1827.3065],[36.5446,0.2782,1837.3097],[36.5488,0.2873,1851.6881],[36.5574,0.2942,1846.4807],[36.5295,0.3363,1875.082],[36.5273,0.3362,1877.278],[36.5269,0.3338,1875.2483],[36.5225,0.3344,1881.2064],[36.5133,0.3288,1890.0471],[36.4807,0.3856,1901.3258],[36.4707,0.3781,1899.861],[36.454,0.4337,1980.3978],[36.4411,0.4277,1959.1212]]]]}
,"properties": {"GID_3": "KEN.20.3.5_1","GID_0": "KEN","country": "Kenya","GID_1": "KEN.20_1","province": "Laikipia","NL_NAME_1": "NA","GID_2": "KEN.20.3_1","county": "LaikipiaWest","NL_NAME_2": "NA","city": "RumurutiTownship","VARNAME_3": "NA","NL_NAME_3": "NA","TYPE_3": "Ward","ENGTYPE_3": "Ward","CC_3": "812","HASC_3": "NA","name": "Rumuruti_Township.city","area_km2": 237.2068,"hist_schema_id": "Elevation0-9000","hist_area_km2": {"1825": 8.29,"1850": 23.9371,"1875": 41.8103,"1900": 62.5244,"1925": 39.8384,"1950": 24.6789,"1975": 17.9155,"2000": 12.6575,"2025": 3.9647,"2050": 1.5901}}}