{"type":"Feature","properties":{"GID_3":"KEN.28.3.5_1","GID_0":"KEN","country":"Kenya","GID_1":"KEN.28_1","province":"Mombasa","NL_NAME_1":"NA","GID_2":"KEN.28.3_1","county":"Kisauni","NL_NAME_2":"NA","city":"Mtopanga","VARNAME_3":"NA","NL_NAME_3":"NA","TYPE_3":"Ward","ENGTYPE_3":"Ward","CC_3":"13","HASC_3":"NA","name":"Mtopanga.city"},
"geometry":{"type": "MultiPolygon","coordinates": [[[[39.6815,-3.9825,54.4334],[39.6825,-3.9893,43.4958],[39.6815,-3.9933,48.201],[39.6848,-3.9995,47.8976],[39.684,-4.006,32.4783],[39.6865,-4.0061,49.9674],[39.689,-4.003,47.4442],[39.6939,-4.0062,46.2099],[39.6991,-3.998,29.585],[39.6925,-3.9872,34.4562],[39.6916,-3.9817,43.4112],[39.6867,-3.9797,47.1984],[39.6815,-3.9825,54.4334]]]]}}