{"type":"Feature","properties":{"GID_3":"KEN.30.16.4_1","GID_0":"KEN","country":"Kenya","GID_1":"KEN.30_1","province":"Nairobi","NL_NAME_1":"NA","GID_2":"KEN.30.16_1","county":"Starehe","NL_NAME_2":"NA","city":"Ngara","VARNAME_3":"NA","NL_NAME_3":"NA","TYPE_3":"Ward","ENGTYPE_3":"Ward","CC_3":"1440","HASC_3":"NA","name":"Ngara.city"},
"geometry":{"type": "MultiPolygon","coordinates": [[[[36.8117,-1.2725,1693.4509],[36.8216,-1.2771,1667.0155],[36.8267,-1.2773,1664.6877],[36.8312,-1.2794,1658.1306],[36.8345,-1.2753,1660.928],[36.8358,-1.2681,1662.7384],[36.8315,-1.267,1665.071],[36.8336,-1.2644,1656.5959],[36.8152,-1.2671,1688.0005],[36.8117,-1.2725,1693.4509]]]]}}