{"type":"Feature","properties":{"GID_3":"KEN.13.4.1_1","GID_0":"KEN","country":"Kenya","GID_1":"KEN.13_1","province":"Kiambu","NL_NAME_1":"NA","GID_2":"KEN.13.4_1","county":"Juja","NL_NAME_2":"NA","city":"Juja","VARNAME_3":"NA","NL_NAME_3":"NA","TYPE_3":"Ward","ENGTYPE_3":"Ward","CC_3":"561","HASC_3":"NA","name":"Juja.city"},
"geometry":{"type": "MultiPolygon","coordinates": [[[[36.9434,-1.0585,1571.3291],[36.9525,-1.0669,1569.1938],[36.9568,-1.0671,1574.0664],[36.9588,-1.0721,1562.746],[36.9744,-1.0813,1548.3723],[36.9776,-1.0818,1545.4556],[36.9849,-1.0996,1532.428],[36.9852,-1.1044,1519.3562],[36.9935,-1.1137,1524.7036],[36.9957,-1.1228,1507.6154],[37.008,-1.1137,1500.5746],[37.0135,-1.1017,1523.9933],[37.0347,-1.0822,1493.0145],[37.0244,-1.0745,1516.0757],[37.022,-1.0749,1505.5713],[37.0198,-1.0718,1511.6649],[37.0163,-1.0711,1513.1954],[37.0131,-1.0653,1533.752],[37.0079,-1.0634,1532.2443],[37.0051,-1.0599,1537.7913],[36.9945,-1.0572,1548.5271],[36.9884,-1.0485,1565.2493],[36.9755,-1.0372,1560.2649],[36.9729,-1.0294,1565.96],[36.958,-1.0256,1578.3652],[36.9484,-1.0212,1612.2615],[36.9392,-1.0357,1608.5519],[36.9496,-1.0347,1611.8274],[36.9556,-1.0402,1598.672],[36.9434,-1.0585,1571.3291]]]]}}