{"type": "Feature","bbox": [37.5108,-3.1869,37.8751,-2.9077],"geometry": {"type": "MultiPolygon","coordinates": [[[[37.5108,-2.9543,1823.0891],[37.5489,-2.9775,1635.0458],[37.6207,-3.0256,1450.0509],[37.6161,-3.0268,1479.2214],[37.6726,-3.0677,1204.387],[37.6904,-3.1751,1051.3989],[37.7917,-3.1711,943.2328],[37.7955,-3.1729,941.531],[37.8007,-3.1688,941.1642],[37.8105,-3.1682,921.0568],[37.8159,-3.1703,914.1965],[37.8197,-3.1746,906.9152],[37.8281,-3.1795,899.489],[37.8307,-3.1839,892.823],[37.8351,-3.1869,889.869],[37.8475,-3.1838,880.5863],[37.8527,-3.1799,879.1522],[37.8543,-3.0801,867.5574],[37.8663,-3.0792,851.5763],[37.8707,-3.0775,846.52],[37.8751,-3.0399,791.9648],[37.8682,-3.0373,802.3744],[37.8626,-3.0309,813.3116],[37.8629,-3.0291,814.8418],[37.8581,-3.0224,825.8214],[37.8555,-3.0126,840.5314],[37.8493,-3.0022,853.6755],[37.8434,-3.0031,864.691],[37.84,-3.0019,866.7402],[37.8389,-2.9978,874.2268],[37.8307,-2.9961,881.2324],[37.8165,-2.9865,902.578],[37.8098,-2.9854,915.0571],[37.8049,-2.9827,940.8346],[37.8027,-2.9792,951.6485],[37.7976,-2.9765,952.663],[37.7969,-2.9731,958.1285],[37.7927,-2.9765,956.5296],[37.7873,-2.9765,967.4146],[37.7816,-2.9791,1023.6536],[37.7785,-2.976,989.5798],[37.7772,-2.9794,984.8887],[37.7733,-2.9764,1010.5503],[37.7687,-2.9765,1027.6053],[37.7672,-2.9805,1049.6049],[37.7623,-2.976,1074.7334],[37.7545,-2.9872,1066.1116],[37.7505,-2.9859,1068.9187],[37.75,-2.9895,1103.0251],[37.7469,-2.9891,1082.5195],[37.7452,-2.9937,1085.2208],[37.7415,-2.9951,1141.2881],[37.7421,-2.9966,1115.7896],[37.7385,-2.9994,1136.255],[37.7271,-2.9974,1133.6235],[37.7241,-2.9891,1184.4954],[37.7189,-2.9864,1153.1323],[37.7187,-2.9842,1173.0142],[37.7161,-2.9829,1162.1407],[37.7134,-2.9883,1158.5869],[37.7061,-2.9814,1173.0203],[37.6997,-2.9805,1187.5117],[37.6973,-2.971,1247.0754],[37.6899,-2.9705,1239.1073],[37.6875,-2.9632,1249.2207],[37.6757,-2.9549,1303.7772],[37.6677,-2.9521,1338.2622],[37.6483,-2.9386,1383.5773],[37.6447,-2.9318,1416.4167],[37.6451,-2.9222,1414.2087],[37.6399,-2.918,1415.6804],[37.6331,-2.918,1385.9524],[37.6231,-2.9261,1452.476],[37.6186,-2.9269,1479.3975],[37.5925,-2.9077,1427.9915],[37.5867,-2.9106,1439.272],[37.5871,-2.9166,1456.2593],[37.5801,-2.9163,1471.4773],[37.5783,-2.9238,1484.7238],[37.5677,-2.9318,1507.7253],[37.5658,-2.936,1527.1619],[37.5616,-2.9387,1554.9392],[37.5534,-2.9416,1592.4272],[37.5404,-2.9329,1616.1245],[37.5319,-2.9298,1639.4697],[37.529,-2.9338,1653.1577],[37.5243,-2.9359,1683.297],[37.5224,-2.9428,1691.0616],[37.5108,-2.9543,1823.0891]]]]}
,"properties": {"GID_3": "KEN.10.4.5_1","GID_0": "KEN","country": "Kenya","GID_1": "KEN.10_1","province": "Kajiado","NL_NAME_1": "NA","GID_2": "KEN.10.4_1","county": "KajiadoSouth","NL_NAME_2": "NA","city": "Rombo","VARNAME_3": "NA","NL_NAME_3": "NA","TYPE_3": "Ward","ENGTYPE_3": "Ward","CC_3": "934","HASC_3": "NA","name": "Rombo.city","area_km2": 581.4725,"hist_schema_id": "Elevation0-9000","hist_area_km2": {"800": 2.3501,"825": 7.0716,"850": 10.8613,"875": 16.9798,"900": 31.926,"925": 39.8228,"950": 36.0543,"975": 34.7209,"1000": 33.5988,"1025": 41.5594,"1050": 37.4312,"1075": 27.608,"1100": 22.6116,"1125": 19.4995,"1150": 12.8092,"1175": 13.995,"1200": 15.9854,"1225": 9.4854,"1250": 7.1776,"1275": 7.1141,"1300": 9.1256,"1325": 12.0052,"1350": 12.3441,"1375": 10.629,"1400": 12.2594,"1425": 13.2336,"1450": 12.7254,"1475": 16.8545,"1500": 15.3511,"1525": 8.0037,"1550": 6.0133,"1575": 3.7478,"1600": 3.6419,"1625": 4.5312,"1650": 3.1126,"1675": 3.0702,"1700": 2.308,"1725": 1.8633,"1750": 0.7411,"1775": 0.5929,"1800": 0.4235,"1825": 0.2329}}}