{"type":"Feature","properties":{"GID_2":"KEN.38.1_1","GID_0":"KEN","country":"Kenya","GID_1":"KEN.38_1","province":"Siaya","NL_NAME_1":"NA","county":"AlegoUsonga","VARNAME_2":"NA","NL_NAME_2":"NA","TYPE_2":"Constituency","ENGTYPE_2":"Constituency","CC_2":"234","HASC_2":"NA","name":"Alego_Usonga.county"},
"geometry":{"type": "MultiPolygon","coordinates": [[[[34.3046,0.1578,1216.9949],[34.3024,0.1601,1228.624],[34.3013,0.1587,1221.5098],[34.2957,0.16,1207.8162],[34.2896,0.1587,1207.8284],[34.2844,0.1616,1209.4912],[34.2829,0.1587,1202.8658],[34.2755,0.1542,1206.4971],[34.265,0.1528,1213.8289],[34.2438,0.1559,1205.7673],[34.2358,0.1534,1197.9426],[34.2275,0.1575,1180.6946],[34.2257,0.1616,1183.8245],[34.2226,0.1616,1175.4514],[34.2227,0.1632,1172.5544],[34.2198,0.1633,1165.7211],[34.2197,0.1646,1164.2952],[34.2171,0.1638,1175.0132],[34.2152,0.1663,1175.5354],[34.2099,0.1632,1177.9236],[34.2039,0.165,1183.8533],[34.1974,0.169,1175.3789],[34.1939,0.1742,1167.9767],[34.1919,0.1748,1175.7955],[34.1879,0.173,1179.941],[34.1816,0.1728,1187.4385],[34.1789,0.1709,1183.92],[34.1772,0.1657,1167.0488],[34.1735,0.1615,1166.4562],[34.1685,0.1623,1164.1378],[34.1606,0.1605,1176.3123],[34.1448,0.1465,1148.3748],[34.1429,0.1484,1155.681],[34.1445,0.1515,1159.1311],[34.1427,0.1523,1163.1577],[34.134,0.1488,1163.1926],[34.1327,0.1504,1166.6555],[34.129,0.1498,1169.7032],[34.1231,0.1461,1161.25],[34.1177,0.1455,1148.3142],[34.1208,0.1418,1150.0352],[34.1169,0.1363,1148.8809],[34.1204,0.1354,1148.8947],[34.1208,0.1337,1148.7968],[34.116,0.1303,1148.4033],[34.1152,0.1277,1149.9578],[34.1101,0.1305,1155.4838],[34.1098,0.128,1145.3168],[34.1123,0.1248,1147.5814],[34.102,0.1287,1205.3361],[34.1027,0.1354,1206.9655],[34.1051,0.1401,1172.1664],[34.0994,0.1404,1154.6055],[34.0933,0.1349,1145.6224],[34.09,0.1293,1147.5798],[34.0859,0.1308,1144.7473],[34.0842,0.1267,1143.5826],[34.0809,0.1271,1145.4202],[34.0751,0.1243,1144.5123],[34.0719,0.1244,1144.4453],[34.0735,0.1163,1143.8606],[34.0732,0.1068,1142.9718],[34.066,0.095,1140.6893],[34.0442,0.012,1140.8296],[34.1113,0.0453,1145.0364],[34.1126,0.0431,1144.4459],[34.1107,0.0416,1144.9182],[34.1112,0.0402,1144.1368],[34.1171,0.0357,1146.3986],[34.1191,0.0301,1143.4312],[34.1184,0.0278,1144.2114],[34.1222,0.0238,1145.7343],[34.1541,0.019,1146.1301],[34.1565,0.0113,1147.1179],[34.155,0.0042,1146.726],[34.1606,-0.0012,1147.5522],[34.161,-0.003,1147.5862],[34.1597,-0.0033,1147.5862],[34.1611,-0.0047,1148.1075],[34.1661,-0.0067,1148.4104],[34.1696,-0.0028,1148.6755],[34.1707,-0.0039,1148.3522],[34.1738,0.0004,1155.2617],[34.1765,0.0008,1164.2097],[34.1828,-0.003,1163.8702],[34.1826,-0.0053,1163.7677],[34.1856,-0.0073,1165.9358],[34.1842,-0.0099,1152.0477],[34.1887,-0.0135,1166.2249],[34.1914,-0.0122,1159.1075],[34.1899,-0.0109,1156.7391],[34.1922,-0.0109,1172.0806],[34.1909,-0.0098,1172.0806],[34.1931,-0.0086,1169.9575],[34.1977,-0.0091,1162.4447],[34.1985,-0.0055,1215.8284],[34.2012,-0.0034,1169.7394],[34.2026,-0.0057,1160.6747],[34.2056,-0.0049,1153.2471],[34.2059,-0.0075,1152.2527],[34.208,-0.0059,1152.6824],[34.2095,-0.0082,1156.6632],[34.2094,-0.0072,1152.5503],[34.2135,-0.0069,1170.2275],[34.2144,-0.0085,1178.1586],[34.2159,-0.0065,1180.5637],[34.218,-0.0079,1180.5186],[34.2171,-0.0087,1186.2439],[34.2194,-0.0115,1187.7968],[34.2191,-0.0144,1162.9692],[34.2212,-0.0162,1158.9924],[34.2194,-0.0175,1156.0646],[34.2215,-0.0204,1163.2003],[34.2201,-0.0223,1155.092],[34.2219,-0.0222,1157.8972],[34.2236,-0.0265,1162.1313],[34.2258,-0.0266,1196.7163],[34.2246,-0.0287,1162.1125],[34.2317,-0.0321,1191.2195],[34.2328,-0.0343,1180.0242],[34.2365,-0.033,1200.8259],[34.2428,-0.0337,1186.4387],[34.2548,-0.044,1199.406],[34.2672,-0.0392,1221.9728],[34.2708,-0.0407,1221.7183],[34.276,-0.039,1225.2812],[34.2781,-0.04,1215.2272],[34.293,-0.0371,1198.6559],[34.2942,-0.0353,1208.2009],[34.2994,-0.0337,1225.4795],[34.3028,-0.0347,1226.1359],[34.311,-0.0308,1235.8948],[34.3271,-0.0297,1218.7089],[34.3452,-0.0229,1230.4104],[34.3536,-0.0225,1253.9607],[34.3553,-0.0236,1255.1887],[34.3648,-0.0174,1224.9188],[34.3629,-0.0125,1255.1624],[34.3651,-0.0109,1245.1443],[34.3663,-0.004,1262.6765],[34.3732,0.0005,1260.6641],[34.3893,0.0052,1264.2958],[34.3901,0.0106,1275.1143],[34.3872,0.0159,1277.2465],[34.3881,0.0214,1291.6016],[34.3859,0.0306,1345.2432],[34.3808,0.0324,1379.0145],[34.374,0.0412,1427.7256],[34.3758,0.0456,1402.854],[34.3742,0.0484,1389.4131],[34.376,0.0509,1391.173],[34.3723,0.071,1344.8051],[34.375,0.0783,1307.5093],[34.3792,0.0837,1298.03],[34.369,0.0931,1280.8489],[34.3645,0.0995,1256.4449],[34.3611,0.1252,1246.486],[34.3576,0.131,1255.4075],[34.3524,0.1338,1227.7283],[34.3487,0.1435,1229.306],[34.345,0.1442,1220.353],[34.3401,0.149,1255.6217],[34.3348,0.1477,1247.303],[34.3287,0.1497,1248.6371],[34.3233,0.1495,1218.3488],[34.3147,0.1556,1217.9187],[34.3046,0.1578,1216.9949]]]]}}