{"type":"Feature","properties":{"GID_3":"KEN.20.2.2_1","GID_0":"KEN","country":"Kenya","GID_1":"KEN.20_1","province":"Laikipia","NL_NAME_1":"NA","GID_2":"KEN.20.2_1","county":"LaikipiaNorth","NL_NAME_2":"NA","city":"MugogodoWest","VARNAME_3":"NA","NL_NAME_3":"NA","TYPE_3":"Ward","ENGTYPE_3":"Ward","CC_3":"824","HASC_3":"NA","name":"Mugogodo_West.city"},
"geometry":{"type": "MultiPolygon","coordinates": [[[[36.8659,0.5727,1550.6438],[36.8644,0.5705,1558.875],[36.8639,0.5619,1557.5258],[36.8625,0.5602,1566.1448],[36.8586,0.5605,1587.1016],[36.8565,0.559,1601.0608],[36.8577,0.5529,1558.3364],[36.8681,0.5357,1588.4999],[36.8685,0.5308,1564.1714],[36.866,0.5272,1567.9669],[36.8666,0.524,1575.7238],[36.865,0.5211,1589.002],[36.8666,0.5188,1571.4131],[36.8752,0.5159,1596.0062],[36.879,0.5063,1587.4436],[36.8762,0.503,1583.7395],[36.8829,0.5027,1597.627],[36.8867,0.496,1594.9894],[36.8875,0.4907,1586.4425],[36.8902,0.4872,1588.3928],[36.8899,0.4823,1582.7438],[36.8926,0.4798,1596.4652],[36.8936,0.4677,1585.828],[36.9001,0.4612,1606.9951],[36.8966,0.4579,1591.0192],[36.8979,0.4442,1601.9745],[36.907,0.4462,1618.8811],[36.9086,0.4429,1630.7446],[36.9237,0.4505,1626.1368],[36.9679,0.4778,1678.7859],[36.9732,0.4715,1674.3903],[37.0203,0.4673,1775.9928],[37.0435,0.4311,1844.2061],[37.0493,0.3979,1779.5542],[37.056399999999996,0.3714,1865.3057],[37.0975,0.3523,1779.0974],[37.1158,0.3916,1730.6791],[37.1163,0.3958,1763.2485],[37.1126,0.3995,1775.9097],[37.1028,0.3963,1760.6648],[37.0975,0.3995,1750.676],[37.0961,0.3965,1731.9],[37.0902,0.3959,1730.5695],[37.0859,0.4028,1712.8688],[37.0863,0.4071,1731.6837],[37.0848,0.4063,1716.9976],[37.0823,0.4098,1683.0039],[37.0779,0.4096,1657.0092],[37.0809,0.4143,1669.2144],[37.0788,0.4152,1649.1909],[37.0773,0.4209,1680.5134],[37.0811,0.4301,1634.6169],[37.079,0.4375,1648.0768],[37.0816,0.442,1619.5022],[37.08,0.4462,1637.5815],[37.0822,0.4483,1618.3727],[37.0797,0.4503,1640.4484],[37.082,0.4518,1613.2],[37.0825,0.4558,1635.5874],[37.0855,0.46,1612.0616],[37.0881,0.4603,1597.5894],[37.089,0.4653,1642.0807],[37.0956,0.4642,1697.2402],[37.1006,0.474,1553.6973],[37.0995,0.475,1559.4331],[37.1003,0.4795,1560.7852],[37.0972,0.489,1585.6072],[37.0977,0.4916,1603.0613],[37.1355,0.4737,1854.7543],[37.1393,0.4592,1783.5856],[37.1398,0.4468,1782.2532],[37.1426,0.4395,1809.0676],[37.1464,0.4388,1850.7175],[37.1498,0.4351,1775.0039],[37.1543,0.4251,1843.7681],[37.1543,0.4218,1882.964],[37.1587,0.4162,1841.1471],[37.1593,0.4129,1833.2787],[37.166,0.4085,1841.2314],[37.1703,0.4112,1873.3512],[37.1744,0.4212,1890.6453],[37.1739,0.4263,1838.0448],[37.1711,0.4298,1838.4985],[37.1715,0.4504,1819.4563],[37.1753,0.4528,1836.3569],[37.1742,0.4585,1820.2871],[37.1759,0.46,1804.4685],[37.1765,0.4709,1600.3723],[37.1806,0.4848,1328.3999],[37.1878,0.4846,1286.1426],[37.1854,0.4917,1248.1416],[37.1876,0.5099,1201.2445],[37.1886,0.5136,1190.7024],[37.1935,0.5182,1184.0765],[37.1964,0.5319,1159.2649],[37.1387,0.5387,1189.7021],[37.1375,0.5401,1199.4443],[37.1135,0.5417,1331.7113],[36.8677,0.5713,1558.3634],[36.8659,0.5727,1550.6438]]]]}}