{"type":"Feature","properties":{"GID_3":"KEN.44.6.1_1","GID_0":"KEN","country":"Kenya","GID_1":"KEN.44_1","province":"UasinGishu","NL_NAME_1":"NA","GID_2":"KEN.44.6_1","county":"Turbo","NL_NAME_2":"NA","city":"Huruma","VARNAME_3":"NA","NL_NAME_3":"NA","TYPE_3":"Ward","ENGTYPE_3":"Ward","CC_3":"713","HASC_3":"NA","name":"Huruma.city"},
"geometry":{"type": "MultiPolygon","coordinates": [[[[35.2756,0.5191,2088.3706],[35.2766,0.5242,2099.8455],[35.2619,0.5282,2075.6208],[35.2541,0.5277,2060.3472],[35.2502,0.5327,2069.5378],[35.2466,0.5427,2053.3142],[35.2453,0.5389,2051.3936],[35.2368,0.5363,2027.8027],[35.2412,0.5313,2025.7539],[35.2394,0.5288,2005.5424],[35.247,0.5254,2056.6768],[35.2491,0.5285,2060.1848],[35.253,0.5215,2048.9326],[35.2589,0.522,2070.1252],[35.2602,0.5196,2067.6431],[35.2623,0.5192,2081.2112],[35.2701,0.5227,2090.3081],[35.2725,0.5197,2088.719],[35.2756,0.5191,2088.3706]]]]}}