{"type":"Feature","properties":{"GID_1":"KEN.33_1","GID_0":"KEN","country":"Kenya","province":"Narok","VARNAME_1":"NA","NL_NAME_1":"NA","TYPE_1":"County","ENGTYPE_1":"County","CC_1":"33","HASC_1":"KE.NR","ISO_1":"KE-33","name":"Narok.province"},
"geometry":{"type": "MultiPolygon","coordinates": [[[[36.0413,-1.7291,1449.9805],[36.0429,-1.7239,1470.9762],[36.046,-1.727,1465.8496],[36.0485,-1.7253,1465.7412],[36.0476,-1.717,1299.8367],[36.0445,-1.7148,1339.3582],[36.0429,-1.7097,1395.2848],[36.043,-1.7045,1434.3345],[36.0457,-1.7031,1411.655],[36.0477,-1.6983,1402.5806],[36.0522,-1.6998,1419.7996],[36.0558,-1.7037,1432.126],[36.0579,-1.6963,1513.3414],[36.0617,-1.6926,1430.9426],[36.0642,-1.6924,1371.0674],[36.062,-1.6863,1279.38],[36.0571,-1.6838,1442.6964],[36.0588,-1.6809,1397.7103],[36.0573,-1.6789,1450.0564],[36.0588,-1.6769,1458.9612],[36.0574,-1.675,1459.8221],[36.0583,-1.6694,1330.9353],[36.0541,-1.6636,1338.1143],[36.0524,-1.6641,1436.4595],[36.0537,-1.659,1317.804],[36.0506,-1.6526,1317.071],[36.0477,-1.6519,1439.8939],[36.0488,-1.649,1372.0862],[36.0465,-1.6477,1456.6006],[36.0487,-1.6455,1414.1135],[36.0524,-1.6452,1409.9541],[36.0529,-1.6376,1379.7913],[36.0511,-1.6346,1420.3604],[36.0534,-1.634,1424.1692],[36.0565,-1.6292,1423.3115],[36.06,-1.6147,1411.7061],[36.0635,-1.6145,1411.1786],[36.0652,-1.6126,1346.9657],[36.063,-1.6071,1417.0908],[36.0651,-1.608,1415.3887],[36.0667,-1.6062,1419.2437],[36.07,-1.596,1417.8334],[36.0742,-1.5895,1412.4585],[36.0791,-1.5923,1408.9026],[36.0803,-1.5807,1415.0428],[36.084,-1.5785,1361.6196],[36.0863,-1.5713,1283.8782],[36.0845,-1.5587,1338.2515],[36.0743,-1.5408,1476.178],[36.0613,-1.5061,1349.9562],[36.0588,-1.4922,1421.627],[36.0492,-1.4859,1511.3372],[36.2474,-1.2772,1525.9703],[36.3477,-1.1685,1866.6031],[36.3356,-1.0407,1609.3704],[36.2638,-0.9085,2103.9866],[36.2057,-0.9278,2238.1914],[36.1948,-0.9091,2462.8569],[36.1855,-0.9087,2708.8726],[36.1895,-0.9017,2554.2639],[36.1695,-0.8649,2814.8193],[36.1583,-0.8313,2674.3552],[36.1883,-0.7982,2191.1462],[36.1908,-0.7783,2094.4016],[36.1835,-0.7726,2081.5361],[36.1928,-0.7599,2037.0085],[36.1911,-0.7575,2050.2527],[36.1888,-0.7593,2068.4238],[36.1835,-0.7526,2085.6387],[36.1715,-0.7475,2126.1506],[36.1687,-0.7411,2173.9346],[36.1615,-0.7389,2119.8362],[36.1594,-0.7355,2162.9001],[36.1595,-0.7278,2229.3911],[36.1542,-0.72,2157.9854],[36.1527,-0.7143,2187.8989],[36.1538,-0.7085,2242.3413],[36.1474,-0.7051,2310.5364],[36.1438,-0.7052,2279.8486],[36.1427,-0.7091,2206.6191],[36.0999,-0.6706,2615.502],[36.0974,-0.6333,2375.2058],[36.0554,-0.6548,2891.4839],[36.0281,-0.6728,2904.0527],[36.0117,-0.6571,2912.3594],[35.9458,-0.7074,2720.6006],[35.9303,-0.6992,2736.1753],[35.9313,-0.6943,2714.7102],[35.9301,-0.6893,2737.1128],[35.8931,-0.6432,2751.1453],[35.8783,-0.6444,2760.0327],[35.8762,-0.6317,2789.7239],[35.9161,-0.6295,2857.625],[35.9508,-0.6598,2780.9368],[35.9826,-0.6248,2845.6113],[35.9518,-0.5624,2785.9243],[35.9475,-0.5586,2722.3228],[35.947,-0.5507,2789.3955],[35.9447,-0.5487,2761.2754],[35.9359,-0.5503,2833.1423],[35.933,-0.5445,2827.8296],[35.9122,-0.5431,2831.0107],[35.9045,-0.5399,2956.2627],[35.8902,-0.5195,3028.6067],[35.8531,-0.5003,2956.4106],[35.8543,-0.4983,2968.5457],[35.8321,-0.4885,2942.5576],[35.8391,-0.4675,2972.8406],[35.8364,-0.4606,2970.2305],[35.8306,-0.4607,2976.1606],[35.8271,-0.4672,2964.7546],[35.8145,-0.4702,2911.4932],[35.8161,-0.4609,2958.5474],[35.813,-0.4522,2961.6587],[35.7982,-0.4505,2952.5195],[35.7943,-0.4623,2889.9756],[35.7951,-0.4677,2892.9714],[35.778,-0.5086,2788.8879],[35.7735,-0.5313,2727.8984],[35.7405,-0.5239,2635.1819],[35.734,-0.5273,2624.4971],[35.7237,-0.542,2616.584],[35.717,-0.5464,2585.1799],[35.7111,-0.5471,2571.2598],[35.7091,-0.5531,2539.0947],[35.7106,-0.5543,2539.0947],[35.7112,-0.5525,2552.3096],[35.7125,-0.5532,2533.8943],[35.7118,-0.5638,2525.2339],[35.7133,-0.5649,2545.2603],[35.7117,-0.571,2515.2246],[35.708,-0.5796,2522.2551],[35.7054,-0.5805,2546.8916],[35.7037,-0.585,2515.6421],[35.6951,-0.5911,2530.2197],[35.6927,-0.5951,2506.9917],[35.6925,-0.5997,2481.4006],[35.6886,-0.6066,2508.709],[35.689,-0.6102,2484.6121],[35.6845,-0.6165,2482.6152],[35.6865,-0.621,2437.2961],[35.6856,-0.6326,2400.7954],[35.6813,-0.64,2444.6648],[35.6812,-0.6453,2390.2437],[35.6778,-0.6476,2483.9214],[35.6769,-0.6527,2421.2607],[35.6723,-0.6522,2435.3391],[35.6688,-0.6563,2448.7383],[35.6677,-0.6602,2429.5676],[35.6655,-0.6612,2445.0837],[35.6662,-0.6637,2399.8779],[35.6637,-0.669,2463.8521],[35.664,-0.6731,2350.6362],[35.6531,-0.6787,2438.4248],[35.6502,-0.6887,2343.5552],[35.6476,-0.6898,2409.6797],[35.6452,-0.6958,2428.2854],[35.6422,-0.6951,2428.4849],[35.6288,-0.6777,2362.3096],[35.6106,-0.6664,2323.884],[35.5984,-0.6491,2355.7717],[35.5872,-0.5833,2349.2422],[35.3969,-0.6386,2114.4746],[35.426,-0.7148,2102.8538],[35.4791,-0.757,2265.187],[35.4977,-0.7629,2232.7537],[35.5073,-0.768,2141.0815],[35.5338,-0.7714,2296.2109],[35.5443,-0.7783,2207.283],[35.5468,-0.7831,2169.7278],[35.5411,-0.7907,2110.6172],[35.5381,-0.7919,2154.499],[35.5383,-0.7934,2127.4683],[35.5344,-0.7949,2113.8589],[35.5341,-0.7977,2070.585],[35.5321,-0.7976,2070.585],[35.5308,-0.8003,2043.54],[35.5274,-0.8019,2073.4158],[35.527,-0.8044,2058.406],[35.521,-0.8042,2048.179],[35.5195,-0.8081,2040.9414],[35.5204,-0.8108,2000.4119],[35.5179,-0.8111,2023.8921],[35.5169,-0.813,2029.8418],[35.5127,-0.8117,2010.542],[35.5134,-0.8139,1987.6689],[35.5114,-0.8139,2003.2506],[35.5116,-0.8158,1978.7317],[35.5092,-0.8185,2054.0615],[35.5021,-0.8188,1986.989],[35.5007,-0.8206,1991.0342],[35.5003,-0.8185,2007.8344],[35.4967,-0.819,2029.1377],[35.4947,-0.8202,2020.9664],[35.4945,-0.8233,1980.3502],[35.4909,-0.8233,2004.7375],[35.4899,-0.8259,1992.7589],[35.4869,-0.8258,1959.5688],[35.487,-0.8286,1934.7386],[35.4845,-0.8282,1965.7921],[35.4844,-0.8311,1954.4412],[35.4816,-0.8317,1965.1226],[35.4815,-0.8337,1946.7234],[35.4791,-0.8349,1943.2976],[35.4798,-0.8371,1930.8752],[35.4777,-0.8384,1950.3909],[35.4772,-0.8409,1943.8615],[35.4797,-0.843,1901.1533],[35.4784,-0.844,1942.0377],[35.4792,-0.8461,1915.53],[35.4774,-0.8456,1911.4606],[35.476,-0.8487,1906.6023],[35.4774,-0.8491,1903.0334],[35.4714,-0.851,1919.7509],[35.4728,-0.8544,1909.1531],[35.4717,-0.8556,1920.2635],[35.4717,-0.8544,1923.0115],[35.4695,-0.8547,1933.8787],[35.4681,-0.8582,1910.6693],[35.4666,-0.857,1914.1462],[35.4609,-0.8588,1928.3793],[35.4624,-0.8626,1883.7985],[35.4608,-0.8635,1901.3281],[35.4609,-0.8666,1885.021],[35.4621,-0.8674,1885.021],[35.46,-0.8675,1881.299],[35.4594,-0.8698,1906.9041],[35.4577,-0.8683,1901.3617],[35.4571,-0.8709,1913.7714],[35.4553,-0.8717,1913.2391],[35.4565,-0.8752,1886.2513],[35.4545,-0.8777,1892.8027],[35.4557,-0.879,1877.5138],[35.4532,-0.8782,1884.4949],[35.4536,-0.8759,1912.8494],[35.4503,-0.8791,1885.4453],[35.4489,-0.8786,1886.3883],[35.4498,-0.877,1901.6722],[35.446,-0.8771,1892.848],[35.4456,-0.8805,1872.7307],[35.4428,-0.8812,1892.5251],[35.4426,-0.8844,1879.0],[35.4421,-0.8822,1887.7571],[35.4386,-0.8824,1892.3481],[35.4411,-0.8863,1867.2993],[35.4404,-0.8896,1854.8567],[35.4375,-0.8898,1866.5039],[35.4358,-0.8928,1871.7131],[35.4318,-0.8921,1849.5405],[35.4316,-0.8892,1853.3721],[35.4305,-0.8896,1851.5972],[35.4294,-0.8949,1845.7017],[35.4309,-0.8971,1846.7117],[35.429,-0.8999,1849.9097],[35.4271,-0.8989,1846.0751],[35.4238,-0.9003,1852.1548],[35.4282,-0.9123,1841.6592],[35.4248,-0.9128,1846.3076],[35.4224,-0.9166,1852.7991],[35.4255,-0.9187,1832.7469],[35.4246,-0.9228,1817.897],[35.4259,-0.9268,1815.061],[35.4247,-0.9304,1816.1813],[35.4216,-0.9301,1823.2864],[35.4241,-0.9347,1813.5613],[35.4211,-0.9352,1818.5043],[35.4209,-0.9401,1812.7935],[35.4136,-0.9408,1814.1334],[35.4046,-0.9447,1812.5701],[35.4032,-0.9436,1821.3013],[35.4029,-0.9471,1815.3986],[35.3974,-0.9523,1819.5577],[35.3945,-0.9507,1819.1797],[35.3925,-0.9528,1814.9249],[35.3881,-0.9523,1789.0289],[35.3851,-0.9545,1795.7051],[35.3832,-0.953,1787.9963],[35.3829,-0.9553,1781.7639],[35.3804,-0.9547,1780.0779],[35.3789,-0.9566,1780.5513],[35.3778,-0.9551,1783.4148],[35.3762,-0.9613,1769.6667],[35.3724,-0.9651,1780.5686],[35.3692,-0.9629,1787.6165],[35.3699,-0.9677,1771.1122],[35.3665,-0.968,1770.3318],[35.3655,-0.9711,1765.1584],[35.3656,-0.9666,1775.1921],[35.3625,-0.9643,1765.452],[35.361,-0.9665,1760.0269],[35.3586,-0.9667,1752.168],[35.3584,-0.965,1749.1045],[35.3535,-0.9626,1758.9565],[35.3558,-0.9608,1763.0686],[35.3533,-0.961,1760.795],[35.3507,-0.9647,1749.8818],[35.3525,-0.9656,1752.8674],[35.3496,-0.9667,1746.6394],[35.3506,-0.9735,1742.9321],[35.3469,-0.9701,1748.1733],[35.3488,-0.9679,1751.8168],[35.3461,-0.9658,1754.7024],[35.3387,-0.9703,1755.0997],[35.3404,-0.9726,1751.7783],[35.3391,-0.9739,1744.9542],[35.3334,-0.9702,1756.2711],[35.329,-0.9755,1747.5828],[35.3318,-0.9767,1736.767],[35.3325,-0.9792,1725.8646],[35.3298,-0.9779,1744.202],[35.3275,-0.9809,1740.0233],[35.3239,-0.9804,1738.1084],[35.3219,-0.9832,1726.4772],[35.3191,-0.9819,1730.4725],[35.3196,-0.9834,1727.8148],[35.3177,-0.9851,1739.4878],[35.3152,-0.985,1748.2045],[35.3141,-0.9872,1754.5907],[35.3156,-0.9898,1729.319],[35.3125,-0.9909,1740.0054],[35.3112,-0.9899,1760.8573],[35.311,-0.9917,1754.8191],[35.3134,-0.9942,1724.9784],[35.3127,-0.9953,1719.6241],[35.3078,-0.9947,1735.1696],[35.3069,-0.9971,1723.7618],[35.3028,-0.9996,1727.5298],[35.2997,-0.9973,1736.3684],[35.2958,-1.0023,1721.4564],[35.29,-1.0036,1721.5544],[35.2889,-1.0069,1718.5531],[35.2864,-1.0058,1721.5592],[35.2845,-1.0087,1717.1592],[35.2812,-1.0066,1718.592],[35.282,-1.0076,1718.592],[35.28,-1.0113,1708.9073],[35.2718,-1.0158,1708.183],[35.2698,-1.0145,1705.7223],[35.2711,-1.0178,1709.7573],[35.2684,-1.018,1703.4406],[35.2643,-1.0148,1706.0277],[35.2603,-1.0161,1734.4193],[35.2583,-1.0225,1712.5938],[35.2545,-1.0241,1710.7189],[35.2512,-1.0221,1708.3176],[35.2515,-1.0249,1703.5568],[35.2487,-1.0249,1700.3459],[35.2479,-1.0272,1698.113],[35.2492,-1.0279,1700.925],[35.2446,-1.0312,1698.4797],[35.2432,-1.029,1695.8875],[35.2411,-1.031,1696.2178],[35.2384,-1.0296,1699.839],[35.0826,-0.9005,1924.245],[35.0127,-0.8839,2062.1208],[34.6786,-0.9671,1598.8336],[34.6705,-0.9658,1585.8032],[34.6642,-0.9671,1585.2634],[34.6518,-0.9606,1531.5536],[34.6474,-0.9604,1538.7457],[34.6418,-0.963,1519.3416],[34.5902,-1.0125,1500.0757],[34.5929,-1.0378,1467.7566],[34.6006,-1.0522,1506.2448],[34.6181,-1.0705,1513.1862],[34.6151,-1.077,1517.8047],[34.6142,-1.0835,1501.2635],[34.6197,-1.091,1496.3761],[34.6226,-1.102,1483.2539],[34.622,-1.1074,1499.7026],[34.6297,-1.1175,1474.7601],[34.6293,-1.1207,1466.8073],[34.633,-1.1322,1440.387],[34.6256,-1.1488,1427.3176],[34.6282,-1.1534,1410.7092],[34.6312,-1.1548,1414.0073],[34.6316,-1.1574,1416.3455],[34.6378,-1.1571,1442.6433],[34.6432,-1.1615,1425.3667],[34.6429,-1.1643,1422.1068],[34.6463,-1.1642,1437.8022],[34.6492,-1.1686,1436.6986],[34.6546,-1.1717,1464.9825],[34.6531,-1.1738,1442.5973],[34.6529,-1.1814,1425.2561],[34.661,-1.1836,1443.9463],[34.6634,-1.1878,1446.7307],[34.6712,-1.1931,1448.9486],[34.6724,-1.2056,1436.4657],[34.6799,-1.2079,1463.7059],[34.6867,-1.2053,1484.8301],[34.6956,-1.2462,1484.8032],[34.7325,-1.3902,1872.7109],[35.3177,-1.7288,1833.1558],[35.4109,-1.7731,2193.645],[35.4393,-1.7882,2076.5708],[35.8458,-2.0191,1548.4655],[35.8464,-2.0182,1548.4655],[35.869,-2.0307,1730.2118],[35.9962,-2.1026,601.7281],[35.9962,-2.0983,602.082],[36.0001,-2.1006,601.6305],[36.0001,-2.0819,626.6421],[36.0267,-2.0821,606.3483],[36.0267,-2.0372,681.9096],[36.0225,-2.0354,707.4838],[36.0213,-2.0251,729.6538],[36.0245,-2.017,760.2695],[36.0274,-2.0195,735.3365],[36.0286,-2.007,788.8587],[36.0313,-2.0085,779.9422],[36.0346,-2.0029,762.5122],[36.0319,-1.999,803.9553],[36.0338,-1.9982,823.0887],[36.0355,-1.9995,818.9371],[36.0364,-1.9791,914.9965],[36.0395,-1.9716,809.0621],[36.0384,-1.9654,977.0073],[36.0411,-1.9577,885.6744],[36.0386,-1.9458,1017.5306],[36.042,-1.9394,1036.1575],[36.0425,-1.9319,927.5263],[36.0396,-1.9249,983.4468],[36.0366,-1.9235,1042.6208],[36.037,-1.9129,1012.0144],[36.033,-1.9127,1034.1921],[36.0425,-1.909,896.2426],[36.0433,-1.9044,807.7805],[36.0402,-1.9053,859.3879],[36.0354,-1.902,929.6606],[36.0319,-1.9014,1091.9332],[36.0311,-1.896,1016.3391],[36.0258,-1.8893,1021.7487],[36.031,-1.8857,1133.963],[36.0347,-1.89,1136.8867],[36.0368,-1.8864,1129.288],[36.0366,-1.8735,1147.8357],[36.0413,-1.8723,1082.5118],[36.0448,-1.8741,1156.7479],[36.0514,-1.8652,902.1035],[36.0481,-1.8593,1213.8503],[36.0499,-1.8522,1070.2656],[36.0471,-1.8429,1221.2311],[36.0488,-1.836,1014.5469],[36.0404,-1.8284,1234.4973],[36.0432,-1.8267,1120.9261],[36.0431,-1.824,1053.3074],[36.0395,-1.823,1296.1937],[36.0381,-1.8188,1089.2936],[36.0286,-1.8237,1311.2029],[36.0278,-1.8169,1389.1971],[36.0298,-1.8153,1393.6365],[36.028,-1.8041,1079.3164],[36.0224,-1.8006,1315.1763],[36.0166,-1.802,1417.7917],[36.0159,-1.7989,1477.3557],[36.018,-1.7947,1473.5809],[36.0228,-1.7919,1420.6643],[36.0226,-1.7896,1428.0551],[36.0274,-1.7888,1377.9397],[36.0275,-1.7764,1163.0264],[36.0301,-1.7747,1082.9736],[36.0233,-1.7729,1419.6176],[36.031,-1.7659,1420.828],[36.0313,-1.7582,1397.8469],[36.0358,-1.7606,1422.6577],[36.0324,-1.7518,1421.7969],[36.0353,-1.7482,1419.5636],[36.0357,-1.7362,1474.3345],[36.0411,-1.7332,1418.0197],[36.0413,-1.7291,1449.9805]]]]}}