{"type": "Feature","bbox": [34.7135,0.753,34.7726,0.8507],"geometry": {"type": "MultiPolygon","coordinates": [[[[34.7689,0.8507,1703.208],[34.7615,0.8483,1766.3939],[34.7563,0.848,1791.7689],[34.7534,0.8495,1879.1412],[34.7528,0.8462,1747.2687],[34.7485,0.8411,1736.5315],[34.7402,0.8374,1733.1449],[34.7412,0.8337,1716.2877],[34.735,0.8368,1745.9508],[34.7317,0.8365,1734.3995],[34.729,0.839,1751.2092],[34.7135,0.8281,1711.1549],[34.7181,0.8241,1735.3624],[34.7172,0.8211,1687.6934],[34.7185,0.8208,1711.3408],[34.7193,0.8117,1682.7474],[34.7209,0.8107,1682.7474],[34.7204,0.8043,1669.5017],[34.7227,0.7972,1663.5668],[34.7249,0.7947,1663.4586],[34.7268,0.7948,1685.2721],[34.7278,0.7884,1663.1874],[34.7308,0.7859,1669.5596],[34.7328,0.781,1661.2719],[34.7365,0.7796,1673.521],[34.7375,0.7757,1661.6986],[34.7399,0.7744,1664.1071],[34.7495,0.7746,1654.8037],[34.7546,0.7715,1664.6163],[34.7578,0.7667,1643.7727],[34.763,0.7645,1649.282],[34.7685,0.7587,1631.3729],[34.7712,0.753,1612.7131],[34.7726,0.7561,1618.1086],[34.7707,0.7583,1625.1487],[34.7718,0.7607,1625.0011],[34.7703,0.7704,1650.1818],[34.7651,0.7788,1653.7451],[34.7666,0.7844,1659.2139],[34.7653,0.7845,1659.2139],[34.7679,0.7861,1651.516],[34.7681,0.7884,1652.5851],[34.7659,0.7916,1661.0906],[34.7678,0.7939,1659.1113],[34.769,0.7922,1657.8506],[34.7701,0.7946,1658.7843],[34.7686,0.7964,1662.312],[34.7693,0.7983,1662.3069],[34.7668,0.8004,1664.3666],[34.768,0.8019,1667.7955],[34.7691,0.8009,1666.0547],[34.7681,0.8035,1672.0211],[34.769,0.8063,1666.526],[34.7673,0.8081,1683.0645],[34.7681,0.8074,1683.0645],[34.7679,0.8098,1682.6379],[34.7699,0.8096,1666.6346],[34.7686,0.8107,1681.688],[34.7709,0.8168,1678.8102],[34.7679,0.819,1670.1812],[34.7682,0.8229,1675.1709],[34.766,0.8261,1681.7993],[34.7672,0.828,1677.5732],[34.7654,0.8287,1679.6034],[34.7666,0.833,1688.2556],[34.7644,0.8361,1696.4535],[34.7673,0.8387,1696.0757],[34.7684,0.8424,1706.5612],[34.7673,0.844,1712.12],[34.7684,0.8436,1706.5612],[34.7696,0.8469,1691.3258],[34.7678,0.8493,1744.5867],[34.7689,0.8507,1703.208]]]]}
,"properties": {"GID_3": "KEN.3.4.4_1","GID_0": "KEN","country": "Kenya","GID_1": "KEN.3_1","province": "Bungoma","NL_NAME_1": "NA","GID_2": "KEN.3.4_1","county": "Kimilili","NL_NAME_2": "NA","city": "Maeni","VARNAME_3": "NA","NL_NAME_3": "NA","TYPE_3": "Ward","ENGTYPE_3": "Ward","CC_3": "1113","HASC_3": "NA","name": "Maeni.city","area_km2": 38.94458,"hist_schema_id": "Elevation0-9000","hist_area_km2": {"1625": 0.55121,"1650": 2.33203,"1675": 10.21848,"1700": 14.35246,"1725": 8.94641,"1750": 1.9504,"1775": 0.3816,"1800": 0.106,"1825": 0.0424,"1850": 0.0636}}}