{"type": "Feature","bbox": [38.2411,-2.3643,39.0137,-1.438],"geometry": {"type": "MultiPolygon","coordinates": [[[[38.6552,-1.4603,444.0786],[38.4945,-1.6656,471.6812],[38.4876,-1.6684,472.1924],[38.4807,-1.6653,475.1101],[38.4779,-1.6598,481.2547],[38.4714,-1.6592,492.0587],[38.4671,-1.6739,490.1506],[38.4631,-1.6749,492.542],[38.4602,-1.6777,504.3025],[38.4596,-1.6862,500.7955],[38.4548,-1.6905,509.337],[38.4494,-1.6911,509.5182],[38.4478,-1.6926,507.201],[38.4479,-1.6949,507.3669],[38.4443,-1.7006,509.7418],[38.4445,-1.7055,512.1678],[38.4417,-1.7089,518.0674],[38.4391,-1.7092,518.8322],[38.4343,-1.7057,528.1749],[38.4312,-1.7075,526.8801],[38.4323,-1.709,525.184],[38.4292,-1.7089,527.6367],[38.4283,-1.7113,525.4848],[38.4264,-1.7109,533.1985],[38.4197,-1.7158,533.6736],[38.4182,-1.7143,534.3203],[38.4187,-1.7116,538.5675],[38.4136,-1.7089,549.256],[38.4101,-1.7102,541.0552],[38.4081,-1.7081,542.8417],[38.4044,-1.7095,543.223],[38.4003,-1.7083,550.3956],[38.3951,-1.7114,545.0685],[38.393,-1.7204,548.3481],[38.3866,-1.7264,555.6362],[38.3854,-1.7289,559.2074],[38.387,-1.7331,560.606],[38.3777,-1.74,567.5443],[38.3734,-1.74,569.4894],[38.3716,-1.7381,577.9196],[38.3688,-1.7389,581.4556],[38.3688,-1.7415,572.6144],[38.3666,-1.743,578.8528],[38.3569,-1.7448,597.4641],[38.3426,-1.74,643.9641],[38.2414,-1.7361,653.4151],[38.2537,-1.753,682.5248],[38.2556,-1.7629,688.2833],[38.2527,-1.7723,696.7977],[38.2476,-1.7794,712.4418],[38.2471,-1.7839,715.1677],[38.2456,-1.7844,719.5759],[38.246,-1.79,727.1897],[38.2418,-1.7937,736.9329],[38.2427,-1.7959,730.4651],[38.2411,-1.7998,748.8351],[38.2451,-1.8066,751.0032],[38.2477,-1.8168,762.2273],[38.2461,-1.8294,788.0087],[38.2493,-1.8344,794.8595],[38.2498,-1.8389,810.6694],[38.2564,-1.8426,812.8735],[38.2631,-1.869,803.6173],[38.263,-1.882,812.37],[38.266,-1.8891,879.21],[38.3149,-1.8977,917.6634],[38.3173,-1.8885,847.4432],[38.3245,-1.8772,951.6716],[38.3456,-1.8779,1043.2429],[38.3859,-1.9276,700.3282],[38.4974,-2.0231,531.2386],[38.5056,-2.0235,526.6169],[38.5073,-2.0259,527.4062],[38.513,-2.0277,524.7804],[38.5155,-2.0425,518.2157],[38.5188,-2.0466,513.1419],[38.518,-2.0605,515.5071],[38.5205,-2.0744,514.6326],[38.5189,-2.0877,502.331],[38.5207,-2.0961,496.1623],[38.519,-2.0985,495.1184],[38.5196,-2.1059,496.4639],[38.5183,-2.1102,497.7769],[38.5072,-2.1309,481.6328],[38.508,-2.1322,478.4586],[38.5128,-2.1342,478.4846],[38.52,-2.142,470.2288],[38.5245,-2.153,464.7658],[38.528,-2.1561,463.8441],[38.5278,-2.1595,461.7544],[38.5329,-2.1611,463.0803],[38.5436,-2.1723,452.1899],[38.5483,-2.1738,449.4553],[38.5577,-2.1716,447.1227],[38.5778,-2.1765,440.0553],[38.5854,-2.175,438.4471],[38.5947,-2.1755,432.4247],[38.5996,-2.1799,430.0153],[38.6208,-2.1871,422.3757],[38.6295,-2.1848,418.1357],[38.6389,-2.1868,414.9815],[38.6388,-2.1964,412.0582],[38.6461,-2.2076,406.2701],[38.6457,-2.2119,409.8687],[38.6474,-2.2155,410.1461],[38.6646,-2.2365,411.9501],[38.6749,-2.245,406.8139],[38.6763,-2.26,404.4642],[38.6893,-2.3014,388.6715],[38.6876,-2.3156,379.2493],[38.6882,-2.3245,372.2582],[38.6936,-2.3392,363.9677],[38.7005,-2.3509,360.6606],[38.7259,-2.3643,350.3111],[38.7385,-2.3619,348.9676],[38.7412,-2.3639,344.8468],[38.7465,-2.3642,339.304],[38.7537,-2.3612,337.2489],[38.7564,-2.3616,335.4078],[38.7625,-2.3553,332.1041],[38.7703,-2.353,331.0677],[38.7839,-2.3547,329.4781],[38.7885,-2.3497,325.8772],[38.7899,-2.3429,324.5354],[38.7966,-2.3406,322.9826],[38.9996,-1.9458,281.0056],[39.0137,-1.915,276.1539],[39.0073,-1.8866,289.0326],[38.9581,-1.7036,315.484],[38.9639,-1.6975,314.2297],[38.9727,-1.6926,310.5012],[38.9779,-1.6921,310.0818],[38.9803,-1.6891,312.0596],[38.9872,-1.6899,309.9823],[38.9893,-1.6859,307.2869],[38.9946,-1.685,307.1612],[38.9991,-1.6789,306.9827],[38.9851,-1.438,306.8336],[38.6763,-1.4383,434.9818],[38.6637,-1.4547,440.1535],[38.6552,-1.4603,444.0786]]]]}
,"properties": {"GID_3": "KEN.18.4.5_1","GID_0": "KEN","country": "Kenya","GID_1": "KEN.18_1","province": "Kitui","NL_NAME_1": "NA","GID_2": "KEN.18.4_1","county": "KituiSouth","NL_NAME_2": "NA","city": "Mutha","VARNAME_3": "NA","NL_NAME_3": "NA","TYPE_3": "Ward","ENGTYPE_3": "Ward","CC_3": "367","HASC_3": "NA","name": "Mutha.city","area_km2": 5074.771,"hist_schema_id": "Elevation0-9000","hist_area_km2": {"275": 20.788,"300": 325.055,"325": 655.173,"350": 677.969,"375": 604.293,"400": 514.239,"425": 423.36,"450": 373.478,"475": 349.822,"500": 266.264,"525": 199.62,"550": 151.983,"575": 112.059,"600": 74.975,"625": 62.6,"650": 57.217,"675": 39.544,"700": 29.414,"725": 25.451,"750": 21.658,"775": 17.313,"800": 15.915,"825": 12.439,"850": 10.066,"875": 8.731,"900": 6.061,"925": 4.111,"950": 3.221,"975": 2.183,"1000": 1.971,"1025": 1.314,"1050": 1.335,"1075": 0.996,"1100": 0.848,"1125": 0.869,"1150": 0.615,"1175": 0.509,"1200": 0.403,"1225": 0.445,"1250": 0.275,"1275": 0.064,"1300": 0.085,"1325": 0.042}}}