{"type":"Feature","properties":{"GID_3":"KEN.41.4.3_1","GID_0":"KEN","country":"Kenya","GID_1":"KEN.41_1","province":"Tharaka-Nithi","NL_NAME_1":"NA","GID_2":"KEN.41.4_1","county":"Tharaka","NL_NAME_2":"NA","city":"Mukothima","VARNAME_3":"NA","NL_NAME_3":"NA","TYPE_3":"Ward","ENGTYPE_3":"Ward","CC_3":"307","HASC_3":"NA","name":"Mukothima.city"},
"geometry":{"type": "MultiPolygon","coordinates": [[[[37.9872,-0.0105,732.1732],[37.9871,-0.0105,732.1732],[37.9872,-0.0106,732.1732],[37.9872,-0.0105,732.1732]]],
[[[37.9825,0.0673,754.9462],[37.9857,0.0443,740.8213],[37.9807,0.0439,747.1423],[37.9751,0.0479,752.3738],[37.9695,0.0559,769.7004],[37.9577,0.0513,781.8153],[37.9525,0.0535,783.9253],[37.9247,0.0317,852.3932],[37.9221,0.0275,834.3916],[37.9143,0.0219,847.4118],[37.9101,0.0167,844.8026],[37.8897,0.0122,877.0002],[37.8895,0.01,875.7764],[37.8899,0.0111,875.9791],[37.8923,0.0095,874.2422],[37.8993,0.0109,861.1478],[37.9057,0.0077,849.8213],[37.9175,0.0055,834.5436],[37.9191,0.0071,834.3674],[37.9385,0.0073,806.701],[37.9413,0.0045,789.4218],[37.9451,0.0043,789.4526],[37.9517,0.0077,785.995],[37.9635,-0.0011,761.3203],[37.9739,-0.0003,742.3152],[37.9759,-0.0037,733.5482],[37.9811,-0.0056,744.6597],[37.9871,-0.0105,732.1732],[37.9963,-0.0009,751.6082],[38.0111,-0.0032,726.7676],[38.0183,-0.014,699.5929],[38.0193,-0.0183,705.8224],[38.0181,-0.0294,716.8499],[38.0225,-0.0407,700.9163],[38.0207,-0.0472,679.1595],[38.0269,-0.0617,670.1834],[38.0325,-0.0666,667.5069],[38.0363,-0.0731,668.5352],[38.0437,-0.075,665.1652],[38.0531,-0.08,645.2712],[38.0653,-0.082,646.2131],[38.0679,-0.0789,648.1428],[38.0741,-0.0764,650.3552],[38.0785,-0.0477,603.7827],[38.0865,-0.0324,596.6273],[38.0943,-0.0227,548.4528],[38.0985,-0.0281,533.9576],[38.0989,-0.0334,524.9067],[38.1045,-0.0393,526.2669],[38.1089,-0.0407,522.7268],[38.1166,-0.0496,521.6554],[38.1253,-0.0436,588.8729],[38.1373,-0.0571,533.4426],[38.1615,-0.0193,539.9954],[38.1509,-0.0064,555.4855],[38.1529,0.0025,592.6286],[38.1521,0.0095,579.5773],[38.1573,0.0271,533.0822],[38.1597,0.0287,532.9645],[38.1357,0.0487,552.4364],[38.1282,0.0507,555.1821],[38.1195,0.0493,576.7345],[38.1147,0.0545,583.5051],[38.1113,0.0541,589.863],[38.1051,0.0475,595.1547],[38.0967,0.0479,603.0165],[38.0939,0.0443,617.4706],[38.0889,0.0417,626.038],[38.0837,0.0301,636.0253],[38.0813,0.0287,649.7087],[38.0741,0.0317,652.5707],[38.0725,0.0305,654.4404],[38.0733,0.0281,656.3662],[38.0697,0.0245,658.7828],[38.0625,0.0269,663.1213],[38.0595,0.0243,665.1326],[38.0517,0.0283,672.9629],[38.0491,0.0265,676.3834],[38.0463,0.0283,687.4536],[38.0437,0.0275,684.6093],[38.0409,0.0297,689.1262],[38.0343,0.0375,692.9534],[38.0335,0.0433,705.9728],[38.0269,0.0517,709.0043],[38.0205,0.0535,711.8012],[38.0183,0.0589,720.7855],[38.0095,0.063,735.35],[38.0023,0.0631,735.7766],[37.9983,0.0669,736.2078],[37.9949,0.0677,739.5056],[37.9875,0.0657,742.768],[37.9825,0.0673,754.9462]]]]}}