{"type": "Feature","bbox": [37.2669,-0.9161,37.9359,-0.1459],"geometry": {"type": "MultiPolygon","coordinates": [[[[37.6717,-0.8296,1004.0],[37.6748,-0.8252,1004.0],[37.6815,-0.8226,1004.0],[37.6798,-0.8175,1004.0],[37.6824,-0.8087,1004.0],[37.681,-0.7996,972.4592],[37.6819,-0.7953,973.7408],[37.6878,-0.794,980.9094],[37.6902,-0.7968,970.5649],[37.6928,-0.7947,956.9959],[37.6929,-0.7911,968.7289],[37.6988,-0.789,961.4685],[37.6987,-0.7842,967.3395],[37.7117,-0.7801,931.098],[37.7242,-0.7804,937.1897],[37.7322,-0.7745,940.7499],[37.7383,-0.776,925.9535],[37.7447,-0.7803,925.0],[37.7498,-0.8028,922.9648],[37.7548,-0.8127,901.4661],[37.7539,-0.8154,892.5886],[37.7561,-0.8182,885.9291],[37.7573,-0.8238,867.7808],[37.7649,-0.8243,850.37],[37.7711,-0.8207,829.156],[37.7795,-0.8249,799.1313],[37.7821,-0.8248,786.1959],[37.784,-0.8227,792.2843],[37.788,-0.8227,783.6351],[37.791,-0.819,779.4268],[37.7964,-0.8168,779.0],[37.8056,-0.8017,796.5021],[37.8079,-0.8072,779.0],[37.8084,-0.8152,764.7915],[37.819,-0.8044,757.7431],[37.8286,-0.8056,747.7869],[37.8336,-0.8137,742.0927],[37.8369,-0.8122,748.0024],[37.8381,-0.8094,754.2999],[37.8423,-0.8113,736.3936],[37.8555,-0.8098,738.3256],[37.8614,-0.8117,736.9692],[37.8665,-0.8097,729.1513],[37.8711,-0.8105,732.676],[37.8773,-0.8063,726.0708],[37.8808,-0.8076,721.0502],[37.8844,-0.8069,719.5725],[37.8835,-0.8014,717.2115],[37.8799,-0.7977,730.1121],[37.8795,-0.7921,737.0176],[37.8828,-0.7896,716.7995],[37.8844,-0.7816,714.4941],[37.893,-0.7793,704.6832],[37.8908,-0.7671,709.7938],[37.9029,-0.758,704.9493],[37.9037,-0.7538,713.3726],[37.9092,-0.748,700.9267],[37.9136,-0.7393,698.5],[37.9126,-0.7357,703.1623],[37.9159,-0.7287,698.0],[37.9137,-0.7246,698.8532],[37.9116,-0.7075,698.3441],[37.9103,-0.7071,698.0],[37.9074,-0.7113,698.0],[37.9051,-0.709,698.0],[37.9005,-0.7098,698.0],[37.8995,-0.7084,698.0],[37.8986,-0.7037,698.0],[37.904,-0.6853,698.0],[37.8974,-0.6843,698.0],[37.8949,-0.6811,698.0],[37.8962,-0.6765,698.0],[37.8953,-0.6735,698.0],[37.8972,-0.6698,698.0],[37.8953,-0.6681,698.0],[37.8929,-0.6556,698.0],[37.8934,-0.6454,698.0],[37.9072,-0.6392,697.0128],[37.9228,-0.6247,592.5977],[37.9013,-0.6015,559.7757],[37.9023,-0.5976,595.9279],[37.8835,-0.5827,556.8003],[37.8878,-0.56,556.7498],[37.8875,-0.553,554.0677],[37.8824,-0.5405,535.2443],[37.8825,-0.5349,538.473],[37.8923,-0.5104,565.0159],[37.8955,-0.5072,550.3157],[37.9137,-0.4667,541.1696],[37.9313,-0.4443,545.5776],[37.9355,-0.4344,531.9062],[37.9359,-0.4281,537.8963],[37.9333,-0.4279,541.0449],[37.9319,-0.426,550.9214],[37.9271,-0.428,547.7461],[37.9245,-0.4269,550.7678],[37.9215,-0.4241,550.2374],[37.9207,-0.4208,636.4028],[37.9225,-0.4158,641.6563],[37.9085,-0.4131,609.6412],[37.9087,-0.4104,590.8778],[37.9011,-0.4053,587.8079],[37.9021,-0.3993,602.9773],[37.8995,-0.3963,619.459],[37.8901,-0.3934,625.6687],[37.8915,-0.3828,630.1614],[37.8967,-0.378,631.1399],[37.8951,-0.3753,637.9783],[37.8965,-0.3702,641.8987],[37.8905,-0.367,653.864],[37.8895,-0.3641,654.1608],[37.8933,-0.358,652.9722],[37.8945,-0.3528,660.3168],[37.8905,-0.3462,661.824],[37.8863,-0.343,684.5106],[37.8805,-0.3479,683.3052],[37.8735,-0.3508,687.3575],[37.8707,-0.3659,698.8979],[37.8651,-0.3714,710.4199],[37.8659,-0.3825,716.0785],[37.8526,-0.3904,743.8358],[37.8455,-0.4025,754.8304],[37.8399,-0.405,768.6425],[37.8315,-0.406,810.7717],[37.8275,-0.4094,789.3101],[37.8281,-0.4126,768.4934],[37.8177,-0.4206,792.3324],[37.8146,-0.428,794.5521],[37.8065,-0.4315,808.8163],[37.8019,-0.4367,814.3318],[37.7881,-0.4435,839.3207],[37.7849,-0.4472,854.6387],[37.7793,-0.4459,883.5553],[37.7671,-0.4494,983.2639],[37.7606,-0.4495,1024.1637],[37.7555,-0.4472,1030.8594],[37.7434,-0.4459,1053.4077],[37.7345,-0.4472,1076.059],[37.7326,-0.45,1055.4503],[37.7285,-0.4511,1089.2454],[37.7201,-0.4504,1096.5012],[37.7149,-0.4447,1098.7139],[37.7042,-0.4427,1136.9402],[37.6994,-0.4386,1146.4204],[37.6933,-0.4384,1143.8478],[37.6895,-0.4324,1156.6565],[37.6836,-0.4286,1183.7048],[37.6601,-0.4215,1215.8115],[37.6555,-0.415,1239.3625],[37.6451,-0.4082,1236.3315],[37.6389,-0.4019,1305.5554],[37.6365,-0.3946,1328.2239],[37.6307,-0.3897,1399.0868],[37.6255,-0.3902,1431.8164],[37.6245,-0.3866,1446.7056],[37.6145,-0.3842,1464.9482],[37.612,-0.3806,1453.0669],[37.6,-0.3801,1496.7065],[37.5863,-0.3704,1571.4614],[37.5842,-0.3659,1582.1569],[37.5794,-0.3672,1583.9092],[37.5709,-0.3605,1596.1569],[37.5674,-0.3594,1587.366],[37.5625,-0.362,1635.0105],[37.5535,-0.3572,1707.583],[37.5008,-0.3119,2007.2158],[37.4989,-0.3086,2009.5178],[37.3181,-0.1543,4872.9702],[37.4895,-0.2342,2331.5659],[37.5881,-0.2725,1773.9185],[37.5967,-0.2733,1658.8544],[37.6039,-0.2763,1523.937],[37.6125,-0.2831,1509.7627],[37.6447,-0.2845,1416.2466],[37.6519,-0.2822,1358.4878],[37.6625,-0.2851,1257.9977],[37.6887,-0.2831,1242.6394],[37.7051,-0.2894,1187.2428],[37.7115,-0.2962,1183.5654],[37.7175,-0.2973,1142.4387],[37.7308,-0.2902,1097.5546],[37.7455,-0.2896,1082.994],[37.7701,-0.2849,990.6946],[37.7757,-0.2873,953.8079],[37.7803,-0.2937,919.6022],[37.7855,-0.2962,933.3044],[37.7931,-0.3035,860.1897],[37.8077,-0.3097,841.1096],[37.8175,-0.312,804.8955],[37.8165,-0.3082,818.6643],[37.8129,-0.305,813.6414],[37.8091,-0.2936,827.4529],[37.8007,-0.2844,853.5132],[37.7967,-0.284,896.9886],[37.7857,-0.2732,914.2225],[37.7769,-0.2761,984.1505],[37.7717,-0.2758,982.8668],[37.7669,-0.2727,995.0126],[37.7505,-0.2743,1065.1641],[37.7475,-0.2704,1059.0522],[37.7381,-0.2727,1078.1667],[37.7241,-0.27,1135.4344],[37.6983,-0.2716,1149.6971],[37.6925,-0.2658,1290.4723],[37.6847,-0.2617,1327.6075],[37.6749,-0.2643,1351.2426],[37.6635,-0.2637,1412.4341],[37.6573,-0.265,1421.1235],[37.6421,-0.2587,1484.2249],[37.6343,-0.2573,1514.126],[37.6279,-0.2609,1511.7106],[37.6153,-0.2595,1583.0586],[37.6129,-0.2661,1603.3809],[37.6101,-0.2692,1626.9457],[37.6059,-0.2703,1656.6903],[37.5357,-0.2447,2106.4868],[37.3155,-0.1528,4739.4697],[37.3082,-0.1459,4524.6895],[37.4251,-0.4171,1739.5187],[37.4245,-0.4208,1720.9817],[37.4263,-0.4273,1675.4875],[37.4259,-0.4297,1689.3529],[37.424,-0.4305,1708.4921],[37.4252,-0.4331,1696.4204],[37.4232,-0.4336,1696.4204],[37.4245,-0.4354,1690.7654],[37.4224,-0.4365,1675.8145],[37.4226,-0.4395,1652.34],[37.4256,-0.4418,1641.9934],[37.4281,-0.4412,1665.4166],[37.4263,-0.4588,1619.7815],[37.4287,-0.4605,1579.4348],[37.4269,-0.4624,1612.2097],[37.4256,-0.4689,1578.2839],[37.427,-0.4704,1563.1666],[37.4238,-0.481,1513.538],[37.428,-0.4923,1512.2396],[37.4304,-0.4944,1503.8407],[37.4255,-0.4976,1491.5978],[37.427,-0.4996,1491.3469],[37.4254,-0.5029,1493.4417],[37.4271,-0.5095,1481.91],[37.4336,-0.5195,1413.9187],[37.4372,-0.5207,1435.5605],[37.4457,-0.5292,1332.8099],[37.4455,-0.5341,1369.6521],[37.4478,-0.5384,1318.9966],[37.4473,-0.5432,1320.8293],[37.4501,-0.5464,1296.235],[37.4528,-0.549,1300.6633],[37.461,-0.5496,1288.0111],[37.4629,-0.5553,1279.8378],[37.472,-0.5555,1302.4955],[37.4768,-0.5664,1229.3582],[37.4757,-0.569,1256.8438],[37.4788,-0.5756,1226.8075],[37.4839,-0.5789,1223.4363],[37.4852,-0.5814,1205.696],[37.4827,-0.5887,1218.618],[37.4794,-0.5894,1226.6982],[37.4777,-0.5931,1209.1122],[37.4794,-0.5962,1192.2839],[37.4765,-0.599,1197.4208],[37.4788,-0.6,1191.1204],[37.479,-0.6016,1184.2424],[37.4811,-0.6008,1205.8636],[37.4821,-0.6029,1190.3982],[37.4836,-0.6028,1205.9833],[37.4826,-0.6038,1177.8446],[37.4882,-0.6145,1169.51],[37.4869,-0.6161,1195.2245],[37.4869,-0.6227,1187.894],[37.4806,-0.6253,1160.5626],[37.4797,-0.6333,1136.606],[37.4779,-0.6353,1139.7107],[37.4786,-0.6391,1141.7672],[37.4756,-0.6416,1130.8494],[37.4724,-0.6485,1124.2963],[37.472,-0.6527,1123.0165],[37.4743,-0.6559,1115.6042],[37.4731,-0.6574,1115.9354],[37.4785,-0.6691,1110.5369],[37.4763,-0.6729,1108.3806],[37.4767,-0.6772,1103.0483],[37.4739,-0.6787,1101.1963],[37.4748,-0.6846,1092.5685],[37.478,-0.6869,1091.8225],[37.4798,-0.6917,1086.5602],[37.4772,-0.7075,1080.8469],[37.4781,-0.7126,1081.0386],[37.4794,-0.7144,1082.6458],[37.484,-0.7144,1090.045],[37.4847,-0.718,1081.9591],[37.4876,-0.7166,1088.0139],[37.4897,-0.719,1080.3607],[37.489,-0.7209,1072.1099],[37.4925,-0.7221,1074.8621],[37.4933,-0.7262,1067.8636],[37.4964,-0.7298,1062.9602],[37.4925,-0.7317,1069.2714],[37.4854,-0.7283,1076.8092],[37.4804,-0.7281,1070.6296],[37.4738,-0.7241,1084.8094],[37.4673,-0.7264,1085.1265],[37.4671,-0.7286,1083.8413],[37.4633,-0.7287,1086.1516],[37.4639,-0.7336,1082.4456],[37.4444,-0.7306,1101.1838],[37.4213,-0.7473,1111.8303],[37.4063,-0.7476,1123.5504],[37.3876,-0.7529,1134.8214],[37.3711,-0.764,1135.0654],[37.3671,-0.762,1132.764],[37.3589,-0.7616,1131.9991],[37.3586,-0.7697,1146.8541],[37.3481,-0.7722,1146.8239],[37.326,-0.7646,1156.9977],[37.3183,-0.7579,1163.7529],[37.3155,-0.7483,1158.6555],[37.3052,-0.749,1160.4033],[37.2976,-0.7531,1158.4768],[37.2894,-0.7545,1144.5076],[37.2764,-0.7537,1130.4733],[37.2669,-0.7775,1120.2347],[37.2674,-0.7852,1070.3904],[37.2717,-0.7853,1056.5],[37.2769,-0.7823,1088.2273],[37.2816,-0.7828,1071.1656],[37.2841,-0.781,1101.9255],[37.2876,-0.7825,1056.4214],[37.2939,-0.7919,1056.1722],[37.2989,-0.7934,1054.5],[37.3009,-0.7974,1054.5],[37.3037,-0.7978,1054.5],[37.3063,-0.8007,1054.5],[37.3048,-0.8046,1054.5],[37.306,-0.8063,1054.5],[37.3051,-0.8118,1054.5],[37.3103,-0.8138,1058.1615],[37.3132,-0.817,1061.1407],[37.3123,-0.821,1054.5],[37.3155,-0.8234,1054.5],[37.3199,-0.8345,1054.5],[37.3263,-0.8338,1065.9434],[37.3235,-0.8383,1054.5],[37.3273,-0.8417,1054.5],[37.3341,-0.8422,1054.5],[37.3368,-0.8449,1054.5],[37.3433,-0.8404,1054.5],[37.3466,-0.8429,1054.5],[37.3499,-0.8407,1054.5],[37.351,-0.844,1054.5],[37.3578,-0.8419,1054.5],[37.3638,-0.8429,1054.5],[37.3704,-0.8475,1054.5],[37.3769,-0.8488,1054.5],[37.3765,-0.8532,1054.5],[37.3801,-0.8557,1054.5],[37.3857,-0.8501,1059.2485],[37.3884,-0.853,1054.5],[37.394,-0.8527,1059.1029],[37.3979,-0.8546,1054.5],[37.4037,-0.8498,1054.5],[37.4125,-0.8484,1054.5],[37.4149,-0.8518,1054.5],[37.4111,-0.857,1054.5],[37.4132,-0.8598,1054.5],[37.4188,-0.86,1058.5518],[37.4269,-0.8648,1054.5],[37.4325,-0.8605,1058.7417],[37.4429,-0.8611,1054.5],[37.4472,-0.869,1054.5],[37.4537,-0.8703,1054.5],[37.4585,-0.8689,1054.5],[37.4622,-0.874,1054.5],[37.4673,-0.8715,1054.5],[37.4702,-0.8746,1054.5],[37.4741,-0.8741,1054.5],[37.4715,-0.884,1054.5],[37.476,-0.8874,1054.5],[37.4766,-0.891,1054.5],[37.4832,-0.893,1054.5],[37.4853,-0.8975,1054.5],[37.4912,-0.8991,1054.5],[37.4951,-0.9024,1054.5],[37.5026,-0.8989,1054.5],[37.515,-0.902,1054.5],[37.5158,-0.912,1054.5],[37.5187,-0.9161,1054.5],[37.5331,-0.9116,1054.5],[37.5355,-0.9063,1054.5],[37.5322,-0.8956,1054.5],[37.5372,-0.8887,1054.5],[37.5428,-0.887,1054.5],[37.5459,-0.8823,1054.5],[37.5509,-0.8844,1054.5],[37.5595,-0.875,1054.5],[37.5614,-0.8754,1054.5],[37.5647,-0.8808,1054.5],[37.5749,-0.8768,1054.5],[37.5872,-0.8782,1047.0305],[37.5882,-0.8729,1031.5205],[37.5914,-0.8709,1010.8716],[37.5901,-0.868,1015.8823],[37.5869,-0.8663,1013.0868],[37.5891,-0.8627,1019.5222],[37.5961,-0.8606,1019.0988],[37.6008,-0.8627,1017.9532],[37.6049,-0.8551,1023.1243],[37.6147,-0.8552,1017.3988],[37.6179,-0.8515,1020.2512],[37.6263,-0.8518,1026.5862],[37.6279,-0.8497,1010.7027],[37.6292,-0.8385,1019.0349],[37.6353,-0.8386,1008.9028],[37.64,-0.8455,1008.884],[37.6461,-0.842,1010.9083],[37.6486,-0.8444,1009.7515],[37.6533,-0.8447,1004.0],[37.6569,-0.8475,1006.6494],[37.6646,-0.8462,1004.0],[37.6658,-0.8419,1004.0],[37.6709,-0.8372,1004.0],[37.6717,-0.8296,1004.0]]]]}
,"properties": {"GID_1": "KEN.6_1","GID_0": "KEN","country": "Kenya","province": "Embu","VARNAME_1": "NA","NL_NAME_1": "NA","TYPE_1": "County","ENGTYPE_1": "County","CC_1": "14","HASC_1": "KE.EB","ISO_1": "KE-06","name": "Embu.province","area_km2": 2917.064,"hist_schema_id": "Elevation0-9000","hist_area_km2": {"525": 0.445,"550": 7.039,"575": 9.201,"600": 11.47,"625": 17.873,"650": 27.053,"675": 33.901,"700": 58.748,"725": 71.702,"750": 84.698,"775": 92.012,"800": 65.829,"825": 51.433,"850": 44.543,"875": 36.592,"900": 33.243,"925": 36.402,"950": 40.515,"975": 50.67,"1000": 65.001,"1025": 78.696,"1050": 149.101,"1075": 200.195,"1100": 212.577,"1125": 170.304,"1150": 151.203,"1175": 109.206,"1200": 89.045,"1225": 75.307,"1250": 61.081,"1275": 45.837,"1300": 36.063,"1325": 31.505,"1350": 33.074,"1375": 35.682,"1400": 33.71,"1425": 29.555,"1450": 24.042,"1475": 26.862,"1500": 27.392,"1525": 27.456,"1550": 25.06,"1575": 19.972,"1600": 13.293,"1625": 14.099,"1650": 14.311,"1675": 12.933,"1700": 14.438,"1725": 12.763,"1750": 12.806,"1775": 15.838,"1800": 14.82,"1825": 13.908,"1850": 9.583,"1875": 8.544,"1900": 8.057,"1925": 6.891,"1950": 6.0,"1975": 6.594,"2000": 7.484,"2025": 8.311,"2050": 8.629,"2075": 7.209,"2100": 7.357,"2125": 7.018,"2150": 7.06,"2175": 6.212,"2200": 6.255,"2225": 5.619,"2250": 5.915,"2275": 5.852,"2300": 6.149,"2325": 5.491,"2350": 5.067,"2375": 3.88,"2400": 3.732,"2425": 3.795,"2450": 3.626,"2475": 3.244,"2500": 3.498,"2525": 3.138,"2550": 3.223,"2575": 3.138,"2600": 2.735,"2625": 3.138,"2650": 2.671,"2675": 2.141,"2700": 2.608,"2725": 2.078,"2750": 2.989,"2775": 2.269,"2800": 2.629,"2825": 2.332,"2850": 2.29,"2875": 1.569,"2900": 1.569,"2925": 1.23,"2950": 1.103,"2975": 0.763,"3000": 0.912,"3025": 0.975,"3050": 1.357,"3075": 1.039,"3100": 0.89,"3125": 1.145,"3150": 0.996,"3175": 1.124,"3200": 0.678,"3225": 0.551,"3250": 0.53,"3275": 0.657,"3300": 0.488,"3325": 0.509,"3350": 0.594,"3375": 0.53,"3400": 0.551,"3425": 0.466,"3450": 0.594,"3475": 0.721,"3500": 0.551,"3525": 0.509,"3550": 0.424,"3575": 0.678,"3600": 0.594,"3625": 0.657,"3650": 0.636,"3675": 0.636,"3700": 0.615,"3725": 0.615,"3750": 0.403,"3775": 0.53,"3800": 0.382,"3825": 0.572,"3850": 0.53,"3875": 0.594,"3900": 0.424,"3925": 0.615,"3950": 0.615,"3975": 0.721,"4000": 0.403,"4025": 0.297,"4050": 0.276,"4075": 0.318,"4100": 0.594,"4125": 0.403,"4150": 0.339,"4175": 0.339,"4200": 0.339,"4225": 0.636,"4250": 0.488,"4275": 0.382,"4300": 0.297,"4325": 0.233,"4350": 0.339,"4375": 0.382,"4400": 0.276,"4425": 0.233,"4450": 0.36,"4475": 0.297,"4500": 0.318,"4525": 0.17,"4550": 0.17,"4575": 0.106,"4600": 0.148,"4625": 0.17,"4650": 0.042,"4675": 0.127,"4700": 0.085,"4725": 0.127,"4750": 0.106,"4775": 0.042,"4800": 0.191,"4825": 0.042,"4850": 0.085,"4875": 0.042}}}